{
 "features": [
  {
   "geometry": {
    "coordinates": [
     -76.999546,
     36.28013
    ],
    "type": "Point"
   },
   "properties": {
    "accumulation": 68543.0,
    "bank_slope_deg": 24.86,
    "bank_slope_score": 0.5,
    "bank_slope_source": "nc-dps-lidar-dem03-cross-section",
    "beach_dist_km": 241.12,
    "bridge_proximity_bonus": 0.2,
    "catchment_area_km2": 6.8452,
    "channel_width_m": 4.46,
    "channel_width_score": 1.0,
    "composite_score": 53.6179,
    "cso_density": 0.0,
    "ej_index": 0.5846,
    "elevation_m": 6.1808,
    "estuary_dist_km": 161.45,
    "feasibility_score": 78.5714,
    "flood_q10_cfs": 314.69,
    "flow_score": 47.9626,
    "flow_velocity_ms": 0.5,
    "generation_score": 41.3832,
    "impact_score": 58.0886,
    "impervious_pct": null,
    "land_ownership": 1.0,
    "lat": 36.2801,
    "litter_complaint_density": 0.0,
    "lon": -76.9995,
    "navigable_dist_m": null,
    "npdes_points": 0,
    "pixel_col": 296.0,
    "pixel_row": 423.0,
    "population_density": 108.8,
    "position_along": 0.5,
    "protected_area_score": 14.5316,
    "rank": 1,
    "road_access_m": 231.8,
    "road_access_score": 0.8,
    "road_density_km_km2": 4.244,
    "robustness_pct": 100.0,
    "runoff_coeff_C": null,
    "seasonal_cv": null,
    "segment_id": 3,
    "segment_length_m": 1459.9801,
    "stream_order": 3,
    "superfund_score": 0.0,
    "tourism_amenity_density": 2.1486,
    "tri_facility_density": 0.0,
    "usgs_mean_q_cfs": null,
    "velocity_feasibility": 1.0,
    "water_intake_score": 0.0095
   },
   "type": "Feature"
  },
  {
   "geometry": {
    "coordinates": [
     -77.004049,
     36.286668
    ],
    "type": "Point"
   },
   "properties": {
    "accumulation": 25123.0,
    "bank_slope_deg": 9.56,
    "bank_slope_score": 1.0,
    "bank_slope_source": "nc-dps-lidar-dem03-cross-section",
    "beach_dist_km": 241.69,
    "bridge_proximity_bonus": 0.0,
    "catchment_area_km2": 2.5089,
    "channel_width_m": 3.1,
    "channel_width_score": 1.0,
    "composite_score": 51.5236,
    "cso_density": 0.0,
    "ej_index": 0.2665,
    "elevation_m": 7.5308,
    "estuary_dist_km": 162.28,
    "feasibility_score": 76.7857,
    "flood_q10_cfs": 237.94,
    "flow_score": 25.6632,
    "flow_velocity_ms": 0.1257,
    "generation_score": 66.2994,
    "impact_score": 45.667,
    "impervious_pct": 13.89,
    "land_ownership": 1.0,
    "lat": 36.2867,
    "litter_complaint_density": 0.0,
    "lon": -77.004,
    "navigable_dist_m": null,
    "npdes_points": 0,
    "pixel_col": 256.0,
    "pixel_row": 350.0,
    "population_density": 91.9,
    "position_along": 0.5,
    "protected_area_score": 15.2491,
    "rank": 2,
    "road_access_m": 149.9,
    "road_access_score": 1.0,
    "road_density_km_km2": 3.658,
    "robustness_pct": 94.5,
    "runoff_coeff_C": 0.175,
    "seasonal_cv": 0.4422,
    "segment_id": 2,
    "segment_length_m": 417.0009,
    "stream_order": 3,
    "superfund_score": 0.0,
    "tourism_amenity_density": 2.2282,
    "tri_facility_density": 0.0,
    "usgs_mean_q_cfs": 1.202,
    "velocity_feasibility": 0.7,
    "water_intake_score": 0.0089
   },
   "type": "Feature"
  },
  {
   "geometry": {
    "coordinates": [
     -76.967041,
     36.25354
    ],
    "type": "Point"
   },
   "properties": {
    "accumulation": 210640.0,
    "bank_slope_deg": 15.01,
    "bank_slope_score": 0.5,
    "bank_slope_source": "nc-dps-lidar-dem03-cross-section",
    "beach_dist_km": 239.21,
    "bridge_proximity_bonus": 0.0,
    "catchment_area_km2": 21.0359,
    "channel_width_m": 6.71,
    "channel_width_score": 1.0,
    "composite_score": 50.4312,
    "cso_density": 0.0,
    "ej_index": 0.73,
    "elevation_m": 5.2294,
    "estuary_dist_km": 157.4,
    "feasibility_score": 27.6786,
    "flood_q10_cfs": 644.48,
    "flow_score": 70.7453,
    "flow_velocity_ms": 0.071,
    "generation_score": 27.4842,
    "impact_score": 67.8261,
    "impervious_pct": 1.84,
    "land_ownership": 0.5,
    "lat": 36.2535,
    "litter_complaint_density": 0.0,
    "lon": -76.967,
    "navigable_dist_m": null,
    "npdes_points": 2,
    "pixel_col": 583.0,
    "pixel_row": 725.0,
    "population_density": 41.6,
    "position_along": 0.75,
    "protected_area_score": 12.2184,
    "rank": 3,
    "road_access_m": 747.2,
    "road_access_score": 0.6,
    "road_density_km_km2": 0.68,
    "robustness_pct": 96.0,
    "runoff_coeff_C": 0.0666,
    "seasonal_cv": 0.5651,
    "segment_id": 8,
    "segment_length_m": 3829.7188,
    "stream_order": 3,
    "superfund_score": 0.0,
    "tourism_amenity_density": 0.0,
    "tri_facility_density": 0.0,
    "usgs_mean_q_cfs": 70.799,
    "velocity_feasibility": 0.7,
    "water_intake_score": 0.0123
   },
   "type": "Feature"
  },
  {
   "geometry": {
    "coordinates": [
     -76.992981,
     36.272734
    ],
    "type": "Point"
   },
   "properties": {
    "accumulation": 136554.0,
    "bank_slope_deg": 20.51,
    "bank_slope_score": 0.5,
    "bank_slope_source": "nc-dps-lidar-dem03-cross-section",
    "beach_dist_km": 240.51,
    "bridge_proximity_bonus": 0.0,
    "catchment_area_km2": 13.6372,
    "channel_width_m": 5.73,
    "channel_width_score": 1.0,
    "composite_score": 49.3055,
    "cso_density": 0.0,
    "ej_index": 0.7215,
    "elevation_m": 6.2054,
    "estuary_dist_km": 160.45,
    "feasibility_score": 47.3214,
    "flood_q10_cfs": 476.0,
    "flow_score": 59.5752,
    "flow_velocity_ms": 0.5,
    "generation_score": 31.6947,
    "impact_score": 59.3503,
    "impervious_pct": null,
    "land_ownership": 0.5,
    "lat": 36.2727,
    "litter_complaint_density": 0.0,
    "lon": -76.993,
    "navigable_dist_m": null,
    "npdes_points": 0,
    "pixel_col": 354.0,
    "pixel_row": 507.0,
    "population_density": 85.5,
    "position_along": 0.5,
    "protected_area_score": 13.8004,
    "rank": 4,
    "road_access_m": 212.0,
    "road_access_score": 0.8,
    "road_density_km_km2": 3.924,
    "robustness_pct": 100.0,
    "runoff_coeff_C": null,
    "seasonal_cv": null,
    "segment_id": 6,
    "segment_length_m": 750.0376,
    "stream_order": 3,
    "superfund_score": 0.0,
    "tourism_amenity_density": 0.7162,
    "tri_facility_density": 0.0,
    "usgs_mean_q_cfs": null,
    "velocity_feasibility": 1.0,
    "water_intake_score": 0.0103
   },
   "type": "Feature"
  },
  {
   "geometry": {
    "coordinates": [
     -76.982471,
     36.264831
    ],
    "type": "Point"
   },
   "properties": {
    "accumulation": 189795.0,
    "bank_slope_deg": 22.66,
    "bank_slope_score": 0.5,
    "bank_slope_source": "nc-dps-lidar-dem03-cross-section",
    "beach_dist_km": 239.97,
    "bridge_proximity_bonus": 0.0,
    "catchment_area_km2": 18.9542,
    "channel_width_m": 6.46,
    "channel_width_score": 1.0,
    "composite_score": 48.5219,
    "cso_density": 0.0,
    "ej_index": 0.7727,
    "elevation_m": 5.6641,
    "estuary_dist_km": 159.2,
    "feasibility_score": 27.6786,
    "flood_q10_cfs": 605.4,
    "flow_score": 68.018,
    "flow_velocity_ms": 0.0938,
    "generation_score": 30.5802,
    "impact_score": 60.6385,
    "impervious_pct": 1.84,
    "land_ownership": 0.5,
    "lat": 36.2648,
    "litter_complaint_density": 0.0,
    "lon": -76.9825,
    "navigable_dist_m": null,
    "npdes_points": 1,
    "pixel_col": 446.0,
    "pixel_row": 596.0,
    "population_density": 62.9,
    "position_along": 0.25,
    "protected_area_score": 12.8423,
    "rank": 5,
    "road_access_m": 512.6,
    "road_access_score": 0.6,
    "road_density_km_km2": 2.052,
    "robustness_pct": 87.0,
    "runoff_coeff_C": 0.0666,
    "seasonal_cv": 0.5651,
    "segment_id": 8,
    "segment_length_m": 3829.7188,
    "stream_order": 3,
    "superfund_score": 0.0,
    "tourism_amenity_density": 0.0,
    "tri_facility_density": 0.0,
    "usgs_mean_q_cfs": 70.799,
    "velocity_feasibility": 0.7,
    "water_intake_score": 0.0111
   },
   "type": "Feature"
  },
  {
   "geometry": {
    "coordinates": [
     -77.006977,
     36.288032
    ],
    "type": "Point"
   },
   "properties": {
    "accumulation": 30637.0,
    "bank_slope_deg": 27.13,
    "bank_slope_score": 0.5,
    "bank_slope_source": "nc-dps-lidar-dem03-cross-section",
    "beach_dist_km": 241.76,
    "bridge_proximity_bonus": 0.0,
    "catchment_area_km2": 3.0596,
    "channel_width_m": 3.33,
    "channel_width_score": 1.0,
    "composite_score": 41.6574,
    "cso_density": 0.0,
    "ej_index": 0.25,
    "elevation_m": 7.1162,
    "estuary_dist_km": 162.55,
    "feasibility_score": 66.0714,
    "flood_q10_cfs": 194.05,
    "flow_score": 40.535,
    "flow_velocity_ms": 0.5,
    "generation_score": 27.5734,
    "impact_score": 44.4696,
    "impervious_pct": null,
    "land_ownership": 1.0,
    "lat": 36.288,
    "litter_complaint_density": 0.0,
    "lon": -77.007,
    "navigable_dist_m": null,
    "npdes_points": 0,
    "pixel_col": 230.0,
    "pixel_row": 334.0,
    "population_density": 93.2,
    "position_along": 0.5,
    "protected_area_score": 15.3767,
    "rank": 6,
    "road_access_m": 393.6,
    "road_access_score": 0.8,
    "road_density_km_km2": 2.165,
    "robustness_pct": 18.0,
    "runoff_coeff_C": null,
    "seasonal_cv": null,
    "segment_id": 1,
    "segment_length_m": 980.8886,
    "stream_order": 3,
    "superfund_score": 0.0,
    "tourism_amenity_density": 2.2282,
    "tri_facility_density": 0.0,
    "usgs_mean_q_cfs": null,
    "velocity_feasibility": 1.0,
    "water_intake_score": 0.0088
   },
   "type": "Feature"
  },
  {
   "geometry": {
    "coordinates": [
     -77.008717,
     36.274479
    ],
    "type": "Point"
   },
   "properties": {
    "accumulation": 41237.0,
    "bank_slope_deg": 16.13,
    "bank_slope_score": 0.5,
    "bank_slope_source": "nc-dps-lidar-dem03-cross-section",
    "beach_dist_km": 240.27,
    "bridge_proximity_bonus": 0.0,
    "catchment_area_km2": 4.1182,
    "channel_width_m": 3.71,
    "channel_width_score": 1.0,
    "composite_score": 34.3871,
    "cso_density": 0.0,
    "ej_index": 0.6868,
    "elevation_m": 8.9898,
    "estuary_dist_km": 161.37,
    "feasibility_score": 36.6071,
    "flood_q10_cfs": 246.46,
    "flow_score": 23.0807,
    "flow_velocity_ms": 0.0524,
    "generation_score": 18.8127,
    "impact_score": 58.2735,
    "impervious_pct": 2.61,
    "land_ownership": 0.5,
    "lat": 36.2745,
    "litter_complaint_density": 0.0,
    "lon": -77.0087,
    "navigable_dist_m": null,
    "npdes_points": 0,
    "pixel_col": 213.0,
    "pixel_row": 484.0,
    "population_density": 56.1,
    "position_along": 0.5,
    "protected_area_score": 14.2614,
    "rank": 7,
    "road_access_m": 345.7,
    "road_access_score": 0.8,
    "road_density_km_km2": 1.758,
    "robustness_pct": 0.0,
    "runoff_coeff_C": 0.0735,
    "seasonal_cv": 0.43,
    "segment_id": 5,
    "segment_length_m": 2789.6309,
    "stream_order": 3,
    "superfund_score": 0.0,
    "tourism_amenity_density": 0.7162,
    "tri_facility_density": 0.0,
    "usgs_mean_q_cfs": 2.907,
    "velocity_feasibility": 0.7,
    "water_intake_score": 0.0102
   },
   "type": "Feature"
  },
  {
   "geometry": {
    "coordinates": [
     -76.958771,
     36.302558
    ],
    "type": "Point"
   },
   "properties": {
    "accumulation": 92114.0,
    "bank_slope_deg": 9.61,
    "bank_slope_score": 1.0,
    "bank_slope_source": "nc-dps-lidar-dem03-cross-section",
    "beach_dist_km": 244.61,
    "bridge_proximity_bonus": 0.2,
    "catchment_area_km2": 9.1991,
    "channel_width_m": 4.97,
    "channel_width_score": 1.0,
    "composite_score": 33.0775,
    "cso_density": 0.0,
    "ej_index": 0.6103,
    "elevation_m": 7.1238,
    "estuary_dist_km": 161.67,
    "feasibility_score": 61.6071,
    "flood_q10_cfs": 410.14,
    "flow_score": 23.028,
    "flow_velocity_ms": 0.1098,
    "generation_score": 28.802,
    "impact_score": 31.4626,
    "impervious_pct": 3.76,
    "land_ownership": 0.5,
    "lat": 36.3026,
    "litter_complaint_density": 0.0,
    "lon": -76.9588,
    "navigable_dist_m": null,
    "npdes_points": 0,
    "pixel_col": 668.0,
    "pixel_row": 179.0,
    "population_density": 84.9,
    "position_along": 0.75,
    "protected_area_score": 14.9547,
    "rank": 8,
    "road_access_m": 250.0,
    "road_access_score": 0.8,
    "road_density_km_km2": 0.945,
    "robustness_pct": 3.0,
    "runoff_coeff_C": 0.0838,
    "seasonal_cv": 0.4161,
    "segment_id": 0,
    "segment_length_m": 4220.2193,
    "stream_order": 1,
    "superfund_score": 0.0,
    "tourism_amenity_density": 0.0,
    "tri_facility_density": 0.0,
    "usgs_mean_q_cfs": 9.491,
    "velocity_feasibility": 0.7,
    "water_intake_score": 0.0071
   },
   "type": "Feature"
  },
  {
   "geometry": {
    "coordinates": [
     -76.995396,
     36.270178
    ],
    "type": "Point"
   },
   "properties": {
    "accumulation": 31879.0,
    "bank_slope_deg": 11.22,
    "bank_slope_score": 1.0,
    "bank_slope_source": "nc-dps-lidar-dem03-cross-section",
    "beach_dist_km": 240.18,
    "bridge_proximity_bonus": 0.0,
    "catchment_area_km2": 3.1836,
    "channel_width_m": 3.38,
    "channel_width_score": 1.0,
    "composite_score": 32.8976,
    "cso_density": 0.0,
    "ej_index": 0.85,
    "elevation_m": 6.9455,
    "estuary_dist_km": 160.32,
    "feasibility_score": 34.8214,
    "flood_q10_cfs": 208.49,
    "flow_score": 21.1426,
    "flow_velocity_ms": 0.0487,
    "generation_score": 9.6391,
    "impact_score": 64.9902,
    "impervious_pct": 2.06,
    "land_ownership": 0.5,
    "lat": 36.2702,
    "litter_complaint_density": 0.0,
    "lon": -76.9954,
    "navigable_dist_m": null,
    "npdes_points": 0,
    "pixel_col": 332.0,
    "pixel_row": 531.0,
    "population_density": 42.2,
    "position_along": 0.5,
    "protected_area_score": 13.6876,
    "rank": 9,
    "road_access_m": 361.3,
    "road_access_score": 0.8,
    "road_density_km_km2": 1.039,
    "robustness_pct": 1.5,
    "runoff_coeff_C": 0.0685,
    "seasonal_cv": 0.4271,
    "segment_id": 7,
    "segment_length_m": 1074.968,
    "stream_order": 3,
    "superfund_score": 0.0,
    "tourism_amenity_density": 0.6366,
    "tri_facility_density": 0.0,
    "usgs_mean_q_cfs": 4.015,
    "velocity_feasibility": 0.3,
    "water_intake_score": 0.0106
   },
   "type": "Feature"
  },
  {
   "geometry": {
    "coordinates": [
     -76.976352,
     36.308798
    ],
    "type": "Point"
   },
   "properties": {
    "accumulation": 41257.0,
    "bank_slope_deg": 13.26,
    "bank_slope_score": 1.0,
    "bank_slope_source": "nc-dps-lidar-dem03-cross-section",
    "beach_dist_km": 244.79,
    "bridge_proximity_bonus": 0.0,
    "catchment_area_km2": 4.1202,
    "channel_width_m": 3.71,
    "channel_width_score": 1.0,
    "composite_score": 27.1662,
    "cso_density": 0.0,
    "ej_index": 0.3261,
    "elevation_m": 9.3633,
    "estuary_dist_km": 163.07,
    "feasibility_score": 40.1786,
    "flood_q10_cfs": 253.22,
    "flow_score": 11.9076,
    "flow_velocity_ms": 0.0509,
    "generation_score": 40.6687,
    "impact_score": 19.8728,
    "impervious_pct": 3.76,
    "land_ownership": 0.5,
    "lat": 36.3088,
    "litter_complaint_density": 0.0,
    "lon": -76.9764,
    "navigable_dist_m": null,
    "npdes_points": 0,
    "pixel_col": 511.0,
    "pixel_row": 108.0,
    "population_density": 123.4,
    "position_along": 0.25,
    "protected_area_score": 15.5623,
    "rank": 10,
    "road_access_m": 797.8,
    "road_access_score": 0.6,
    "road_density_km_km2": 0.419,
    "robustness_pct": 0.0,
    "runoff_coeff_C": 0.0838,
    "seasonal_cv": 0.4161,
    "segment_id": 0,
    "segment_length_m": 4220.2193,
    "stream_order": 1,
    "superfund_score": 0.0,
    "tourism_amenity_density": 0.0,
    "tri_facility_density": 0.0,
    "usgs_mean_q_cfs": 9.491,
    "velocity_feasibility": 0.7,
    "water_intake_score": 0.0068
   },
   "type": "Feature"
  },
  {
   "geometry": {
    "coordinates": [
     -76.96019,
     36.283932
    ],
    "type": "Point"
   },
   "properties": {
    "accumulation": 32266.0,
    "bank_slope_deg": 9.68,
    "bank_slope_score": 1.0,
    "bank_slope_source": "nc-dps-lidar-dem03-cross-section",
    "beach_dist_km": 242.61,
    "bridge_proximity_bonus": 0.0,
    "catchment_area_km2": 3.2223,
    "channel_width_m": 3.39,
    "channel_width_score": 1.0,
    "composite_score": 21.4271,
    "cso_density": 0.0,
    "ej_index": 0.5,
    "elevation_m": 10.2606,
    "estuary_dist_km": 159.96,
    "feasibility_score": 26.7857,
    "flood_q10_cfs": 226.34,
    "flow_score": 9.5616,
    "flow_velocity_ms": 0.1001,
    "generation_score": 12.671,
    "impact_score": 37.3917,
    "impervious_pct": 5.28,
    "land_ownership": 0.5,
    "lat": 36.2839,
    "litter_complaint_density": 0.0,
    "lon": -76.9602,
    "navigable_dist_m": null,
    "npdes_points": 0,
    "pixel_col": 651.0,
    "pixel_row": 388.0,
    "population_density": 40.5,
    "position_along": 0.5,
    "protected_area_score": 13.6674,
    "rank": 11,
    "road_access_m": 1040.6,
    "road_access_score": 0.3,
    "road_density_km_km2": 0.0,
    "robustness_pct": 0.0,
    "runoff_coeff_C": 0.0975,
    "seasonal_cv": 0.4203,
    "segment_id": 4,
    "segment_length_m": 2567.9412,
    "stream_order": 1,
    "superfund_score": 0.0,
    "tourism_amenity_density": 0.0,
    "tri_facility_density": 0.0,
    "usgs_mean_q_cfs": 2.704,
    "velocity_feasibility": 0.7,
    "water_intake_score": 0.0087
   },
   "type": "Feature"
  }
 ],
 "note": "GRIME region 'Ahoskie, NC' \u2014 real-data pipeline (DEM\u2192streams\u2192candidates\u2192stream mask (sites confined to \u00b1150 m of mapped OSM/NHD waterways)\u2192region-appropriate real parameters\u2192shipped scoring, math unchanged). Width curve: Bieger et al. 2015 JAWRA Table 3, Atlantic Plain. Flood: SIR 2014-5030 HR4 (I24H50Y: NOAA Atlas 14). NC Coastal Plain (SIR 2014-5030 HR4; I24H50Y from NOAA Atlas 14 at region center)",
 "provenance": {
  "candidates_pre_gate": 11,
  "constant": [
   "channel_width_score",
   "cso_density",
   "litter_complaint_density",
   "superfund_score",
   "tri_facility_density"
  ],
  "gated_navigable": 0,
  "hard_gate_removed": 0,
  "n_parameters": 27,
  "parameters": {
   "bank_slope_score": {
    "kind": "real",
    "n_3dep_10m_fallback": 0,
    "n_nc_lidar_3_125ft": 11,
    "n_real": 11,
    "n_sites": 11,
    "source": "NC OneMap / NC DPS DEM03 statewide lidar-derived 3.125-ft (0.953 m) elevations (perpendicular 50 m transect; robust 5 m bank-rise metric); unavailable profiles use the region 10 m 3DEP DEM-gradient fallback",
    "source_mosaics": [
     "Bertie_Ground_3ft",
     "Hertford_Ground_3ft"
    ]
   },
   "beach_dist_km": {
    "kind": "real",
    "n_real": 11,
    "n_sites": 11,
    "source": "haversine to region ref: Wrightsville Beach (shipped NC reference)"
   },
   "bridge_proximity_bonus": {
    "kind": "real",
    "n_real": 11,
    "n_sites": 11,
    "source": "FHWA/BTS NBI (NTAD), 50 m proximity"
   },
   "catchment_area_km2": {
    "kind": "real",
    "n_real": 11,
    "n_sites": 11,
    "source": "DEM flow accumulation (pipeline)"
   },
   "channel_width_score": {
    "kind": "real",
    "n_real": 11,
    "n_sites": 11,
    "source": "Bieger 2015 APL width curve on DEM drainage area \u2192 shipped width curve"
   },
   "cso_density": {
    "kind": "real",
    "n_real": 11,
    "n_sites": 11,
    "source": "EPA ECHO open CSO/TCS outfall PF coordinates states=NC, Cauchy proximity"
   },
   "ej_index": {
    "kind": "real",
    "n_real": 11,
    "n_sites": 11,
    "source": "Census ACS C17002+B03002 two-component demographic index, percentile-ranked within region"
   },
   "estuary_dist_km": {
    "kind": "real",
    "n_real": 11,
    "n_sites": 11,
    "source": "haversine to region ref: Pamlico Sound (shipped NC reference)"
   },
   "flood_q10_cfs": {
    "impervious_fallback_reason": "StreamCat imperviousness unavailable; the existing regression-input fallback of 0.0% impervious was used and is disclosed here",
    "kind": "real",
    "n_impervious_fallback": 3,
    "n_real": 11,
    "n_sites": 11,
    "source": "USGS SIR 2014-5030 Table 7 HR4 (NC Coastal Plain; I24H50Y from NOAA Atlas 14 at region center)"
   },
   "flow_velocity_ms": {
    "fallback_reason": "EROM/DEM continuity input unavailable; shipped 0.5 m/s default used",
    "kind": "real",
    "n_fallback": 3,
    "n_real": 8,
    "n_sites": 11,
    "source": "Manning (region DEM/D8) blended with EROM continuity (shipped M4 logic)"
   },
   "impervious_pct": {
    "fallback_reason": "NLDI/StreamCat did not return a snap-compatible catchment value; value remains null and is removed by constant-column handling",
    "kind": "real",
    "n_fallback": 3,
    "n_real": 8,
    "n_sites": 11,
    "source": "EPA StreamCat pctimp2019 (per NHDPlus watershed)"
   },
   "land_ownership": {
    "kind": "real",
    "n_fallback": 0,
    "n_real": 11,
    "n_sites": 11,
    "source": "NC OneMap statewide parcels (NC Parcels Transformer) ownname"
   },
   "litter_complaint_density": {
    "kind": "fallback",
    "n_real": 0,
    "n_sites": 11,
    "source": "no public machine-readable litter/illegal-dumping feed for this region"
   },
   "navigable_dist_m": {
    "kind": "real",
    "n_real": 11,
    "n_sites": 11,
    "source": "USACE/BTS NWN (NTAD): no navigable segment within this bbox (+2 km) \u2014 computed absence, gate passes all sites"
   },
   "npdes_points": {
    "kind": "real",
    "n_real": 11,
    "n_sites": 11,
    "source": "EPA ECHO active NPDES outfalls states=NC (types NPD/GPC/NGP; statuses ADC/EFF/EXP), per catchment"
   },
   "population_density": {
    "kind": "real",
    "n_real": 11,
    "n_sites": 11,
    "source": "Census ACS 2022 B01003 block groups (bbox, multi-county), area-weighted"
   },
   "protected_area_score": {
    "kind": "real",
    "n_real": 11,
    "n_sites": 11,
    "source": "USGS PAD-US 4.1 state GDB; states=NC; shipped designation-weighted proximity curve"
   },
   "road_access_score": {
    "kind": "real",
    "n_real": 11,
    "n_sites": 11,
    "source": "OSM drive network nearest-node distance"
   },
   "road_density_km_km2": {
    "kind": "real",
    "n_real": 11,
    "n_sites": 11,
    "source": "OSM drive network (osmnx, cached) clipped per catchment"
   },
   "runoff_coeff_C": {
    "fallback_reason": "source impervious_pct was unavailable; derived value remains null",
    "kind": "real",
    "n_fallback": 3,
    "n_real": 8,
    "n_sites": 11,
    "source": "derived from real impervious_pct (C=0.05+0.009*I)"
   },
   "seasonal_cv": {
    "fallback_reason": "NHDPlus monthly EROM was unavailable or failed the drainage-area snap guard; value remains null",
    "kind": "real",
    "n_fallback": 3,
    "n_real": 8,
    "n_sites": 11,
    "source": "CV of NHDPlus EROM monthly flows per COMID"
   },
   "stream_order": {
    "kind": "real",
    "n_real": 11,
    "n_sites": 11,
    "source": "DEM stream-network confluence heuristic (pipeline)"
   },
   "superfund_score": {
    "kind": "real",
    "n_real": 11,
    "n_sites": 11,
    "source": "EPA DataMap SEMS active sites states=NC (non-archived, georeferenced), shipped 500 m inverse-distance curve"
   },
   "tourism_amenity_density": {
    "kind": "real",
    "n_real": 11,
    "n_sites": 11,
    "source": "OSM leisure/tourism features per 2 km radius"
   },
   "tri_facility_density": {
    "kind": "real",
    "n_real": 11,
    "n_sites": 11,
    "source": "EPA DataMap TRI open facilities states=NC (preferred decimal or packed-DMS recovery), per catchment"
   },
   "usgs_mean_q_cfs": {
    "fallback_reason": "NHDPlus EROM was unavailable or failed the drainage-area snap guard; value remains null",
    "kind": "real",
    "n_fallback": 3,
    "n_real": 8,
    "n_sites": 11,
    "source": "NHDPlus EROM qe_ma per COMID (snap-guarded)"
   },
   "velocity_feasibility": {
    "fallback_reason": "derived from the shipped 0.5 m/s velocity fallback",
    "kind": "real",
    "n_fallback": 3,
    "n_real": 8,
    "n_sites": 11,
    "source": "shipped step curve on the computed velocity"
   },
   "velocity_transport_favorability": {
    "fallback_reason": "EROM/DEM continuity input unavailable; shipped 0.5 m/s default used",
    "kind": "derived",
    "n_fallback": 3,
    "n_real": 8,
    "n_sites": 11,
    "source": "scored form of flow_velocity_ms inside the Flow family \u2014 peaked Gaussian exp(-((v-0.9)/0.6)^2), model.json curves.velocity_transport_favorability; construct: transport/delivery favorability, deliberately distinct from velocity_feasibility (device operability)"
   },
   "water_intake_score": {
    "kind": "real",
    "n_real": 11,
    "n_sites": 11,
    "source": "NC OneMap / NC DEQ SWAP public water supply sources (source_typ='Surface Water'), shipped exp(-d/10km) curve"
   }
  },
  "stream_mask": {
   "buffer_m": 150.0,
   "pre_mask": 11,
   "removed": 0,
   "sources": [
    "osm-overpass (all waterway ways)",
    "usgs-nhdplus flowlines"
   ]
  },
  "varying": [
   "bank_slope_score",
   "beach_dist_km",
   "bridge_proximity_bonus",
   "catchment_area_km2",
   "ej_index",
   "estuary_dist_km",
   "flood_q10_cfs",
   "flow_velocity_ms",
   "impervious_pct",
   "land_ownership",
   "npdes_points",
   "population_density",
   "protected_area_score",
   "road_access_score",
   "road_density_km_km2",
   "runoff_coeff_C",
   "seasonal_cv",
   "stream_order",
   "tourism_amenity_density",
   "usgs_mean_q_cfs",
   "velocity_feasibility",
   "water_intake_score"
  ]
 },
 "region": {
  "bbox": [
   -77.0316,
   36.2507,
   -76.9486,
   36.3176
  ],
  "beach_ref": {
   "label": "Wrightsville Beach (shipped NC reference)",
   "lat": 34.21,
   "lon": -77.79
  },
  "center": [
   -76.990105,
   36.284126
  ],
  "estuary_ref": {
   "label": "Pamlico Sound (shipped NC reference)",
   "lat": 35.05,
   "lon": -76.05
  },
  "flood_method": "sir2014_hr4",
  "name": "Ahoskie, NC",
  "notes": "NC Coastal Plain (SIR 2014-5030 HR4; I24H50Y from NOAA Atlas 14 at region center)",
  "slug": "ahoskie",
  "state": "NC",
  "utm_epsg": 32618,
  "width_curve": {
   "a": 2.22,
   "b": 0.363,
   "code": "APL",
   "source": "Bieger et al. 2015 JAWRA Table 3, Atlantic Plain"
  }
 },
 "type": "FeatureCollection"
}
