{
 "features": [
  {
   "geometry": {
    "coordinates": [
     -82.166943,
     36.014305
    ],
    "type": "Point"
   },
   "properties": {
    "accumulation": 86919.0,
    "bank_slope_deg": 21.02,
    "bank_slope_score": 0.5,
    "bank_slope_source": "nc-dps-lidar-dem03-cross-section",
    "beach_dist_km": 445.76,
    "bridge_proximity_bonus": 0.0,
    "catchment_area_km2": 8.6574,
    "channel_width_m": 7.64,
    "channel_width_score": 1.0,
    "composite_score": 63.138,
    "cso_density": 0.0,
    "ej_index": 0.4559,
    "elevation_m": 738.7782,
    "estuary_dist_km": 563.71,
    "feasibility_score": 45.4545,
    "flood_q10_cfs": null,
    "flow_score": 67.9617,
    "flow_velocity_ms": 0.1429,
    "generation_score": 66.8378,
    "impact_score": 64.2603,
    "impervious_pct": 0.75,
    "land_ownership": 0.5,
    "lat": 36.0143,
    "litter_complaint_density": 0.0,
    "lon": -82.1669,
    "navigable_dist_m": null,
    "npdes_points": 1,
    "pixel_col": 122.0,
    "pixel_row": 211.0,
    "population_density": 30.5,
    "position_along": 0.25,
    "protected_area_score": 10.0458,
    "rank": 1,
    "road_access_m": 154.9,
    "road_access_score": 1.0,
    "road_density_km_km2": 2.528,
    "robustness_pct": 100.0,
    "runoff_coeff_C": 0.0568,
    "seasonal_cv": 0.4068,
    "segment_id": 3,
    "segment_length_m": 4084.8942,
    "stream_order": 3,
    "superfund_score": 0.0158,
    "tourism_amenity_density": 1.6711,
    "tri_facility_density": 0.0,
    "usgs_mean_q_cfs": 40.141,
    "velocity_feasibility": 0.7,
    "water_intake_score": 0.965
   },
   "type": "Feature"
  },
  {
   "geometry": {
    "coordinates": [
     -82.155651,
     36.012815
    ],
    "type": "Point"
   },
   "properties": {
    "accumulation": 35623.0,
    "bank_slope_deg": 15.49,
    "bank_slope_score": 0.5,
    "bank_slope_source": "nc-dps-lidar-dem03-cross-section",
    "beach_dist_km": 444.77,
    "bridge_proximity_bonus": 0.0,
    "catchment_area_km2": 3.5481,
    "channel_width_m": 5.28,
    "channel_width_score": 1.0,
    "composite_score": 62.9666,
    "cso_density": 0.0,
    "ej_index": 0.4022,
    "elevation_m": 746.5693,
    "estuary_dist_km": 562.68,
    "feasibility_score": 81.8182,
    "flood_q10_cfs": null,
    "flow_score": 50.3366,
    "flow_velocity_ms": 0.5,
    "generation_score": 48.0627,
    "impact_score": 78.9696,
    "impervious_pct": null,
    "land_ownership": 0.5,
    "lat": 36.0128,
    "litter_complaint_density": 0.0,
    "lon": -82.1557,
    "navigable_dist_m": null,
    "npdes_points": 1,
    "pixel_col": 224.0,
    "pixel_row": 229.0,
    "population_density": 25.8,
    "position_along": 0.5,
    "protected_area_score": 10.6512,
    "rank": 2,
    "road_access_m": 55.2,
    "road_access_score": 1.0,
    "road_density_km_km2": 4.797,
    "robustness_pct": 100.0,
    "runoff_coeff_C": null,
    "seasonal_cv": null,
    "segment_id": 2,
    "segment_length_m": 400.3291,
    "stream_order": 3,
    "superfund_score": 0.0113,
    "tourism_amenity_density": 1.7507,
    "tri_facility_density": 0.0,
    "usgs_mean_q_cfs": null,
    "velocity_feasibility": 1.0,
    "water_intake_score": 1.0028
   },
   "type": "Feature"
  },
  {
   "geometry": {
    "coordinates": [
     -82.152877,
     36.016302
    ],
    "type": "Point"
   },
   "properties": {
    "accumulation": 24019.0,
    "bank_slope_deg": 3.9,
    "bank_slope_score": 1.0,
    "bank_slope_source": "nc-dps-lidar-dem03-cross-section",
    "beach_dist_km": 444.71,
    "bridge_proximity_bonus": 0.0,
    "catchment_area_km2": 2.3924,
    "channel_width_m": 4.48,
    "channel_width_score": 1.0,
    "composite_score": 53.2809,
    "cso_density": 0.0,
    "ej_index": 0.3357,
    "elevation_m": 751.2302,
    "estuary_dist_km": 562.49,
    "feasibility_score": 63.6364,
    "flood_q10_cfs": null,
    "flow_score": 26.1417,
    "flow_velocity_ms": 0.1117,
    "generation_score": 50.0,
    "impact_score": 74.0,
    "impervious_pct": 1.45,
    "land_ownership": 0.5,
    "lat": 36.0163,
    "litter_complaint_density": 0.0,
    "lon": -82.1529,
    "navigable_dist_m": null,
    "npdes_points": 0,
    "pixel_col": 249.0,
    "pixel_row": 194.0,
    "population_density": 19.7,
    "position_along": 0.5,
    "protected_area_score": 10.6601,
    "rank": 3,
    "road_access_m": 139.9,
    "road_access_score": 1.0,
    "road_density_km_km2": 5.072,
    "robustness_pct": 100.0,
    "runoff_coeff_C": 0.063,
    "seasonal_cv": 0.4717,
    "segment_id": 1,
    "segment_length_m": 1032.6222,
    "stream_order": 3,
    "superfund_score": 0.0106,
    "tourism_amenity_density": 1.7507,
    "tri_facility_density": 0.0,
    "usgs_mean_q_cfs": 3.269,
    "velocity_feasibility": 0.7,
    "water_intake_score": 1.0105
   },
   "type": "Feature"
  },
  {
   "geometry": {
    "coordinates": [
     -82.176703,
     36.01749
    ],
    "type": "Point"
   },
   "properties": {
    "accumulation": 101291.0,
    "bank_slope_deg": 29.72,
    "bank_slope_score": 0.5,
    "bank_slope_source": "nc-dps-lidar-dem03-cross-section",
    "beach_dist_km": 446.7,
    "bridge_proximity_bonus": 0.0,
    "catchment_area_km2": 10.0888,
    "channel_width_m": 8.14,
    "channel_width_score": 1.0,
    "composite_score": 52.4783,
    "cso_density": 0.0,
    "ej_index": 0.4843,
    "elevation_m": 727.2992,
    "estuary_dist_km": 564.63,
    "feasibility_score": 45.4545,
    "flood_q10_cfs": null,
    "flow_score": 72.4489,
    "flow_velocity_ms": 0.1639,
    "generation_score": 48.0004,
    "impact_score": 43.8259,
    "impervious_pct": 0.75,
    "land_ownership": 0.5,
    "lat": 36.0175,
    "litter_complaint_density": 0.0,
    "lon": -82.1767,
    "navigable_dist_m": null,
    "npdes_points": 0,
    "pixel_col": 37.0,
    "pixel_row": 175.0,
    "population_density": 33.1,
    "position_along": 0.75,
    "protected_area_score": 9.4392,
    "rank": 4,
    "road_access_m": 81.3,
    "road_access_score": 1.0,
    "road_density_km_km2": 1.362,
    "robustness_pct": 100.0,
    "runoff_coeff_C": 0.0568,
    "seasonal_cv": 0.4068,
    "segment_id": 3,
    "segment_length_m": 4084.8942,
    "stream_order": 3,
    "superfund_score": 0.0223,
    "tourism_amenity_density": 1.0345,
    "tri_facility_density": 0.0,
    "usgs_mean_q_cfs": 40.141,
    "velocity_feasibility": 0.7,
    "water_intake_score": 0.9198
   },
   "type": "Feature"
  },
  {
   "geometry": {
    "coordinates": [
     -82.17979,
     36.023967
    ],
    "type": "Point"
   },
   "properties": {
    "accumulation": 20938.0,
    "bank_slope_deg": 16.63,
    "bank_slope_score": 0.5,
    "bank_slope_source": "nc-dps-lidar-dem03-cross-section",
    "beach_dist_km": 447.26,
    "bridge_proximity_bonus": 0.0,
    "catchment_area_km2": 2.0855,
    "channel_width_m": 4.23,
    "channel_width_score": 1.0,
    "composite_score": 23.5011,
    "cso_density": 0.0,
    "ej_index": 0.5,
    "elevation_m": 742.9368,
    "estuary_dist_km": 565.02,
    "feasibility_score": 0.0,
    "flood_q10_cfs": null,
    "flow_score": 8.8732,
    "flow_velocity_ms": 0.126,
    "generation_score": 44.9425,
    "impact_score": 26.0,
    "impervious_pct": 0.65,
    "land_ownership": 0.5,
    "lat": 36.024,
    "litter_complaint_density": 0.0,
    "lon": -82.1798,
    "navigable_dist_m": null,
    "npdes_points": 0,
    "pixel_col": 9.0,
    "pixel_row": 106.0,
    "population_density": 34.5,
    "position_along": 0.5,
    "protected_area_score": 9.0242,
    "rank": 5,
    "road_access_m": 378.9,
    "road_access_score": 0.8,
    "road_density_km_km2": 0.341,
    "robustness_pct": 100.0,
    "runoff_coeff_C": 0.0559,
    "seasonal_cv": 0.4653,
    "segment_id": 0,
    "segment_length_m": 478.7514,
    "stream_order": 1,
    "superfund_score": 0.0246,
    "tourism_amenity_density": 0.2387,
    "tri_facility_density": 0.0,
    "usgs_mean_q_cfs": 3.244,
    "velocity_feasibility": 0.7,
    "water_intake_score": 0.8797
   },
   "type": "Feature"
  }
 ],
 "note": "GRIME region 'Bakersville, NC' \u2014 real-data pipeline (DEM\u2192streams\u2192candidates\u2192stream mask (sites confined to \u00b1150 m of mapped OSM/NHD waterways)\u2192region-appropriate real parameters\u2192shipped scoring, math unchanged). Width curve: Bieger et al. 2015 JAWRA Table 3, Appalachian Highlands. Flood: not applicable here (documented fallback). NC Blue Ridge (outside SIR 2014-5030 urban coverage)",
 "provenance": {
  "candidates_pre_gate": 5,
  "constant": [
   "bridge_proximity_bonus",
   "channel_width_score",
   "cso_density",
   "flood_q10_cfs",
   "land_ownership",
   "litter_complaint_density",
   "tri_facility_density"
  ],
  "gated_navigable": 0,
  "hard_gate_removed": 0,
  "n_parameters": 27,
  "parameters": {
   "bank_slope_score": {
    "kind": "real",
    "n_3dep_10m_fallback": 0,
    "n_nc_lidar_3_125ft": 5,
    "n_real": 5,
    "n_sites": 5,
    "source": "NC OneMap / NC DPS DEM03 statewide lidar-derived 3.125-ft (0.953 m) elevations (perpendicular 50 m transect; robust 5 m bank-rise metric); unavailable profiles use the region 10 m 3DEP DEM-gradient fallback",
    "source_mosaics": [
     "Mitchell_QL1_2025_03ft_CountywideRaster",
     "Yancey_QL1_2025_03ft_CountywideRaster"
    ]
   },
   "beach_dist_km": {
    "kind": "real",
    "n_real": 5,
    "n_sites": 5,
    "source": "haversine to region ref: Wrightsville Beach (shipped NC reference)"
   },
   "bridge_proximity_bonus": {
    "kind": "real",
    "n_real": 5,
    "n_sites": 5,
    "source": "FHWA/BTS NBI (NTAD), 50 m proximity"
   },
   "catchment_area_km2": {
    "kind": "real",
    "n_real": 5,
    "n_sites": 5,
    "source": "DEM flow accumulation (pipeline)"
   },
   "channel_width_score": {
    "kind": "real",
    "n_real": 5,
    "n_sites": 5,
    "source": "Bieger 2015 AHI width curve on DEM drainage area \u2192 shipped width curve"
   },
   "cso_density": {
    "kind": "real",
    "n_real": 5,
    "n_sites": 5,
    "source": "EPA ECHO open CSO/TCS outfall PF coordinates states=NC, Cauchy proximity"
   },
   "ej_index": {
    "kind": "real",
    "n_real": 5,
    "n_sites": 5,
    "source": "Census ACS C17002+B03002 two-component demographic index, percentile-ranked within region"
   },
   "estuary_dist_km": {
    "kind": "real",
    "n_real": 5,
    "n_sites": 5,
    "source": "haversine to region ref: Pamlico Sound (shipped NC reference)"
   },
   "flood_q10_cfs": {
    "impervious_fallback_reason": "StreamCat imperviousness unavailable; the existing regression-input fallback of 0.0% impervious was used and is disclosed here",
    "kind": "fallback",
    "n_impervious_fallback": 1,
    "n_real": 0,
    "n_sites": 5,
    "source": "flood regression not valid here (NC Blue Ridge (outside SIR 2014-5030 urban coverage)...) \u2014 NaN, dropped by constant-column handling"
   },
   "flow_velocity_ms": {
    "fallback_reason": "EROM/DEM continuity input unavailable; shipped 0.5 m/s default used",
    "kind": "real",
    "n_fallback": 1,
    "n_real": 4,
    "n_sites": 5,
    "source": "Manning (region DEM/D8) blended with EROM continuity (shipped M4 logic)"
   },
   "impervious_pct": {
    "fallback_reason": "NLDI/StreamCat did not return a snap-compatible catchment value; value remains null and is removed by constant-column handling",
    "kind": "real",
    "n_fallback": 1,
    "n_real": 4,
    "n_sites": 5,
    "source": "EPA StreamCat pctimp2019 (per NHDPlus watershed)"
   },
   "land_ownership": {
    "fallback_reason": "no containing parcel owner returned; shipped unknown ownership 0.5 used",
    "kind": "real",
    "n_fallback": 1,
    "n_real": 4,
    "n_sites": 5,
    "source": "NC OneMap statewide parcels (NC Parcels Transformer) ownname"
   },
   "litter_complaint_density": {
    "kind": "fallback",
    "n_real": 0,
    "n_sites": 5,
    "source": "no public machine-readable litter/illegal-dumping feed for this region"
   },
   "navigable_dist_m": {
    "kind": "real",
    "n_real": 5,
    "n_sites": 5,
    "source": "USACE/BTS NWN (NTAD): no navigable segment within this bbox (+2 km) \u2014 computed absence, gate passes all sites"
   },
   "npdes_points": {
    "kind": "real",
    "n_real": 5,
    "n_sites": 5,
    "source": "EPA ECHO active NPDES outfalls states=NC (types NPD/GPC/NGP; statuses ADC/EFF/EXP), per catchment"
   },
   "population_density": {
    "kind": "real",
    "n_real": 5,
    "n_sites": 5,
    "source": "Census ACS 2022 B01003 block groups (bbox, multi-county), area-weighted"
   },
   "protected_area_score": {
    "kind": "real",
    "n_real": 5,
    "n_sites": 5,
    "source": "USGS PAD-US 4.1 state GDB; states=NC; shipped designation-weighted proximity curve"
   },
   "road_access_score": {
    "kind": "real",
    "n_real": 5,
    "n_sites": 5,
    "source": "OSM drive network nearest-node distance"
   },
   "road_density_km_km2": {
    "kind": "real",
    "n_real": 5,
    "n_sites": 5,
    "source": "OSM drive network (osmnx, cached) clipped per catchment"
   },
   "runoff_coeff_C": {
    "fallback_reason": "source impervious_pct was unavailable; derived value remains null",
    "kind": "real",
    "n_fallback": 1,
    "n_real": 4,
    "n_sites": 5,
    "source": "derived from real impervious_pct (C=0.05+0.009*I)"
   },
   "seasonal_cv": {
    "fallback_reason": "NHDPlus monthly EROM was unavailable or failed the drainage-area snap guard; value remains null",
    "kind": "real",
    "n_fallback": 1,
    "n_real": 4,
    "n_sites": 5,
    "source": "CV of NHDPlus EROM monthly flows per COMID"
   },
   "stream_order": {
    "kind": "real",
    "n_real": 5,
    "n_sites": 5,
    "source": "DEM stream-network confluence heuristic (pipeline)"
   },
   "superfund_score": {
    "kind": "real",
    "n_real": 5,
    "n_sites": 5,
    "source": "EPA DataMap SEMS active sites states=NC (non-archived, georeferenced), shipped 500 m inverse-distance curve"
   },
   "tourism_amenity_density": {
    "kind": "real",
    "n_real": 5,
    "n_sites": 5,
    "source": "OSM leisure/tourism features per 2 km radius"
   },
   "tri_facility_density": {
    "kind": "real",
    "n_real": 5,
    "n_sites": 5,
    "source": "EPA DataMap TRI open facilities states=NC (preferred decimal or packed-DMS recovery), per catchment"
   },
   "usgs_mean_q_cfs": {
    "fallback_reason": "NHDPlus EROM was unavailable or failed the drainage-area snap guard; value remains null",
    "kind": "real",
    "n_fallback": 1,
    "n_real": 4,
    "n_sites": 5,
    "source": "NHDPlus EROM qe_ma per COMID (snap-guarded)"
   },
   "velocity_feasibility": {
    "fallback_reason": "derived from the shipped 0.5 m/s velocity fallback",
    "kind": "real",
    "n_fallback": 1,
    "n_real": 4,
    "n_sites": 5,
    "source": "shipped step curve on the computed velocity"
   },
   "velocity_transport_favorability": {
    "fallback_reason": "EROM/DEM continuity input unavailable; shipped 0.5 m/s default used",
    "kind": "derived",
    "n_fallback": 1,
    "n_real": 4,
    "n_sites": 5,
    "source": "scored form of flow_velocity_ms inside the Flow family \u2014 peaked Gaussian exp(-((v-0.9)/0.6)^2), model.json curves.velocity_transport_favorability; construct: transport/delivery favorability, deliberately distinct from velocity_feasibility (device operability)"
   },
   "water_intake_score": {
    "kind": "real",
    "n_real": 5,
    "n_sites": 5,
    "source": "NC OneMap / NC DEQ SWAP public water supply sources (source_typ='Surface Water'), shipped exp(-d/10km) curve"
   }
  },
  "stream_mask": {
   "buffer_m": 150.0,
   "pre_mask": 5,
   "removed": 0,
   "sources": [
    "osm-overpass (all waterway ways)",
    "usgs-nhdplus flowlines"
   ]
  },
  "varying": [
   "bank_slope_score",
   "beach_dist_km",
   "catchment_area_km2",
   "ej_index",
   "estuary_dist_km",
   "flow_velocity_ms",
   "impervious_pct",
   "npdes_points",
   "population_density",
   "protected_area_score",
   "road_access_score",
   "road_density_km_km2",
   "runoff_coeff_C",
   "seasonal_cv",
   "stream_order",
   "superfund_score",
   "tourism_amenity_density",
   "usgs_mean_q_cfs",
   "velocity_feasibility",
   "water_intake_score"
  ]
 },
 "region": {
  "bbox": [
   -82.1805,
   35.9973,
   -82.1359,
   36.0334
  ],
  "beach_ref": {
   "label": "Wrightsville Beach (shipped NC reference)",
   "lat": 34.21,
   "lon": -77.79
  },
  "center": [
   -82.158224,
   36.01535
  ],
  "estuary_ref": {
   "label": "Pamlico Sound (shipped NC reference)",
   "lat": 35.05,
   "lon": -76.05
  },
  "flood_method": "none",
  "name": "Bakersville, NC",
  "notes": "NC Blue Ridge (outside SIR 2014-5030 urban coverage)",
  "slug": "bakersville",
  "state": "NC",
  "utm_epsg": 32617,
  "width_curve": {
   "a": 3.12,
   "b": 0.415,
   "code": "AHI",
   "source": "Bieger et al. 2015 JAWRA Table 3, Appalachian Highlands"
  }
 },
 "type": "FeatureCollection"
}
