{
 "features": [
  {
   "geometry": {
    "coordinates": [
     -81.861977,
     36.15045
    ],
    "type": "Point"
   },
   "properties": {
    "accumulation": 27174.0,
    "bank_slope_deg": 16.11,
    "bank_slope_score": 0.5,
    "bank_slope_source": "nc-dps-lidar-dem03-cross-section",
    "beach_dist_km": 428.33,
    "bridge_proximity_bonus": 0.2,
    "catchment_area_km2": 2.708,
    "channel_width_m": 4.72,
    "channel_width_score": 1.0,
    "composite_score": 62.0757,
    "cso_density": 0.0,
    "ej_index": 0.7731,
    "elevation_m": 1116.2208,
    "estuary_dist_km": 539.44,
    "feasibility_score": 62.5,
    "flood_q10_cfs": null,
    "flow_score": 40.0325,
    "flow_velocity_ms": 0.1579,
    "generation_score": 59.6242,
    "impact_score": 82.6844,
    "impervious_pct": 5.61,
    "land_ownership": 1.0,
    "lat": 36.1504,
    "litter_complaint_density": 0.0,
    "lon": -81.862,
    "navigable_dist_m": null,
    "npdes_points": 1,
    "pixel_col": 299.0,
    "pixel_row": 339.0,
    "population_density": 38.4,
    "position_along": 0.5,
    "protected_area_score": 18.1882,
    "rank": 1,
    "road_access_m": 51.4,
    "road_access_score": 1.0,
    "road_density_km_km2": 4.917,
    "robustness_pct": 100.0,
    "runoff_coeff_C": 0.1005,
    "seasonal_cv": 0.3209,
    "segment_id": 3,
    "segment_length_m": 615.9192,
    "stream_order": 3,
    "superfund_score": 0.0,
    "tourism_amenity_density": 2.4669,
    "tri_facility_density": 0.0,
    "usgs_mean_q_cfs": 10.048,
    "velocity_feasibility": 0.7,
    "water_intake_score": 1.3862
   },
   "type": "Feature"
  },
  {
   "geometry": {
    "coordinates": [
     -81.864905,
     36.165467
    ],
    "type": "Point"
   },
   "properties": {
    "accumulation": 37331.0,
    "bank_slope_deg": 10.63,
    "bank_slope_score": 1.0,
    "bank_slope_source": "nc-dps-lidar-dem03-cross-section",
    "beach_dist_km": 429.37,
    "bridge_proximity_bonus": 0.0,
    "catchment_area_km2": 3.7202,
    "channel_width_m": 5.38,
    "channel_width_score": 1.0,
    "composite_score": 61.2364,
    "cso_density": 0.0,
    "ej_index": 0.762,
    "elevation_m": 1129.5583,
    "estuary_dist_km": 540.03,
    "feasibility_score": 43.75,
    "flood_q10_cfs": null,
    "flow_score": 34.3286,
    "flow_velocity_ms": 0.1828,
    "generation_score": 77.369,
    "impact_score": 76.2703,
    "impervious_pct": 3.58,
    "land_ownership": 0.5,
    "lat": 36.1655,
    "litter_complaint_density": 0.0,
    "lon": -81.8649,
    "navigable_dist_m": null,
    "npdes_points": 2,
    "pixel_col": 272.0,
    "pixel_row": 174.0,
    "population_density": 48.3,
    "position_along": 0.5,
    "protected_area_score": 17.8177,
    "rank": 2,
    "road_access_m": 81.5,
    "road_access_score": 1.0,
    "road_density_km_km2": 4.971,
    "robustness_pct": 100.0,
    "runoff_coeff_C": 0.0822,
    "seasonal_cv": 0.344,
    "segment_id": 0,
    "segment_length_m": 2373.8321,
    "stream_order": 3,
    "superfund_score": 0.0,
    "tourism_amenity_density": 2.069,
    "tri_facility_density": 0.0,
    "usgs_mean_q_cfs": 7.115,
    "velocity_feasibility": 0.7,
    "water_intake_score": 1.4495
   },
   "type": "Feature"
  },
  {
   "geometry": {
    "coordinates": [
     -81.858756,
     36.15329
    ],
    "type": "Point"
   },
   "properties": {
    "accumulation": 31985.0,
    "bank_slope_deg": 5.74,
    "bank_slope_score": 1.0,
    "bank_slope_source": "nc-dps-lidar-dem03-cross-section",
    "beach_dist_km": 428.23,
    "bridge_proximity_bonus": 0.0,
    "catchment_area_km2": 3.1875,
    "channel_width_m": 5.05,
    "channel_width_score": 1.0,
    "composite_score": 52.7973,
    "cso_density": 0.0,
    "ej_index": 0.7832,
    "elevation_m": 1116.6514,
    "estuary_dist_km": 539.22,
    "feasibility_score": 43.75,
    "flood_q10_cfs": null,
    "flow_score": 27.7334,
    "flow_velocity_ms": 0.1501,
    "generation_score": 40.8768,
    "impact_score": 90.1279,
    "impervious_pct": 2.62,
    "land_ownership": 0.5,
    "lat": 36.1533,
    "litter_complaint_density": 0.0,
    "lon": -81.8588,
    "navigable_dist_m": null,
    "npdes_points": 1,
    "pixel_col": 328.0,
    "pixel_row": 311.0,
    "population_density": 43.9,
    "position_along": 0.5,
    "protected_area_score": 18.3065,
    "rank": 3,
    "road_access_m": 80.4,
    "road_access_score": 1.0,
    "road_density_km_km2": 4.618,
    "robustness_pct": 100.0,
    "runoff_coeff_C": 0.0736,
    "seasonal_cv": 0.3419,
    "segment_id": 2,
    "segment_length_m": 1172.6514,
    "stream_order": 3,
    "superfund_score": 0.0,
    "tourism_amenity_density": 2.2282,
    "tri_facility_density": 0.0,
    "usgs_mean_q_cfs": 6.861,
    "velocity_feasibility": 0.7,
    "water_intake_score": 1.4224
   },
   "type": "Feature"
  },
  {
   "geometry": {
    "coordinates": [
     -81.88281,
     36.158134
    ],
    "type": "Point"
   },
   "properties": {
    "accumulation": 146444.0,
    "bank_slope_deg": 9.14,
    "bank_slope_score": 1.0,
    "bank_slope_source": "nc-dps-lidar-dem03-cross-section",
    "beach_dist_km": 430.38,
    "bridge_proximity_bonus": 0.0,
    "catchment_area_km2": 14.5939,
    "channel_width_m": 9.49,
    "channel_width_score": 1.0,
    "composite_score": 49.0229,
    "cso_density": 0.0,
    "ej_index": 0.6122,
    "elevation_m": 1051.2465,
    "estuary_dist_km": 541.44,
    "feasibility_score": 68.75,
    "flood_q10_cfs": null,
    "flow_score": 96.4987,
    "flow_velocity_ms": 0.307,
    "generation_score": 36.6109,
    "impact_score": 12.0082,
    "impervious_pct": 4.11,
    "land_ownership": 0.5,
    "lat": 36.1581,
    "litter_complaint_density": 0.0,
    "lon": -81.8828,
    "navigable_dist_m": null,
    "npdes_points": 1,
    "pixel_col": 112.0,
    "pixel_row": 255.0,
    "population_density": 41.7,
    "position_along": 0.5,
    "protected_area_score": 16.7522,
    "rank": 4,
    "road_access_m": 183.1,
    "road_access_score": 1.0,
    "road_density_km_km2": 2.576,
    "robustness_pct": 100.0,
    "runoff_coeff_C": 0.087,
    "seasonal_cv": 0.2786,
    "segment_id": 5,
    "segment_length_m": 2514.5936,
    "stream_order": 3,
    "superfund_score": 0.0,
    "tourism_amenity_density": 1.8303,
    "tri_facility_density": 0.0,
    "usgs_mean_q_cfs": 25.803,
    "velocity_feasibility": 1.0,
    "water_intake_score": 1.3377
   },
   "type": "Feature"
  },
  {
   "geometry": {
    "coordinates": [
     -81.867905,
     36.153547
    ],
    "type": "Point"
   },
   "properties": {
    "accumulation": 75676.0,
    "bank_slope_deg": 15.32,
    "bank_slope_score": 0.5,
    "bank_slope_source": "nc-dps-lidar-dem03-cross-section",
    "beach_dist_km": 428.96,
    "bridge_proximity_bonus": 0.0,
    "catchment_area_km2": 7.5415,
    "channel_width_m": 7.22,
    "channel_width_score": 1.0,
    "composite_score": 47.7956,
    "cso_density": 0.0,
    "ej_index": 0.7279,
    "elevation_m": 1110.4998,
    "estuary_dist_km": 540.03,
    "feasibility_score": 0.0,
    "flood_q10_cfs": null,
    "flow_score": 56.6679,
    "flow_velocity_ms": 0.1498,
    "generation_score": 50.0767,
    "impact_score": 62.0186,
    "impervious_pct": 4.31,
    "land_ownership": 0.5,
    "lat": 36.1535,
    "litter_complaint_density": 0.0,
    "lon": -81.8679,
    "navigable_dist_m": null,
    "npdes_points": 1,
    "pixel_col": 246.0,
    "pixel_row": 304.0,
    "population_density": 40.9,
    "position_along": 0.5,
    "protected_area_score": 17.4434,
    "rank": 5,
    "road_access_m": 388.0,
    "road_access_score": 0.8,
    "road_density_km_km2": 4.539,
    "robustness_pct": 99.0,
    "runoff_coeff_C": 0.0888,
    "seasonal_cv": 0.2878,
    "segment_id": 4,
    "segment_length_m": 1377.1504,
    "stream_order": 3,
    "superfund_score": 0.0,
    "tourism_amenity_density": 2.4669,
    "tri_facility_density": 0.0,
    "usgs_mean_q_cfs": 18.188,
    "velocity_feasibility": 0.7,
    "water_intake_score": 1.3714
   },
   "type": "Feature"
  },
  {
   "geometry": {
    "coordinates": [
     -81.886041,
     36.161276
    ],
    "type": "Point"
   },
   "properties": {
    "accumulation": 26535.0,
    "bank_slope_deg": 20.49,
    "bank_slope_score": 0.5,
    "bank_slope_source": "nc-dps-lidar-dem03-cross-section",
    "beach_dist_km": 430.8,
    "bridge_proximity_bonus": 0.0,
    "catchment_area_km2": 2.6443,
    "channel_width_m": 4.67,
    "channel_width_score": 1.0,
    "composite_score": 22.5213,
    "cso_density": 0.0,
    "ej_index": 0.5565,
    "elevation_m": 1057.476,
    "estuary_dist_km": 541.8,
    "feasibility_score": 31.25,
    "flood_q10_cfs": null,
    "flow_score": 10.5847,
    "flow_velocity_ms": 0.1992,
    "generation_score": 49.5133,
    "impact_score": 1.1122,
    "impervious_pct": 4.96,
    "land_ownership": 0.5,
    "lat": 36.1613,
    "litter_complaint_density": 0.0,
    "lon": -81.886,
    "navigable_dist_m": null,
    "npdes_points": 0,
    "pixel_col": 81.0,
    "pixel_row": 219.0,
    "population_density": 44.7,
    "position_along": 0.5,
    "protected_area_score": 16.4352,
    "rank": 6,
    "road_access_m": 47.1,
    "road_access_score": 1.0,
    "road_density_km_km2": 3.199,
    "robustness_pct": 1.0,
    "runoff_coeff_C": 0.0946,
    "seasonal_cv": 0.4128,
    "segment_id": 1,
    "segment_length_m": 1398.8286,
    "stream_order": 1,
    "superfund_score": 0.0,
    "tourism_amenity_density": 1.8303,
    "tri_facility_density": 0.0,
    "usgs_mean_q_cfs": 3.001,
    "velocity_feasibility": 0.7,
    "water_intake_score": 1.3429
   },
   "type": "Feature"
  }
 ],
 "note": "GRIME region 'Banner Elk, NC' \u2014 real-data pipeline (DEM\u2192streams\u2192candidates\u2192stream mask (sites confined to \u00b1150 m of mapped OSM/NHD waterways)\u2192region-appropriate real parameters\u2192shipped scoring, math unchanged). Width curve: Bieger et al. 2015 JAWRA Table 3, Appalachian Highlands. Flood: not applicable here (documented fallback). NC Blue Ridge (outside SIR 2014-5030 urban coverage)",
 "provenance": {
  "candidates_pre_gate": 6,
  "constant": [
   "channel_width_score",
   "cso_density",
   "flood_q10_cfs",
   "litter_complaint_density",
   "superfund_score",
   "tri_facility_density"
  ],
  "gated_navigable": 0,
  "hard_gate_removed": 0,
  "n_parameters": 27,
  "parameters": {
   "bank_slope_score": {
    "kind": "real",
    "n_3dep_10m_fallback": 0,
    "n_nc_lidar_3_125ft": 6,
    "n_real": 6,
    "n_sites": 6,
    "source": "NC OneMap / NC DPS DEM03 statewide lidar-derived 3.125-ft (0.953 m) elevations (perpendicular 50 m transect; robust 5 m bank-rise metric); unavailable profiles use the region 10 m 3DEP DEM-gradient fallback",
    "source_mosaics": [
     "Avery_QL1_2025_03ft_CountywideRaster"
    ]
   },
   "beach_dist_km": {
    "kind": "real",
    "n_real": 6,
    "n_sites": 6,
    "source": "haversine to region ref: Wrightsville Beach (shipped NC reference)"
   },
   "bridge_proximity_bonus": {
    "kind": "real",
    "n_real": 6,
    "n_sites": 6,
    "source": "FHWA/BTS NBI (NTAD), 50 m proximity"
   },
   "catchment_area_km2": {
    "kind": "real",
    "n_real": 6,
    "n_sites": 6,
    "source": "DEM flow accumulation (pipeline)"
   },
   "channel_width_score": {
    "kind": "real",
    "n_real": 6,
    "n_sites": 6,
    "source": "Bieger 2015 AHI width curve on DEM drainage area \u2192 shipped width curve"
   },
   "cso_density": {
    "kind": "real",
    "n_real": 6,
    "n_sites": 6,
    "source": "EPA ECHO open CSO/TCS outfall PF coordinates states=NC, Cauchy proximity"
   },
   "ej_index": {
    "kind": "real",
    "n_real": 6,
    "n_sites": 6,
    "source": "Census ACS C17002+B03002 two-component demographic index, percentile-ranked within region"
   },
   "estuary_dist_km": {
    "kind": "real",
    "n_real": 6,
    "n_sites": 6,
    "source": "haversine to region ref: Pamlico Sound (shipped NC reference)"
   },
   "flood_q10_cfs": {
    "kind": "fallback",
    "n_real": 0,
    "n_sites": 6,
    "source": "flood regression not valid here (NC Blue Ridge (outside SIR 2014-5030 urban coverage)...) \u2014 NaN, dropped by constant-column handling"
   },
   "flow_velocity_ms": {
    "kind": "real",
    "n_fallback": 0,
    "n_real": 6,
    "n_sites": 6,
    "source": "Manning (region DEM/D8) blended with EROM continuity (shipped M4 logic)"
   },
   "impervious_pct": {
    "kind": "real",
    "n_real": 6,
    "n_sites": 6,
    "source": "EPA StreamCat pctimp2019 (per NHDPlus watershed)"
   },
   "land_ownership": {
    "kind": "real",
    "n_fallback": 0,
    "n_real": 6,
    "n_sites": 6,
    "source": "NC OneMap statewide parcels (NC Parcels Transformer) ownname"
   },
   "litter_complaint_density": {
    "kind": "fallback",
    "n_real": 0,
    "n_sites": 6,
    "source": "no public machine-readable litter/illegal-dumping feed for this region"
   },
   "navigable_dist_m": {
    "kind": "real",
    "n_real": 6,
    "n_sites": 6,
    "source": "USACE/BTS NWN (NTAD): no navigable segment within this bbox (+2 km) \u2014 computed absence, gate passes all sites"
   },
   "npdes_points": {
    "kind": "real",
    "n_real": 6,
    "n_sites": 6,
    "source": "EPA ECHO active NPDES outfalls states=NC (types NPD/GPC/NGP; statuses ADC/EFF/EXP), per catchment"
   },
   "population_density": {
    "kind": "real",
    "n_real": 6,
    "n_sites": 6,
    "source": "Census ACS 2022 B01003 block groups (bbox, multi-county), area-weighted"
   },
   "protected_area_score": {
    "kind": "real",
    "n_real": 6,
    "n_sites": 6,
    "source": "USGS PAD-US 4.1 state GDB; states=NC; shipped designation-weighted proximity curve"
   },
   "road_access_score": {
    "kind": "real",
    "n_real": 6,
    "n_sites": 6,
    "source": "OSM drive network nearest-node distance"
   },
   "road_density_km_km2": {
    "kind": "real",
    "n_real": 6,
    "n_sites": 6,
    "source": "OSM drive network (osmnx, cached) clipped per catchment"
   },
   "runoff_coeff_C": {
    "kind": "real",
    "n_real": 6,
    "n_sites": 6,
    "source": "derived from real impervious_pct (C=0.05+0.009*I)"
   },
   "seasonal_cv": {
    "kind": "real",
    "n_real": 6,
    "n_sites": 6,
    "source": "CV of NHDPlus EROM monthly flows per COMID"
   },
   "stream_order": {
    "kind": "real",
    "n_real": 6,
    "n_sites": 6,
    "source": "DEM stream-network confluence heuristic (pipeline)"
   },
   "superfund_score": {
    "kind": "real",
    "n_real": 6,
    "n_sites": 6,
    "source": "EPA DataMap SEMS active sites states=NC (non-archived, georeferenced), shipped 500 m inverse-distance curve"
   },
   "tourism_amenity_density": {
    "kind": "real",
    "n_real": 6,
    "n_sites": 6,
    "source": "OSM leisure/tourism features per 2 km radius"
   },
   "tri_facility_density": {
    "kind": "real",
    "n_real": 6,
    "n_sites": 6,
    "source": "EPA DataMap TRI open facilities states=NC (preferred decimal or packed-DMS recovery), per catchment"
   },
   "usgs_mean_q_cfs": {
    "kind": "real",
    "n_real": 6,
    "n_sites": 6,
    "source": "NHDPlus EROM qe_ma per COMID (snap-guarded)"
   },
   "velocity_feasibility": {
    "kind": "real",
    "n_fallback": 0,
    "n_real": 6,
    "n_sites": 6,
    "source": "shipped step curve on the computed velocity"
   },
   "velocity_transport_favorability": {
    "kind": "derived",
    "n_real": 6,
    "n_sites": 6,
    "source": "scored form of flow_velocity_ms inside the Flow family \u2014 peaked Gaussian exp(-((v-0.9)/0.6)^2), model.json curves.velocity_transport_favorability; construct: transport/delivery favorability, deliberately distinct from velocity_feasibility (device operability)"
   },
   "water_intake_score": {
    "kind": "real",
    "n_real": 6,
    "n_sites": 6,
    "source": "NC OneMap / NC DEQ SWAP public water supply sources (source_typ='Surface Water'), shipped exp(-d/10km) curve"
   }
  },
  "stream_mask": {
   "buffer_m": 150.0,
   "pre_mask": 6,
   "removed": 0,
   "sources": [
    "osm-overpass (all waterway ways)",
    "usgs-nhdplus flowlines"
   ]
  },
  "varying": [
   "bank_slope_score",
   "beach_dist_km",
   "bridge_proximity_bonus",
   "catchment_area_km2",
   "ej_index",
   "estuary_dist_km",
   "flow_velocity_ms",
   "impervious_pct",
   "land_ownership",
   "npdes_points",
   "population_density",
   "protected_area_score",
   "road_access_score",
   "road_density_km_km2",
   "runoff_coeff_C",
   "seasonal_cv",
   "stream_order",
   "tourism_amenity_density",
   "usgs_mean_q_cfs",
   "velocity_feasibility",
   "water_intake_score"
  ]
 },
 "region": {
  "bbox": [
   -81.895,
   36.137,
   -81.8406,
   36.1809
  ],
  "beach_ref": {
   "label": "Wrightsville Beach (shipped NC reference)",
   "lat": 34.21,
   "lon": -77.79
  },
  "center": [
   -81.867789,
   36.158947
  ],
  "estuary_ref": {
   "label": "Pamlico Sound (shipped NC reference)",
   "lat": 35.05,
   "lon": -76.05
  },
  "flood_method": "none",
  "name": "Banner Elk, NC",
  "notes": "NC Blue Ridge (outside SIR 2014-5030 urban coverage)",
  "slug": "banner-elk",
  "state": "NC",
  "utm_epsg": 32617,
  "width_curve": {
   "a": 3.12,
   "b": 0.415,
   "code": "AHI",
   "source": "Bieger et al. 2015 JAWRA Table 3, Appalachian Highlands"
  }
 },
 "type": "FeatureCollection"
}
