{
 "features": [
  {
   "geometry": {
    "coordinates": [
     -76.76644,
     35.144647
    ],
    "type": "Point"
   },
   "properties": {
    "accumulation": 28391.0,
    "bank_slope_deg": 9.75,
    "bank_slope_score": 1.0,
    "bank_slope_source": "nc-dps-lidar-dem03-cross-section",
    "beach_dist_km": 139.86,
    "bridge_proximity_bonus": 0.2,
    "catchment_area_km2": 2.8355,
    "channel_width_m": 3.24,
    "channel_width_score": 1.0,
    "composite_score": 69.23,
    "cso_density": 0.0,
    "ej_index": 0.6942,
    "elevation_m": 0.0967,
    "estuary_dist_km": 66.02,
    "feasibility_score": 100.0,
    "flood_q10_cfs": 230.14,
    "flow_score": 67.4419,
    "flow_velocity_ms": 0.5,
    "generation_score": 53.6859,
    "impact_score": 70.8794,
    "impervious_pct": null,
    "land_ownership": 0.5,
    "lat": 35.1446,
    "litter_complaint_density": 0.0,
    "lon": -76.7664,
    "navigable_dist_m": 2277.6,
    "npdes_points": 1,
    "pixel_col": 272.0,
    "pixel_row": 299.0,
    "population_density": 32.3,
    "position_along": 0.5,
    "protected_area_score": 3.938,
    "rank": 1,
    "road_access_m": 72.6,
    "road_access_score": 1.0,
    "road_density_km_km2": 4.534,
    "robustness_pct": 100.0,
    "runoff_coeff_C": null,
    "seasonal_cv": null,
    "segment_id": 2,
    "segment_length_m": 94.0822,
    "stream_order": 1,
    "superfund_score": 0.0,
    "tourism_amenity_density": 2.8648,
    "tri_facility_density": 0.0,
    "usgs_mean_q_cfs": null,
    "velocity_feasibility": 1.0,
    "water_intake_score": 0.0
   },
   "type": "Feature"
  },
  {
   "geometry": {
    "coordinates": [
     -76.745644,
     35.155787
    ],
    "type": "Point"
   },
   "properties": {
    "accumulation": 27102.0,
    "bank_slope_deg": 2.18,
    "bank_slope_score": 1.0,
    "bank_slope_source": "nc-dps-lidar-dem03-cross-section",
    "beach_dist_km": 142.05,
    "bridge_proximity_bonus": 0.0,
    "catchment_area_km2": 2.7068,
    "channel_width_m": 3.19,
    "channel_width_score": 1.0,
    "composite_score": 52.958,
    "cso_density": 0.0,
    "ej_index": 0.8056,
    "elevation_m": 0.4497,
    "estuary_dist_km": 64.37,
    "feasibility_score": 22.7273,
    "flood_q10_cfs": 228.86,
    "flow_score": 65.3287,
    "flow_velocity_ms": 0.0963,
    "generation_score": 65.0083,
    "impact_score": 45.7143,
    "impervious_pct": 0.96,
    "land_ownership": 0.5,
    "lat": 35.1558,
    "litter_complaint_density": 0.0,
    "lon": -76.7456,
    "navigable_dist_m": 2558.6,
    "npdes_points": 0,
    "pixel_col": 465.0,
    "pixel_row": 177.0,
    "population_density": 41.3,
    "position_along": 0.5,
    "protected_area_score": 3.5306,
    "rank": 2,
    "road_access_m": 222.9,
    "road_access_score": 0.8,
    "road_density_km_km2": 0.739,
    "robustness_pct": 100.0,
    "runoff_coeff_C": 0.0586,
    "seasonal_cv": 0.7067,
    "segment_id": 0,
    "segment_length_m": 565.9139,
    "stream_order": 1,
    "superfund_score": 0.0,
    "tourism_amenity_density": 0.1592,
    "tri_facility_density": 0.0,
    "usgs_mean_q_cfs": 2.679,
    "velocity_feasibility": 0.7,
    "water_intake_score": 0.0
   },
   "type": "Feature"
  },
  {
   "geometry": {
    "coordinates": [
     -76.780808,
     35.154194
    ],
    "type": "Point"
   },
   "properties": {
    "accumulation": 22486.0,
    "bank_slope_deg": 5.08,
    "bank_slope_score": 1.0,
    "bank_slope_source": "nc-dps-lidar-dem03-cross-section",
    "beach_dist_km": 139.78,
    "bridge_proximity_bonus": 0.0,
    "catchment_area_km2": 2.2457,
    "channel_width_m": 2.98,
    "channel_width_score": 1.0,
    "composite_score": 40.1243,
    "cso_density": 0.0,
    "ej_index": 0.8056,
    "elevation_m": 0.2302,
    "estuary_dist_km": 67.48,
    "feasibility_score": 36.3636,
    "flood_q10_cfs": 200.07,
    "flow_score": 36.1308,
    "flow_velocity_ms": 0.5,
    "generation_score": 12.8365,
    "impact_score": 72.6203,
    "impervious_pct": null,
    "land_ownership": 0.5,
    "lat": 35.1542,
    "litter_complaint_density": 0.0,
    "lon": -76.7808,
    "navigable_dist_m": 3803.2,
    "npdes_points": 0,
    "pixel_col": 144.0,
    "pixel_row": 190.0,
    "population_density": 29.4,
    "position_along": 0.5,
    "protected_area_score": 3.983,
    "rank": 3,
    "road_access_m": 525.9,
    "road_access_score": 0.6,
    "road_density_km_km2": 0.315,
    "robustness_pct": 100.0,
    "runoff_coeff_C": null,
    "seasonal_cv": null,
    "segment_id": 1,
    "segment_length_m": 287.8067,
    "stream_order": 1,
    "superfund_score": 0.0,
    "tourism_amenity_density": 2.4669,
    "tri_facility_density": 0.0,
    "usgs_mean_q_cfs": null,
    "velocity_feasibility": 1.0,
    "water_intake_score": 0.0
   },
   "type": "Feature"
  },
  {
   "geometry": {
    "coordinates": [
     -76.772464,
     35.135878
    ],
    "type": "Point"
   },
   "properties": {
    "accumulation": 21401.0,
    "bank_slope_deg": 1.44,
    "bank_slope_score": 1.0,
    "bank_slope_source": "nc-dps-lidar-dem03-cross-section",
    "beach_dist_km": 138.77,
    "bridge_proximity_bonus": 0.0,
    "catchment_area_km2": 2.1374,
    "channel_width_m": 2.92,
    "channel_width_score": 1.0,
    "composite_score": 38.865,
    "cso_density": 0.0,
    "ej_index": 0.5338,
    "elevation_m": -0.05,
    "estuary_dist_km": 66.42,
    "feasibility_score": 59.0909,
    "flood_q10_cfs": 194.22,
    "flow_score": 30.2326,
    "flow_velocity_ms": 0.5,
    "generation_score": 26.8144,
    "impact_score": 47.9965,
    "impervious_pct": null,
    "land_ownership": 0.5,
    "lat": 35.1359,
    "litter_complaint_density": 0.0,
    "lon": -76.7725,
    "navigable_dist_m": 1643.6,
    "npdes_points": 1,
    "pixel_col": 217.0,
    "pixel_row": 392.0,
    "population_density": 20.5,
    "position_along": 0.5,
    "protected_area_score": 3.7236,
    "rank": 4,
    "road_access_m": 337.3,
    "road_access_score": 0.8,
    "road_density_km_km2": 2.04,
    "robustness_pct": 100.0,
    "runoff_coeff_C": null,
    "seasonal_cv": null,
    "segment_id": 3,
    "segment_length_m": 400.8718,
    "stream_order": 1,
    "superfund_score": 0.0,
    "tourism_amenity_density": 2.8648,
    "tri_facility_density": 0.0,
    "usgs_mean_q_cfs": null,
    "velocity_feasibility": 1.0,
    "water_intake_score": 0.0
   },
   "type": "Feature"
  }
 ],
 "note": "GRIME region 'Bayboro, NC' \u2014 real-data pipeline (DEM\u2192streams\u2192candidates\u2192stream mask (sites confined to \u00b1150 m of mapped OSM/NHD waterways)\u2192region-appropriate real parameters\u2192shipped scoring, math unchanged). Width curve: Bieger et al. 2015 JAWRA Table 3, Atlantic Plain. Flood: SIR 2014-5030 HR4 (I24H50Y: NOAA Atlas 14). NC Coastal Plain (SIR 2014-5030 HR4; I24H50Y from NOAA Atlas 14 at region center)",
 "provenance": {
  "candidates_pre_gate": 4,
  "constant": [
   "bank_slope_score",
   "channel_width_score",
   "cso_density",
   "land_ownership",
   "litter_complaint_density",
   "stream_order",
   "superfund_score",
   "tri_facility_density",
   "water_intake_score"
  ],
  "gated_navigable": 0,
  "hard_gate_removed": 0,
  "n_parameters": 27,
  "parameters": {
   "bank_slope_score": {
    "kind": "real",
    "n_3dep_10m_fallback": 0,
    "n_nc_lidar_3_125ft": 4,
    "n_real": 4,
    "n_sites": 4,
    "source": "NC OneMap / NC DPS DEM03 statewide lidar-derived 3.125-ft (0.953 m) elevations (perpendicular 50 m transect; robust 5 m bank-rise metric); unavailable profiles use the region 10 m 3DEP DEM-gradient fallback",
    "source_mosaics": [
     "Pamlico_Ground_3ft"
    ]
   },
   "beach_dist_km": {
    "kind": "real",
    "n_real": 4,
    "n_sites": 4,
    "source": "haversine to region ref: Wrightsville Beach (shipped NC reference)"
   },
   "bridge_proximity_bonus": {
    "kind": "real",
    "n_real": 4,
    "n_sites": 4,
    "source": "FHWA/BTS NBI (NTAD), 50 m proximity"
   },
   "catchment_area_km2": {
    "kind": "real",
    "n_real": 4,
    "n_sites": 4,
    "source": "DEM flow accumulation (pipeline)"
   },
   "channel_width_score": {
    "kind": "real",
    "n_real": 4,
    "n_sites": 4,
    "source": "Bieger 2015 APL width curve on DEM drainage area \u2192 shipped width curve"
   },
   "cso_density": {
    "kind": "real",
    "n_real": 4,
    "n_sites": 4,
    "source": "EPA ECHO open CSO/TCS outfall PF coordinates states=NC, Cauchy proximity"
   },
   "ej_index": {
    "kind": "real",
    "n_real": 4,
    "n_sites": 4,
    "source": "Census ACS C17002+B03002 two-component demographic index, percentile-ranked within region"
   },
   "estuary_dist_km": {
    "kind": "real",
    "n_real": 4,
    "n_sites": 4,
    "source": "haversine to region ref: Pamlico Sound (shipped NC reference)"
   },
   "flood_q10_cfs": {
    "impervious_fallback_reason": "StreamCat imperviousness unavailable; the existing regression-input fallback of 0.0% impervious was used and is disclosed here",
    "kind": "real",
    "n_impervious_fallback": 3,
    "n_real": 4,
    "n_sites": 4,
    "source": "USGS SIR 2014-5030 Table 7 HR4 (NC Coastal Plain; I24H50Y from NOAA Atlas 14 at region center)"
   },
   "flow_velocity_ms": {
    "fallback_reason": "EROM/DEM continuity input unavailable; shipped 0.5 m/s default used",
    "kind": "real",
    "n_fallback": 3,
    "n_real": 1,
    "n_sites": 4,
    "source": "Manning (region DEM/D8) blended with EROM continuity (shipped M4 logic)"
   },
   "impervious_pct": {
    "fallback_reason": "NLDI/StreamCat did not return a snap-compatible catchment value; value remains null and is removed by constant-column handling",
    "kind": "real",
    "n_fallback": 3,
    "n_real": 1,
    "n_sites": 4,
    "source": "EPA StreamCat pctimp2019 (per NHDPlus watershed)"
   },
   "land_ownership": {
    "fallback_reason": "no containing parcel owner returned; shipped unknown ownership 0.5 used",
    "kind": "real",
    "n_fallback": 1,
    "n_real": 3,
    "n_sites": 4,
    "source": "NC OneMap statewide parcels (NC Parcels Transformer) ownname"
   },
   "litter_complaint_density": {
    "kind": "fallback",
    "n_real": 0,
    "n_sites": 4,
    "source": "no public machine-readable litter/illegal-dumping feed for this region"
   },
   "navigable_dist_m": {
    "kind": "real",
    "n_real": 4,
    "n_sites": 4,
    "source": "USACE/BTS National Waterway Network lines (NTAD, retrieved 2026-07-10), distance to nearest navigable segment"
   },
   "npdes_points": {
    "kind": "real",
    "n_real": 4,
    "n_sites": 4,
    "source": "EPA ECHO active NPDES outfalls states=NC (types NPD/GPC/NGP; statuses ADC/EFF/EXP), per catchment"
   },
   "population_density": {
    "kind": "real",
    "n_real": 4,
    "n_sites": 4,
    "source": "Census ACS 2022 B01003 block groups (bbox, multi-county), area-weighted"
   },
   "protected_area_score": {
    "kind": "real",
    "n_real": 4,
    "n_sites": 4,
    "source": "USGS PAD-US 4.1 state GDB; states=NC; shipped designation-weighted proximity curve"
   },
   "road_access_score": {
    "kind": "real",
    "n_real": 4,
    "n_sites": 4,
    "source": "OSM drive network nearest-node distance"
   },
   "road_density_km_km2": {
    "kind": "real",
    "n_real": 4,
    "n_sites": 4,
    "source": "OSM drive network (osmnx, cached) clipped per catchment"
   },
   "runoff_coeff_C": {
    "fallback_reason": "source impervious_pct was unavailable; derived value remains null",
    "kind": "real",
    "n_fallback": 3,
    "n_real": 1,
    "n_sites": 4,
    "source": "derived from real impervious_pct (C=0.05+0.009*I)"
   },
   "seasonal_cv": {
    "fallback_reason": "NHDPlus monthly EROM was unavailable or failed the drainage-area snap guard; value remains null",
    "kind": "real",
    "n_fallback": 3,
    "n_real": 1,
    "n_sites": 4,
    "source": "CV of NHDPlus EROM monthly flows per COMID"
   },
   "stream_order": {
    "kind": "real",
    "n_real": 4,
    "n_sites": 4,
    "source": "DEM stream-network confluence heuristic (pipeline)"
   },
   "superfund_score": {
    "kind": "real",
    "n_real": 4,
    "n_sites": 4,
    "source": "EPA DataMap SEMS active sites states=NC (non-archived, georeferenced), shipped 500 m inverse-distance curve"
   },
   "tourism_amenity_density": {
    "kind": "real",
    "n_real": 4,
    "n_sites": 4,
    "source": "OSM leisure/tourism features per 2 km radius"
   },
   "tri_facility_density": {
    "kind": "real",
    "n_real": 4,
    "n_sites": 4,
    "source": "EPA DataMap TRI open facilities states=NC (preferred decimal or packed-DMS recovery), per catchment"
   },
   "usgs_mean_q_cfs": {
    "fallback_reason": "NHDPlus EROM was unavailable or failed the drainage-area snap guard; value remains null",
    "kind": "real",
    "n_fallback": 3,
    "n_real": 1,
    "n_sites": 4,
    "source": "NHDPlus EROM qe_ma per COMID (snap-guarded)"
   },
   "velocity_feasibility": {
    "fallback_reason": "derived from the shipped 0.5 m/s velocity fallback",
    "kind": "real",
    "n_fallback": 3,
    "n_real": 1,
    "n_sites": 4,
    "source": "shipped step curve on the computed velocity"
   },
   "velocity_transport_favorability": {
    "fallback_reason": "EROM/DEM continuity input unavailable; shipped 0.5 m/s default used",
    "kind": "derived",
    "n_fallback": 3,
    "n_real": 1,
    "n_sites": 4,
    "source": "scored form of flow_velocity_ms inside the Flow family \u2014 peaked Gaussian exp(-((v-0.9)/0.6)^2), model.json curves.velocity_transport_favorability; construct: transport/delivery favorability, deliberately distinct from velocity_feasibility (device operability)"
   },
   "water_intake_score": {
    "kind": "real",
    "n_real": 4,
    "n_sites": 4,
    "source": "NC OneMap / NC DEQ SWAP public water supply sources (source_typ='Surface Water'), shipped exp(-d/10km) curve"
   }
  },
  "stream_mask": {
   "buffer_m": 150.0,
   "pre_mask": 4,
   "removed": 0,
   "sources": [
    "osm-overpass (all waterway ways)",
    "usgs-nhdplus flowlines"
   ]
  },
  "varying": [
   "beach_dist_km",
   "bridge_proximity_bonus",
   "catchment_area_km2",
   "ej_index",
   "estuary_dist_km",
   "flood_q10_cfs",
   "flow_velocity_ms",
   "impervious_pct",
   "npdes_points",
   "population_density",
   "protected_area_score",
   "road_access_score",
   "road_density_km_km2",
   "runoff_coeff_C",
   "seasonal_cv",
   "tourism_amenity_density",
   "usgs_mean_q_cfs",
   "velocity_feasibility"
  ]
 },
 "region": {
  "bbox": [
   -76.7959,
   35.1275,
   -76.7428,
   35.171
  ],
  "beach_ref": {
   "label": "Wrightsville Beach (shipped NC reference)",
   "lat": 34.21,
   "lon": -77.79
  },
  "center": [
   -76.769351,
   35.149273
  ],
  "estuary_ref": {
   "label": "Pamlico Sound (shipped NC reference)",
   "lat": 35.05,
   "lon": -76.05
  },
  "flood_method": "sir2014_hr4",
  "name": "Bayboro, NC",
  "notes": "NC Coastal Plain (SIR 2014-5030 HR4; I24H50Y from NOAA Atlas 14 at region center)",
  "slug": "bayboro",
  "state": "NC",
  "utm_epsg": 32618,
  "width_curve": {
   "a": 2.22,
   "b": 0.363,
   "code": "APL",
   "source": "Bieger et al. 2015 JAWRA Table 3, Atlantic Plain"
  }
 },
 "type": "FeatureCollection"
}
