{
 "features": [
  {
   "geometry": {
    "coordinates": [
     -80.345988,
     36.166501
    ],
    "type": "Point"
   },
   "properties": {
    "accumulation": 78806.0,
    "bank_slope_deg": 33.09,
    "bank_slope_score": 0.2,
    "bank_slope_source": "nc-dps-lidar-dem03-cross-section",
    "beach_dist_km": 318.22,
    "bridge_proximity_bonus": 0.0,
    "catchment_area_km2": 7.8471,
    "channel_width_m": 7.34,
    "channel_width_score": 1.0,
    "composite_score": 68.6473,
    "cso_density": 0.0,
    "ej_index": 0.4051,
    "elevation_m": 230.7993,
    "estuary_dist_km": 407.69,
    "feasibility_score": 45.4545,
    "flood_q10_cfs": 968.01,
    "flow_score": 69.7674,
    "flow_velocity_ms": 0.045,
    "generation_score": 83.3333,
    "impact_score": 64.6241,
    "impervious_pct": 5.73,
    "land_ownership": 0.5,
    "lat": 36.1665,
    "litter_complaint_density": 0.0,
    "lon": -80.346,
    "navigable_dist_m": null,
    "npdes_points": 1,
    "pixel_col": 101.0,
    "pixel_row": 349.0,
    "population_density": 583.6,
    "position_along": 0.75,
    "protected_area_score": 12.9474,
    "rank": 1,
    "road_access_m": 84.9,
    "road_access_score": 1.0,
    "road_density_km_km2": 3.04,
    "robustness_pct": 100.0,
    "runoff_coeff_C": 0.1016,
    "seasonal_cv": 0.4075,
    "segment_id": 1,
    "segment_length_m": 3378.4367,
    "stream_order": 1,
    "superfund_score": 0.0043,
    "tourism_amenity_density": 1.4324,
    "tri_facility_density": 0.0,
    "usgs_mean_q_cfs": 37.179,
    "velocity_feasibility": 0.3,
    "water_intake_score": 1.5837
   },
   "type": "Feature"
  },
  {
   "geometry": {
    "coordinates": [
     -80.33781,
     36.175844
    ],
    "type": "Point"
   },
   "properties": {
    "accumulation": 35787.0,
    "bank_slope_deg": 4.71,
    "bank_slope_score": 1.0,
    "bank_slope_source": "nc-dps-lidar-dem03-cross-section",
    "beach_dist_km": 318.38,
    "bridge_proximity_bonus": 0.0,
    "catchment_area_km2": 3.5635,
    "channel_width_m": 5.29,
    "channel_width_score": 1.0,
    "composite_score": 55.9479,
    "cso_density": 0.0,
    "ej_index": 0.5759,
    "elevation_m": 235.0092,
    "estuary_dist_km": 407.28,
    "feasibility_score": 84.4156,
    "flood_q10_cfs": 517.71,
    "flow_score": 9.6132,
    "flow_velocity_ms": 0.0928,
    "generation_score": 57.4929,
    "impact_score": 78.7813,
    "impervious_pct": 3.78,
    "land_ownership": 0.5,
    "lat": 36.1758,
    "litter_complaint_density": 0.0,
    "lon": -80.3378,
    "navigable_dist_m": null,
    "npdes_points": 1,
    "pixel_col": 174.0,
    "pixel_row": 247.0,
    "population_density": 364.7,
    "position_along": 0.25,
    "protected_area_score": 13.0433,
    "rank": 2,
    "road_access_m": 152.5,
    "road_access_score": 1.0,
    "road_density_km_km2": 3.145,
    "robustness_pct": 100.0,
    "runoff_coeff_C": 0.084,
    "seasonal_cv": 0.397,
    "segment_id": 1,
    "segment_length_m": 3378.4367,
    "stream_order": 1,
    "superfund_score": 0.0048,
    "tourism_amenity_density": 1.7507,
    "tri_facility_density": 0.0,
    "usgs_mean_q_cfs": 2.321,
    "velocity_feasibility": 0.7,
    "water_intake_score": 1.5012
   },
   "type": "Feature"
  },
  {
   "geometry": {
    "coordinates": [
     -80.343187,
     36.18584
    ],
    "type": "Point"
   },
   "properties": {
    "accumulation": 36860.0,
    "bank_slope_deg": 34.67,
    "bank_slope_score": 0.2,
    "bank_slope_source": "nc-dps-lidar-dem03-cross-section",
    "beach_dist_km": 319.49,
    "bridge_proximity_bonus": 0.0,
    "catchment_area_km2": 3.6703,
    "channel_width_m": 5.35,
    "channel_width_score": 1.0,
    "composite_score": 20.3929,
    "cso_density": 0.0,
    "ej_index": 0.3145,
    "elevation_m": 236.1888,
    "estuary_dist_km": 408.06,
    "feasibility_score": 36.3636,
    "flood_q10_cfs": 495.48,
    "flow_score": 30.7544,
    "flow_velocity_ms": 0.5,
    "generation_score": 16.6667,
    "impact_score": 7.4992,
    "impervious_pct": null,
    "land_ownership": 0.5,
    "lat": 36.1858,
    "litter_complaint_density": 0.0,
    "lon": -80.3432,
    "navigable_dist_m": null,
    "npdes_points": 0,
    "pixel_col": 126.0,
    "pixel_row": 136.0,
    "population_density": 173.7,
    "position_along": 0.5,
    "protected_area_score": 12.4575,
    "rank": 3,
    "road_access_m": 200.2,
    "road_access_score": 0.8,
    "road_density_km_km2": 4.188,
    "robustness_pct": 100.0,
    "runoff_coeff_C": null,
    "seasonal_cv": null,
    "segment_id": 0,
    "segment_length_m": 374.4713,
    "stream_order": 1,
    "superfund_score": 0.0037,
    "tourism_amenity_density": 1.6711,
    "tri_facility_density": 0.0,
    "usgs_mean_q_cfs": null,
    "velocity_feasibility": 1.0,
    "water_intake_score": 1.4916
   },
   "type": "Feature"
  }
 ],
 "note": "GRIME region 'Bethania, NC' \u2014 real-data pipeline (DEM\u2192streams\u2192candidates\u2192stream mask (sites confined to \u00b1150 m of mapped OSM/NHD waterways)\u2192region-appropriate real parameters\u2192shipped scoring, math unchanged). Width curve: Bieger et al. 2015 JAWRA Table 3, Appalachian Highlands. Flood: SIR 2014-5030 HR1. NC Piedmont (DEQ physiography polygon)",
 "provenance": {
  "candidates_pre_gate": 3,
  "constant": [
   "bridge_proximity_bonus",
   "channel_width_score",
   "cso_density",
   "land_ownership",
   "litter_complaint_density",
   "stream_order",
   "tri_facility_density"
  ],
  "gated_navigable": 0,
  "hard_gate_removed": 0,
  "n_parameters": 27,
  "parameters": {
   "bank_slope_score": {
    "kind": "real",
    "n_3dep_10m_fallback": 0,
    "n_nc_lidar_3_125ft": 3,
    "n_real": 3,
    "n_sites": 3,
    "source": "NC OneMap / NC DPS DEM03 statewide lidar-derived 3.125-ft (0.953 m) elevations (perpendicular 50 m transect; robust 5 m bank-rise metric); unavailable profiles use the region 10 m 3DEP DEM-gradient fallback",
    "source_mosaics": [
     "Forsyth_Ground_3ft"
    ]
   },
   "beach_dist_km": {
    "kind": "real",
    "n_real": 3,
    "n_sites": 3,
    "source": "haversine to region ref: Wrightsville Beach (shipped NC reference)"
   },
   "bridge_proximity_bonus": {
    "kind": "real",
    "n_real": 3,
    "n_sites": 3,
    "source": "FHWA/BTS NBI (NTAD), 50 m proximity"
   },
   "catchment_area_km2": {
    "kind": "real",
    "n_real": 3,
    "n_sites": 3,
    "source": "DEM flow accumulation (pipeline)"
   },
   "channel_width_score": {
    "kind": "real",
    "n_real": 3,
    "n_sites": 3,
    "source": "Bieger 2015 AHI width curve on DEM drainage area \u2192 shipped width curve"
   },
   "cso_density": {
    "kind": "real",
    "n_real": 3,
    "n_sites": 3,
    "source": "EPA ECHO open CSO/TCS outfall PF coordinates states=NC, Cauchy proximity"
   },
   "ej_index": {
    "kind": "real",
    "n_real": 3,
    "n_sites": 3,
    "source": "Census ACS C17002+B03002 two-component demographic index, percentile-ranked within region"
   },
   "estuary_dist_km": {
    "kind": "real",
    "n_real": 3,
    "n_sites": 3,
    "source": "haversine to region ref: Pamlico Sound (shipped NC reference)"
   },
   "flood_q10_cfs": {
    "impervious_fallback_reason": "StreamCat imperviousness unavailable; the existing regression-input fallback of 0.0% impervious was used and is disclosed here",
    "kind": "real",
    "n_impervious_fallback": 1,
    "n_real": 3,
    "n_sites": 3,
    "source": "USGS SIR 2014-5030 Table 7 HR1 (NC Piedmont)"
   },
   "flow_velocity_ms": {
    "fallback_reason": "EROM/DEM continuity input unavailable; shipped 0.5 m/s default used",
    "kind": "real",
    "n_fallback": 1,
    "n_real": 2,
    "n_sites": 3,
    "source": "Manning (region DEM/D8) blended with EROM continuity (shipped M4 logic)"
   },
   "impervious_pct": {
    "fallback_reason": "NLDI/StreamCat did not return a snap-compatible catchment value; value remains null and is removed by constant-column handling",
    "kind": "real",
    "n_fallback": 1,
    "n_real": 2,
    "n_sites": 3,
    "source": "EPA StreamCat pctimp2019 (per NHDPlus watershed)"
   },
   "land_ownership": {
    "kind": "real",
    "n_fallback": 0,
    "n_real": 3,
    "n_sites": 3,
    "source": "NC OneMap statewide parcels (NC Parcels Transformer) ownname"
   },
   "litter_complaint_density": {
    "kind": "fallback",
    "n_real": 0,
    "n_sites": 3,
    "source": "no public machine-readable litter/illegal-dumping feed for this region"
   },
   "navigable_dist_m": {
    "kind": "real",
    "n_real": 3,
    "n_sites": 3,
    "source": "USACE/BTS NWN (NTAD): no navigable segment within this bbox (+2 km) \u2014 computed absence, gate passes all sites"
   },
   "npdes_points": {
    "kind": "real",
    "n_real": 3,
    "n_sites": 3,
    "source": "EPA ECHO active NPDES outfalls states=NC (types NPD/GPC/NGP; statuses ADC/EFF/EXP), per catchment"
   },
   "population_density": {
    "kind": "real",
    "n_real": 3,
    "n_sites": 3,
    "source": "Census ACS 2022 B01003 block groups (bbox, multi-county), area-weighted"
   },
   "protected_area_score": {
    "kind": "real",
    "n_real": 3,
    "n_sites": 3,
    "source": "USGS PAD-US 4.1 state GDB; states=NC; shipped designation-weighted proximity curve"
   },
   "road_access_score": {
    "kind": "real",
    "n_real": 3,
    "n_sites": 3,
    "source": "OSM drive network nearest-node distance"
   },
   "road_density_km_km2": {
    "kind": "real",
    "n_real": 3,
    "n_sites": 3,
    "source": "OSM drive network (osmnx, cached) clipped per catchment"
   },
   "runoff_coeff_C": {
    "fallback_reason": "source impervious_pct was unavailable; derived value remains null",
    "kind": "real",
    "n_fallback": 1,
    "n_real": 2,
    "n_sites": 3,
    "source": "derived from real impervious_pct (C=0.05+0.009*I)"
   },
   "seasonal_cv": {
    "fallback_reason": "NHDPlus monthly EROM was unavailable or failed the drainage-area snap guard; value remains null",
    "kind": "real",
    "n_fallback": 1,
    "n_real": 2,
    "n_sites": 3,
    "source": "CV of NHDPlus EROM monthly flows per COMID"
   },
   "stream_order": {
    "kind": "real",
    "n_real": 3,
    "n_sites": 3,
    "source": "DEM stream-network confluence heuristic (pipeline)"
   },
   "superfund_score": {
    "kind": "real",
    "n_real": 3,
    "n_sites": 3,
    "source": "EPA DataMap SEMS active sites states=NC (non-archived, georeferenced), shipped 500 m inverse-distance curve"
   },
   "tourism_amenity_density": {
    "kind": "real",
    "n_real": 3,
    "n_sites": 3,
    "source": "OSM leisure/tourism features per 2 km radius"
   },
   "tri_facility_density": {
    "kind": "real",
    "n_real": 3,
    "n_sites": 3,
    "source": "EPA DataMap TRI open facilities states=NC (preferred decimal or packed-DMS recovery), per catchment"
   },
   "usgs_mean_q_cfs": {
    "fallback_reason": "NHDPlus EROM was unavailable or failed the drainage-area snap guard; value remains null",
    "kind": "real",
    "n_fallback": 1,
    "n_real": 2,
    "n_sites": 3,
    "source": "NHDPlus EROM qe_ma per COMID (snap-guarded)"
   },
   "velocity_feasibility": {
    "fallback_reason": "derived from the shipped 0.5 m/s velocity fallback",
    "kind": "real",
    "n_fallback": 1,
    "n_real": 2,
    "n_sites": 3,
    "source": "shipped step curve on the computed velocity"
   },
   "velocity_transport_favorability": {
    "fallback_reason": "EROM/DEM continuity input unavailable; shipped 0.5 m/s default used",
    "kind": "derived",
    "n_fallback": 1,
    "n_real": 2,
    "n_sites": 3,
    "source": "scored form of flow_velocity_ms inside the Flow family \u2014 peaked Gaussian exp(-((v-0.9)/0.6)^2), model.json curves.velocity_transport_favorability; construct: transport/delivery favorability, deliberately distinct from velocity_feasibility (device operability)"
   },
   "water_intake_score": {
    "kind": "real",
    "n_real": 3,
    "n_sites": 3,
    "source": "NC OneMap / NC DEQ SWAP public water supply sources (source_typ='Surface Water'), shipped exp(-d/10km) curve"
   }
  },
  "stream_mask": {
   "buffer_m": 150.0,
   "pre_mask": 3,
   "removed": 0,
   "sources": [
    "osm-overpass (all waterway ways)",
    "usgs-nhdplus flowlines"
   ]
  },
  "varying": [
   "bank_slope_score",
   "beach_dist_km",
   "catchment_area_km2",
   "ej_index",
   "estuary_dist_km",
   "flood_q10_cfs",
   "flow_velocity_ms",
   "impervious_pct",
   "npdes_points",
   "population_density",
   "protected_area_score",
   "road_access_score",
   "road_density_km_km2",
   "runoff_coeff_C",
   "seasonal_cv",
   "superfund_score",
   "tourism_amenity_density",
   "usgs_mean_q_cfs",
   "velocity_feasibility",
   "water_intake_score"
  ]
 },
 "region": {
  "bbox": [
   -80.3572,
   36.1618,
   -80.3125,
   36.1978
  ],
  "beach_ref": {
   "label": "Wrightsville Beach (shipped NC reference)",
   "lat": 34.21,
   "lon": -77.79
  },
  "center": [
   -80.334858,
   36.179802
  ],
  "estuary_ref": {
   "label": "Pamlico Sound (shipped NC reference)",
   "lat": 35.05,
   "lon": -76.05
  },
  "flood_method": "sir2014_hr1",
  "name": "Bethania, NC",
  "notes": "NC Piedmont (DEQ physiography polygon)",
  "slug": "bethania",
  "state": "NC",
  "utm_epsg": 32617,
  "width_curve": {
   "a": 3.12,
   "b": 0.415,
   "code": "AHI",
   "source": "Bieger et al. 2015 JAWRA Table 3, Appalachian Highlands"
  }
 },
 "type": "FeatureCollection"
}
