{
 "features": [
  {
   "geometry": {
    "coordinates": [
     -82.361234,
     35.604765
    ],
    "type": "Point"
   },
   "properties": {
    "accumulation": 21834.0,
    "bank_slope_deg": 6.6,
    "bank_slope_score": 1.0,
    "bank_slope_source": "nc-dps-lidar-dem03-cross-section",
    "beach_dist_km": 444.7,
    "bridge_proximity_bonus": 0.0,
    "catchment_area_km2": 2.1795,
    "channel_width_m": 4.31,
    "channel_width_score": 1.0,
    "composite_score": 53.5882,
    "cso_density": 0.0,
    "ej_index": 0.5511,
    "elevation_m": 684.8495,
    "estuary_dist_km": 575.77,
    "feasibility_score": 66.4286,
    "flood_q10_cfs": null,
    "flow_score": 27.2736,
    "flow_velocity_ms": 0.1124,
    "generation_score": 66.2103,
    "impact_score": 56.4747,
    "impervious_pct": 18.99,
    "land_ownership": 0.5,
    "lat": 35.6048,
    "litter_complaint_density": 0.0,
    "lon": -82.3612,
    "navigable_dist_m": null,
    "npdes_points": 4,
    "pixel_col": 143.0,
    "pixel_row": 777.0,
    "population_density": 130.8,
    "position_along": 0.5,
    "protected_area_score": 15.4883,
    "rank": 1,
    "road_access_m": 108.4,
    "road_access_score": 1.0,
    "road_density_km_km2": 3.466,
    "robustness_pct": 96.0,
    "runoff_coeff_C": 0.2209,
    "seasonal_cv": 0.507,
    "segment_id": 16,
    "segment_length_m": 669.5161,
    "stream_order": 3,
    "superfund_score": 0.9841,
    "tourism_amenity_density": 2.8648,
    "tri_facility_density": 0.9177,
    "usgs_mean_q_cfs": 1.193,
    "velocity_feasibility": 0.7,
    "water_intake_score": 2.089
   },
   "type": "Feature"
  },
  {
   "geometry": {
    "coordinates": [
     -82.337597,
     35.609714
    ],
    "type": "Point"
   },
   "properties": {
    "accumulation": 339175.0,
    "bank_slope_deg": 20.36,
    "bank_slope_score": 0.5,
    "bank_slope_source": "nc-dps-lidar-dem03-cross-section",
    "beach_dist_km": 442.87,
    "bridge_proximity_bonus": 0.0,
    "catchment_area_km2": 33.8562,
    "channel_width_m": 13.46,
    "channel_width_score": 1.0,
    "composite_score": 44.3978,
    "cso_density": 0.0,
    "ej_index": 0.3571,
    "elevation_m": 693.1467,
    "estuary_dist_km": 573.68,
    "feasibility_score": 60.1786,
    "flood_q10_cfs": null,
    "flow_score": 42.2154,
    "flow_velocity_ms": 0.1725,
    "generation_score": 38.7665,
    "impact_score": 43.9575,
    "impervious_pct": 4.84,
    "land_ownership": 0.5,
    "lat": 35.6097,
    "litter_complaint_density": 0.0,
    "lon": -82.3376,
    "navigable_dist_m": null,
    "npdes_points": 8,
    "pixel_col": 357.0,
    "pixel_row": 724.0,
    "population_density": 173.9,
    "position_along": 0.5,
    "protected_area_score": 14.3443,
    "rank": 2,
    "road_access_m": 166.9,
    "road_access_score": 1.0,
    "road_density_km_km2": 5.205,
    "robustness_pct": 73.0,
    "runoff_coeff_C": 0.0936,
    "seasonal_cv": 0.4585,
    "segment_id": 15,
    "segment_length_m": 663.6636,
    "stream_order": 3,
    "superfund_score": 0.0524,
    "tourism_amenity_density": 5.093,
    "tri_facility_density": 0.1181,
    "usgs_mean_q_cfs": 31.07,
    "velocity_feasibility": 0.7,
    "water_intake_score": 2.0596
   },
   "type": "Feature"
  },
  {
   "geometry": {
    "coordinates": [
     -82.328798,
     35.617128
    ],
    "type": "Point"
   },
   "properties": {
    "accumulation": 39510.0,
    "bank_slope_deg": 26.05,
    "bank_slope_score": 0.5,
    "bank_slope_source": "nc-dps-lidar-dem03-cross-section",
    "beach_dist_km": 442.39,
    "bridge_proximity_bonus": 0.0,
    "catchment_area_km2": 3.9439,
    "channel_width_m": 5.51,
    "channel_width_score": 1.0,
    "composite_score": 44.0505,
    "cso_density": 0.0,
    "ej_index": 0.2685,
    "elevation_m": 709.7421,
    "estuary_dist_km": 572.95,
    "feasibility_score": 60.1786,
    "flood_q10_cfs": null,
    "flow_score": 26.1031,
    "flow_velocity_ms": 0.1528,
    "generation_score": 53.361,
    "impact_score": 41.632,
    "impervious_pct": 7.4,
    "land_ownership": 0.5,
    "lat": 35.6171,
    "litter_complaint_density": 0.0,
    "lon": -82.3288,
    "navigable_dist_m": null,
    "npdes_points": 1,
    "pixel_col": 438.0,
    "pixel_row": 643.0,
    "population_density": 503.8,
    "position_along": 0.5,
    "protected_area_score": 13.5538,
    "rank": 3,
    "road_access_m": 50.1,
    "road_access_score": 1.0,
    "road_density_km_km2": 10.09,
    "robustness_pct": 48.0,
    "runoff_coeff_C": 0.1166,
    "seasonal_cv": 0.5067,
    "segment_id": 7,
    "segment_length_m": 2848.499,
    "stream_order": 3,
    "superfund_score": 0.0274,
    "tourism_amenity_density": 6.3662,
    "tri_facility_density": 0.2536,
    "usgs_mean_q_cfs": 2.835,
    "velocity_feasibility": 0.7,
    "water_intake_score": 2.1114
   },
   "type": "Feature"
  },
  {
   "geometry": {
    "coordinates": [
     -82.370645,
     35.604015
    ],
    "type": "Point"
   },
   "properties": {
    "accumulation": 689737.0,
    "bank_slope_deg": 0.91,
    "bank_slope_score": 1.0,
    "bank_slope_source": "nc-dps-lidar-dem03-cross-section",
    "beach_dist_km": 445.48,
    "bridge_proximity_bonus": 0.0,
    "catchment_area_km2": 68.849,
    "channel_width_m": 18.07,
    "channel_width_score": 0.5,
    "composite_score": 43.6171,
    "cso_density": 0.0,
    "ej_index": 0.3175,
    "elevation_m": 675.9613,
    "estuary_dist_km": 576.61,
    "feasibility_score": 40.873,
    "flood_q10_cfs": null,
    "flow_score": 73.9476,
    "flow_velocity_ms": 0.2752,
    "generation_score": 26.7201,
    "impact_score": 36.6109,
    "impervious_pct": 3.11,
    "land_ownership": 0.5,
    "lat": 35.604,
    "litter_complaint_density": 0.0,
    "lon": -82.3706,
    "navigable_dist_m": null,
    "npdes_points": 7,
    "pixel_col": 57.0,
    "pixel_row": 784.0,
    "population_density": 135.7,
    "position_along": 0.5,
    "protected_area_score": 15.6314,
    "rank": 4,
    "road_access_m": 320.2,
    "road_access_score": 0.8,
    "road_density_km_km2": 1.728,
    "robustness_pct": 56.5,
    "runoff_coeff_C": 0.078,
    "seasonal_cv": 0.4578,
    "segment_id": 21,
    "segment_length_m": 373.5098,
    "stream_order": 3,
    "superfund_score": 0.3246,
    "tourism_amenity_density": 2.4669,
    "tri_facility_density": 0.0436,
    "usgs_mean_q_cfs": 108.823,
    "velocity_feasibility": 0.7,
    "water_intake_score": 2.0973
   },
   "type": "Feature"
  },
  {
   "geometry": {
    "coordinates": [
     -82.362139,
     35.610667
    ],
    "type": "Point"
   },
   "properties": {
    "accumulation": 169300.0,
    "bank_slope_deg": 22.56,
    "bank_slope_score": 0.5,
    "bank_slope_source": "nc-dps-lidar-dem03-cross-section",
    "beach_dist_km": 445.0,
    "bridge_proximity_bonus": 0.0,
    "catchment_area_km2": 16.8994,
    "channel_width_m": 10.09,
    "channel_width_score": 1.0,
    "composite_score": 43.3634,
    "cso_density": 0.0,
    "ej_index": 0.4349,
    "elevation_m": 684.2774,
    "estuary_dist_km": 575.9,
    "feasibility_score": 60.1786,
    "flood_q10_cfs": null,
    "flow_score": 48.589,
    "flow_velocity_ms": 0.2364,
    "generation_score": 25.942,
    "impact_score": 48.0224,
    "impervious_pct": 1.05,
    "land_ownership": 0.5,
    "lat": 35.6107,
    "litter_complaint_density": 0.0,
    "lon": -82.3621,
    "navigable_dist_m": null,
    "npdes_points": 6,
    "pixel_col": 136.0,
    "pixel_row": 711.0,
    "population_density": 119.0,
    "position_along": 0.75,
    "protected_area_score": 15.3074,
    "rank": 5,
    "road_access_m": 178.3,
    "road_access_score": 1.0,
    "road_density_km_km2": 2.854,
    "robustness_pct": 49.0,
    "runoff_coeff_C": 0.0595,
    "seasonal_cv": 0.4312,
    "segment_id": 6,
    "segment_length_m": 4387.6446,
    "stream_order": 3,
    "superfund_score": 0.4018,
    "tourism_amenity_density": 4.0585,
    "tri_facility_density": 0.1775,
    "usgs_mean_q_cfs": 72.011,
    "velocity_feasibility": 0.7,
    "water_intake_score": 2.1732
   },
   "type": "Feature"
  },
  {
   "geometry": {
    "coordinates": [
     -82.37412,
     35.602558
    ],
    "type": "Point"
   },
   "properties": {
    "accumulation": 742204.0,
    "bank_slope_deg": 6.35,
    "bank_slope_score": 1.0,
    "bank_slope_source": "nc-dps-lidar-dem03-cross-section",
    "beach_dist_km": 445.72,
    "bridge_proximity_bonus": 0.0,
    "catchment_area_km2": 74.0863,
    "channel_width_m": 18.62,
    "channel_width_score": 0.5,
    "composite_score": 42.768,
    "cso_density": 0.0,
    "ej_index": 0.3133,
    "elevation_m": 673.8607,
    "estuary_dist_km": 576.91,
    "feasibility_score": 40.873,
    "flood_q10_cfs": null,
    "flow_score": 73.9236,
    "flow_velocity_ms": 0.2308,
    "generation_score": 25.9784,
    "impact_score": 34.5423,
    "impervious_pct": 3.14,
    "land_ownership": 0.5,
    "lat": 35.6026,
    "litter_complaint_density": 0.0,
    "lon": -82.3741,
    "navigable_dist_m": null,
    "npdes_points": 7,
    "pixel_col": 25.0,
    "pixel_row": 799.0,
    "population_density": 127.2,
    "position_along": 0.5,
    "protected_area_score": 15.6635,
    "rank": 6,
    "road_access_m": 268.3,
    "road_access_score": 0.8,
    "road_density_km_km2": 1.469,
    "robustness_pct": 46.5,
    "runoff_coeff_C": 0.0783,
    "seasonal_cv": 0.4585,
    "segment_id": 23,
    "segment_length_m": 590.5926,
    "stream_order": 3,
    "superfund_score": 0.2041,
    "tourism_amenity_density": 2.4669,
    "tri_facility_density": 0.0405,
    "usgs_mean_q_cfs": 109.995,
    "velocity_feasibility": 0.7,
    "water_intake_score": 2.0844
   },
   "type": "Feature"
  },
  {
   "geometry": {
    "coordinates": [
     -82.314688,
     35.620359
    ],
    "type": "Point"
   },
   "properties": {
    "accumulation": 29054.0,
    "bank_slope_deg": 6.86,
    "bank_slope_score": 1.0,
    "bank_slope_source": "nc-dps-lidar-dem03-cross-section",
    "beach_dist_km": 441.31,
    "bridge_proximity_bonus": 0.2,
    "catchment_area_km2": 2.9001,
    "channel_width_m": 4.85,
    "channel_width_score": 1.0,
    "composite_score": 42.4979,
    "cso_density": 0.0,
    "ej_index": 0.4442,
    "elevation_m": 719.6962,
    "estuary_dist_km": 571.7,
    "feasibility_score": 65.0,
    "flood_q10_cfs": null,
    "flow_score": 24.8258,
    "flow_velocity_ms": 0.0439,
    "generation_score": 39.7778,
    "impact_score": 48.6938,
    "impervious_pct": 2.77,
    "land_ownership": 0.5,
    "lat": 35.6204,
    "litter_complaint_density": 0.0,
    "lon": -82.3147,
    "navigable_dist_m": null,
    "npdes_points": 0,
    "pixel_col": 565.0,
    "pixel_row": 608.0,
    "population_density": 320.9,
    "position_along": 0.5,
    "protected_area_score": 12.4782,
    "rank": 7,
    "road_access_m": 17.9,
    "road_access_score": 1.0,
    "road_density_km_km2": 10.787,
    "robustness_pct": 37.0,
    "runoff_coeff_C": 0.0749,
    "seasonal_cv": 0.4329,
    "segment_id": 8,
    "segment_length_m": 326.9834,
    "stream_order": 3,
    "superfund_score": 0.0152,
    "tourism_amenity_density": 5.4113,
    "tri_facility_density": 0.3448,
    "usgs_mean_q_cfs": 11.05,
    "velocity_feasibility": 0.3,
    "water_intake_score": 2.066
   },
   "type": "Feature"
  },
  {
   "geometry": {
    "coordinates": [
     -82.315938,
     35.619397
    ],
    "type": "Point"
   },
   "properties": {
    "accumulation": 174315.0,
    "bank_slope_deg": 5.01,
    "bank_slope_score": 1.0,
    "bank_slope_source": "nc-dps-lidar-dem03-cross-section",
    "beach_dist_km": 441.38,
    "bridge_proximity_bonus": 0.0,
    "catchment_area_km2": 17.4,
    "channel_width_m": 10.21,
    "channel_width_score": 1.0,
    "composite_score": 42.1554,
    "cso_density": 0.0,
    "ej_index": 0.3931,
    "elevation_m": 718.7139,
    "estuary_dist_km": 571.81,
    "feasibility_score": 66.4286,
    "flood_q10_cfs": null,
    "flow_score": 35.3543,
    "flow_velocity_ms": 0.245,
    "generation_score": 31.7904,
    "impact_score": 46.0512,
    "impervious_pct": 2.77,
    "land_ownership": 0.5,
    "lat": 35.6194,
    "litter_complaint_density": 0.0,
    "lon": -82.3159,
    "navigable_dist_m": null,
    "npdes_points": 3,
    "pixel_col": 558.0,
    "pixel_row": 620.0,
    "population_density": 242.4,
    "position_along": 0.5,
    "protected_area_score": 12.5038,
    "rank": 8,
    "road_access_m": 80.1,
    "road_access_score": 1.0,
    "road_density_km_km2": 7.157,
    "robustness_pct": 15.5,
    "runoff_coeff_C": 0.0749,
    "seasonal_cv": 0.4329,
    "segment_id": 9,
    "segment_length_m": 313.564,
    "stream_order": 3,
    "superfund_score": 0.016,
    "tourism_amenity_density": 5.5704,
    "tri_facility_density": 0.1149,
    "usgs_mean_q_cfs": 11.05,
    "velocity_feasibility": 0.7,
    "water_intake_score": 2.0631
   },
   "type": "Feature"
  },
  {
   "geometry": {
    "coordinates": [
     -82.299958,
     35.619134
    ],
    "type": "Point"
   },
   "properties": {
    "accumulation": 32549.0,
    "bank_slope_deg": 17.34,
    "bank_slope_score": 0.5,
    "bank_slope_source": "nc-dps-lidar-dem03-cross-section",
    "beach_dist_km": 440.01,
    "bridge_proximity_bonus": 0.0,
    "catchment_area_km2": 3.249,
    "channel_width_m": 5.09,
    "channel_width_score": 1.0,
    "composite_score": 42.1447,
    "cso_density": 0.0,
    "ej_index": 0.4944,
    "elevation_m": 738.8306,
    "estuary_dist_km": 570.37,
    "feasibility_score": 68.75,
    "flood_q10_cfs": null,
    "flow_score": 46.8229,
    "flow_velocity_ms": 0.5,
    "generation_score": 19.0644,
    "impact_score": 48.0238,
    "impervious_pct": null,
    "land_ownership": 0.5,
    "lat": 35.6191,
    "litter_complaint_density": 0.0,
    "lon": -82.3,
    "navigable_dist_m": null,
    "npdes_points": 1,
    "pixel_col": 698.0,
    "pixel_row": 623.0,
    "population_density": 212.7,
    "position_along": 0.5,
    "protected_area_score": 12.1587,
    "rank": 9,
    "road_access_m": 52.3,
    "road_access_score": 1.0,
    "road_density_km_km2": 6.429,
    "robustness_pct": 30.0,
    "runoff_coeff_C": null,
    "seasonal_cv": null,
    "segment_id": 11,
    "segment_length_m": 1336.0703,
    "stream_order": 3,
    "superfund_score": 0.01,
    "tourism_amenity_density": 2.8648,
    "tri_facility_density": 0.0,
    "usgs_mean_q_cfs": null,
    "velocity_feasibility": 1.0,
    "water_intake_score": 1.9625
   },
   "type": "Feature"
  },
  {
   "geometry": {
    "coordinates": [
     -82.367719,
     35.610674
    ],
    "type": "Point"
   },
   "properties": {
    "accumulation": 29940.0,
    "bank_slope_deg": 15.62,
    "bank_slope_score": 0.5,
    "bank_slope_source": "nc-dps-lidar-dem03-cross-section",
    "beach_dist_km": 445.47,
    "bridge_proximity_bonus": 0.0,
    "catchment_area_km2": 2.9886,
    "channel_width_m": 4.91,
    "channel_width_score": 1.0,
    "composite_score": 42.0827,
    "cso_density": 0.0,
    "ej_index": 0.6124,
    "elevation_m": 686.0412,
    "estuary_dist_km": 576.4,
    "feasibility_score": 68.75,
    "flood_q10_cfs": null,
    "flow_score": 30.4681,
    "flow_velocity_ms": 0.5,
    "generation_score": 24.8076,
    "impact_score": 55.7032,
    "impervious_pct": null,
    "land_ownership": 0.5,
    "lat": 35.6107,
    "litter_complaint_density": 0.0,
    "lon": -82.3677,
    "navigable_dist_m": null,
    "npdes_points": 4,
    "pixel_col": 85.0,
    "pixel_row": 710.0,
    "population_density": 94.5,
    "position_along": 0.5,
    "protected_area_score": 15.4786,
    "rank": 10,
    "road_access_m": 153.9,
    "road_access_score": 1.0,
    "road_density_km_km2": 3.966,
    "robustness_pct": 28.0,
    "runoff_coeff_C": null,
    "seasonal_cv": null,
    "segment_id": 10,
    "segment_length_m": 2467.1284,
    "stream_order": 1,
    "superfund_score": 0.3001,
    "tourism_amenity_density": 3.8993,
    "tri_facility_density": 0.3346,
    "usgs_mean_q_cfs": null,
    "velocity_feasibility": 1.0,
    "water_intake_score": 2.1906
   },
   "type": "Feature"
  },
  {
   "geometry": {
    "coordinates": [
     -82.316275,
     35.625539
    ],
    "type": "Point"
   },
   "properties": {
    "accumulation": 129652.0,
    "bank_slope_deg": 12.43,
    "bank_slope_score": 1.0,
    "bank_slope_source": "nc-dps-lidar-dem03-cross-section",
    "beach_dist_km": 441.63,
    "bridge_proximity_bonus": 0.0,
    "catchment_area_km2": 12.9418,
    "channel_width_m": 9.03,
    "channel_width_score": 1.0,
    "composite_score": 40.952,
    "cso_density": 0.0,
    "ej_index": 0.4052,
    "elevation_m": 726.944,
    "estuary_dist_km": 571.89,
    "feasibility_score": 66.4286,
    "flood_q10_cfs": null,
    "flow_score": 32.9026,
    "flow_velocity_ms": 0.2154,
    "generation_score": 29.058,
    "impact_score": 46.8155,
    "impervious_pct": 2.77,
    "land_ownership": 0.5,
    "lat": 35.6255,
    "litter_complaint_density": 0.0,
    "lon": -82.3163,
    "navigable_dist_m": null,
    "npdes_points": 1,
    "pixel_col": 554.0,
    "pixel_row": 551.0,
    "population_density": 273.2,
    "position_along": 0.875,
    "protected_area_score": 12.5915,
    "rank": 11,
    "road_access_m": 41.7,
    "road_access_score": 1.0,
    "road_density_km_km2": 7.681,
    "robustness_pct": 0.0,
    "runoff_coeff_C": 0.0749,
    "seasonal_cv": 0.4329,
    "segment_id": 1,
    "segment_length_m": 6089.9016,
    "stream_order": 3,
    "superfund_score": 0.0146,
    "tourism_amenity_density": 5.0134,
    "tri_facility_density": 0.0773,
    "usgs_mean_q_cfs": 11.05,
    "velocity_feasibility": 0.7,
    "water_intake_score": 2.1312
   },
   "type": "Feature"
  },
  {
   "geometry": {
    "coordinates": [
     -82.311134,
     35.619283
    ],
    "type": "Point"
   },
   "properties": {
    "accumulation": 93582.0,
    "bank_slope_deg": 16.19,
    "bank_slope_score": 0.5,
    "bank_slope_source": "nc-dps-lidar-dem03-cross-section",
    "beach_dist_km": 440.96,
    "bridge_proximity_bonus": 0.0,
    "catchment_area_km2": 9.3413,
    "channel_width_m": 7.89,
    "channel_width_score": 1.0,
    "composite_score": 40.8868,
    "cso_density": 0.0,
    "ej_index": 0.4356,
    "elevation_m": 720.967,
    "estuary_dist_km": 571.37,
    "feasibility_score": 60.1786,
    "flood_q10_cfs": null,
    "flow_score": 29.8494,
    "flow_velocity_ms": 0.1863,
    "generation_score": 32.7935,
    "impact_score": 48.5319,
    "impervious_pct": 4.4,
    "land_ownership": 0.5,
    "lat": 35.6193,
    "litter_complaint_density": 0.0,
    "lon": -82.3111,
    "navigable_dist_m": null,
    "npdes_points": 1,
    "pixel_col": 597.0,
    "pixel_row": 620.0,
    "population_density": 277.6,
    "position_along": 0.5,
    "protected_area_score": 12.4713,
    "rank": 12,
    "road_access_m": 92.5,
    "road_access_score": 1.0,
    "road_density_km_km2": 8.169,
    "robustness_pct": 1.5,
    "runoff_coeff_C": 0.0896,
    "seasonal_cv": 0.4689,
    "segment_id": 13,
    "segment_length_m": 823.813,
    "stream_order": 3,
    "superfund_score": 0.0137,
    "tourism_amenity_density": 5.4113,
    "tri_facility_density": 0.1071,
    "usgs_mean_q_cfs": 7.928,
    "velocity_feasibility": 0.7,
    "water_intake_score": 2.0337
   },
   "type": "Feature"
  },
  {
   "geometry": {
    "coordinates": [
     -82.365767,
     35.604076
    ],
    "type": "Point"
   },
   "properties": {
    "accumulation": 514722.0,
    "bank_slope_deg": 14.5,
    "bank_slope_score": 1.0,
    "bank_slope_source": "nc-dps-lidar-dem03-cross-section",
    "beach_dist_km": 445.07,
    "bridge_proximity_bonus": 0.0,
    "catchment_area_km2": 51.3792,
    "channel_width_m": 16.0,
    "channel_width_score": 0.5,
    "composite_score": 40.7721,
    "cso_density": 0.0,
    "ej_index": 0.328,
    "elevation_m": 680.0291,
    "estuary_dist_km": 576.17,
    "feasibility_score": 40.873,
    "flood_q10_cfs": null,
    "flow_score": 51.3052,
    "flow_velocity_ms": 0.2393,
    "generation_score": 31.243,
    "impact_score": 41.473,
    "impervious_pct": 5.87,
    "land_ownership": 0.5,
    "lat": 35.6041,
    "litter_complaint_density": 0.0,
    "lon": -82.3658,
    "navigable_dist_m": null,
    "npdes_points": 7,
    "pixel_col": 100.0,
    "pixel_row": 781.0,
    "population_density": 137.2,
    "position_along": 0.5,
    "protected_area_score": 15.6763,
    "rank": 13,
    "road_access_m": 276.4,
    "road_access_score": 0.8,
    "road_density_km_km2": 2.026,
    "robustness_pct": 10.0,
    "runoff_coeff_C": 0.1028,
    "seasonal_cv": 0.463,
    "segment_id": 20,
    "segment_length_m": 792.836,
    "stream_order": 3,
    "superfund_score": 0.7101,
    "tourism_amenity_density": 2.5465,
    "tri_facility_density": 0.0584,
    "usgs_mean_q_cfs": 36.76,
    "velocity_feasibility": 0.7,
    "water_intake_score": 2.086
   },
   "type": "Feature"
  },
  {
   "geometry": {
    "coordinates": [
     -82.322592,
     35.610464
    ],
    "type": "Point"
   },
   "properties": {
    "accumulation": 284047.0,
    "bank_slope_deg": 26.15,
    "bank_slope_score": 0.5,
    "bank_slope_source": "nc-dps-lidar-dem03-cross-section",
    "beach_dist_km": 441.61,
    "bridge_proximity_bonus": 0.0,
    "catchment_area_km2": 28.3534,
    "channel_width_m": 12.5,
    "channel_width_score": 1.0,
    "composite_score": 40.3779,
    "cso_density": 0.0,
    "ej_index": 0.3669,
    "elevation_m": 709.1115,
    "estuary_dist_km": 572.33,
    "feasibility_score": 60.1786,
    "flood_q10_cfs": null,
    "flow_score": 35.2451,
    "flow_velocity_ms": 0.0708,
    "generation_score": 29.9575,
    "impact_score": 45.1754,
    "impervious_pct": 4.93,
    "land_ownership": 0.5,
    "lat": 35.6105,
    "litter_complaint_density": 0.0,
    "lon": -82.3226,
    "navigable_dist_m": null,
    "npdes_points": 3,
    "pixel_col": 493.0,
    "pixel_row": 718.0,
    "population_density": 193.3,
    "position_along": 0.5,
    "protected_area_score": 13.1025,
    "rank": 14,
    "road_access_m": 80.2,
    "road_access_score": 1.0,
    "road_density_km_km2": 6.027,
    "robustness_pct": 0.0,
    "runoff_coeff_C": 0.0944,
    "seasonal_cv": 0.4509,
    "segment_id": 14,
    "segment_length_m": 2729.0234,
    "stream_order": 3,
    "superfund_score": 0.0231,
    "tourism_amenity_density": 6.207,
    "tri_facility_density": 0.0705,
    "usgs_mean_q_cfs": 20.072,
    "velocity_feasibility": 0.7,
    "water_intake_score": 2.0009
   },
   "type": "Feature"
  },
  {
   "geometry": {
    "coordinates": [
     -82.350989,
     35.604077
    ],
    "type": "Point"
   },
   "properties": {
    "accumulation": 471564.0,
    "bank_slope_deg": 12.44,
    "bank_slope_score": 1.0,
    "bank_slope_source": "nc-dps-lidar-dem03-cross-section",
    "beach_dist_km": 443.8,
    "bridge_proximity_bonus": 0.0,
    "catchment_area_km2": 47.0712,
    "channel_width_m": 15.43,
    "channel_width_score": 0.5,
    "composite_score": 40.0815,
    "cso_density": 0.0,
    "ej_index": 0.3465,
    "elevation_m": 686.784,
    "estuary_dist_km": 574.84,
    "feasibility_score": 35.3175,
    "flood_q10_cfs": null,
    "flow_score": 48.3998,
    "flow_velocity_ms": 0.206,
    "generation_score": 35.547,
    "impact_score": 40.066,
    "impervious_pct": 5.32,
    "land_ownership": 0.5,
    "lat": 35.6041,
    "litter_complaint_density": 0.0,
    "lon": -82.351,
    "navigable_dist_m": null,
    "npdes_points": 8,
    "pixel_col": 235.0,
    "pixel_row": 785.0,
    "population_density": 153.9,
    "position_along": 0.5,
    "protected_area_score": 15.1665,
    "rank": 15,
    "road_access_m": 503.5,
    "road_access_score": 0.6,
    "road_density_km_km2": 3.436,
    "robustness_pct": 5.5,
    "runoff_coeff_C": 0.0979,
    "seasonal_cv": 0.4597,
    "segment_id": 19,
    "segment_length_m": 2509.8105,
    "stream_order": 3,
    "superfund_score": 0.2042,
    "tourism_amenity_density": 2.7852,
    "tri_facility_density": 0.085,
    "usgs_mean_q_cfs": 35.543,
    "velocity_feasibility": 0.7,
    "water_intake_score": 2.0449
   },
   "type": "Feature"
  },
  {
   "geometry": {
    "coordinates": [
     -82.331982,
     35.605453
    ],
    "type": "Point"
   },
   "properties": {
    "accumulation": 108732.0,
    "bank_slope_deg": 9.89,
    "bank_slope_score": 1.0,
    "bank_slope_source": "nc-dps-lidar-dem03-cross-section",
    "beach_dist_km": 442.23,
    "bridge_proximity_bonus": 0.0,
    "catchment_area_km2": 10.8535,
    "channel_width_m": 8.39,
    "channel_width_score": 1.0,
    "composite_score": 39.2335,
    "cso_density": 0.0,
    "ej_index": 0.299,
    "elevation_m": 697.5205,
    "estuary_dist_km": 573.13,
    "feasibility_score": 66.4286,
    "flood_q10_cfs": null,
    "flow_score": 31.2069,
    "flow_velocity_ms": 0.0571,
    "generation_score": 30.0929,
    "impact_score": 41.4655,
    "impervious_pct": 4.22,
    "land_ownership": 0.5,
    "lat": 35.6055,
    "litter_complaint_density": 0.0,
    "lon": -82.332,
    "navigable_dist_m": null,
    "npdes_points": 3,
    "pixel_col": 406.0,
    "pixel_row": 770.0,
    "population_density": 193.9,
    "position_along": 0.75,
    "protected_area_score": 14.1458,
    "rank": 16,
    "road_access_m": 133.0,
    "road_access_score": 1.0,
    "road_density_km_km2": 6.467,
    "robustness_pct": 0.0,
    "runoff_coeff_C": 0.088,
    "seasonal_cv": 0.449,
    "segment_id": 18,
    "segment_length_m": 3901.5159,
    "stream_order": 3,
    "superfund_score": 0.0382,
    "tourism_amenity_density": 5.65,
    "tri_facility_density": 0.0921,
    "usgs_mean_q_cfs": 26.755,
    "velocity_feasibility": 0.7,
    "water_intake_score": 1.9888
   },
   "type": "Feature"
  },
  {
   "geometry": {
    "coordinates": [
     -82.313525,
     35.636237
    ],
    "type": "Point"
   },
   "properties": {
    "accumulation": 115489.0,
    "bank_slope_deg": 14.14,
    "bank_slope_score": 1.0,
    "bank_slope_source": "nc-dps-lidar-dem03-cross-section",
    "beach_dist_km": 441.8,
    "bridge_proximity_bonus": 0.0,
    "catchment_area_km2": 11.528,
    "channel_width_m": 8.61,
    "channel_width_score": 1.0,
    "composite_score": 38.7495,
    "cso_density": 0.0,
    "ej_index": 0.4325,
    "elevation_m": 749.574,
    "estuary_dist_km": 571.74,
    "feasibility_score": 66.4286,
    "flood_q10_cfs": null,
    "flow_score": 32.1554,
    "flow_velocity_ms": 0.2064,
    "generation_score": 22.0263,
    "impact_score": 47.1282,
    "impervious_pct": 2.77,
    "land_ownership": 0.5,
    "lat": 35.6362,
    "litter_complaint_density": 0.0,
    "lon": -82.3135,
    "navigable_dist_m": null,
    "npdes_points": 1,
    "pixel_col": 579.0,
    "pixel_row": 433.0,
    "population_density": 166.8,
    "position_along": 0.625,
    "protected_area_score": 12.3809,
    "rank": 17,
    "road_access_m": 76.5,
    "road_access_score": 1.0,
    "road_density_km_km2": 5.741,
    "robustness_pct": 0.0,
    "runoff_coeff_C": 0.0749,
    "seasonal_cv": 0.4329,
    "segment_id": 1,
    "segment_length_m": 6089.9016,
    "stream_order": 3,
    "superfund_score": 0.011,
    "tourism_amenity_density": 3.7401,
    "tri_facility_density": 0.0867,
    "usgs_mean_q_cfs": 11.05,
    "velocity_feasibility": 0.7,
    "water_intake_score": 2.2138
   },
   "type": "Feature"
  },
  {
   "geometry": {
    "coordinates": [
     -82.302396,
     35.644198
    ],
    "type": "Point"
   },
   "properties": {
    "accumulation": 81641.0,
    "bank_slope_deg": 17.07,
    "bank_slope_score": 0.5,
    "bank_slope_source": "nc-dps-lidar-dem03-cross-section",
    "beach_dist_km": 441.15,
    "bridge_proximity_bonus": 0.0,
    "catchment_area_km2": 8.1493,
    "channel_width_m": 7.45,
    "channel_width_score": 1.0,
    "composite_score": 37.9639,
    "cso_density": 0.0,
    "ej_index": 0.4708,
    "elevation_m": 789.2209,
    "estuary_dist_km": 570.81,
    "feasibility_score": 75.1786,
    "flood_q10_cfs": null,
    "flow_score": 32.1572,
    "flow_velocity_ms": 0.2323,
    "generation_score": 14.3867,
    "impact_score": 47.7727,
    "impervious_pct": 2.77,
    "land_ownership": 1.0,
    "lat": 35.6442,
    "litter_complaint_density": 0.0,
    "lon": -82.3024,
    "navigable_dist_m": null,
    "npdes_points": 1,
    "pixel_col": 681.0,
    "pixel_row": 346.0,
    "population_density": 81.8,
    "position_along": 0.375,
    "protected_area_score": 11.8621,
    "rank": 18,
    "road_access_m": 32.5,
    "road_access_score": 1.0,
    "road_density_km_km2": 4.483,
    "robustness_pct": 3.5,
    "runoff_coeff_C": 0.0749,
    "seasonal_cv": 0.4329,
    "segment_id": 1,
    "segment_length_m": 6089.9016,
    "stream_order": 3,
    "superfund_score": 0.0075,
    "tourism_amenity_density": 2.7056,
    "tri_facility_density": 0.0,
    "usgs_mean_q_cfs": 11.05,
    "velocity_feasibility": 0.7,
    "water_intake_score": 2.1882
   },
   "type": "Feature"
  },
  {
   "geometry": {
    "coordinates": [
     -82.359892,
     35.627835
    ],
    "type": "Point"
   },
   "properties": {
    "accumulation": 144000.0,
    "bank_slope_deg": 15.4,
    "bank_slope_score": 0.5,
    "bank_slope_source": "nc-dps-lidar-dem03-cross-section",
    "beach_dist_km": 445.43,
    "bridge_proximity_bonus": 0.0,
    "catchment_area_km2": 14.374,
    "channel_width_m": 9.43,
    "channel_width_score": 1.0,
    "composite_score": 37.2069,
    "cso_density": 0.0,
    "ej_index": 0.3899,
    "elevation_m": 703.8988,
    "estuary_dist_km": 575.84,
    "feasibility_score": 54.623,
    "flood_q10_cfs": null,
    "flow_score": 45.4573,
    "flow_velocity_ms": 0.171,
    "generation_score": 14.8629,
    "impact_score": 43.9675,
    "impervious_pct": 1.05,
    "land_ownership": 0.5,
    "lat": 35.6278,
    "litter_complaint_density": 0.0,
    "lon": -82.3599,
    "navigable_dist_m": null,
    "npdes_points": 3,
    "pixel_col": 158.0,
    "pixel_row": 521.0,
    "population_density": 110.0,
    "position_along": 0.25,
    "protected_area_score": 14.6657,
    "rank": 19,
    "road_access_m": 434.3,
    "road_access_score": 0.8,
    "road_density_km_km2": 2.495,
    "robustness_pct": 0.0,
    "runoff_coeff_C": 0.0595,
    "seasonal_cv": 0.4312,
    "segment_id": 6,
    "segment_length_m": 4387.6446,
    "stream_order": 3,
    "superfund_score": 0.0474,
    "tourism_amenity_density": 3.5014,
    "tri_facility_density": 0.0,
    "usgs_mean_q_cfs": 72.011,
    "velocity_feasibility": 0.7,
    "water_intake_score": 2.4077
   },
   "type": "Feature"
  },
  {
   "geometry": {
    "coordinates": [
     -82.293427,
     35.618844
    ],
    "type": "Point"
   },
   "properties": {
    "accumulation": 48166.0,
    "bank_slope_deg": 20.72,
    "bank_slope_score": 0.5,
    "bank_slope_source": "nc-dps-lidar-dem03-cross-section",
    "beach_dist_km": 439.44,
    "bridge_proximity_bonus": 0.0,
    "catchment_area_km2": 4.8079,
    "channel_width_m": 5.99,
    "channel_width_score": 1.0,
    "composite_score": 36.6648,
    "cso_density": 0.0,
    "ej_index": 0.5043,
    "elevation_m": 744.8035,
    "estuary_dist_km": 569.78,
    "feasibility_score": 60.1786,
    "flood_q10_cfs": null,
    "flow_score": 26.2742,
    "flow_velocity_ms": 0.1358,
    "generation_score": 21.6467,
    "impact_score": 48.5848,
    "impervious_pct": 4.53,
    "land_ownership": 0.5,
    "lat": 35.6188,
    "litter_complaint_density": 0.0,
    "lon": -82.2934,
    "navigable_dist_m": null,
    "npdes_points": 1,
    "pixel_col": 758.0,
    "pixel_row": 627.0,
    "population_density": 155.6,
    "position_along": 0.5,
    "protected_area_score": 12.2356,
    "rank": 20,
    "road_access_m": 99.3,
    "road_access_score": 1.0,
    "road_density_km_km2": 5.696,
    "robustness_pct": 0.0,
    "runoff_coeff_C": 0.0908,
    "seasonal_cv": 0.4677,
    "segment_id": 12,
    "segment_length_m": 2645.7179,
    "stream_order": 3,
    "superfund_score": 0.0085,
    "tourism_amenity_density": 2.2282,
    "tri_facility_density": 0.0,
    "usgs_mean_q_cfs": 5.095,
    "velocity_feasibility": 0.7,
    "water_intake_score": 1.9252
   },
   "type": "Feature"
  },
  {
   "geometry": {
    "coordinates": [
     -82.35565,
     35.63795
    ],
    "type": "Point"
   },
   "properties": {
    "accumulation": 25106.0,
    "bank_slope_deg": 3.57,
    "bank_slope_score": 1.0,
    "bank_slope_source": "nc-dps-lidar-dem03-cross-section",
    "beach_dist_km": 445.45,
    "bridge_proximity_bonus": 0.0,
    "catchment_area_km2": 2.5061,
    "channel_width_m": 4.57,
    "channel_width_score": 1.0,
    "composite_score": 36.4478,
    "cso_density": 0.0,
    "ej_index": 0.3226,
    "elevation_m": 715.1569,
    "estuary_dist_km": 575.55,
    "feasibility_score": 69.4444,
    "flood_q10_cfs": null,
    "flow_score": 46.6067,
    "flow_velocity_ms": 0.5,
    "generation_score": 8.7583,
    "impact_score": 39.1734,
    "impervious_pct": null,
    "land_ownership": 0.5,
    "lat": 35.6379,
    "litter_complaint_density": 0.0,
    "lon": -82.3557,
    "navigable_dist_m": null,
    "npdes_points": 0,
    "pixel_col": 199.0,
    "pixel_row": 409.0,
    "population_density": 156.5,
    "position_along": 0.5,
    "protected_area_score": 14.2242,
    "rank": 21,
    "road_access_m": 380.8,
    "road_access_score": 0.8,
    "road_density_km_km2": 1.581,
    "robustness_pct": 0.0,
    "runoff_coeff_C": null,
    "seasonal_cv": null,
    "segment_id": 5,
    "segment_length_m": 561.3297,
    "stream_order": 3,
    "superfund_score": 0.0249,
    "tourism_amenity_density": 2.069,
    "tri_facility_density": 0.0,
    "usgs_mean_q_cfs": null,
    "velocity_feasibility": 1.0,
    "water_intake_score": 2.5169
   },
   "type": "Feature"
  },
  {
   "geometry": {
    "coordinates": [
     -82.29762,
     35.654706
    ],
    "type": "Point"
   },
   "properties": {
    "accumulation": 39643.0,
    "bank_slope_deg": 26.28,
    "bank_slope_score": 0.5,
    "bank_slope_source": "nc-dps-lidar-dem03-cross-section",
    "beach_dist_km": 441.15,
    "bridge_proximity_bonus": 0.0,
    "catchment_area_km2": 3.9571,
    "channel_width_m": 5.52,
    "channel_width_score": 1.0,
    "composite_score": 33.817,
    "cso_density": 0.0,
    "ej_index": 0.4477,
    "elevation_m": 863.933,
    "estuary_dist_km": 570.48,
    "feasibility_score": 60.1786,
    "flood_q10_cfs": null,
    "flow_score": 31.13,
    "flow_velocity_ms": 0.2372,
    "generation_score": 12.0402,
    "impact_score": 44.6523,
    "impervious_pct": 2.77,
    "land_ownership": 0.5,
    "lat": 35.6547,
    "litter_complaint_density": 0.0,
    "lon": -82.2976,
    "navigable_dist_m": null,
    "npdes_points": 1,
    "pixel_col": 729.0,
    "pixel_row": 230.0,
    "population_density": 62.4,
    "position_along": 0.125,
    "protected_area_score": 11.0656,
    "rank": 22,
    "road_access_m": 61.9,
    "road_access_score": 1.0,
    "road_density_km_km2": 3.27,
    "robustness_pct": 0.0,
    "runoff_coeff_C": 0.0749,
    "seasonal_cv": 0.4329,
    "segment_id": 1,
    "segment_length_m": 6089.9016,
    "stream_order": 3,
    "superfund_score": 0.0058,
    "tourism_amenity_density": 2.2282,
    "tri_facility_density": 0.0,
    "usgs_mean_q_cfs": 11.05,
    "velocity_feasibility": 0.7,
    "water_intake_score": 2.2138
   },
   "type": "Feature"
  },
  {
   "geometry": {
    "coordinates": [
     -82.315908,
     35.600885
    ],
    "type": "Point"
   },
   "properties": {
    "accumulation": 36537.0,
    "bank_slope_deg": 16.39,
    "bank_slope_score": 0.5,
    "bank_slope_source": "nc-dps-lidar-dem03-cross-section",
    "beach_dist_km": 440.69,
    "bridge_proximity_bonus": 0.0,
    "catchment_area_km2": 3.6471,
    "channel_width_m": 5.34,
    "channel_width_score": 1.0,
    "composite_score": 32.9104,
    "cso_density": 0.0,
    "ej_index": 0.357,
    "elevation_m": 721.7141,
    "estuary_dist_km": 571.65,
    "feasibility_score": 60.1786,
    "flood_q10_cfs": null,
    "flow_score": 25.7335,
    "flow_velocity_ms": 0.1865,
    "generation_score": 17.9223,
    "impact_score": 40.2452,
    "impervious_pct": 1.68,
    "land_ownership": 0.5,
    "lat": 35.6009,
    "litter_complaint_density": 0.0,
    "lon": -82.3159,
    "navigable_dist_m": null,
    "npdes_points": 1,
    "pixel_col": 551.0,
    "pixel_row": 822.0,
    "population_density": 105.3,
    "position_along": 0.25,
    "protected_area_score": 13.2608,
    "rank": 23,
    "road_access_m": 95.4,
    "road_access_score": 1.0,
    "road_density_km_km2": 7.774,
    "robustness_pct": 0.0,
    "runoff_coeff_C": 0.0651,
    "seasonal_cv": 0.4912,
    "segment_id": 18,
    "segment_length_m": 3901.5159,
    "stream_order": 3,
    "superfund_score": 0.0179,
    "tourism_amenity_density": 3.4218,
    "tri_facility_density": 0.0,
    "usgs_mean_q_cfs": 2.476,
    "velocity_feasibility": 0.7,
    "water_intake_score": 1.8645
   },
   "type": "Feature"
  },
  {
   "geometry": {
    "coordinates": [
     -82.367693,
     35.599198
    ],
    "type": "Point"
   },
   "properties": {
    "accumulation": 33769.0,
    "bank_slope_deg": 16.22,
    "bank_slope_score": 0.5,
    "bank_slope_source": "nc-dps-lidar-dem03-cross-section",
    "beach_dist_km": 445.05,
    "bridge_proximity_bonus": 0.0,
    "catchment_area_km2": 3.3708,
    "channel_width_m": 5.17,
    "channel_width_score": 1.0,
    "composite_score": 32.5612,
    "cso_density": 0.0,
    "ej_index": 0.4569,
    "elevation_m": 691.6454,
    "estuary_dist_km": 576.3,
    "feasibility_score": 60.1786,
    "flood_q10_cfs": null,
    "flow_score": 24.1358,
    "flow_velocity_ms": 0.1357,
    "generation_score": 16.1561,
    "impact_score": 42.1788,
    "impervious_pct": 1.92,
    "land_ownership": 0.5,
    "lat": 35.5992,
    "litter_complaint_density": 0.0,
    "lon": -82.3677,
    "navigable_dist_m": null,
    "npdes_points": 2,
    "pixel_col": 85.0,
    "pixel_row": 836.0,
    "population_density": 145.9,
    "position_along": 0.5,
    "protected_area_score": 15.8477,
    "rank": 24,
    "road_access_m": 132.0,
    "road_access_score": 1.0,
    "road_density_km_km2": 2.804,
    "robustness_pct": 0.0,
    "runoff_coeff_C": 0.0673,
    "seasonal_cv": 0.4892,
    "segment_id": 22,
    "segment_length_m": 1619.7833,
    "stream_order": 3,
    "superfund_score": 0.3,
    "tourism_amenity_density": 1.3528,
    "tri_facility_density": 0.0,
    "usgs_mean_q_cfs": 2.66,
    "velocity_feasibility": 0.7,
    "water_intake_score": 2.0255
   },
   "type": "Feature"
  },
  {
   "geometry": {
    "coordinates": [
     -82.357321,
     35.645383
    ],
    "type": "Point"
   },
   "properties": {
    "accumulation": 109586.0,
    "bank_slope_deg": 29.5,
    "bank_slope_score": 0.5,
    "bank_slope_source": "nc-dps-lidar-dem03-cross-section",
    "beach_dist_km": 445.87,
    "bridge_proximity_bonus": 0.0,
    "catchment_area_km2": 10.9388,
    "channel_width_m": 8.42,
    "channel_width_score": 1.0,
    "composite_score": 31.3631,
    "cso_density": 0.0,
    "ej_index": 0.3641,
    "elevation_m": 721.8323,
    "estuary_dist_km": 575.77,
    "feasibility_score": 49.0675,
    "flood_q10_cfs": null,
    "flow_score": 40.6407,
    "flow_velocity_ms": 0.0936,
    "generation_score": 6.8391,
    "impact_score": 39.3034,
    "impervious_pct": 0.18,
    "land_ownership": 0.5,
    "lat": 35.6454,
    "litter_complaint_density": 0.0,
    "lon": -82.3573,
    "navigable_dist_m": null,
    "npdes_points": 0,
    "pixel_col": 185.0,
    "pixel_row": 326.0,
    "population_density": 122.6,
    "position_along": 0.5,
    "protected_area_score": 14.1236,
    "rank": 25,
    "road_access_m": 547.5,
    "road_access_score": 0.6,
    "road_density_km_km2": 1.092,
    "robustness_pct": 0.0,
    "runoff_coeff_C": 0.0516,
    "seasonal_cv": 0.4172,
    "segment_id": 3,
    "segment_length_m": 2280.6067,
    "stream_order": 3,
    "superfund_score": 0.0182,
    "tourism_amenity_density": 0.3979,
    "tri_facility_density": 0.0,
    "usgs_mean_q_cfs": 65.594,
    "velocity_feasibility": 0.7,
    "water_intake_score": 2.6152
   },
   "type": "Feature"
  },
  {
   "geometry": {
    "coordinates": [
     -82.345905,
     35.657271
    ],
    "type": "Point"
   },
   "properties": {
    "accumulation": 34094.0,
    "bank_slope_deg": 17.28,
    "bank_slope_score": 0.5,
    "bank_slope_source": "nc-dps-lidar-dem03-cross-section",
    "beach_dist_km": 445.34,
    "bridge_proximity_bonus": 0.0,
    "catchment_area_km2": 3.4032,
    "channel_width_m": 5.19,
    "channel_width_score": 1.0,
    "composite_score": 30.4166,
    "cso_density": 0.0,
    "ej_index": 0.328,
    "elevation_m": 748.6705,
    "estuary_dist_km": 574.85,
    "feasibility_score": 69.623,
    "flood_q10_cfs": null,
    "flow_score": 25.8108,
    "flow_velocity_ms": 0.214,
    "generation_score": 8.2361,
    "impact_score": 36.8322,
    "impervious_pct": 0.52,
    "land_ownership": 1.0,
    "lat": 35.6573,
    "litter_complaint_density": 0.0,
    "lon": -82.3459,
    "navigable_dist_m": null,
    "npdes_points": 0,
    "pixel_col": 288.0,
    "pixel_row": 194.0,
    "population_density": 130.3,
    "position_along": 0.5,
    "protected_area_score": 12.6715,
    "rank": 26,
    "road_access_m": 372.5,
    "road_access_score": 0.8,
    "road_density_km_km2": 1.579,
    "robustness_pct": 0.0,
    "runoff_coeff_C": 0.0547,
    "seasonal_cv": 0.5138,
    "segment_id": 2,
    "segment_length_m": 1810.0274,
    "stream_order": 3,
    "superfund_score": 0.0107,
    "tourism_amenity_density": 0.2387,
    "tri_facility_density": 0.0,
    "usgs_mean_q_cfs": 2.075,
    "velocity_feasibility": 0.7,
    "water_intake_score": 2.7024
   },
   "type": "Feature"
  },
  {
   "geometry": {
    "coordinates": [
     -82.355849,
     35.657414
    ],
    "type": "Point"
   },
   "properties": {
    "accumulation": 32145.0,
    "bank_slope_deg": 30.29,
    "bank_slope_score": 0.2,
    "bank_slope_source": "nc-dps-lidar-dem03-cross-section",
    "beach_dist_km": 446.19,
    "bridge_proximity_bonus": 0.0,
    "catchment_area_km2": 3.2087,
    "channel_width_m": 5.06,
    "channel_width_score": 1.0,
    "composite_score": 27.7338,
    "cso_density": 0.0,
    "ej_index": 0.4157,
    "elevation_m": 768.5839,
    "estuary_dist_km": 575.75,
    "feasibility_score": 45.3175,
    "flood_q10_cfs": null,
    "flow_score": 28.9617,
    "flow_velocity_ms": 0.257,
    "generation_score": 4.8955,
    "impact_score": 40.7572,
    "impervious_pct": 0.26,
    "land_ownership": 0.5,
    "lat": 35.6574,
    "litter_complaint_density": 0.0,
    "lon": -82.3558,
    "navigable_dist_m": null,
    "npdes_points": 0,
    "pixel_col": 202.0,
    "pixel_row": 193.0,
    "population_density": 87.3,
    "position_along": 0.5,
    "protected_area_score": 13.2258,
    "rank": 27,
    "road_access_m": 519.6,
    "road_access_score": 0.6,
    "road_density_km_km2": 0.751,
    "robustness_pct": 0.0,
    "runoff_coeff_C": 0.0523,
    "seasonal_cv": 0.4489,
    "segment_id": 0,
    "segment_length_m": 1393.8355,
    "stream_order": 3,
    "superfund_score": 0.0116,
    "tourism_amenity_density": 0.1592,
    "tri_facility_density": 0.0,
    "usgs_mean_q_cfs": 3.597,
    "velocity_feasibility": 0.7,
    "water_intake_score": 2.7205
   },
   "type": "Feature"
  },
  {
   "geometry": {
    "coordinates": [
     -82.340602,
     35.602423
    ],
    "type": "Point"
   },
   "properties": {
    "accumulation": 41181.0,
    "bank_slope_deg": 17.71,
    "bank_slope_score": 0.5,
    "bank_slope_source": "nc-dps-lidar-dem03-cross-section",
    "beach_dist_km": 442.86,
    "bridge_proximity_bonus": 0.0,
    "catchment_area_km2": 4.1107,
    "channel_width_m": 5.61,
    "channel_width_score": 1.0,
    "composite_score": 26.5584,
    "cso_density": 0.0,
    "ej_index": 0.3101,
    "elevation_m": 703.9129,
    "estuary_dist_km": 573.89,
    "feasibility_score": 60.1786,
    "flood_q10_cfs": null,
    "flow_score": 10.1377,
    "flow_velocity_ms": 0.1893,
    "generation_score": 11.18,
    "impact_score": 38.8105,
    "impervious_pct": 1.31,
    "land_ownership": 0.5,
    "lat": 35.6024,
    "litter_complaint_density": 0.0,
    "lon": -82.3406,
    "navigable_dist_m": null,
    "npdes_points": 0,
    "pixel_col": 330.0,
    "pixel_row": 801.0,
    "population_density": 112.5,
    "position_along": 0.5,
    "protected_area_score": 14.5815,
    "rank": 28,
    "road_access_m": 104.6,
    "road_access_score": 1.0,
    "road_density_km_km2": 3.857,
    "robustness_pct": 0.0,
    "runoff_coeff_C": 0.0618,
    "seasonal_cv": 0.4709,
    "segment_id": 17,
    "segment_length_m": 1251.1219,
    "stream_order": 1,
    "superfund_score": 0.0678,
    "tourism_amenity_density": 3.8993,
    "tri_facility_density": 0.0,
    "usgs_mean_q_cfs": 3.199,
    "velocity_feasibility": 0.7,
    "water_intake_score": 1.99
   },
   "type": "Feature"
  },
  {
   "geometry": {
    "coordinates": [
     -82.2685,
     35.593797
    ],
    "type": "Point"
   },
   "properties": {
    "accumulation": 23866.0,
    "bank_slope_deg": 10.99,
    "bank_slope_score": 1.0,
    "bank_slope_source": "nc-dps-lidar-dem03-cross-section",
    "beach_dist_km": 436.39,
    "bridge_proximity_bonus": 0.0,
    "catchment_area_km2": 2.3823,
    "channel_width_m": 4.47,
    "channel_width_score": 1.0,
    "composite_score": 23.1081,
    "cso_density": 0.0,
    "ej_index": 0.403,
    "elevation_m": 798.1515,
    "estuary_dist_km": 567.31,
    "feasibility_score": 55.3175,
    "flood_q10_cfs": null,
    "flow_score": 8.1774,
    "flow_velocity_ms": 0.1772,
    "generation_score": 1.7049,
    "impact_score": 40.8488,
    "impervious_pct": 0.1,
    "land_ownership": 0.5,
    "lat": 35.5938,
    "litter_complaint_density": 0.0,
    "lon": -82.2685,
    "navigable_dist_m": null,
    "npdes_points": 0,
    "pixel_col": 984.0,
    "pixel_row": 909.0,
    "population_density": 32.9,
    "position_along": 0.5,
    "protected_area_score": 12.0349,
    "rank": 29,
    "road_access_m": 728.3,
    "road_access_score": 0.6,
    "road_density_km_km2": 0.383,
    "robustness_pct": 0.0,
    "runoff_coeff_C": 0.0509,
    "seasonal_cv": 0.5198,
    "segment_id": 24,
    "segment_length_m": 339.3985,
    "stream_order": 1,
    "superfund_score": 0.0051,
    "tourism_amenity_density": 0.0796,
    "tri_facility_density": 0.0,
    "usgs_mean_q_cfs": 4.221,
    "velocity_feasibility": 0.7,
    "water_intake_score": 1.6072
   },
   "type": "Feature"
  },
  {
   "geometry": {
    "coordinates": [
     -82.270772,
     35.57742
    ],
    "type": "Point"
   },
   "properties": {
    "accumulation": 22024.0,
    "bank_slope_deg": 34.97,
    "bank_slope_score": 0.2,
    "bank_slope_source": "nc-dps-lidar-dem03-cross-section",
    "beach_dist_km": 435.98,
    "bridge_proximity_bonus": 0.0,
    "catchment_area_km2": 2.1984,
    "channel_width_m": 4.33,
    "channel_width_score": 1.0,
    "composite_score": 22.5668,
    "cso_density": 0.0,
    "ej_index": 0.4726,
    "elevation_m": 804.1435,
    "estuary_dist_km": 567.38,
    "feasibility_score": 45.3175,
    "flood_q10_cfs": null,
    "flow_score": 8.8913,
    "flow_velocity_ms": 0.2207,
    "generation_score": 1.1886,
    "impact_score": 43.9659,
    "impervious_pct": 0.3,
    "land_ownership": 0.5,
    "lat": 35.5774,
    "litter_complaint_density": 0.0,
    "lon": -82.2708,
    "navigable_dist_m": null,
    "npdes_points": 0,
    "pixel_col": 961.0,
    "pixel_row": 1091.0,
    "population_density": 25.8,
    "position_along": 0.5,
    "protected_area_score": 12.5368,
    "rank": 30,
    "road_access_m": 883.9,
    "road_access_score": 0.6,
    "road_density_km_km2": 0.0,
    "robustness_pct": 0.0,
    "runoff_coeff_C": 0.0527,
    "seasonal_cv": 0.5533,
    "segment_id": 25,
    "segment_length_m": 1055.4411,
    "stream_order": 1,
    "superfund_score": 0.0049,
    "tourism_amenity_density": 0.0796,
    "tri_facility_density": 0.0,
    "usgs_mean_q_cfs": 3.237,
    "velocity_feasibility": 0.7,
    "water_intake_score": 1.4828
   },
   "type": "Feature"
  },
  {
   "geometry": {
    "coordinates": [
     -82.266906,
     35.650067
    ],
    "type": "Point"
   },
   "properties": {
    "accumulation": 25586.0,
    "bank_slope_deg": 14.39,
    "bank_slope_score": 1.0,
    "bank_slope_source": "nc-dps-lidar-dem03-cross-section",
    "beach_dist_km": 438.36,
    "bridge_proximity_bonus": 0.0,
    "catchment_area_km2": 2.554,
    "channel_width_m": 4.6,
    "channel_width_score": 1.0,
    "composite_score": 21.2235,
    "cso_density": 0.0,
    "ej_index": 0.5348,
    "elevation_m": 691.2036,
    "estuary_dist_km": 567.67,
    "feasibility_score": 45.0,
    "flood_q10_cfs": null,
    "flow_score": 2.0932,
    "flow_velocity_ms": 0.0482,
    "generation_score": 0.081,
    "impact_score": 46.4196,
    "impervious_pct": 0.06,
    "land_ownership": 1.0,
    "lat": 35.6501,
    "litter_complaint_density": 0.0,
    "lon": -82.2669,
    "navigable_dist_m": null,
    "npdes_points": 0,
    "pixel_col": 1005.0,
    "pixel_row": 283.0,
    "population_density": 9.0,
    "position_along": 0.5,
    "protected_area_score": 9.7043,
    "rank": 31,
    "road_access_m": 2191.3,
    "road_access_score": 0.1,
    "road_density_km_km2": 0.0,
    "robustness_pct": 0.0,
    "runoff_coeff_C": 0.0505,
    "seasonal_cv": 0.6119,
    "segment_id": 4,
    "segment_length_m": 9.991,
    "stream_order": 1,
    "superfund_score": 0.0039,
    "tourism_amenity_density": 0.2387,
    "tri_facility_density": 0.0,
    "usgs_mean_q_cfs": 1.252,
    "velocity_feasibility": 0.3,
    "water_intake_score": 2.0201
   },
   "type": "Feature"
  }
 ],
 "note": "GRIME region 'Black Mountain, NC' \u2014 real-data pipeline (DEM\u2192streams\u2192candidates\u2192stream mask (sites confined to \u00b1150 m of mapped OSM/NHD waterways)\u2192region-appropriate real parameters\u2192shipped scoring, math unchanged). Width curve: Bieger et al. 2015 JAWRA Table 3, Appalachian Highlands. Flood: not applicable here (documented fallback). NC Blue Ridge (outside SIR 2014-5030 urban coverage); merged nearby towns: Montreat",
 "provenance": {
  "candidates_pre_gate": 31,
  "constant": [
   "cso_density",
   "flood_q10_cfs",
   "litter_complaint_density"
  ],
  "gated_navigable": 0,
  "hard_gate_removed": 0,
  "n_parameters": 27,
  "parameters": {
   "bank_slope_score": {
    "kind": "real",
    "n_3dep_10m_fallback": 0,
    "n_nc_lidar_3_125ft": 31,
    "n_real": 31,
    "n_sites": 31,
    "source": "NC OneMap / NC DPS DEM03 statewide lidar-derived 3.125-ft (0.953 m) elevations (perpendicular 50 m transect; robust 5 m bank-rise metric); unavailable profiles use the region 10 m 3DEP DEM-gradient fallback",
    "source_mosaics": [
     "Buncombe_QL1_2025_03ft_CountywideRaster"
    ]
   },
   "beach_dist_km": {
    "kind": "real",
    "n_real": 31,
    "n_sites": 31,
    "source": "haversine to region ref: Wrightsville Beach (shipped NC reference)"
   },
   "bridge_proximity_bonus": {
    "kind": "real",
    "n_real": 31,
    "n_sites": 31,
    "source": "FHWA/BTS NBI (NTAD), 50 m proximity"
   },
   "catchment_area_km2": {
    "kind": "real",
    "n_real": 31,
    "n_sites": 31,
    "source": "DEM flow accumulation (pipeline)"
   },
   "channel_width_score": {
    "kind": "real",
    "n_real": 31,
    "n_sites": 31,
    "source": "Bieger 2015 AHI width curve on DEM drainage area \u2192 shipped width curve"
   },
   "cso_density": {
    "kind": "real",
    "n_real": 31,
    "n_sites": 31,
    "source": "EPA ECHO open CSO/TCS outfall PF coordinates states=NC, Cauchy proximity"
   },
   "ej_index": {
    "kind": "real",
    "n_real": 31,
    "n_sites": 31,
    "source": "Census ACS C17002+B03002 two-component demographic index, percentile-ranked within region"
   },
   "estuary_dist_km": {
    "kind": "real",
    "n_real": 31,
    "n_sites": 31,
    "source": "haversine to region ref: Pamlico Sound (shipped NC reference)"
   },
   "flood_q10_cfs": {
    "impervious_fallback_reason": "StreamCat imperviousness unavailable; the existing regression-input fallback of 0.0% impervious was used and is disclosed here",
    "kind": "fallback",
    "n_impervious_fallback": 3,
    "n_real": 0,
    "n_sites": 31,
    "source": "flood regression not valid here (NC Blue Ridge (outside SIR 2014-5030 urban coverage); merged...) \u2014 NaN, dropped by constant-column handling"
   },
   "flow_velocity_ms": {
    "fallback_reason": "EROM/DEM continuity input unavailable; shipped 0.5 m/s default used",
    "kind": "real",
    "n_fallback": 3,
    "n_real": 28,
    "n_sites": 31,
    "source": "Manning (region DEM/D8) blended with EROM continuity (shipped M4 logic)"
   },
   "impervious_pct": {
    "fallback_reason": "NLDI/StreamCat did not return a snap-compatible catchment value; value remains null and is removed by constant-column handling",
    "kind": "real",
    "n_fallback": 3,
    "n_real": 28,
    "n_sites": 31,
    "source": "EPA StreamCat pctimp2019 (per NHDPlus watershed)"
   },
   "land_ownership": {
    "fallback_reason": "no containing parcel owner returned; shipped unknown ownership 0.5 used",
    "kind": "real",
    "n_fallback": 8,
    "n_real": 23,
    "n_sites": 31,
    "source": "NC OneMap statewide parcels (NC Parcels Transformer) ownname"
   },
   "litter_complaint_density": {
    "kind": "fallback",
    "n_real": 0,
    "n_sites": 31,
    "source": "no public machine-readable litter/illegal-dumping feed for this region"
   },
   "navigable_dist_m": {
    "kind": "real",
    "n_real": 31,
    "n_sites": 31,
    "source": "USACE/BTS NWN (NTAD): no navigable segment within this bbox (+2 km) \u2014 computed absence, gate passes all sites"
   },
   "npdes_points": {
    "kind": "real",
    "n_real": 31,
    "n_sites": 31,
    "source": "EPA ECHO active NPDES outfalls states=NC (types NPD/GPC/NGP; statuses ADC/EFF/EXP), per catchment"
   },
   "population_density": {
    "kind": "real",
    "n_real": 31,
    "n_sites": 31,
    "source": "Census ACS 2022 B01003 block groups (bbox, multi-county), area-weighted"
   },
   "protected_area_score": {
    "kind": "real",
    "n_real": 31,
    "n_sites": 31,
    "source": "USGS PAD-US 4.1 state GDB; states=NC; shipped designation-weighted proximity curve"
   },
   "road_access_score": {
    "kind": "real",
    "n_real": 31,
    "n_sites": 31,
    "source": "OSM drive network nearest-node distance"
   },
   "road_density_km_km2": {
    "kind": "real",
    "n_real": 31,
    "n_sites": 31,
    "source": "OSM drive network (osmnx, cached) clipped per catchment"
   },
   "runoff_coeff_C": {
    "fallback_reason": "source impervious_pct was unavailable; derived value remains null",
    "kind": "real",
    "n_fallback": 3,
    "n_real": 28,
    "n_sites": 31,
    "source": "derived from real impervious_pct (C=0.05+0.009*I)"
   },
   "seasonal_cv": {
    "fallback_reason": "NHDPlus monthly EROM was unavailable or failed the drainage-area snap guard; value remains null",
    "kind": "real",
    "n_fallback": 3,
    "n_real": 28,
    "n_sites": 31,
    "source": "CV of NHDPlus EROM monthly flows per COMID"
   },
   "stream_order": {
    "kind": "real",
    "n_real": 31,
    "n_sites": 31,
    "source": "DEM stream-network confluence heuristic (pipeline)"
   },
   "superfund_score": {
    "kind": "real",
    "n_real": 31,
    "n_sites": 31,
    "source": "EPA DataMap SEMS active sites states=NC (non-archived, georeferenced), shipped 500 m inverse-distance curve"
   },
   "tourism_amenity_density": {
    "kind": "real",
    "n_real": 31,
    "n_sites": 31,
    "source": "OSM leisure/tourism features per 2 km radius"
   },
   "tri_facility_density": {
    "kind": "real",
    "n_real": 31,
    "n_sites": 31,
    "source": "EPA DataMap TRI open facilities states=NC (preferred decimal or packed-DMS recovery), per catchment"
   },
   "usgs_mean_q_cfs": {
    "fallback_reason": "NHDPlus EROM was unavailable or failed the drainage-area snap guard; value remains null",
    "kind": "real",
    "n_fallback": 3,
    "n_real": 28,
    "n_sites": 31,
    "source": "NHDPlus EROM qe_ma per COMID (snap-guarded)"
   },
   "velocity_feasibility": {
    "fallback_reason": "derived from the shipped 0.5 m/s velocity fallback",
    "kind": "real",
    "n_fallback": 3,
    "n_real": 28,
    "n_sites": 31,
    "source": "shipped step curve on the computed velocity"
   },
   "velocity_transport_favorability": {
    "fallback_reason": "EROM/DEM continuity input unavailable; shipped 0.5 m/s default used",
    "kind": "derived",
    "n_fallback": 3,
    "n_real": 28,
    "n_sites": 31,
    "source": "scored form of flow_velocity_ms inside the Flow family \u2014 peaked Gaussian exp(-((v-0.9)/0.6)^2), model.json curves.velocity_transport_favorability; construct: transport/delivery favorability, deliberately distinct from velocity_feasibility (device operability)"
   },
   "water_intake_score": {
    "kind": "real",
    "n_real": 31,
    "n_sites": 31,
    "source": "NC OneMap / NC DEQ SWAP public water supply sources (source_typ='Surface Water'), shipped exp(-d/10km) curve"
   }
  },
  "stream_mask": {
   "buffer_m": 150.0,
   "pre_mask": 31,
   "removed": 0,
   "sources": [
    "osm-overpass (all waterway ways)",
    "usgs-nhdplus flowlines"
   ]
  },
  "varying": [
   "bank_slope_score",
   "beach_dist_km",
   "bridge_proximity_bonus",
   "catchment_area_km2",
   "channel_width_score",
   "ej_index",
   "estuary_dist_km",
   "flow_velocity_ms",
   "impervious_pct",
   "land_ownership",
   "npdes_points",
   "population_density",
   "protected_area_score",
   "road_access_score",
   "road_density_km_km2",
   "runoff_coeff_C",
   "seasonal_cv",
   "stream_order",
   "superfund_score",
   "tourism_amenity_density",
   "tri_facility_density",
   "usgs_mean_q_cfs",
   "velocity_feasibility",
   "water_intake_score"
  ]
 },
 "region": {
  "bbox": [
   -82.3765,
   35.5733,
   -82.2668,
   35.6744
  ],
  "beach_ref": {
   "label": "Wrightsville Beach (shipped NC reference)",
   "lat": 34.21,
   "lon": -77.79
  },
  "center": [
   -82.325516,
   35.614705
  ],
  "estuary_ref": {
   "label": "Pamlico Sound (shipped NC reference)",
   "lat": 35.05,
   "lon": -76.05
  },
  "flood_method": "none",
  "name": "Black Mountain, NC",
  "notes": "NC Blue Ridge (outside SIR 2014-5030 urban coverage); merged nearby towns: Montreat",
  "slug": "black-mountain",
  "state": "NC",
  "utm_epsg": 32617,
  "width_curve": {
   "a": 3.12,
   "b": 0.415,
   "code": "AHI",
   "source": "Bieger et al. 2015 JAWRA Table 3, Appalachian Highlands"
  }
 },
 "type": "FeatureCollection"
}
