{
 "features": [
  {
   "geometry": {
    "coordinates": [
     -81.642967,
     35.256685
    ],
    "type": "Point"
   },
   "properties": {
    "accumulation": 36813.0,
    "bank_slope_deg": 6.2,
    "bank_slope_score": 1.0,
    "bank_slope_source": "nc-dps-lidar-dem03-cross-section",
    "beach_dist_km": 370.8,
    "bridge_proximity_bonus": 0.0,
    "catchment_area_km2": 3.6718,
    "channel_width_m": 5.35,
    "channel_width_score": 1.0,
    "composite_score": 61.8089,
    "cso_density": 0.0,
    "ej_index": 0.3964,
    "elevation_m": 220.6471,
    "estuary_dist_km": 508.93,
    "feasibility_score": 71.4286,
    "flood_q10_cfs": 541.43,
    "flow_score": 24.3805,
    "flow_velocity_ms": 0.1228,
    "generation_score": 80.8308,
    "impact_score": 69.1675,
    "impervious_pct": 5.05,
    "land_ownership": 1.0,
    "lat": 35.2567,
    "litter_complaint_density": 0.0,
    "lon": -81.643,
    "navigable_dist_m": null,
    "npdes_points": 0,
    "pixel_col": 569.0,
    "pixel_row": 329.0,
    "population_density": 198.3,
    "position_along": 0.5,
    "protected_area_score": 3.6372,
    "rank": 1,
    "road_access_m": 339.7,
    "road_access_score": 0.8,
    "road_density_km_km2": 2.31,
    "robustness_pct": 95.0,
    "runoff_coeff_C": 0.0955,
    "seasonal_cv": 0.451,
    "segment_id": 4,
    "segment_length_m": 2886.3488,
    "stream_order": 3,
    "superfund_score": 0.0038,
    "tourism_amenity_density": 0.2387,
    "tri_facility_density": 0.0,
    "usgs_mean_q_cfs": 3.426,
    "velocity_feasibility": 0.7,
    "water_intake_score": 1.129
   },
   "type": "Feature"
  },
  {
   "geometry": {
    "coordinates": [
     -81.645832,
     35.242725
    ],
    "type": "Point"
   },
   "properties": {
    "accumulation": 29993.0,
    "bank_slope_deg": 7.35,
    "bank_slope_score": 1.0,
    "bank_slope_source": "nc-dps-lidar-dem03-cross-section",
    "beach_dist_km": 370.59,
    "bridge_proximity_bonus": 0.0,
    "catchment_area_km2": 2.9916,
    "channel_width_m": 4.92,
    "channel_width_score": 1.0,
    "composite_score": 56.9931,
    "cso_density": 0.0,
    "ej_index": 0.3723,
    "elevation_m": 223.169,
    "estuary_dist_km": 509.17,
    "feasibility_score": 50.0,
    "flood_q10_cfs": 484.2,
    "flow_score": 24.815,
    "flow_velocity_ms": 0.1335,
    "generation_score": 79.9526,
    "impact_score": 64.3451,
    "impervious_pct": 7.49,
    "land_ownership": 0.5,
    "lat": 35.2427,
    "litter_complaint_density": 0.0,
    "lon": -81.6458,
    "navigable_dist_m": null,
    "npdes_points": 0,
    "pixel_col": 542.0,
    "pixel_row": 481.0,
    "population_density": 130.3,
    "position_along": 0.25,
    "protected_area_score": 3.307,
    "rank": 2,
    "road_access_m": 449.5,
    "road_access_score": 0.8,
    "road_density_km_km2": 2.596,
    "robustness_pct": 91.0,
    "runoff_coeff_C": 0.1174,
    "seasonal_cv": 0.445,
    "segment_id": 8,
    "segment_length_m": 3673.4455,
    "stream_order": 3,
    "superfund_score": 0.0028,
    "tourism_amenity_density": 1.2732,
    "tri_facility_density": 0.0,
    "usgs_mean_q_cfs": 3.513,
    "velocity_feasibility": 0.7,
    "water_intake_score": 1.0191
   },
   "type": "Feature"
  },
  {
   "geometry": {
    "coordinates": [
     -81.639475,
     35.270948
    ],
    "type": "Point"
   },
   "properties": {
    "accumulation": 38843.0,
    "bank_slope_deg": 12.45,
    "bank_slope_score": 1.0,
    "bank_slope_source": "nc-dps-lidar-dem03-cross-section",
    "beach_dist_km": 370.97,
    "bridge_proximity_bonus": 0.0,
    "catchment_area_km2": 3.8743,
    "channel_width_m": 5.47,
    "channel_width_score": 1.0,
    "composite_score": 55.7714,
    "cso_density": 0.0,
    "ej_index": 0.3901,
    "elevation_m": 225.1514,
    "estuary_dist_km": 508.65,
    "feasibility_score": 50.0,
    "flood_q10_cfs": 559.16,
    "flow_score": 24.9579,
    "flow_velocity_ms": 0.1222,
    "generation_score": 64.0622,
    "impact_score": 76.0442,
    "impervious_pct": 4.58,
    "land_ownership": 0.5,
    "lat": 35.2709,
    "litter_complaint_density": 0.0,
    "lon": -81.6395,
    "navigable_dist_m": null,
    "npdes_points": 0,
    "pixel_col": 601.0,
    "pixel_row": 170.0,
    "population_density": 116.3,
    "position_along": 0.25,
    "protected_area_score": 3.8171,
    "rank": 3,
    "road_access_m": 294.9,
    "road_access_score": 0.8,
    "road_density_km_km2": 3.141,
    "robustness_pct": 90.0,
    "runoff_coeff_C": 0.0912,
    "seasonal_cv": 0.4437,
    "segment_id": 1,
    "segment_length_m": 3802.2743,
    "stream_order": 3,
    "superfund_score": 0.0051,
    "tourism_amenity_density": 0.0,
    "tri_facility_density": 0.0,
    "usgs_mean_q_cfs": 4.757,
    "velocity_feasibility": 0.7,
    "water_intake_score": 1.2485
   },
   "type": "Feature"
  },
  {
   "geometry": {
    "coordinates": [
     -81.629275,
     35.245686
    ],
    "type": "Point"
   },
   "properties": {
    "accumulation": 135448.0,
    "bank_slope_deg": 23.99,
    "bank_slope_score": 0.5,
    "bank_slope_source": "nc-dps-lidar-dem03-cross-section",
    "beach_dist_km": 369.25,
    "bridge_proximity_bonus": 0.0,
    "catchment_area_km2": 13.5099,
    "channel_width_m": 9.19,
    "channel_width_score": 1.0,
    "composite_score": 54.2831,
    "cso_density": 0.0,
    "ej_index": 0.3654,
    "elevation_m": 207.3616,
    "estuary_dist_km": 507.67,
    "feasibility_score": 41.0714,
    "flood_q10_cfs": 1321.14,
    "flow_score": 46.6164,
    "flow_velocity_ms": 0.1473,
    "generation_score": 53.159,
    "impact_score": 68.4017,
    "impervious_pct": 6.46,
    "land_ownership": 0.5,
    "lat": 35.2457,
    "litter_complaint_density": 0.0,
    "lon": -81.6293,
    "navigable_dist_m": null,
    "npdes_points": 0,
    "pixel_col": 692.0,
    "pixel_row": 452.0,
    "population_density": 94.9,
    "position_along": 0.25,
    "protected_area_score": 3.3943,
    "rank": 4,
    "road_access_m": 410.6,
    "road_access_score": 0.8,
    "road_density_km_km2": 0.734,
    "robustness_pct": 98.5,
    "runoff_coeff_C": 0.1081,
    "seasonal_cv": 0.4334,
    "segment_id": 5,
    "segment_length_m": 3586.9885,
    "stream_order": 3,
    "superfund_score": 0.0038,
    "tourism_amenity_density": 0.1592,
    "tri_facility_density": 0.0,
    "usgs_mean_q_cfs": 24.074,
    "velocity_feasibility": 0.7,
    "water_intake_score": 1.1252
   },
   "type": "Feature"
  },
  {
   "geometry": {
    "coordinates": [
     -81.630494,
     35.235444
    ],
    "type": "Point"
   },
   "properties": {
    "accumulation": 152226.0,
    "bank_slope_deg": 29.1,
    "bank_slope_score": 0.5,
    "bank_slope_source": "nc-dps-lidar-dem03-cross-section",
    "beach_dist_km": 369.02,
    "bridge_proximity_bonus": 0.0,
    "catchment_area_km2": 15.1834,
    "channel_width_m": 9.65,
    "channel_width_score": 1.0,
    "composite_score": 49.496,
    "cso_density": 0.0,
    "ej_index": 0.354,
    "elevation_m": 203.1743,
    "estuary_dist_km": 507.77,
    "feasibility_score": 26.7857,
    "flood_q10_cfs": 1401.85,
    "flow_score": 49.7792,
    "flow_velocity_ms": 0.1607,
    "generation_score": 49.0094,
    "impact_score": 61.1018,
    "impervious_pct": 6.07,
    "land_ownership": 0.5,
    "lat": 35.2354,
    "litter_complaint_density": 0.0,
    "lon": -81.6305,
    "navigable_dist_m": null,
    "npdes_points": 0,
    "pixel_col": 677.0,
    "pixel_row": 565.0,
    "population_density": 80.5,
    "position_along": 0.75,
    "protected_area_score": 3.2229,
    "rank": 5,
    "road_access_m": 641.0,
    "road_access_score": 0.6,
    "road_density_km_km2": 0.955,
    "robustness_pct": 51.5,
    "runoff_coeff_C": 0.1046,
    "seasonal_cv": 0.4313,
    "segment_id": 5,
    "segment_length_m": 3586.9885,
    "stream_order": 3,
    "superfund_score": 0.003,
    "tourism_amenity_density": 0.1592,
    "tri_facility_density": 0.0,
    "usgs_mean_q_cfs": 27.259,
    "velocity_feasibility": 0.7,
    "water_intake_score": 1.0419
   },
   "type": "Feature"
  },
  {
   "geometry": {
    "coordinates": [
     -81.630241,
     35.259086
    ],
    "type": "Point"
   },
   "properties": {
    "accumulation": 63894.0,
    "bank_slope_deg": 17.76,
    "bank_slope_score": 0.5,
    "bank_slope_source": "nc-dps-lidar-dem03-cross-section",
    "beach_dist_km": 369.77,
    "bridge_proximity_bonus": 0.0,
    "catchment_area_km2": 6.373,
    "channel_width_m": 6.73,
    "channel_width_score": 1.0,
    "composite_score": 49.1047,
    "cso_density": 0.0,
    "ej_index": 0.3849,
    "elevation_m": 212.8295,
    "estuary_dist_km": 507.78,
    "feasibility_score": 26.7857,
    "flood_q10_cfs": 813.62,
    "flow_score": 30.3799,
    "flow_velocity_ms": 0.1548,
    "generation_score": 49.1404,
    "impact_score": 75.8325,
    "impervious_pct": 4.58,
    "land_ownership": 0.5,
    "lat": 35.2591,
    "litter_complaint_density": 0.0,
    "lon": -81.6302,
    "navigable_dist_m": null,
    "npdes_points": 0,
    "pixel_col": 685.0,
    "pixel_row": 302.0,
    "population_density": 107.1,
    "position_along": 0.75,
    "protected_area_score": 3.5776,
    "rank": 6,
    "road_access_m": 737.8,
    "road_access_score": 0.6,
    "road_density_km_km2": 1.254,
    "robustness_pct": 36.0,
    "runoff_coeff_C": 0.0912,
    "seasonal_cv": 0.4437,
    "segment_id": 1,
    "segment_length_m": 3802.2743,
    "stream_order": 3,
    "superfund_score": 0.0049,
    "tourism_amenity_density": 0.0,
    "tri_facility_density": 0.0,
    "usgs_mean_q_cfs": 4.757,
    "velocity_feasibility": 0.7,
    "water_intake_score": 1.2224
   },
   "type": "Feature"
  },
  {
   "geometry": {
    "coordinates": [
     -81.631859,
     35.222536
    ],
    "type": "Point"
   },
   "properties": {
    "accumulation": 224922.0,
    "bank_slope_deg": 23.08,
    "bank_slope_score": 0.5,
    "bank_slope_source": "nc-dps-lidar-dem03-cross-section",
    "beach_dist_km": 368.72,
    "bridge_proximity_bonus": 0.0,
    "catchment_area_km2": 22.4343,
    "channel_width_m": 11.34,
    "channel_width_score": 1.0,
    "composite_score": 44.0744,
    "cso_density": 0.0,
    "ej_index": 0.3125,
    "elevation_m": 199.6324,
    "estuary_dist_km": 507.87,
    "feasibility_score": 26.7857,
    "flood_q10_cfs": 1739.28,
    "flow_score": 58.8627,
    "flow_velocity_ms": 0.1184,
    "generation_score": 41.1087,
    "impact_score": 43.3608,
    "impervious_pct": 6.03,
    "land_ownership": 0.5,
    "lat": 35.2225,
    "litter_complaint_density": 0.0,
    "lon": -81.6319,
    "navigable_dist_m": null,
    "npdes_points": 0,
    "pixel_col": 667.0,
    "pixel_row": 708.0,
    "population_density": 61.9,
    "position_along": 0.25,
    "protected_area_score": 2.3134,
    "rank": 7,
    "road_access_m": 648.6,
    "road_access_score": 0.6,
    "road_density_km_km2": 0.48,
    "robustness_pct": 8.5,
    "runoff_coeff_C": 0.1043,
    "seasonal_cv": 0.4347,
    "segment_id": 9,
    "segment_length_m": 3087.8047,
    "stream_order": 3,
    "superfund_score": 0.0023,
    "tourism_amenity_density": 0.0,
    "tri_facility_density": 0.0,
    "usgs_mean_q_cfs": 31.677,
    "velocity_feasibility": 0.7,
    "water_intake_score": 0.943
   },
   "type": "Feature"
  },
  {
   "geometry": {
    "coordinates": [
     -81.687372,
     35.248349
    ],
    "type": "Point"
   },
   "properties": {
    "accumulation": 45804.0,
    "bank_slope_deg": 15.18,
    "bank_slope_score": 0.5,
    "bank_slope_source": "nc-dps-lidar-dem03-cross-section",
    "beach_dist_km": 374.38,
    "bridge_proximity_bonus": 0.0,
    "catchment_area_km2": 4.5686,
    "channel_width_m": 5.86,
    "channel_width_score": 1.0,
    "composite_score": 43.9913,
    "cso_density": 0.0,
    "ej_index": 0.4583,
    "elevation_m": 216.3458,
    "estuary_dist_km": 512.95,
    "feasibility_score": 55.3571,
    "flood_q10_cfs": 584.36,
    "flow_score": 44.4227,
    "flow_velocity_ms": 0.5,
    "generation_score": 28.8729,
    "impact_score": 53.0674,
    "impervious_pct": null,
    "land_ownership": 0.5,
    "lat": 35.2483,
    "litter_complaint_density": 0.0,
    "lon": -81.6874,
    "navigable_dist_m": null,
    "npdes_points": 0,
    "pixel_col": 160.0,
    "pixel_row": 418.0,
    "population_density": 107.6,
    "position_along": 0.5,
    "protected_area_score": 3.3608,
    "rank": 8,
    "road_access_m": 664.1,
    "road_access_score": 0.6,
    "road_density_km_km2": 2.01,
    "robustness_pct": 8.0,
    "runoff_coeff_C": null,
    "seasonal_cv": null,
    "segment_id": 6,
    "segment_length_m": 1968.1218,
    "stream_order": 3,
    "superfund_score": 0.0017,
    "tourism_amenity_density": 1.512,
    "tri_facility_density": 0.0,
    "usgs_mean_q_cfs": null,
    "velocity_feasibility": 1.0,
    "water_intake_score": 0.8652
   },
   "type": "Feature"
  },
  {
   "geometry": {
    "coordinates": [
     -81.636585,
     35.23437
    ],
    "type": "Point"
   },
   "properties": {
    "accumulation": 45017.0,
    "bank_slope_deg": 18.97,
    "bank_slope_score": 0.5,
    "bank_slope_source": "nc-dps-lidar-dem03-cross-section",
    "beach_dist_km": 369.52,
    "bridge_proximity_bonus": 0.0,
    "catchment_area_km2": 4.4901,
    "channel_width_m": 5.82,
    "channel_width_score": 1.0,
    "composite_score": 43.8418,
    "cso_density": 0.0,
    "ej_index": 0.346,
    "elevation_m": 207.3507,
    "estuary_dist_km": 508.32,
    "feasibility_score": 26.7857,
    "flood_q10_cfs": 657.55,
    "flow_score": 27.9104,
    "flow_velocity_ms": 0.1399,
    "generation_score": 53.5877,
    "impact_score": 55.9002,
    "impervious_pct": 7.49,
    "land_ownership": 0.5,
    "lat": 35.2344,
    "litter_complaint_density": 0.0,
    "lon": -81.6366,
    "navigable_dist_m": null,
    "npdes_points": 0,
    "pixel_col": 623.0,
    "pixel_row": 577.0,
    "population_density": 68.5,
    "position_along": 0.75,
    "protected_area_score": 3.1721,
    "rank": 9,
    "road_access_m": 713.9,
    "road_access_score": 0.6,
    "road_density_km_km2": 0.891,
    "robustness_pct": 0.0,
    "runoff_coeff_C": 0.1174,
    "seasonal_cv": 0.445,
    "segment_id": 8,
    "segment_length_m": 3673.4455,
    "stream_order": 3,
    "superfund_score": 0.0027,
    "tourism_amenity_density": 0.1592,
    "tri_facility_density": 0.0,
    "usgs_mean_q_cfs": 3.513,
    "velocity_feasibility": 0.7,
    "water_intake_score": 1.0055
   },
   "type": "Feature"
  },
  {
   "geometry": {
    "coordinates": [
     -81.626754,
     35.220287
    ],
    "type": "Point"
   },
   "properties": {
    "accumulation": 234496.0,
    "bank_slope_deg": 31.84,
    "bank_slope_score": 0.2,
    "bank_slope_source": "nc-dps-lidar-dem03-cross-section",
    "beach_dist_km": 368.21,
    "bridge_proximity_bonus": 0.0,
    "catchment_area_km2": 23.3892,
    "channel_width_m": 11.54,
    "channel_width_score": 1.0,
    "composite_score": 43.17,
    "cso_density": 0.0,
    "ej_index": 0.3094,
    "elevation_m": 190.8503,
    "estuary_dist_km": 507.41,
    "feasibility_score": 21.4286,
    "flood_q10_cfs": 1779.91,
    "flow_score": 58.725,
    "flow_velocity_ms": 0.0616,
    "generation_score": 39.4442,
    "impact_score": 44.8042,
    "impervious_pct": 6.03,
    "land_ownership": 0.5,
    "lat": 35.2203,
    "litter_complaint_density": 0.0,
    "lon": -81.6268,
    "navigable_dist_m": null,
    "npdes_points": 0,
    "pixel_col": 711.0,
    "pixel_row": 730.0,
    "population_density": 61.0,
    "position_along": 0.75,
    "protected_area_score": 2.2894,
    "rank": 10,
    "road_access_m": 722.3,
    "road_access_score": 0.6,
    "road_density_km_km2": 0.265,
    "robustness_pct": 4.5,
    "runoff_coeff_C": 0.1043,
    "seasonal_cv": 0.4347,
    "segment_id": 9,
    "segment_length_m": 3087.8047,
    "stream_order": 3,
    "superfund_score": 0.0023,
    "tourism_amenity_density": 0.0,
    "tri_facility_density": 0.0,
    "usgs_mean_q_cfs": 31.677,
    "velocity_feasibility": 0.7,
    "water_intake_score": 0.948
   },
   "type": "Feature"
  },
  {
   "geometry": {
    "coordinates": [
     -81.691604,
     35.241983
    ],
    "type": "Point"
   },
   "properties": {
    "accumulation": 175586.0,
    "bank_slope_deg": 21.81,
    "bank_slope_score": 0.5,
    "bank_slope_source": "nc-dps-lidar-dem03-cross-section",
    "beach_dist_km": 374.54,
    "bridge_proximity_bonus": 0.0,
    "catchment_area_km2": 17.5134,
    "channel_width_m": 10.24,
    "channel_width_score": 1.0,
    "composite_score": 42.8411,
    "cso_density": 0.0,
    "ej_index": 0.4326,
    "elevation_m": 209.0447,
    "estuary_dist_km": 513.33,
    "feasibility_score": 41.0714,
    "flood_q10_cfs": 1438.81,
    "flow_score": 62.8582,
    "flow_velocity_ms": 0.1895,
    "generation_score": 32.9408,
    "impact_score": 36.9452,
    "impervious_pct": 2.23,
    "land_ownership": 0.5,
    "lat": 35.242,
    "litter_complaint_density": 0.0,
    "lon": -81.6916,
    "navigable_dist_m": null,
    "npdes_points": 0,
    "pixel_col": 123.0,
    "pixel_row": 489.0,
    "population_density": 95.6,
    "position_along": 0.1667,
    "protected_area_score": 3.0103,
    "rank": 11,
    "road_access_m": 371.8,
    "road_access_score": 0.8,
    "road_density_km_km2": 1.201,
    "robustness_pct": 9.0,
    "runoff_coeff_C": 0.0701,
    "seasonal_cv": 0.4431,
    "segment_id": 7,
    "segment_length_m": 4965.0388,
    "stream_order": 3,
    "superfund_score": 0.0015,
    "tourism_amenity_density": 0.3979,
    "tri_facility_density": 0.0,
    "usgs_mean_q_cfs": 78.401,
    "velocity_feasibility": 0.7,
    "water_intake_score": 0.8188
   },
   "type": "Feature"
  },
  {
   "geometry": {
    "coordinates": [
     -81.689818,
     35.251519
    ],
    "type": "Point"
   },
   "properties": {
    "accumulation": 113130.0,
    "bank_slope_deg": 31.92,
    "bank_slope_score": 0.2,
    "bank_slope_source": "nc-dps-lidar-dem03-cross-section",
    "beach_dist_km": 374.7,
    "bridge_proximity_bonus": 0.0,
    "catchment_area_km2": 11.2839,
    "channel_width_m": 8.53,
    "channel_width_score": 1.0,
    "composite_score": 39.609,
    "cso_density": 0.0,
    "ej_index": 0.4198,
    "elevation_m": 210.9652,
    "estuary_dist_km": 513.18,
    "feasibility_score": 50.0,
    "flood_q10_cfs": 1093.64,
    "flow_score": 54.9321,
    "flow_velocity_ms": 0.5,
    "generation_score": 20.7053,
    "impact_score": 40.5481,
    "impervious_pct": null,
    "land_ownership": 0.5,
    "lat": 35.2515,
    "litter_complaint_density": 0.0,
    "lon": -81.6898,
    "navigable_dist_m": null,
    "npdes_points": 0,
    "pixel_col": 140.0,
    "pixel_row": 383.0,
    "population_density": 89.4,
    "position_along": 0.75,
    "protected_area_score": 3.3654,
    "rank": 12,
    "road_access_m": 506.3,
    "road_access_score": 0.6,
    "road_density_km_km2": 1.448,
    "robustness_pct": 0.0,
    "runoff_coeff_C": null,
    "seasonal_cv": null,
    "segment_id": 3,
    "segment_length_m": 3772.607,
    "stream_order": 3,
    "superfund_score": 0.0017,
    "tourism_amenity_density": 0.3183,
    "tri_facility_density": 0.0,
    "usgs_mean_q_cfs": null,
    "velocity_feasibility": 1.0,
    "water_intake_score": 0.8719
   },
   "type": "Feature"
  },
  {
   "geometry": {
    "coordinates": [
     -81.696986,
     35.25919
    ],
    "type": "Point"
   },
   "properties": {
    "accumulation": 98475.0,
    "bank_slope_deg": 29.73,
    "bank_slope_score": 0.5,
    "bank_slope_source": "nc-dps-lidar-dem03-cross-section",
    "beach_dist_km": 375.57,
    "bridge_proximity_bonus": 0.0,
    "catchment_area_km2": 9.8221,
    "channel_width_m": 8.05,
    "channel_width_score": 1.0,
    "composite_score": 36.1912,
    "cso_density": 0.0,
    "ej_index": 0.3711,
    "elevation_m": 214.5009,
    "estuary_dist_km": 513.84,
    "feasibility_score": 69.6429,
    "flood_q10_cfs": 1012.75,
    "flow_score": 52.9345,
    "flow_velocity_ms": 0.5,
    "generation_score": 10.0261,
    "impact_score": 31.6779,
    "impervious_pct": null,
    "land_ownership": 0.5,
    "lat": 35.2592,
    "litter_complaint_density": 0.0,
    "lon": -81.697,
    "navigable_dist_m": null,
    "npdes_points": 0,
    "pixel_col": 73.0,
    "pixel_row": 297.0,
    "population_density": 66.0,
    "position_along": 0.25,
    "protected_area_score": 3.4328,
    "rank": 13,
    "road_access_m": 462.9,
    "road_access_score": 0.8,
    "road_density_km_km2": 0.699,
    "robustness_pct": 2.0,
    "runoff_coeff_C": null,
    "seasonal_cv": null,
    "segment_id": 3,
    "segment_length_m": 3772.607,
    "stream_order": 3,
    "superfund_score": 0.0017,
    "tourism_amenity_density": 0.0,
    "tri_facility_density": 0.0,
    "usgs_mean_q_cfs": null,
    "velocity_feasibility": 1.0,
    "water_intake_score": 0.8825
   },
   "type": "Feature"
  },
  {
   "geometry": {
    "coordinates": [
     -81.695247,
     35.233175
    ],
    "type": "Point"
   },
   "properties": {
    "accumulation": 197625.0,
    "bank_slope_deg": 5.4,
    "bank_slope_score": 1.0,
    "bank_slope_source": "nc-dps-lidar-dem03-cross-section",
    "beach_dist_km": 374.58,
    "bridge_proximity_bonus": 0.0,
    "catchment_area_km2": 19.7116,
    "channel_width_m": 10.75,
    "channel_width_score": 1.0,
    "composite_score": 35.7056,
    "cso_density": 0.0,
    "ej_index": 0.3807,
    "elevation_m": 206.5525,
    "estuary_dist_km": 513.64,
    "feasibility_score": 35.7143,
    "flood_q10_cfs": 1536.2,
    "flow_score": 65.5314,
    "flow_velocity_ms": 0.1864,
    "generation_score": 25.7888,
    "impact_score": 20.7631,
    "impervious_pct": 2.23,
    "land_ownership": 0.5,
    "lat": 35.2332,
    "litter_complaint_density": 0.0,
    "lon": -81.6952,
    "navigable_dist_m": null,
    "npdes_points": 0,
    "pixel_col": 87.0,
    "pixel_row": 586.0,
    "population_density": 82.4,
    "position_along": 0.5,
    "protected_area_score": 2.372,
    "rank": 14,
    "road_access_m": 814.1,
    "road_access_score": 0.6,
    "road_density_km_km2": 0.611,
    "robustness_pct": 2.5,
    "runoff_coeff_C": 0.0701,
    "seasonal_cv": 0.4431,
    "segment_id": 7,
    "segment_length_m": 4965.0388,
    "stream_order": 3,
    "superfund_score": 0.0014,
    "tourism_amenity_density": 0.0,
    "tri_facility_density": 0.0,
    "usgs_mean_q_cfs": 78.401,
    "velocity_feasibility": 0.7,
    "water_intake_score": 0.7646
   },
   "type": "Feature"
  },
  {
   "geometry": {
    "coordinates": [
     -81.687372,
     35.272933
    ],
    "type": "Point"
   },
   "properties": {
    "accumulation": 38576.0,
    "bank_slope_deg": 13.29,
    "bank_slope_score": 1.0,
    "bank_slope_source": "nc-dps-lidar-dem03-cross-section",
    "beach_dist_km": 375.18,
    "bridge_proximity_bonus": 0.0,
    "catchment_area_km2": 3.8477,
    "channel_width_m": 5.46,
    "channel_width_score": 1.0,
    "composite_score": 34.8681,
    "cso_density": 0.0,
    "ej_index": 0.3278,
    "elevation_m": 220.9135,
    "estuary_dist_km": 513.0,
    "feasibility_score": 78.5714,
    "flood_q10_cfs": 513.42,
    "flow_score": 43.1371,
    "flow_velocity_ms": 0.5,
    "generation_score": 3.8785,
    "impact_score": 37.1152,
    "impervious_pct": null,
    "land_ownership": 0.5,
    "lat": 35.2729,
    "litter_complaint_density": 0.0,
    "lon": -81.6874,
    "navigable_dist_m": null,
    "npdes_points": 0,
    "pixel_col": 165.0,
    "pixel_row": 145.0,
    "population_density": 42.6,
    "position_along": 0.25,
    "protected_area_score": 3.6914,
    "rank": 15,
    "road_access_m": 289.6,
    "road_access_score": 0.8,
    "road_density_km_km2": 0.623,
    "robustness_pct": 1.5,
    "runoff_coeff_C": null,
    "seasonal_cv": null,
    "segment_id": 0,
    "segment_length_m": 3186.6722,
    "stream_order": 3,
    "superfund_score": 0.0021,
    "tourism_amenity_density": 0.0796,
    "tri_facility_density": 0.0,
    "usgs_mean_q_cfs": null,
    "velocity_feasibility": 1.0,
    "water_intake_score": 0.986
   },
   "type": "Feature"
  },
  {
   "geometry": {
    "coordinates": [
     -81.692034,
     35.265876
    ],
    "type": "Point"
   },
   "properties": {
    "accumulation": 58161.0,
    "bank_slope_deg": 30.29,
    "bank_slope_score": 0.2,
    "bank_slope_source": "nc-dps-lidar-dem03-cross-section",
    "beach_dist_km": 375.35,
    "bridge_proximity_bonus": 0.0,
    "catchment_area_km2": 5.8011,
    "channel_width_m": 6.47,
    "channel_width_score": 1.0,
    "composite_score": 34.3498,
    "cso_density": 0.0,
    "ej_index": 0.3477,
    "elevation_m": 218.7339,
    "estuary_dist_km": 513.41,
    "feasibility_score": 64.2857,
    "flood_q10_cfs": 699.59,
    "flow_score": 46.5622,
    "flow_velocity_ms": 0.5,
    "generation_score": 9.1751,
    "impact_score": 34.3796,
    "impervious_pct": null,
    "land_ownership": 0.5,
    "lat": 35.2659,
    "litter_complaint_density": 0.0,
    "lon": -81.692,
    "navigable_dist_m": null,
    "npdes_points": 0,
    "pixel_col": 118.0,
    "pixel_row": 224.0,
    "population_density": 53.8,
    "position_along": 0.75,
    "protected_area_score": 3.6136,
    "rank": 16,
    "road_access_m": 249.5,
    "road_access_score": 0.8,
    "road_density_km_km2": 1.009,
    "robustness_pct": 0.0,
    "runoff_coeff_C": null,
    "seasonal_cv": null,
    "segment_id": 0,
    "segment_length_m": 3186.6722,
    "stream_order": 3,
    "superfund_score": 0.0019,
    "tourism_amenity_density": 0.0,
    "tri_facility_density": 0.0,
    "usgs_mean_q_cfs": null,
    "velocity_feasibility": 1.0,
    "water_intake_score": 0.9329
   },
   "type": "Feature"
  },
  {
   "geometry": {
    "coordinates": [
     -81.697465,
     35.227268
    ],
    "type": "Point"
   },
   "properties": {
    "accumulation": 206629.0,
    "bank_slope_deg": 23.79,
    "bank_slope_score": 0.5,
    "bank_slope_source": "nc-dps-lidar-dem03-cross-section",
    "beach_dist_km": 374.59,
    "bridge_proximity_bonus": 0.0,
    "catchment_area_km2": 20.6097,
    "channel_width_m": 10.95,
    "channel_width_score": 1.0,
    "composite_score": 31.3823,
    "cso_density": 0.0,
    "ej_index": 0.3321,
    "elevation_m": 201.68,
    "estuary_dist_km": 513.84,
    "feasibility_score": 26.7857,
    "flood_q10_cfs": 1576.32,
    "flow_score": 69.2327,
    "flow_velocity_ms": 0.1516,
    "generation_score": 22.12,
    "impact_score": 11.4008,
    "impervious_pct": 2.31,
    "land_ownership": 0.5,
    "lat": 35.2273,
    "litter_complaint_density": 0.0,
    "lon": -81.6975,
    "navigable_dist_m": null,
    "npdes_points": 0,
    "pixel_col": 70.0,
    "pixel_row": 651.0,
    "population_density": 70.1,
    "position_along": 0.8333,
    "protected_area_score": 2.0768,
    "rank": 17,
    "road_access_m": 773.4,
    "road_access_score": 0.6,
    "road_density_km_km2": 0.44,
    "robustness_pct": 1.5,
    "runoff_coeff_C": 0.0708,
    "seasonal_cv": 0.4489,
    "segment_id": 7,
    "segment_length_m": 4965.0388,
    "stream_order": 3,
    "superfund_score": 0.0013,
    "tourism_amenity_density": 0.0,
    "tri_facility_density": 0.0,
    "usgs_mean_q_cfs": 94.181,
    "velocity_feasibility": 0.7,
    "water_intake_score": 0.7303
   },
   "type": "Feature"
  },
  {
   "geometry": {
    "coordinates": [
     -81.695325,
     35.266404
    ],
    "type": "Point"
   },
   "properties": {
    "accumulation": 21919.0,
    "bank_slope_deg": 22.27,
    "bank_slope_score": 0.5,
    "bank_slope_source": "nc-dps-lidar-dem03-cross-section",
    "beach_dist_km": 375.66,
    "bridge_proximity_bonus": 0.0,
    "catchment_area_km2": 2.1863,
    "channel_width_m": 4.32,
    "channel_width_score": 1.0,
    "composite_score": 25.783,
    "cso_density": 0.0,
    "ej_index": 0.3352,
    "elevation_m": 219.6321,
    "estuary_dist_km": 513.71,
    "feasibility_score": 41.0714,
    "flood_q10_cfs": 351.55,
    "flow_score": 20.3537,
    "flow_velocity_ms": 0.1047,
    "generation_score": 17.263,
    "impact_score": 31.183,
    "impervious_pct": 2.7,
    "land_ownership": 0.5,
    "lat": 35.2664,
    "litter_complaint_density": 0.0,
    "lon": -81.6953,
    "navigable_dist_m": null,
    "npdes_points": 0,
    "pixel_col": 88.0,
    "pixel_row": 216.0,
    "population_density": 47.3,
    "position_along": 0.5,
    "protected_area_score": 3.5898,
    "rank": 18,
    "road_access_m": 441.3,
    "road_access_score": 0.8,
    "road_density_km_km2": 0.212,
    "robustness_pct": 0.0,
    "runoff_coeff_C": 0.0743,
    "seasonal_cv": 0.4505,
    "segment_id": 2,
    "segment_length_m": 1205.552,
    "stream_order": 3,
    "superfund_score": 0.0018,
    "tourism_amenity_density": 0.0,
    "tri_facility_density": 0.0,
    "usgs_mean_q_cfs": 5.878,
    "velocity_feasibility": 0.7,
    "water_intake_score": 0.9225
   },
   "type": "Feature"
  },
  {
   "geometry": {
    "coordinates": [
     -81.691172,
     35.221222
    ],
    "type": "Point"
   },
   "properties": {
    "accumulation": 21751.0,
    "bank_slope_deg": 8.88,
    "bank_slope_score": 1.0,
    "bank_slope_source": "nc-dps-lidar-dem03-cross-section",
    "beach_dist_km": 373.85,
    "bridge_proximity_bonus": 0.0,
    "catchment_area_km2": 2.1695,
    "channel_width_m": 4.3,
    "channel_width_score": 1.0,
    "composite_score": 25.4568,
    "cso_density": 0.0,
    "ej_index": 0.328,
    "elevation_m": 201.2977,
    "estuary_dist_km": 513.26,
    "feasibility_score": 64.2857,
    "flood_q10_cfs": 333.38,
    "flow_score": 40.0,
    "flow_velocity_ms": 0.5,
    "generation_score": 8.3092,
    "impact_score": 11.0706,
    "impervious_pct": null,
    "land_ownership": 0.5,
    "lat": 35.2212,
    "litter_complaint_density": 0.0,
    "lon": -81.6912,
    "navigable_dist_m": null,
    "npdes_points": 0,
    "pixel_col": 123.0,
    "pixel_row": 717.0,
    "population_density": 77.1,
    "position_along": 0.5,
    "protected_area_score": 1.8482,
    "rank": 19,
    "road_access_m": 768.4,
    "road_access_score": 0.6,
    "road_density_km_km2": 0.047,
    "robustness_pct": 0.0,
    "runoff_coeff_C": null,
    "seasonal_cv": null,
    "segment_id": 11,
    "segment_length_m": 572.1049,
    "stream_order": 3,
    "superfund_score": 0.0013,
    "tourism_amenity_density": 0.0,
    "tri_facility_density": 0.0,
    "usgs_mean_q_cfs": null,
    "velocity_feasibility": 1.0,
    "water_intake_score": 0.7196
   },
   "type": "Feature"
  },
  {
   "geometry": {
    "coordinates": [
     -81.647964,
     35.220372
    ],
    "type": "Point"
   },
   "properties": {
    "accumulation": 28203.0,
    "bank_slope_deg": 22.85,
    "bank_slope_score": 0.5,
    "bank_slope_source": "nc-dps-lidar-dem03-cross-section",
    "beach_dist_km": 370.06,
    "bridge_proximity_bonus": 0.0,
    "catchment_area_km2": 2.813,
    "channel_width_m": 4.79,
    "channel_width_score": 1.0,
    "composite_score": 24.4135,
    "cso_density": 0.0,
    "ej_index": 0.3305,
    "elevation_m": 226.0212,
    "estuary_dist_km": 509.34,
    "feasibility_score": 26.7857,
    "flood_q10_cfs": 427.4,
    "flow_score": 7.834,
    "flow_velocity_ms": 0.1208,
    "generation_score": 26.6069,
    "impact_score": 34.8501,
    "impervious_pct": 3.01,
    "land_ownership": 0.5,
    "lat": 35.2204,
    "litter_complaint_density": 0.0,
    "lon": -81.648,
    "navigable_dist_m": null,
    "npdes_points": 0,
    "pixel_col": 520.0,
    "pixel_row": 732.0,
    "population_density": 65.6,
    "position_along": 0.5,
    "protected_area_score": 2.1513,
    "rank": 20,
    "road_access_m": 730.3,
    "road_access_score": 0.6,
    "road_density_km_km2": 0.689,
    "robustness_pct": 0.0,
    "runoff_coeff_C": 0.0771,
    "seasonal_cv": 0.4411,
    "segment_id": 10,
    "segment_length_m": 581.798,
    "stream_order": 1,
    "superfund_score": 0.0019,
    "tourism_amenity_density": 0.0,
    "tri_facility_density": 0.0,
    "usgs_mean_q_cfs": 3.611,
    "velocity_feasibility": 0.7,
    "water_intake_score": 0.8652
   },
   "type": "Feature"
  },
  {
   "geometry": {
    "coordinates": [
     -81.702433,
     35.222309
    ],
    "type": "Point"
   },
   "properties": {
    "accumulation": 238917.0,
    "bank_slope_deg": 16.25,
    "bank_slope_score": 0.5,
    "bank_slope_source": "nc-dps-lidar-dem03-cross-section",
    "beach_dist_km": 374.86,
    "bridge_proximity_bonus": 0.0,
    "catchment_area_km2": 23.8302,
    "channel_width_m": 11.63,
    "channel_width_score": 1.0,
    "composite_score": 24.4012,
    "cso_density": 0.0,
    "ej_index": 0.2826,
    "elevation_m": 196.2355,
    "estuary_dist_km": 514.29,
    "feasibility_score": 5.3571,
    "flood_q10_cfs": 1708.33,
    "flow_score": 70.9743,
    "flow_velocity_ms": 0.0617,
    "generation_score": 17.496,
    "impact_score": 2.0175,
    "impervious_pct": 2.31,
    "land_ownership": 0.5,
    "lat": 35.2223,
    "litter_complaint_density": 0.0,
    "lon": -81.7024,
    "navigable_dist_m": null,
    "npdes_points": 0,
    "pixel_col": 20.0,
    "pixel_row": 707.0,
    "population_density": 56.8,
    "position_along": 0.5,
    "protected_area_score": 1.9379,
    "rank": 21,
    "road_access_m": 1371.4,
    "road_access_score": 0.3,
    "road_density_km_km2": 0.229,
    "robustness_pct": 0.5,
    "runoff_coeff_C": 0.0708,
    "seasonal_cv": 0.4489,
    "segment_id": 12,
    "segment_length_m": 1913.3397,
    "stream_order": 3,
    "superfund_score": 0.0011,
    "tourism_amenity_density": 0.0,
    "tri_facility_density": 0.0,
    "usgs_mean_q_cfs": 94.181,
    "velocity_feasibility": 0.7,
    "water_intake_score": 0.6942
   },
   "type": "Feature"
  }
 ],
 "note": "GRIME region 'Boiling Springs, NC' \u2014 real-data pipeline (DEM\u2192streams\u2192candidates\u2192stream mask (sites confined to \u00b1150 m of mapped OSM/NHD waterways)\u2192region-appropriate real parameters\u2192shipped scoring, math unchanged). Width curve: Bieger et al. 2015 JAWRA Table 3, Appalachian Highlands. Flood: SIR 2014-5030 HR1. NC Piedmont (DEQ physiography polygon)",
 "provenance": {
  "candidates_pre_gate": 21,
  "constant": [
   "bridge_proximity_bonus",
   "channel_width_score",
   "cso_density",
   "litter_complaint_density",
   "npdes_points",
   "tri_facility_density"
  ],
  "gated_navigable": 0,
  "hard_gate_removed": 0,
  "n_parameters": 27,
  "parameters": {
   "bank_slope_score": {
    "kind": "real",
    "n_3dep_10m_fallback": 0,
    "n_nc_lidar_3_125ft": 21,
    "n_real": 21,
    "n_sites": 21,
    "source": "NC OneMap / NC DPS DEM03 statewide lidar-derived 3.125-ft (0.953 m) elevations (perpendicular 50 m transect; robust 5 m bank-rise metric); unavailable profiles use the region 10 m 3DEP DEM-gradient fallback",
    "source_mosaics": [
     "Cleveland_Ground_3ft"
    ]
   },
   "beach_dist_km": {
    "kind": "real",
    "n_real": 21,
    "n_sites": 21,
    "source": "haversine to region ref: Wrightsville Beach (shipped NC reference)"
   },
   "bridge_proximity_bonus": {
    "kind": "real",
    "n_real": 21,
    "n_sites": 21,
    "source": "FHWA/BTS NBI (NTAD), 50 m proximity"
   },
   "catchment_area_km2": {
    "kind": "real",
    "n_real": 21,
    "n_sites": 21,
    "source": "DEM flow accumulation (pipeline)"
   },
   "channel_width_score": {
    "kind": "real",
    "n_real": 21,
    "n_sites": 21,
    "source": "Bieger 2015 AHI width curve on DEM drainage area \u2192 shipped width curve"
   },
   "cso_density": {
    "kind": "real",
    "n_real": 21,
    "n_sites": 21,
    "source": "EPA ECHO open CSO/TCS outfall PF coordinates states=NC, Cauchy proximity"
   },
   "ej_index": {
    "kind": "real",
    "n_real": 21,
    "n_sites": 21,
    "source": "Census ACS C17002+B03002 two-component demographic index, percentile-ranked within region"
   },
   "estuary_dist_km": {
    "kind": "real",
    "n_real": 21,
    "n_sites": 21,
    "source": "haversine to region ref: Pamlico Sound (shipped NC reference)"
   },
   "flood_q10_cfs": {
    "impervious_fallback_reason": "StreamCat imperviousness unavailable; the existing regression-input fallback of 0.0% impervious was used and is disclosed here",
    "kind": "real",
    "n_impervious_fallback": 6,
    "n_real": 21,
    "n_sites": 21,
    "source": "USGS SIR 2014-5030 Table 7 HR1 (NC Piedmont)"
   },
   "flow_velocity_ms": {
    "fallback_reason": "EROM/DEM continuity input unavailable; shipped 0.5 m/s default used",
    "kind": "real",
    "n_fallback": 6,
    "n_real": 15,
    "n_sites": 21,
    "source": "Manning (region DEM/D8) blended with EROM continuity (shipped M4 logic)"
   },
   "impervious_pct": {
    "fallback_reason": "NLDI/StreamCat did not return a snap-compatible catchment value; value remains null and is removed by constant-column handling",
    "kind": "real",
    "n_fallback": 6,
    "n_real": 15,
    "n_sites": 21,
    "source": "EPA StreamCat pctimp2019 (per NHDPlus watershed)"
   },
   "land_ownership": {
    "kind": "real",
    "n_fallback": 0,
    "n_real": 21,
    "n_sites": 21,
    "source": "NC OneMap statewide parcels (NC Parcels Transformer) ownname"
   },
   "litter_complaint_density": {
    "kind": "fallback",
    "n_real": 0,
    "n_sites": 21,
    "source": "no public machine-readable litter/illegal-dumping feed for this region"
   },
   "navigable_dist_m": {
    "kind": "real",
    "n_real": 21,
    "n_sites": 21,
    "source": "USACE/BTS NWN (NTAD): no navigable segment within this bbox (+2 km) \u2014 computed absence, gate passes all sites"
   },
   "npdes_points": {
    "kind": "real",
    "n_real": 21,
    "n_sites": 21,
    "source": "EPA ECHO active NPDES outfalls states=NC (types NPD/GPC/NGP; statuses ADC/EFF/EXP), per catchment"
   },
   "population_density": {
    "kind": "real",
    "n_real": 21,
    "n_sites": 21,
    "source": "Census ACS 2022 B01003 block groups (bbox, multi-county), area-weighted"
   },
   "protected_area_score": {
    "kind": "real",
    "n_real": 21,
    "n_sites": 21,
    "source": "USGS PAD-US 4.1 state GDB; states=NC; shipped designation-weighted proximity curve"
   },
   "road_access_score": {
    "kind": "real",
    "n_real": 21,
    "n_sites": 21,
    "source": "OSM drive network nearest-node distance"
   },
   "road_density_km_km2": {
    "kind": "real",
    "n_real": 21,
    "n_sites": 21,
    "source": "OSM drive network (osmnx, cached) clipped per catchment"
   },
   "runoff_coeff_C": {
    "fallback_reason": "source impervious_pct was unavailable; derived value remains null",
    "kind": "real",
    "n_fallback": 6,
    "n_real": 15,
    "n_sites": 21,
    "source": "derived from real impervious_pct (C=0.05+0.009*I)"
   },
   "seasonal_cv": {
    "fallback_reason": "NHDPlus monthly EROM was unavailable or failed the drainage-area snap guard; value remains null",
    "kind": "real",
    "n_fallback": 6,
    "n_real": 15,
    "n_sites": 21,
    "source": "CV of NHDPlus EROM monthly flows per COMID"
   },
   "stream_order": {
    "kind": "real",
    "n_real": 21,
    "n_sites": 21,
    "source": "DEM stream-network confluence heuristic (pipeline)"
   },
   "superfund_score": {
    "kind": "real",
    "n_real": 21,
    "n_sites": 21,
    "source": "EPA DataMap SEMS active sites states=NC (non-archived, georeferenced), shipped 500 m inverse-distance curve"
   },
   "tourism_amenity_density": {
    "kind": "real",
    "n_real": 21,
    "n_sites": 21,
    "source": "OSM leisure/tourism features per 2 km radius"
   },
   "tri_facility_density": {
    "kind": "real",
    "n_real": 21,
    "n_sites": 21,
    "source": "EPA DataMap TRI open facilities states=NC (preferred decimal or packed-DMS recovery), per catchment"
   },
   "usgs_mean_q_cfs": {
    "fallback_reason": "NHDPlus EROM was unavailable or failed the drainage-area snap guard; value remains null",
    "kind": "real",
    "n_fallback": 6,
    "n_real": 15,
    "n_sites": 21,
    "source": "NHDPlus EROM qe_ma per COMID (snap-guarded)"
   },
   "velocity_feasibility": {
    "fallback_reason": "derived from the shipped 0.5 m/s velocity fallback",
    "kind": "real",
    "n_fallback": 6,
    "n_real": 15,
    "n_sites": 21,
    "source": "shipped step curve on the computed velocity"
   },
   "velocity_transport_favorability": {
    "fallback_reason": "EROM/DEM continuity input unavailable; shipped 0.5 m/s default used",
    "kind": "derived",
    "n_fallback": 6,
    "n_real": 15,
    "n_sites": 21,
    "source": "scored form of flow_velocity_ms inside the Flow family \u2014 peaked Gaussian exp(-((v-0.9)/0.6)^2), model.json curves.velocity_transport_favorability; construct: transport/delivery favorability, deliberately distinct from velocity_feasibility (device operability)"
   },
   "water_intake_score": {
    "kind": "real",
    "n_real": 21,
    "n_sites": 21,
    "source": "NC OneMap / NC DEQ SWAP public water supply sources (source_typ='Surface Water'), shipped exp(-d/10km) curve"
   }
  },
  "stream_mask": {
   "buffer_m": 150.0,
   "pre_mask": 21,
   "removed": 0,
   "sources": [
    "osm-overpass (all waterway ways)",
    "usgs-nhdplus flowlines"
   ]
  },
  "varying": [
   "bank_slope_score",
   "beach_dist_km",
   "catchment_area_km2",
   "ej_index",
   "estuary_dist_km",
   "flood_q10_cfs",
   "flow_velocity_ms",
   "impervious_pct",
   "land_ownership",
   "population_density",
   "protected_area_score",
   "road_access_score",
   "road_density_km_km2",
   "runoff_coeff_C",
   "seasonal_cv",
   "stream_order",
   "superfund_score",
   "tourism_amenity_density",
   "usgs_mean_q_cfs",
   "velocity_feasibility",
   "water_intake_score"
  ]
 },
 "region": {
  "bbox": [
   -81.7049,
   35.2183,
   -81.6223,
   35.2858
  ],
  "beach_ref": {
   "label": "Wrightsville Beach (shipped NC reference)",
   "lat": 34.21,
   "lon": -77.79
  },
  "center": [
   -81.663595,
   35.252053
  ],
  "estuary_ref": {
   "label": "Pamlico Sound (shipped NC reference)",
   "lat": 35.05,
   "lon": -76.05
  },
  "flood_method": "sir2014_hr1",
  "name": "Boiling Springs, NC",
  "notes": "NC Piedmont (DEQ physiography polygon)",
  "slug": "boiling-springs",
  "state": "NC",
  "utm_epsg": 32617,
  "width_curve": {
   "a": 3.12,
   "b": 0.415,
   "code": "AHI",
   "source": "Bieger et al. 2015 JAWRA Table 3, Appalachian Highlands"
  }
 },
 "type": "FeatureCollection"
}
