{
 "features": [
  {
   "geometry": {
    "coordinates": [
     -79.057314,
     35.474143
    ],
    "type": "Point"
   },
   "properties": {
    "accumulation": 20498.0,
    "bank_slope_deg": 1.22,
    "bank_slope_score": 1.0,
    "bank_slope_source": "nc-dps-lidar-dem03-cross-section",
    "beach_dist_km": 182.03,
    "bridge_proximity_bonus": 0.0,
    "catchment_area_km2": 2.0432,
    "channel_width_m": 2.88,
    "channel_width_score": 1.0,
    "composite_score": 53.3784,
    "cso_density": 0.0,
    "ej_index": 0.2696,
    "elevation_m": 117.5776,
    "estuary_dist_km": 277.07,
    "feasibility_score": 100.0,
    "flood_q10_cfs": 147.57,
    "flow_score": 26.7926,
    "flow_velocity_ms": 0.1386,
    "generation_score": 50.0,
    "impact_score": 55.6007,
    "impervious_pct": 3.86,
    "land_ownership": 0.5,
    "lat": 35.4741,
    "litter_complaint_density": 0.0,
    "lon": -79.0573,
    "navigable_dist_m": null,
    "npdes_points": 1,
    "pixel_col": 201.0,
    "pixel_row": 16.0,
    "population_density": 117.7,
    "position_along": 0.5,
    "protected_area_score": 5.828,
    "rank": 1,
    "road_access_m": 453.7,
    "road_access_score": 0.8,
    "road_density_km_km2": 0.33,
    "robustness_pct": 100.0,
    "runoff_coeff_C": 0.0847,
    "seasonal_cv": 0.4538,
    "segment_id": 0,
    "segment_length_m": 236.1847,
    "stream_order": 1,
    "superfund_score": 0.0,
    "tourism_amenity_density": 0.2387,
    "tri_facility_density": 0.0,
    "usgs_mean_q_cfs": 1.962,
    "velocity_feasibility": 0.7,
    "water_intake_score": 1.172
   },
   "type": "Feature"
  },
  {
   "geometry": {
    "coordinates": [
     -79.03737,
     35.45951
    ],
    "type": "Point"
   },
   "properties": {
    "accumulation": 24636.0,
    "bank_slope_deg": 0.0,
    "bank_slope_score": 1.0,
    "bank_slope_source": "nc-dps-lidar-dem03-cross-section",
    "beach_dist_km": 179.62,
    "bridge_proximity_bonus": 0.0,
    "catchment_area_km2": 2.4556,
    "channel_width_m": 3.08,
    "channel_width_score": 1.0,
    "composite_score": 47.4676,
    "cso_density": 0.0,
    "ej_index": 0.2901,
    "elevation_m": 109.2362,
    "estuary_dist_km": 275.04,
    "feasibility_score": 0.0,
    "flood_q10_cfs": 173.93,
    "flow_score": 41.3723,
    "flow_velocity_ms": 0.1599,
    "generation_score": 64.0666,
    "impact_score": 59.6819,
    "impervious_pct": 6.18,
    "land_ownership": 0.5,
    "lat": 35.4595,
    "litter_complaint_density": 0.0,
    "lon": -79.0374,
    "navigable_dist_m": null,
    "npdes_points": 0,
    "pixel_col": 387.0,
    "pixel_row": 177.0,
    "population_density": 101.5,
    "position_along": 0.5,
    "protected_area_score": 5.2235,
    "rank": 2,
    "road_access_m": 720.0,
    "road_access_score": 0.6,
    "road_density_km_km2": 0.77,
    "robustness_pct": 100.0,
    "runoff_coeff_C": 0.1056,
    "seasonal_cv": 0.4548,
    "segment_id": 1,
    "segment_length_m": 495.469,
    "stream_order": 1,
    "superfund_score": 0.0,
    "tourism_amenity_density": 0.2387,
    "tri_facility_density": 0.0,
    "usgs_mean_q_cfs": 1.477,
    "velocity_feasibility": 0.7,
    "water_intake_score": 1.0818
   },
   "type": "Feature"
  },
  {
   "geometry": {
    "coordinates": [
     -79.069493,
     35.443377
    ],
    "type": "Point"
   },
   "properties": {
    "accumulation": 31969.0,
    "bank_slope_deg": 4.8,
    "bank_slope_score": 1.0,
    "bank_slope_source": "nc-dps-lidar-dem03-cross-section",
    "beach_dist_km": 180.13,
    "bridge_proximity_bonus": 0.0,
    "catchment_area_km2": 3.1865,
    "channel_width_m": 3.38,
    "channel_width_score": 1.0,
    "composite_score": 39.5784,
    "cso_density": 0.0,
    "ej_index": 0.4673,
    "elevation_m": 105.3052,
    "estuary_dist_km": 277.66,
    "feasibility_score": 0.0,
    "flood_q10_cfs": 199.64,
    "flow_score": 76.2884,
    "flow_velocity_ms": 0.1431,
    "generation_score": 38.5057,
    "impact_score": 29.8485,
    "impervious_pct": 5.38,
    "land_ownership": 0.5,
    "lat": 35.4434,
    "litter_complaint_density": 0.0,
    "lon": -79.0695,
    "navigable_dist_m": null,
    "npdes_points": 0,
    "pixel_col": 97.0,
    "pixel_row": 363.0,
    "population_density": 57.4,
    "position_along": 0.5,
    "protected_area_score": 5.1097,
    "rank": 3,
    "road_access_m": 597.1,
    "road_access_score": 0.6,
    "road_density_km_km2": 1.164,
    "robustness_pct": 100.0,
    "runoff_coeff_C": 0.0984,
    "seasonal_cv": 0.4452,
    "segment_id": 2,
    "segment_length_m": 1203.7294,
    "stream_order": 1,
    "superfund_score": 0.0,
    "tourism_amenity_density": 0.1592,
    "tri_facility_density": 0.0,
    "usgs_mean_q_cfs": 1.838,
    "velocity_feasibility": 0.7,
    "water_intake_score": 0.9072
   },
   "type": "Feature"
  }
 ],
 "note": "GRIME region 'Broadway, NC' \u2014 real-data pipeline (DEM\u2192streams\u2192candidates\u2192stream mask (sites confined to \u00b1150 m of mapped OSM/NHD waterways)\u2192region-appropriate real parameters\u2192shipped scoring, math unchanged). Width curve: Bieger et al. 2015 JAWRA Table 3, Atlantic Plain. Flood: SIR 2014-5030 HR4 (I24H50Y: NOAA Atlas 14). NC Coastal Plain (SIR 2014-5030 HR4; I24H50Y from NOAA Atlas 14 at region center)",
 "provenance": {
  "candidates_pre_gate": 3,
  "constant": [
   "bank_slope_score",
   "bridge_proximity_bonus",
   "channel_width_score",
   "cso_density",
   "land_ownership",
   "litter_complaint_density",
   "stream_order",
   "superfund_score",
   "tri_facility_density",
   "velocity_feasibility"
  ],
  "gated_navigable": 0,
  "hard_gate_removed": 0,
  "n_parameters": 27,
  "parameters": {
   "bank_slope_score": {
    "kind": "real",
    "n_3dep_10m_fallback": 0,
    "n_nc_lidar_3_125ft": 3,
    "n_real": 3,
    "n_sites": 3,
    "source": "NC OneMap / NC DPS DEM03 statewide lidar-derived 3.125-ft (0.953 m) elevations (perpendicular 50 m transect; robust 5 m bank-rise metric); unavailable profiles use the region 10 m 3DEP DEM-gradient fallback",
    "source_mosaics": [
     "Lee_QL1_2024_03ft_CountywideRaster"
    ]
   },
   "beach_dist_km": {
    "kind": "real",
    "n_real": 3,
    "n_sites": 3,
    "source": "haversine to region ref: Wrightsville Beach (shipped NC reference)"
   },
   "bridge_proximity_bonus": {
    "kind": "real",
    "n_real": 3,
    "n_sites": 3,
    "source": "FHWA/BTS NBI (NTAD), 50 m proximity"
   },
   "catchment_area_km2": {
    "kind": "real",
    "n_real": 3,
    "n_sites": 3,
    "source": "DEM flow accumulation (pipeline)"
   },
   "channel_width_score": {
    "kind": "real",
    "n_real": 3,
    "n_sites": 3,
    "source": "Bieger 2015 APL width curve on DEM drainage area \u2192 shipped width curve"
   },
   "cso_density": {
    "kind": "real",
    "n_real": 3,
    "n_sites": 3,
    "source": "EPA ECHO open CSO/TCS outfall PF coordinates states=NC, Cauchy proximity"
   },
   "ej_index": {
    "kind": "real",
    "n_real": 3,
    "n_sites": 3,
    "source": "Census ACS C17002+B03002 two-component demographic index, percentile-ranked within region"
   },
   "estuary_dist_km": {
    "kind": "real",
    "n_real": 3,
    "n_sites": 3,
    "source": "haversine to region ref: Pamlico Sound (shipped NC reference)"
   },
   "flood_q10_cfs": {
    "kind": "real",
    "n_real": 3,
    "n_sites": 3,
    "source": "USGS SIR 2014-5030 Table 7 HR4 (NC Coastal Plain; I24H50Y from NOAA Atlas 14 at region center)"
   },
   "flow_velocity_ms": {
    "kind": "real",
    "n_fallback": 0,
    "n_real": 3,
    "n_sites": 3,
    "source": "Manning (region DEM/D8) blended with EROM continuity (shipped M4 logic)"
   },
   "impervious_pct": {
    "kind": "real",
    "n_real": 3,
    "n_sites": 3,
    "source": "EPA StreamCat pctimp2019 (per NHDPlus watershed)"
   },
   "land_ownership": {
    "kind": "real",
    "n_fallback": 0,
    "n_real": 3,
    "n_sites": 3,
    "source": "NC OneMap statewide parcels (NC Parcels Transformer) ownname"
   },
   "litter_complaint_density": {
    "kind": "fallback",
    "n_real": 0,
    "n_sites": 3,
    "source": "no public machine-readable litter/illegal-dumping feed for this region"
   },
   "navigable_dist_m": {
    "kind": "real",
    "n_real": 3,
    "n_sites": 3,
    "source": "USACE/BTS NWN (NTAD): no navigable segment within this bbox (+2 km) \u2014 computed absence, gate passes all sites"
   },
   "npdes_points": {
    "kind": "real",
    "n_real": 3,
    "n_sites": 3,
    "source": "EPA ECHO active NPDES outfalls states=NC (types NPD/GPC/NGP; statuses ADC/EFF/EXP), per catchment"
   },
   "population_density": {
    "kind": "real",
    "n_real": 3,
    "n_sites": 3,
    "source": "Census ACS 2022 B01003 block groups (bbox, multi-county), area-weighted"
   },
   "protected_area_score": {
    "kind": "real",
    "n_real": 3,
    "n_sites": 3,
    "source": "USGS PAD-US 4.1 state GDB; states=NC; shipped designation-weighted proximity curve"
   },
   "road_access_score": {
    "kind": "real",
    "n_real": 3,
    "n_sites": 3,
    "source": "OSM drive network nearest-node distance"
   },
   "road_density_km_km2": {
    "kind": "real",
    "n_real": 3,
    "n_sites": 3,
    "source": "OSM drive network (osmnx, cached) clipped per catchment"
   },
   "runoff_coeff_C": {
    "kind": "real",
    "n_real": 3,
    "n_sites": 3,
    "source": "derived from real impervious_pct (C=0.05+0.009*I)"
   },
   "seasonal_cv": {
    "kind": "real",
    "n_real": 3,
    "n_sites": 3,
    "source": "CV of NHDPlus EROM monthly flows per COMID"
   },
   "stream_order": {
    "kind": "real",
    "n_real": 3,
    "n_sites": 3,
    "source": "DEM stream-network confluence heuristic (pipeline)"
   },
   "superfund_score": {
    "kind": "real",
    "n_real": 3,
    "n_sites": 3,
    "source": "EPA DataMap SEMS active sites states=NC (non-archived, georeferenced), shipped 500 m inverse-distance curve"
   },
   "tourism_amenity_density": {
    "kind": "real",
    "n_real": 3,
    "n_sites": 3,
    "source": "OSM leisure/tourism features per 2 km radius"
   },
   "tri_facility_density": {
    "kind": "real",
    "n_real": 3,
    "n_sites": 3,
    "source": "EPA DataMap TRI open facilities states=NC (preferred decimal or packed-DMS recovery), per catchment"
   },
   "usgs_mean_q_cfs": {
    "kind": "real",
    "n_real": 3,
    "n_sites": 3,
    "source": "NHDPlus EROM qe_ma per COMID (snap-guarded)"
   },
   "velocity_feasibility": {
    "kind": "real",
    "n_fallback": 0,
    "n_real": 3,
    "n_sites": 3,
    "source": "shipped step curve on the computed velocity"
   },
   "velocity_transport_favorability": {
    "kind": "derived",
    "n_real": 3,
    "n_sites": 3,
    "source": "scored form of flow_velocity_ms inside the Flow family \u2014 peaked Gaussian exp(-((v-0.9)/0.6)^2), model.json curves.velocity_transport_favorability; construct: transport/delivery favorability, deliberately distinct from velocity_feasibility (device operability)"
   },
   "water_intake_score": {
    "kind": "real",
    "n_real": 3,
    "n_sites": 3,
    "source": "NC OneMap / NC DEQ SWAP public water supply sources (source_typ='Surface Water'), shipped exp(-d/10km) curve"
   }
  },
  "stream_mask": {
   "buffer_m": 150.0,
   "pre_mask": 3,
   "removed": 0,
   "sources": [
    "osm-overpass (all waterway ways)",
    "usgs-nhdplus flowlines"
   ]
  },
  "varying": [
   "beach_dist_km",
   "catchment_area_km2",
   "ej_index",
   "estuary_dist_km",
   "flood_q10_cfs",
   "flow_velocity_ms",
   "impervious_pct",
   "npdes_points",
   "population_density",
   "protected_area_score",
   "road_access_score",
   "road_density_km_km2",
   "runoff_coeff_C",
   "seasonal_cv",
   "tourism_amenity_density",
   "usgs_mean_q_cfs",
   "water_intake_score"
  ]
 },
 "region": {
  "bbox": [
   -79.0794,
   35.4391,
   -79.0349,
   35.4754
  ],
  "beach_ref": {
   "label": "Wrightsville Beach (shipped NC reference)",
   "lat": 34.21,
   "lon": -77.79
  },
  "center": [
   -79.057165,
   35.45729
  ],
  "estuary_ref": {
   "label": "Pamlico Sound (shipped NC reference)",
   "lat": 35.05,
   "lon": -76.05
  },
  "flood_method": "sir2014_hr4",
  "name": "Broadway, NC",
  "notes": "NC Coastal Plain (SIR 2014-5030 HR4; I24H50Y from NOAA Atlas 14 at region center)",
  "slug": "broadway",
  "state": "NC",
  "utm_epsg": 32617,
  "width_curve": {
   "a": 2.22,
   "b": 0.363,
   "code": "APL",
   "source": "Bieger et al. 2015 JAWRA Table 3, Atlantic Plain"
  }
 },
 "type": "FeatureCollection"
}
