{
 "features": [
  {
   "geometry": {
    "coordinates": [
     -83.446661,
     35.428094
    ],
    "type": "Point"
   },
   "properties": {
    "accumulation": 104703.0,
    "bank_slope_deg": 0.05,
    "bank_slope_score": 1.0,
    "bank_slope_source": "nc-dps-lidar-dem03-cross-section",
    "beach_dist_km": 533.76,
    "bridge_proximity_bonus": 0.0,
    "catchment_area_km2": 10.4642,
    "channel_width_m": 8.27,
    "channel_width_score": 1.0,
    "composite_score": 58.2175,
    "cso_density": 0.0,
    "ej_index": 0.6049,
    "elevation_m": 523.3041,
    "estuary_dist_km": 672.91,
    "feasibility_score": 84.6154,
    "flood_q10_cfs": null,
    "flow_score": 45.8235,
    "flow_velocity_ms": 0.5,
    "generation_score": 58.7364,
    "impact_score": 54.8279,
    "impervious_pct": null,
    "land_ownership": 0.5,
    "lat": 35.4281,
    "litter_complaint_density": 0.0,
    "lon": -83.4467,
    "navigable_dist_m": null,
    "npdes_points": 1,
    "pixel_col": 273.0,
    "pixel_row": 253.0,
    "population_density": 131.2,
    "position_along": 0.5,
    "protected_area_score": 7.2964,
    "rank": 1,
    "road_access_m": 94.1,
    "road_access_score": 1.0,
    "road_density_km_km2": 6.404,
    "robustness_pct": 100.0,
    "runoff_coeff_C": null,
    "seasonal_cv": null,
    "segment_id": 3,
    "segment_length_m": 1199.1859,
    "stream_order": 3,
    "superfund_score": 0.0,
    "tourism_amenity_density": 3.3423,
    "tri_facility_density": 0.0956,
    "usgs_mean_q_cfs": null,
    "velocity_feasibility": 1.0,
    "water_intake_score": 1.1521
   },
   "type": "Feature"
  },
  {
   "geometry": {
    "coordinates": [
     -83.453516,
     35.423054
    ],
    "type": "Point"
   },
   "properties": {
    "accumulation": 153705.0,
    "bank_slope_deg": 0.1,
    "bank_slope_score": 1.0,
    "bank_slope_source": "nc-dps-lidar-dem03-cross-section",
    "beach_dist_km": 534.24,
    "bridge_proximity_bonus": 0.0,
    "catchment_area_km2": 15.3616,
    "channel_width_m": 9.69,
    "channel_width_score": 1.0,
    "composite_score": 53.1296,
    "cso_density": 0.0,
    "ej_index": 0.62,
    "elevation_m": 521.4115,
    "estuary_dist_km": 673.52,
    "feasibility_score": 84.6154,
    "flood_q10_cfs": null,
    "flow_score": 51.5523,
    "flow_velocity_ms": 0.5,
    "generation_score": 44.4905,
    "impact_score": 47.3401,
    "impervious_pct": null,
    "land_ownership": 0.5,
    "lat": 35.4231,
    "litter_complaint_density": 0.0,
    "lon": -83.4535,
    "navigable_dist_m": null,
    "npdes_points": 1,
    "pixel_col": 209.0,
    "pixel_row": 308.0,
    "population_density": 117.3,
    "position_along": 0.5,
    "protected_area_score": 7.433,
    "rank": 2,
    "road_access_m": 97.5,
    "road_access_score": 1.0,
    "road_density_km_km2": 5.097,
    "robustness_pct": 100.0,
    "runoff_coeff_C": null,
    "seasonal_cv": null,
    "segment_id": 4,
    "segment_length_m": 981.5534,
    "stream_order": 3,
    "superfund_score": 0.0,
    "tourism_amenity_density": 3.1831,
    "tri_facility_density": 0.0651,
    "usgs_mean_q_cfs": null,
    "velocity_feasibility": 1.0,
    "water_intake_score": 1.1062
   },
   "type": "Feature"
  },
  {
   "geometry": {
    "coordinates": [
     -83.453392,
     35.419155
    ],
    "type": "Point"
   },
   "properties": {
    "accumulation": 31548.0,
    "bank_slope_deg": 8.22,
    "bank_slope_score": 1.0,
    "bank_slope_source": "nc-dps-lidar-dem03-cross-section",
    "beach_dist_km": 534.13,
    "bridge_proximity_bonus": 0.0,
    "catchment_area_km2": 3.153,
    "channel_width_m": 5.02,
    "channel_width_score": 1.0,
    "composite_score": 50.0122,
    "cso_density": 0.0,
    "ej_index": 0.6445,
    "elevation_m": 536.1392,
    "estuary_dist_km": 673.5,
    "feasibility_score": 84.6154,
    "flood_q10_cfs": null,
    "flow_score": 37.2711,
    "flow_velocity_ms": 0.5,
    "generation_score": 46.0437,
    "impact_score": 47.2968,
    "impervious_pct": null,
    "land_ownership": 0.5,
    "lat": 35.4192,
    "litter_complaint_density": 0.0,
    "lon": -83.4534,
    "navigable_dist_m": null,
    "npdes_points": 1,
    "pixel_col": 210.0,
    "pixel_row": 347.0,
    "population_density": 168.0,
    "position_along": 0.5,
    "protected_area_score": 7.541,
    "rank": 3,
    "road_access_m": 26.3,
    "road_access_score": 1.0,
    "road_density_km_km2": 6.506,
    "robustness_pct": 94.0,
    "runoff_coeff_C": null,
    "seasonal_cv": null,
    "segment_id": 6,
    "segment_length_m": 1004.3895,
    "stream_order": 3,
    "superfund_score": 0.0,
    "tourism_amenity_density": 2.7056,
    "tri_facility_density": 0.0,
    "usgs_mean_q_cfs": null,
    "velocity_feasibility": 1.0,
    "water_intake_score": 1.0868
   },
   "type": "Feature"
  },
  {
   "geometry": {
    "coordinates": [
     -83.43187,
     35.433529
    ],
    "type": "Point"
   },
   "properties": {
    "accumulation": 54062.0,
    "bank_slope_deg": 0.06,
    "bank_slope_score": 1.0,
    "bank_slope_source": "nc-dps-lidar-dem03-cross-section",
    "beach_dist_km": 532.59,
    "bridge_proximity_bonus": 0.0,
    "catchment_area_km2": 5.4031,
    "channel_width_m": 6.28,
    "channel_width_score": 1.0,
    "composite_score": 46.675,
    "cso_density": 0.0,
    "ej_index": 0.5625,
    "elevation_m": 526.7639,
    "estuary_dist_km": 671.59,
    "feasibility_score": 84.6154,
    "flood_q10_cfs": null,
    "flow_score": 39.9032,
    "flow_velocity_ms": 0.5,
    "generation_score": 11.138,
    "impact_score": 68.885,
    "impervious_pct": null,
    "land_ownership": 0.5,
    "lat": 35.4335,
    "litter_complaint_density": 0.0,
    "lon": -83.4319,
    "navigable_dist_m": null,
    "npdes_points": 0,
    "pixel_col": 409.0,
    "pixel_row": 195.0,
    "population_density": 101.6,
    "position_along": 0.75,
    "protected_area_score": 7.3707,
    "rank": 4,
    "road_access_m": 171.0,
    "road_access_score": 1.0,
    "road_density_km_km2": 5.986,
    "robustness_pct": 64.0,
    "runoff_coeff_C": null,
    "seasonal_cv": null,
    "segment_id": 2,
    "segment_length_m": 4133.2604,
    "stream_order": 3,
    "superfund_score": 0.0,
    "tourism_amenity_density": 3.1831,
    "tri_facility_density": 0.0,
    "usgs_mean_q_cfs": null,
    "velocity_feasibility": 1.0,
    "water_intake_score": 1.2044
   },
   "type": "Feature"
  },
  {
   "geometry": {
    "coordinates": [
     -83.46067,
     35.422222
    ],
    "type": "Point"
   },
   "properties": {
    "accumulation": 196567.0,
    "bank_slope_deg": 3.98,
    "bank_slope_score": 1.0,
    "bank_slope_source": "nc-dps-lidar-dem03-cross-section",
    "beach_dist_km": 534.85,
    "bridge_proximity_bonus": 0.0,
    "catchment_area_km2": 19.6453,
    "channel_width_m": 10.74,
    "channel_width_score": 1.0,
    "composite_score": 46.486,
    "cso_density": 0.0,
    "ej_index": 0.5919,
    "elevation_m": 520.0524,
    "estuary_dist_km": 674.16,
    "feasibility_score": 84.6154,
    "flood_q10_cfs": null,
    "flow_score": 56.5633,
    "flow_velocity_ms": 0.5,
    "generation_score": 36.1907,
    "impact_score": 29.3189,
    "impervious_pct": null,
    "land_ownership": 0.5,
    "lat": 35.4222,
    "litter_complaint_density": 0.0,
    "lon": -83.4607,
    "navigable_dist_m": null,
    "npdes_points": 1,
    "pixel_col": 144.0,
    "pixel_row": 313.0,
    "population_density": 107.3,
    "position_along": 0.5,
    "protected_area_score": 7.3078,
    "rank": 5,
    "road_access_m": 114.4,
    "road_access_score": 1.0,
    "road_density_km_km2": 4.191,
    "robustness_pct": 67.5,
    "runoff_coeff_C": null,
    "seasonal_cv": null,
    "segment_id": 7,
    "segment_length_m": 694.3573,
    "stream_order": 3,
    "superfund_score": 0.0,
    "tourism_amenity_density": 2.069,
    "tri_facility_density": 0.0509,
    "usgs_mean_q_cfs": null,
    "velocity_feasibility": 1.0,
    "water_intake_score": 1.0804
   },
   "type": "Feature"
  },
  {
   "geometry": {
    "coordinates": [
     -83.439266,
     35.433787
    ],
    "type": "Point"
   },
   "properties": {
    "accumulation": 34674.0,
    "bank_slope_deg": 28.38,
    "bank_slope_score": 0.5,
    "bank_slope_source": "nc-dps-lidar-dem03-cross-section",
    "beach_dist_km": 533.25,
    "bridge_proximity_bonus": 0.2,
    "catchment_area_km2": 3.4654,
    "channel_width_m": 5.23,
    "channel_width_score": 1.0,
    "composite_score": 44.2373,
    "cso_density": 0.0,
    "ej_index": 0.528,
    "elevation_m": 525.7796,
    "estuary_dist_km": 672.26,
    "feasibility_score": 84.6154,
    "flood_q10_cfs": null,
    "flow_score": 37.6365,
    "flow_velocity_ms": 0.5,
    "generation_score": 17.3654,
    "impact_score": 56.421,
    "impervious_pct": null,
    "land_ownership": 0.5,
    "lat": 35.4338,
    "litter_complaint_density": 0.0,
    "lon": -83.4393,
    "navigable_dist_m": null,
    "npdes_points": 0,
    "pixel_col": 344.0,
    "pixel_row": 192.0,
    "population_density": 115.0,
    "position_along": 0.5,
    "protected_area_score": 7.1179,
    "rank": 6,
    "road_access_m": 25.6,
    "road_access_score": 1.0,
    "road_density_km_km2": 7.071,
    "robustness_pct": 24.0,
    "runoff_coeff_C": null,
    "seasonal_cv": null,
    "segment_id": 0,
    "segment_length_m": 772.3247,
    "stream_order": 3,
    "superfund_score": 0.0,
    "tourism_amenity_density": 3.4218,
    "tri_facility_density": 0.0,
    "usgs_mean_q_cfs": null,
    "velocity_feasibility": 1.0,
    "water_intake_score": 1.2024
   },
   "type": "Feature"
  },
  {
   "geometry": {
    "coordinates": [
     -83.451787,
     35.428053
    ],
    "type": "Point"
   },
   "properties": {
    "accumulation": 21627.0,
    "bank_slope_deg": 15.67,
    "bank_slope_score": 0.5,
    "bank_slope_source": "nc-dps-lidar-dem03-cross-section",
    "beach_dist_km": 534.21,
    "bridge_proximity_bonus": 0.0,
    "catchment_area_km2": 2.1614,
    "channel_width_m": 4.3,
    "channel_width_score": 1.0,
    "composite_score": 41.3921,
    "cso_density": 0.0,
    "ej_index": 0.5882,
    "elevation_m": 524.8004,
    "estuary_dist_km": 673.38,
    "feasibility_score": 38.4615,
    "flood_q10_cfs": null,
    "flow_score": 14.3413,
    "flow_velocity_ms": 0.1697,
    "generation_score": 59.6636,
    "impact_score": 47.1283,
    "impervious_pct": 7.84,
    "land_ownership": 0.5,
    "lat": 35.4281,
    "litter_complaint_density": 0.0,
    "lon": -83.4518,
    "navigable_dist_m": null,
    "npdes_points": 0,
    "pixel_col": 228.0,
    "pixel_row": 253.0,
    "population_density": 161.2,
    "position_along": 0.5,
    "protected_area_score": 7.2751,
    "rank": 7,
    "road_access_m": 74.1,
    "road_access_score": 1.0,
    "road_density_km_km2": 8.75,
    "robustness_pct": 28.5,
    "runoff_coeff_C": 0.1206,
    "seasonal_cv": 0.5452,
    "segment_id": 1,
    "segment_length_m": 341.3225,
    "stream_order": 3,
    "superfund_score": 0.0,
    "tourism_amenity_density": 3.2627,
    "tri_facility_density": 0.0,
    "usgs_mean_q_cfs": 1.841,
    "velocity_feasibility": 0.7,
    "water_intake_score": 1.138
   },
   "type": "Feature"
  },
  {
   "geometry": {
    "coordinates": [
     -83.423667,
     35.423685
    ],
    "type": "Point"
   },
   "properties": {
    "accumulation": 34498.0,
    "bank_slope_deg": 21.79,
    "bank_slope_score": 0.5,
    "bank_slope_source": "nc-dps-lidar-dem03-cross-section",
    "beach_dist_km": 531.62,
    "bridge_proximity_bonus": 0.0,
    "catchment_area_km2": 3.4478,
    "channel_width_m": 5.21,
    "channel_width_score": 1.0,
    "composite_score": 35.1328,
    "cso_density": 0.0,
    "ej_index": 0.7424,
    "elevation_m": 587.1893,
    "estuary_dist_km": 670.82,
    "feasibility_score": 0.0,
    "flood_q10_cfs": null,
    "flow_score": 40.3319,
    "flow_velocity_ms": 0.2108,
    "generation_score": 2.4991,
    "impact_score": 81.0004,
    "impervious_pct": 0.54,
    "land_ownership": 0.5,
    "lat": 35.4237,
    "litter_complaint_density": 0.0,
    "lon": -83.4237,
    "navigable_dist_m": null,
    "npdes_points": 0,
    "pixel_col": 484.0,
    "pixel_row": 305.0,
    "population_density": 84.3,
    "position_along": 0.25,
    "protected_area_score": 7.7405,
    "rank": 8,
    "road_access_m": 226.8,
    "road_access_score": 0.8,
    "road_density_km_km2": 3.572,
    "robustness_pct": 13.0,
    "runoff_coeff_C": 0.0549,
    "seasonal_cv": 0.4537,
    "segment_id": 2,
    "segment_length_m": 4133.2604,
    "stream_order": 3,
    "superfund_score": 0.0,
    "tourism_amenity_density": 1.1141,
    "tri_facility_density": 0.0,
    "usgs_mean_q_cfs": 9.363,
    "velocity_feasibility": 0.7,
    "water_intake_score": 1.1428
   },
   "type": "Feature"
  },
  {
   "geometry": {
    "coordinates": [
     -83.464436,
     35.419667
    ],
    "type": "Point"
   },
   "properties": {
    "accumulation": 24086.0,
    "bank_slope_deg": 25.85,
    "bank_slope_score": 0.5,
    "bank_slope_source": "nc-dps-lidar-dem03-cross-section",
    "beach_dist_km": 535.12,
    "bridge_proximity_bonus": 0.0,
    "catchment_area_km2": 2.4072,
    "channel_width_m": 4.49,
    "channel_width_score": 1.0,
    "composite_score": 32.1721,
    "cso_density": 0.0,
    "ej_index": 0.58,
    "elevation_m": 531.5621,
    "estuary_dist_km": 674.5,
    "feasibility_score": 69.2308,
    "flood_q10_cfs": null,
    "flow_score": 36.3986,
    "flow_velocity_ms": 0.5,
    "generation_score": 22.7902,
    "impact_score": 19.5026,
    "impervious_pct": null,
    "land_ownership": 0.5,
    "lat": 35.4197,
    "litter_complaint_density": 0.0,
    "lon": -83.4644,
    "navigable_dist_m": null,
    "npdes_points": 0,
    "pixel_col": 113.0,
    "pixel_row": 340.0,
    "population_density": 147.3,
    "position_along": 0.5,
    "protected_area_score": 7.2907,
    "rank": 9,
    "road_access_m": 103.4,
    "road_access_score": 1.0,
    "road_density_km_km2": 5.58,
    "robustness_pct": 0.0,
    "runoff_coeff_C": null,
    "seasonal_cv": null,
    "segment_id": 5,
    "segment_length_m": 996.1076,
    "stream_order": 3,
    "superfund_score": 0.0,
    "tourism_amenity_density": 1.4324,
    "tri_facility_density": 0.0,
    "usgs_mean_q_cfs": null,
    "velocity_feasibility": 1.0,
    "water_intake_score": 1.057
   },
   "type": "Feature"
  },
  {
   "geometry": {
    "coordinates": [
     -83.469805,
     35.427082
    ],
    "type": "Point"
   },
   "properties": {
    "accumulation": 235467.0,
    "bank_slope_deg": 0.06,
    "bank_slope_score": 1.0,
    "bank_slope_source": "nc-dps-lidar-dem03-cross-section",
    "beach_dist_km": 535.77,
    "bridge_proximity_bonus": 0.0,
    "catchment_area_km2": 23.5331,
    "channel_width_m": 11.57,
    "channel_width_score": 1.0,
    "composite_score": 32.0903,
    "cso_density": 0.0,
    "ej_index": 0.5294,
    "elevation_m": 518.744,
    "estuary_dist_km": 675.01,
    "feasibility_score": 46.1538,
    "flood_q10_cfs": null,
    "flow_score": 61.1111,
    "flow_velocity_ms": 0.5,
    "generation_score": 31.2958,
    "impact_score": 1.669,
    "impervious_pct": null,
    "land_ownership": 0.5,
    "lat": 35.4271,
    "litter_complaint_density": 0.0,
    "lon": -83.4698,
    "navigable_dist_m": null,
    "npdes_points": 1,
    "pixel_col": 62.0,
    "pixel_row": 257.0,
    "population_density": 104.8,
    "position_along": 0.5,
    "protected_area_score": 6.9286,
    "rank": 10,
    "road_access_m": 256.9,
    "road_access_score": 0.8,
    "road_density_km_km2": 3.258,
    "robustness_pct": 9.0,
    "runoff_coeff_C": null,
    "seasonal_cv": null,
    "segment_id": 8,
    "segment_length_m": 1483.6619,
    "stream_order": 3,
    "superfund_score": 0.0,
    "tourism_amenity_density": 0.6366,
    "tri_facility_density": 0.0425,
    "usgs_mean_q_cfs": null,
    "velocity_feasibility": 1.0,
    "water_intake_score": 1.0665
   },
   "type": "Feature"
  }
 ],
 "note": "GRIME region 'Bryson City, NC' \u2014 real-data pipeline (DEM\u2192streams\u2192candidates\u2192stream mask (sites confined to \u00b1150 m of mapped OSM/NHD waterways)\u2192region-appropriate real parameters\u2192shipped scoring, math unchanged). Width curve: Bieger et al. 2015 JAWRA Table 3, Appalachian Highlands. Flood: not applicable here (documented fallback). NC Blue Ridge (outside SIR 2014-5030 urban coverage)",
 "provenance": {
  "candidates_pre_gate": 10,
  "constant": [
   "channel_width_score",
   "cso_density",
   "flood_q10_cfs",
   "land_ownership",
   "litter_complaint_density",
   "stream_order",
   "superfund_score"
  ],
  "gated_navigable": 0,
  "hard_gate_removed": 0,
  "n_parameters": 27,
  "parameters": {
   "bank_slope_score": {
    "kind": "real",
    "n_3dep_10m_fallback": 0,
    "n_nc_lidar_3_125ft": 10,
    "n_real": 10,
    "n_sites": 10,
    "source": "NC OneMap / NC DPS DEM03 statewide lidar-derived 3.125-ft (0.953 m) elevations (perpendicular 50 m transect; robust 5 m bank-rise metric); unavailable profiles use the region 10 m 3DEP DEM-gradient fallback",
    "source_mosaics": [
     "Swain_Ground_3ft"
    ]
   },
   "beach_dist_km": {
    "kind": "real",
    "n_real": 10,
    "n_sites": 10,
    "source": "haversine to region ref: Wrightsville Beach (shipped NC reference)"
   },
   "bridge_proximity_bonus": {
    "kind": "real",
    "n_real": 10,
    "n_sites": 10,
    "source": "FHWA/BTS NBI (NTAD), 50 m proximity"
   },
   "catchment_area_km2": {
    "kind": "real",
    "n_real": 10,
    "n_sites": 10,
    "source": "DEM flow accumulation (pipeline)"
   },
   "channel_width_score": {
    "kind": "real",
    "n_real": 10,
    "n_sites": 10,
    "source": "Bieger 2015 AHI width curve on DEM drainage area \u2192 shipped width curve"
   },
   "cso_density": {
    "kind": "real",
    "n_real": 10,
    "n_sites": 10,
    "source": "EPA ECHO open CSO/TCS outfall PF coordinates states=NC, Cauchy proximity"
   },
   "ej_index": {
    "kind": "real",
    "n_real": 10,
    "n_sites": 10,
    "source": "Census ACS C17002+B03002 two-component demographic index, percentile-ranked within region"
   },
   "estuary_dist_km": {
    "kind": "real",
    "n_real": 10,
    "n_sites": 10,
    "source": "haversine to region ref: Pamlico Sound (shipped NC reference)"
   },
   "flood_q10_cfs": {
    "impervious_fallback_reason": "StreamCat imperviousness unavailable; the existing regression-input fallback of 0.0% impervious was used and is disclosed here",
    "kind": "fallback",
    "n_impervious_fallback": 8,
    "n_real": 0,
    "n_sites": 10,
    "source": "flood regression not valid here (NC Blue Ridge (outside SIR 2014-5030 urban coverage)...) \u2014 NaN, dropped by constant-column handling"
   },
   "flow_velocity_ms": {
    "fallback_reason": "EROM/DEM continuity input unavailable; shipped 0.5 m/s default used",
    "kind": "real",
    "n_fallback": 8,
    "n_real": 2,
    "n_sites": 10,
    "source": "Manning (region DEM/D8) blended with EROM continuity (shipped M4 logic)"
   },
   "impervious_pct": {
    "fallback_reason": "NLDI/StreamCat did not return a snap-compatible catchment value; value remains null and is removed by constant-column handling",
    "kind": "real",
    "n_fallback": 8,
    "n_real": 2,
    "n_sites": 10,
    "source": "EPA StreamCat pctimp2019 (per NHDPlus watershed)"
   },
   "land_ownership": {
    "fallback_reason": "no containing parcel owner returned; shipped unknown ownership 0.5 used",
    "kind": "real",
    "n_fallback": 7,
    "n_real": 3,
    "n_sites": 10,
    "source": "NC OneMap statewide parcels (NC Parcels Transformer) ownname"
   },
   "litter_complaint_density": {
    "kind": "fallback",
    "n_real": 0,
    "n_sites": 10,
    "source": "no public machine-readable litter/illegal-dumping feed for this region"
   },
   "navigable_dist_m": {
    "kind": "real",
    "n_real": 10,
    "n_sites": 10,
    "source": "USACE/BTS NWN (NTAD): no navigable segment within this bbox (+2 km) \u2014 computed absence, gate passes all sites"
   },
   "npdes_points": {
    "kind": "real",
    "n_real": 10,
    "n_sites": 10,
    "source": "EPA ECHO active NPDES outfalls states=NC (types NPD/GPC/NGP; statuses ADC/EFF/EXP), per catchment"
   },
   "population_density": {
    "kind": "real",
    "n_real": 10,
    "n_sites": 10,
    "source": "Census ACS 2022 B01003 block groups (bbox, multi-county), area-weighted"
   },
   "protected_area_score": {
    "kind": "real",
    "n_real": 10,
    "n_sites": 10,
    "source": "USGS PAD-US 4.1 state GDB; states=NC; shipped designation-weighted proximity curve"
   },
   "road_access_score": {
    "kind": "real",
    "n_real": 10,
    "n_sites": 10,
    "source": "OSM drive network nearest-node distance"
   },
   "road_density_km_km2": {
    "kind": "real",
    "n_real": 10,
    "n_sites": 10,
    "source": "OSM drive network (osmnx, cached) clipped per catchment"
   },
   "runoff_coeff_C": {
    "fallback_reason": "source impervious_pct was unavailable; derived value remains null",
    "kind": "real",
    "n_fallback": 8,
    "n_real": 2,
    "n_sites": 10,
    "source": "derived from real impervious_pct (C=0.05+0.009*I)"
   },
   "seasonal_cv": {
    "fallback_reason": "NHDPlus monthly EROM was unavailable or failed the drainage-area snap guard; value remains null",
    "kind": "real",
    "n_fallback": 8,
    "n_real": 2,
    "n_sites": 10,
    "source": "CV of NHDPlus EROM monthly flows per COMID"
   },
   "stream_order": {
    "kind": "real",
    "n_real": 10,
    "n_sites": 10,
    "source": "DEM stream-network confluence heuristic (pipeline)"
   },
   "superfund_score": {
    "kind": "real",
    "n_real": 10,
    "n_sites": 10,
    "source": "EPA DataMap SEMS active sites states=NC (non-archived, georeferenced), shipped 500 m inverse-distance curve"
   },
   "tourism_amenity_density": {
    "kind": "real",
    "n_real": 10,
    "n_sites": 10,
    "source": "OSM leisure/tourism features per 2 km radius"
   },
   "tri_facility_density": {
    "kind": "real",
    "n_real": 10,
    "n_sites": 10,
    "source": "EPA DataMap TRI open facilities states=NC (preferred decimal or packed-DMS recovery), per catchment"
   },
   "usgs_mean_q_cfs": {
    "fallback_reason": "NHDPlus EROM was unavailable or failed the drainage-area snap guard; value remains null",
    "kind": "real",
    "n_fallback": 8,
    "n_real": 2,
    "n_sites": 10,
    "source": "NHDPlus EROM qe_ma per COMID (snap-guarded)"
   },
   "velocity_feasibility": {
    "fallback_reason": "derived from the shipped 0.5 m/s velocity fallback",
    "kind": "real",
    "n_fallback": 8,
    "n_real": 2,
    "n_sites": 10,
    "source": "shipped step curve on the computed velocity"
   },
   "velocity_transport_favorability": {
    "fallback_reason": "EROM/DEM continuity input unavailable; shipped 0.5 m/s default used",
    "kind": "derived",
    "n_fallback": 8,
    "n_real": 2,
    "n_sites": 10,
    "source": "scored form of flow_velocity_ms inside the Flow family \u2014 peaked Gaussian exp(-((v-0.9)/0.6)^2), model.json curves.velocity_transport_favorability; construct: transport/delivery favorability, deliberately distinct from velocity_feasibility (device operability)"
   },
   "water_intake_score": {
    "kind": "real",
    "n_real": 10,
    "n_sites": 10,
    "source": "NC OneMap / NC DEQ SWAP public water supply sources (source_typ='Surface Water'), shipped exp(-d/10km) curve"
   }
  },
  "stream_mask": {
   "buffer_m": 150.0,
   "pre_mask": 10,
   "removed": 0,
   "sources": [
    "osm-overpass (all waterway ways)",
    "usgs-nhdplus flowlines"
   ]
  },
  "varying": [
   "bank_slope_score",
   "beach_dist_km",
   "bridge_proximity_bonus",
   "catchment_area_km2",
   "ej_index",
   "estuary_dist_km",
   "flow_velocity_ms",
   "impervious_pct",
   "npdes_points",
   "population_density",
   "protected_area_score",
   "road_access_score",
   "road_density_km_km2",
   "runoff_coeff_C",
   "seasonal_cv",
   "tourism_amenity_density",
   "tri_facility_density",
   "usgs_mean_q_cfs",
   "velocity_feasibility",
   "water_intake_score"
  ]
 },
 "region": {
  "bbox": [
   -83.4762,
   35.403,
   -83.4183,
   35.4502
  ],
  "beach_ref": {
   "label": "Wrightsville Beach (shipped NC reference)",
   "lat": 34.21,
   "lon": -77.79
  },
  "center": [
   -83.447265,
   35.42661
  ],
  "estuary_ref": {
   "label": "Pamlico Sound (shipped NC reference)",
   "lat": 35.05,
   "lon": -76.05
  },
  "flood_method": "none",
  "name": "Bryson City, NC",
  "notes": "NC Blue Ridge (outside SIR 2014-5030 urban coverage)",
  "slug": "bryson-city",
  "state": "NC",
  "utm_epsg": 32617,
  "width_curve": {
   "a": 3.12,
   "b": 0.415,
   "code": "AHI",
   "source": "Bieger et al. 2015 JAWRA Table 3, Appalachian Highlands"
  }
 },
 "type": "FeatureCollection"
}
