{
 "features": [
  {
   "geometry": {
    "coordinates": [
     -82.28492,
     35.916027
    ],
    "type": "Point"
   },
   "properties": {
    "accumulation": 39928.0,
    "bank_slope_deg": 30.59,
    "bank_slope_score": 0.2,
    "bank_slope_source": "nc-dps-lidar-dem03-cross-section",
    "beach_dist_km": 450.88,
    "bridge_proximity_bonus": 0.0,
    "catchment_area_km2": 3.9799,
    "channel_width_m": 5.53,
    "channel_width_score": 1.0,
    "composite_score": 63.0982,
    "cso_density": 0.0,
    "ej_index": 0.6582,
    "elevation_m": 802.868,
    "estuary_dist_km": 572.59,
    "feasibility_score": 45.4545,
    "flood_q10_cfs": null,
    "flow_score": 41.8929,
    "flow_velocity_ms": 0.111,
    "generation_score": 83.2268,
    "impact_score": 69.4624,
    "impervious_pct": 9.63,
    "land_ownership": 0.5,
    "lat": 35.916,
    "litter_complaint_density": 0.0,
    "lon": -82.2849,
    "navigable_dist_m": null,
    "npdes_points": 3,
    "pixel_col": 345.0,
    "pixel_row": 232.0,
    "population_density": 63.0,
    "position_along": 0.5,
    "protected_area_score": 6.5309,
    "rank": 1,
    "road_access_m": 64.8,
    "road_access_score": 1.0,
    "road_density_km_km2": 5.142,
    "robustness_pct": 100.0,
    "runoff_coeff_C": 0.1367,
    "seasonal_cv": 0.4813,
    "segment_id": 1,
    "segment_length_m": 1947.808,
    "stream_order": 3,
    "superfund_score": 0.0,
    "tourism_amenity_density": 1.5915,
    "tri_facility_density": 0.2513,
    "usgs_mean_q_cfs": 4.884,
    "velocity_feasibility": 0.7,
    "water_intake_score": 1.6142
   },
   "type": "Feature"
  },
  {
   "geometry": {
    "coordinates": [
     -82.277855,
     35.918999
    ],
    "type": "Point"
   },
   "properties": {
    "accumulation": 21089.0,
    "bank_slope_deg": 2.99,
    "bank_slope_score": 1.0,
    "bank_slope_source": "nc-dps-lidar-dem03-cross-section",
    "beach_dist_km": 450.43,
    "bridge_proximity_bonus": 0.0,
    "catchment_area_km2": 2.1021,
    "channel_width_m": 4.25,
    "channel_width_score": 1.0,
    "composite_score": 52.511,
    "cso_density": 0.0,
    "ej_index": 0.5276,
    "elevation_m": 798.0879,
    "estuary_dist_km": 572.0,
    "feasibility_score": 63.6364,
    "flood_q10_cfs": null,
    "flow_score": 25.7679,
    "flow_velocity_ms": 0.1362,
    "generation_score": 65.8276,
    "impact_score": 55.9175,
    "impervious_pct": 2.57,
    "land_ownership": 0.5,
    "lat": 35.919,
    "litter_complaint_density": 0.0,
    "lon": -82.2779,
    "navigable_dist_m": null,
    "npdes_points": 2,
    "pixel_col": 408.0,
    "pixel_row": 201.0,
    "population_density": 54.5,
    "position_along": 0.5,
    "protected_area_score": 6.6714,
    "rank": 2,
    "road_access_m": 60.5,
    "road_access_score": 1.0,
    "road_density_km_km2": 4.706,
    "robustness_pct": 100.0,
    "runoff_coeff_C": 0.0731,
    "seasonal_cv": 0.4963,
    "segment_id": 0,
    "segment_length_m": 387.3641,
    "stream_order": 3,
    "superfund_score": 0.0,
    "tourism_amenity_density": 1.1937,
    "tri_facility_density": 0.4757,
    "usgs_mean_q_cfs": 1.847,
    "velocity_feasibility": 0.7,
    "water_intake_score": 1.5515
   },
   "type": "Feature"
  },
  {
   "geometry": {
    "coordinates": [
     -82.27471,
     35.917576
    ],
    "type": "Point"
   },
   "properties": {
    "accumulation": 94865.0,
    "bank_slope_deg": 19.14,
    "bank_slope_score": 0.5,
    "bank_slope_source": "nc-dps-lidar-dem03-cross-section",
    "beach_dist_km": 450.11,
    "bridge_proximity_bonus": 0.0,
    "catchment_area_km2": 9.4559,
    "channel_width_m": 7.93,
    "channel_width_score": 1.0,
    "composite_score": 50.9052,
    "cso_density": 0.0,
    "ej_index": 0.4615,
    "elevation_m": 791.5222,
    "estuary_dist_km": 571.7,
    "feasibility_score": 52.2727,
    "flood_q10_cfs": null,
    "flow_score": 70.1092,
    "flow_velocity_ms": 0.1579,
    "generation_score": 39.471,
    "impact_score": 45.6522,
    "impervious_pct": 6.99,
    "land_ownership": 0.5,
    "lat": 35.9176,
    "litter_complaint_density": 0.0,
    "lon": -82.2747,
    "navigable_dist_m": null,
    "npdes_points": 3,
    "pixel_col": 438.0,
    "pixel_row": 217.0,
    "population_density": 39.8,
    "position_along": 0.5,
    "protected_area_score": 6.7244,
    "rank": 3,
    "road_access_m": 143.8,
    "road_access_score": 1.0,
    "road_density_km_km2": 2.217,
    "robustness_pct": 100.0,
    "runoff_coeff_C": 0.1129,
    "seasonal_cv": 0.472,
    "segment_id": 2,
    "segment_length_m": 384.9416,
    "stream_order": 3,
    "superfund_score": 0.0,
    "tourism_amenity_density": 0.4775,
    "tri_facility_density": 0.1058,
    "usgs_mean_q_cfs": 9.112,
    "velocity_feasibility": 0.7,
    "water_intake_score": 1.5423
   },
   "type": "Feature"
  },
  {
   "geometry": {
    "coordinates": [
     -82.317174,
     35.911628
    ],
    "type": "Point"
   },
   "properties": {
    "accumulation": 28556.0,
    "bank_slope_deg": 15.57,
    "bank_slope_score": 0.5,
    "bank_slope_source": "nc-dps-lidar-dem03-cross-section",
    "beach_dist_km": 453.35,
    "bridge_proximity_bonus": 0.0,
    "catchment_area_km2": 2.8464,
    "channel_width_m": 4.82,
    "channel_width_score": 1.0,
    "composite_score": 39.0869,
    "cso_density": 0.0,
    "ej_index": 0.5777,
    "elevation_m": 812.653,
    "estuary_dist_km": 575.4,
    "feasibility_score": 52.2727,
    "flood_q10_cfs": null,
    "flow_score": 17.3802,
    "flow_velocity_ms": 0.1257,
    "generation_score": 49.839,
    "impact_score": 39.8306,
    "impervious_pct": 12.5,
    "land_ownership": 0.5,
    "lat": 35.9116,
    "litter_complaint_density": 0.0,
    "lon": -82.3172,
    "navigable_dist_m": null,
    "npdes_points": 1,
    "pixel_col": 49.0,
    "pixel_row": 277.0,
    "population_density": 51.9,
    "position_along": 0.5,
    "protected_area_score": 5.7874,
    "rank": 4,
    "road_access_m": 116.0,
    "road_access_score": 1.0,
    "road_density_km_km2": 3.318,
    "robustness_pct": 100.0,
    "runoff_coeff_C": 0.1625,
    "seasonal_cv": 0.5116,
    "segment_id": 3,
    "segment_length_m": 1154.8249,
    "stream_order": 1,
    "superfund_score": 0.0,
    "tourism_amenity_density": 1.4324,
    "tri_facility_density": 0.0,
    "usgs_mean_q_cfs": 2.784,
    "velocity_feasibility": 0.7,
    "water_intake_score": 1.8248
   },
   "type": "Feature"
  },
  {
   "geometry": {
    "coordinates": [
     -82.31316,
     35.906181
    ],
    "type": "Point"
   },
   "properties": {
    "accumulation": 36775.0,
    "bank_slope_deg": 12.17,
    "bank_slope_score": 1.0,
    "bank_slope_source": "nc-dps-lidar-dem03-cross-section",
    "beach_dist_km": 452.78,
    "bridge_proximity_bonus": 0.0,
    "catchment_area_km2": 3.6656,
    "channel_width_m": 5.35,
    "channel_width_score": 1.0,
    "composite_score": 35.3945,
    "cso_density": 0.0,
    "ej_index": 0.6721,
    "elevation_m": 787.4745,
    "estuary_dist_km": 574.96,
    "feasibility_score": 54.5455,
    "flood_q10_cfs": null,
    "flow_score": 34.6826,
    "flow_velocity_ms": 0.5,
    "generation_score": 1.4026,
    "impact_score": 60.4042,
    "impervious_pct": null,
    "land_ownership": 0.5,
    "lat": 35.9062,
    "litter_complaint_density": 0.0,
    "lon": -82.3132,
    "navigable_dist_m": null,
    "npdes_points": 0,
    "pixel_col": 84.0,
    "pixel_row": 336.0,
    "population_density": 34.0,
    "position_along": 0.5,
    "protected_area_score": 6.0599,
    "rank": 5,
    "road_access_m": 409.2,
    "road_access_score": 0.8,
    "road_density_km_km2": 2.537,
    "robustness_pct": 100.0,
    "runoff_coeff_C": null,
    "seasonal_cv": null,
    "segment_id": 4,
    "segment_length_m": 2646.8007,
    "stream_order": 1,
    "superfund_score": 0.0,
    "tourism_amenity_density": 1.2732,
    "tri_facility_density": 0.0,
    "usgs_mean_q_cfs": null,
    "velocity_feasibility": 1.0,
    "water_intake_score": 1.8849
   },
   "type": "Feature"
  }
 ],
 "note": "GRIME region 'Burnsville, NC' \u2014 real-data pipeline (DEM\u2192streams\u2192candidates\u2192stream mask (sites confined to \u00b1150 m of mapped OSM/NHD waterways)\u2192region-appropriate real parameters\u2192shipped scoring, math unchanged). Width curve: Bieger et al. 2015 JAWRA Table 3, Appalachian Highlands. Flood: not applicable here (documented fallback). NC Blue Ridge (outside SIR 2014-5030 urban coverage)",
 "provenance": {
  "candidates_pre_gate": 5,
  "constant": [
   "bridge_proximity_bonus",
   "channel_width_score",
   "cso_density",
   "flood_q10_cfs",
   "land_ownership",
   "litter_complaint_density",
   "superfund_score"
  ],
  "gated_navigable": 0,
  "hard_gate_removed": 0,
  "n_parameters": 27,
  "parameters": {
   "bank_slope_score": {
    "kind": "real",
    "n_3dep_10m_fallback": 0,
    "n_nc_lidar_3_125ft": 5,
    "n_real": 5,
    "n_sites": 5,
    "source": "NC OneMap / NC DPS DEM03 statewide lidar-derived 3.125-ft (0.953 m) elevations (perpendicular 50 m transect; robust 5 m bank-rise metric); unavailable profiles use the region 10 m 3DEP DEM-gradient fallback",
    "source_mosaics": [
     "Yancey_QL1_2025_03ft_CountywideRaster"
    ]
   },
   "beach_dist_km": {
    "kind": "real",
    "n_real": 5,
    "n_sites": 5,
    "source": "haversine to region ref: Wrightsville Beach (shipped NC reference)"
   },
   "bridge_proximity_bonus": {
    "kind": "real",
    "n_real": 5,
    "n_sites": 5,
    "source": "FHWA/BTS NBI (NTAD), 50 m proximity"
   },
   "catchment_area_km2": {
    "kind": "real",
    "n_real": 5,
    "n_sites": 5,
    "source": "DEM flow accumulation (pipeline)"
   },
   "channel_width_score": {
    "kind": "real",
    "n_real": 5,
    "n_sites": 5,
    "source": "Bieger 2015 AHI width curve on DEM drainage area \u2192 shipped width curve"
   },
   "cso_density": {
    "kind": "real",
    "n_real": 5,
    "n_sites": 5,
    "source": "EPA ECHO open CSO/TCS outfall PF coordinates states=NC, Cauchy proximity"
   },
   "ej_index": {
    "kind": "real",
    "n_real": 5,
    "n_sites": 5,
    "source": "Census ACS C17002+B03002 two-component demographic index, percentile-ranked within region"
   },
   "estuary_dist_km": {
    "kind": "real",
    "n_real": 5,
    "n_sites": 5,
    "source": "haversine to region ref: Pamlico Sound (shipped NC reference)"
   },
   "flood_q10_cfs": {
    "impervious_fallback_reason": "StreamCat imperviousness unavailable; the existing regression-input fallback of 0.0% impervious was used and is disclosed here",
    "kind": "fallback",
    "n_impervious_fallback": 1,
    "n_real": 0,
    "n_sites": 5,
    "source": "flood regression not valid here (NC Blue Ridge (outside SIR 2014-5030 urban coverage)...) \u2014 NaN, dropped by constant-column handling"
   },
   "flow_velocity_ms": {
    "fallback_reason": "EROM/DEM continuity input unavailable; shipped 0.5 m/s default used",
    "kind": "real",
    "n_fallback": 1,
    "n_real": 4,
    "n_sites": 5,
    "source": "Manning (region DEM/D8) blended with EROM continuity (shipped M4 logic)"
   },
   "impervious_pct": {
    "fallback_reason": "NLDI/StreamCat did not return a snap-compatible catchment value; value remains null and is removed by constant-column handling",
    "kind": "real",
    "n_fallback": 1,
    "n_real": 4,
    "n_sites": 5,
    "source": "EPA StreamCat pctimp2019 (per NHDPlus watershed)"
   },
   "land_ownership": {
    "fallback_reason": "no containing parcel owner returned; shipped unknown ownership 0.5 used",
    "kind": "real",
    "n_fallback": 1,
    "n_real": 4,
    "n_sites": 5,
    "source": "NC OneMap statewide parcels (NC Parcels Transformer) ownname"
   },
   "litter_complaint_density": {
    "kind": "fallback",
    "n_real": 0,
    "n_sites": 5,
    "source": "no public machine-readable litter/illegal-dumping feed for this region"
   },
   "navigable_dist_m": {
    "kind": "real",
    "n_real": 5,
    "n_sites": 5,
    "source": "USACE/BTS NWN (NTAD): no navigable segment within this bbox (+2 km) \u2014 computed absence, gate passes all sites"
   },
   "npdes_points": {
    "kind": "real",
    "n_real": 5,
    "n_sites": 5,
    "source": "EPA ECHO active NPDES outfalls states=NC (types NPD/GPC/NGP; statuses ADC/EFF/EXP), per catchment"
   },
   "population_density": {
    "kind": "real",
    "n_real": 5,
    "n_sites": 5,
    "source": "Census ACS 2022 B01003 block groups (bbox, multi-county), area-weighted"
   },
   "protected_area_score": {
    "kind": "real",
    "n_real": 5,
    "n_sites": 5,
    "source": "USGS PAD-US 4.1 state GDB; states=NC; shipped designation-weighted proximity curve"
   },
   "road_access_score": {
    "kind": "real",
    "n_real": 5,
    "n_sites": 5,
    "source": "OSM drive network nearest-node distance"
   },
   "road_density_km_km2": {
    "kind": "real",
    "n_real": 5,
    "n_sites": 5,
    "source": "OSM drive network (osmnx, cached) clipped per catchment"
   },
   "runoff_coeff_C": {
    "fallback_reason": "source impervious_pct was unavailable; derived value remains null",
    "kind": "real",
    "n_fallback": 1,
    "n_real": 4,
    "n_sites": 5,
    "source": "derived from real impervious_pct (C=0.05+0.009*I)"
   },
   "seasonal_cv": {
    "fallback_reason": "NHDPlus monthly EROM was unavailable or failed the drainage-area snap guard; value remains null",
    "kind": "real",
    "n_fallback": 1,
    "n_real": 4,
    "n_sites": 5,
    "source": "CV of NHDPlus EROM monthly flows per COMID"
   },
   "stream_order": {
    "kind": "real",
    "n_real": 5,
    "n_sites": 5,
    "source": "DEM stream-network confluence heuristic (pipeline)"
   },
   "superfund_score": {
    "kind": "real",
    "n_real": 5,
    "n_sites": 5,
    "source": "EPA DataMap SEMS active sites states=NC (non-archived, georeferenced), shipped 500 m inverse-distance curve"
   },
   "tourism_amenity_density": {
    "kind": "real",
    "n_real": 5,
    "n_sites": 5,
    "source": "OSM leisure/tourism features per 2 km radius"
   },
   "tri_facility_density": {
    "kind": "real",
    "n_real": 5,
    "n_sites": 5,
    "source": "EPA DataMap TRI open facilities states=NC (preferred decimal or packed-DMS recovery), per catchment"
   },
   "usgs_mean_q_cfs": {
    "fallback_reason": "NHDPlus EROM was unavailable or failed the drainage-area snap guard; value remains null",
    "kind": "real",
    "n_fallback": 1,
    "n_real": 4,
    "n_sites": 5,
    "source": "NHDPlus EROM qe_ma per COMID (snap-guarded)"
   },
   "velocity_feasibility": {
    "fallback_reason": "derived from the shipped 0.5 m/s velocity fallback",
    "kind": "real",
    "n_fallback": 1,
    "n_real": 4,
    "n_sites": 5,
    "source": "shipped step curve on the computed velocity"
   },
   "velocity_transport_favorability": {
    "fallback_reason": "EROM/DEM continuity input unavailable; shipped 0.5 m/s default used",
    "kind": "derived",
    "n_fallback": 1,
    "n_real": 4,
    "n_sites": 5,
    "source": "scored form of flow_velocity_ms inside the Flow family \u2014 peaked Gaussian exp(-((v-0.9)/0.6)^2), model.json curves.velocity_transport_favorability; construct: transport/delivery favorability, deliberately distinct from velocity_feasibility (device operability)"
   },
   "water_intake_score": {
    "kind": "real",
    "n_real": 5,
    "n_sites": 5,
    "source": "NC OneMap / NC DEQ SWAP public water supply sources (source_typ='Surface Water'), shipped exp(-d/10km) curve"
   }
  },
  "stream_mask": {
   "buffer_m": 150.0,
   "pre_mask": 5,
   "removed": 0,
   "sources": [
    "osm-overpass (all waterway ways)",
    "usgs-nhdplus flowlines"
   ]
  },
  "varying": [
   "bank_slope_score",
   "beach_dist_km",
   "catchment_area_km2",
   "ej_index",
   "estuary_dist_km",
   "flow_velocity_ms",
   "impervious_pct",
   "npdes_points",
   "population_density",
   "protected_area_score",
   "road_access_score",
   "road_density_km_km2",
   "runoff_coeff_C",
   "seasonal_cv",
   "stream_order",
   "tourism_amenity_density",
   "tri_facility_density",
   "usgs_mean_q_cfs",
   "velocity_feasibility",
   "water_intake_score"
  ]
 },
 "region": {
  "bbox": [
   -82.3226,
   35.8961,
   -82.2728,
   35.9365
  ],
  "beach_ref": {
   "label": "Wrightsville Beach (shipped NC reference)",
   "lat": 34.21,
   "lon": -77.79
  },
  "center": [
   -82.297697,
   35.916312
  ],
  "estuary_ref": {
   "label": "Pamlico Sound (shipped NC reference)",
   "lat": 35.05,
   "lon": -76.05
  },
  "flood_method": "none",
  "name": "Burnsville, NC",
  "notes": "NC Blue Ridge (outside SIR 2014-5030 urban coverage)",
  "slug": "burnsville",
  "state": "NC",
  "utm_epsg": 32617,
  "width_curve": {
   "a": 3.12,
   "b": 0.415,
   "code": "AHI",
   "source": "Bieger et al. 2015 JAWRA Table 3, Appalachian Highlands"
  }
 },
 "type": "FeatureCollection"
}
