{
 "features": [
  {
   "geometry": {
    "coordinates": [
     -78.776264,
     36.147396
    ],
    "type": "Point"
   },
   "properties": {
    "accumulation": 286501.0,
    "bank_slope_deg": 0.32,
    "bank_slope_score": 1.0,
    "bank_slope_source": "nc-dps-lidar-dem03-cross-section",
    "beach_dist_km": 233.33,
    "bridge_proximity_bonus": 0.0,
    "catchment_area_km2": 28.6144,
    "channel_width_m": 12.55,
    "channel_width_score": 1.0,
    "composite_score": 50.7023,
    "cso_density": 0.0,
    "ej_index": 0.4415,
    "elevation_m": 81.8643,
    "estuary_dist_km": 275.03,
    "feasibility_score": 67.3469,
    "flood_q10_cfs": 1882.97,
    "flow_score": 62.8417,
    "flow_velocity_ms": 0.0824,
    "generation_score": 34.4573,
    "impact_score": 48.509,
    "impervious_pct": 2.02,
    "land_ownership": 1.0,
    "lat": 36.1474,
    "litter_complaint_density": 0.0,
    "lon": -78.7763,
    "navigable_dist_m": null,
    "npdes_points": 0,
    "pixel_col": 350.0,
    "pixel_row": 545.0,
    "population_density": 163.7,
    "position_along": 0.5,
    "protected_area_score": 21.2796,
    "rank": 1,
    "road_access_m": 754.4,
    "road_access_score": 0.6,
    "road_density_km_km2": 2.388,
    "robustness_pct": 93.5,
    "runoff_coeff_C": 0.0682,
    "seasonal_cv": 0.4552,
    "segment_id": 18,
    "segment_length_m": 784.486,
    "stream_order": 3,
    "superfund_score": 0.0,
    "tourism_amenity_density": 0.557,
    "tri_facility_density": 0.0699,
    "usgs_mean_q_cfs": 43.111,
    "velocity_feasibility": 0.7,
    "water_intake_score": 2.1766
   },
   "type": "Feature"
  },
  {
   "geometry": {
    "coordinates": [
     -78.74567,
     36.148989
    ],
    "type": "Point"
   },
   "properties": {
    "accumulation": 26697.0,
    "bank_slope_deg": 15.24,
    "bank_slope_score": 0.5,
    "bank_slope_source": "nc-dps-lidar-dem03-cross-section",
    "beach_dist_km": 232.44,
    "bridge_proximity_bonus": 0.0,
    "catchment_area_km2": 2.6664,
    "channel_width_m": 4.69,
    "channel_width_score": 1.0,
    "composite_score": 50.5807,
    "cso_density": 0.0,
    "ej_index": 0.631,
    "elevation_m": 88.6184,
    "estuary_dist_km": 272.63,
    "feasibility_score": 73.4694,
    "flood_q10_cfs": 539.07,
    "flow_score": 29.106,
    "flow_velocity_ms": 0.1218,
    "generation_score": 58.0442,
    "impact_score": 49.5685,
    "impervious_pct": 18.58,
    "land_ownership": 1.0,
    "lat": 36.149,
    "litter_complaint_density": 0.0,
    "lon": -78.7457,
    "navigable_dist_m": null,
    "npdes_points": 0,
    "pixel_col": 624.0,
    "pixel_row": 521.0,
    "population_density": 227.0,
    "position_along": 0.5,
    "protected_area_score": 18.5537,
    "rank": 2,
    "road_access_m": 49.0,
    "road_access_score": 1.0,
    "road_density_km_km2": 5.852,
    "robustness_pct": 68.5,
    "runoff_coeff_C": 0.2172,
    "seasonal_cv": 0.4046,
    "segment_id": 16,
    "segment_length_m": 1131.2548,
    "stream_order": 3,
    "superfund_score": 0.0,
    "tourism_amenity_density": 0.6366,
    "tri_facility_density": 0.0,
    "usgs_mean_q_cfs": 2.294,
    "velocity_feasibility": 0.7,
    "water_intake_score": 1.8903
   },
   "type": "Feature"
  },
  {
   "geometry": {
    "coordinates": [
     -78.784692,
     36.14437
    ],
    "type": "Point"
   },
   "properties": {
    "accumulation": 332952.0,
    "bank_slope_deg": 18.57,
    "bank_slope_score": 0.5,
    "bank_slope_source": "nc-dps-lidar-dem03-cross-section",
    "beach_dist_km": 233.32,
    "bridge_proximity_bonus": 0.0,
    "catchment_area_km2": 33.2538,
    "channel_width_m": 13.36,
    "channel_width_score": 1.0,
    "composite_score": 49.0193,
    "cso_density": 0.0,
    "ej_index": 0.4687,
    "elevation_m": 80.3077,
    "estuary_dist_km": 275.57,
    "feasibility_score": 41.8367,
    "flood_q10_cfs": 2053.75,
    "flow_score": 68.9984,
    "flow_velocity_ms": 0.1227,
    "generation_score": 30.9606,
    "impact_score": 54.0199,
    "impervious_pct": 2.28,
    "land_ownership": 0.5,
    "lat": 36.1444,
    "litter_complaint_density": 0.0,
    "lon": -78.7847,
    "navigable_dist_m": null,
    "npdes_points": 0,
    "pixel_col": 274.0,
    "pixel_row": 580.0,
    "population_density": 155.7,
    "position_along": 0.1,
    "protected_area_score": 22.3054,
    "rank": 3,
    "road_access_m": 375.8,
    "road_access_score": 0.8,
    "road_density_km_km2": 1.777,
    "robustness_pct": 89.0,
    "runoff_coeff_C": 0.0705,
    "seasonal_cv": 0.4568,
    "segment_id": 19,
    "segment_length_m": 8034.4982,
    "stream_order": 3,
    "superfund_score": 0.0,
    "tourism_amenity_density": 0.8754,
    "tri_facility_density": 0.0601,
    "usgs_mean_q_cfs": 47.262,
    "velocity_feasibility": 0.7,
    "water_intake_score": 2.2214
   },
   "type": "Feature"
  },
  {
   "geometry": {
    "coordinates": [
     -78.794014,
     36.10797
    ],
    "type": "Point"
   },
   "properties": {
    "accumulation": 414807.0,
    "bank_slope_deg": 2.28,
    "bank_slope_score": 1.0,
    "bank_slope_source": "nc-dps-lidar-dem03-cross-section",
    "beach_dist_km": 229.93,
    "bridge_proximity_bonus": 0.0,
    "catchment_area_km2": 41.4291,
    "channel_width_m": 14.63,
    "channel_width_score": 1.0,
    "composite_score": 46.808,
    "cso_density": 0.0,
    "ej_index": 0.6657,
    "elevation_m": 76.1447,
    "estuary_dist_km": 274.62,
    "feasibility_score": 30.6122,
    "flood_q10_cfs": 2331.87,
    "flow_score": 71.4594,
    "flow_velocity_ms": 0.0889,
    "generation_score": 23.3656,
    "impact_score": 57.8056,
    "impervious_pct": 2.66,
    "land_ownership": 0.5,
    "lat": 36.108,
    "litter_complaint_density": 0.0,
    "lon": -78.794,
    "navigable_dist_m": null,
    "npdes_points": 1,
    "pixel_col": 202.0,
    "pixel_row": 986.0,
    "population_density": 123.8,
    "position_along": 0.9,
    "protected_area_score": 23.9479,
    "rank": 4,
    "road_access_m": 1134.0,
    "road_access_score": 0.3,
    "road_density_km_km2": 0.883,
    "robustness_pct": 64.0,
    "runoff_coeff_C": 0.0739,
    "seasonal_cv": 0.7092,
    "segment_id": 19,
    "segment_length_m": 8034.4982,
    "stream_order": 3,
    "superfund_score": 0.0,
    "tourism_amenity_density": 0.3979,
    "tri_facility_density": 0.0,
    "usgs_mean_q_cfs": 49.339,
    "velocity_feasibility": 0.7,
    "water_intake_score": 1.9808
   },
   "type": "Feature"
  },
  {
   "geometry": {
    "coordinates": [
     -78.801306,
     36.126842
    ],
    "type": "Point"
   },
   "properties": {
    "accumulation": 373200.0,
    "bank_slope_deg": 11.95,
    "bank_slope_score": 1.0,
    "bank_slope_source": "nc-dps-lidar-dem03-cross-section",
    "beach_dist_km": 232.12,
    "bridge_proximity_bonus": 0.0,
    "catchment_area_km2": 37.2735,
    "channel_width_m": 14.01,
    "channel_width_score": 1.0,
    "composite_score": 46.5951,
    "cso_density": 0.0,
    "ej_index": 0.5539,
    "elevation_m": 78.4149,
    "estuary_dist_km": 276.09,
    "feasibility_score": 45.9184,
    "flood_q10_cfs": 2193.5,
    "flow_score": 67.2765,
    "flow_velocity_ms": 0.1261,
    "generation_score": 16.3697,
    "impact_score": 59.9244,
    "impervious_pct": 2.47,
    "land_ownership": 0.5,
    "lat": 36.1268,
    "litter_complaint_density": 0.0,
    "lon": -78.8013,
    "navigable_dist_m": null,
    "npdes_points": 0,
    "pixel_col": 130.0,
    "pixel_row": 778.0,
    "population_density": 137.5,
    "position_along": 0.5,
    "protected_area_score": 23.9351,
    "rank": 5,
    "road_access_m": 670.8,
    "road_access_score": 0.6,
    "road_density_km_km2": 0.744,
    "robustness_pct": 66.0,
    "runoff_coeff_C": 0.0722,
    "seasonal_cv": 0.7337,
    "segment_id": 19,
    "segment_length_m": 8034.4982,
    "stream_order": 3,
    "superfund_score": 0.0,
    "tourism_amenity_density": 0.9549,
    "tri_facility_density": 0.0,
    "usgs_mean_q_cfs": 45.252,
    "velocity_feasibility": 0.7,
    "water_intake_score": 2.2006
   },
   "type": "Feature"
  },
  {
   "geometry": {
    "coordinates": [
     -78.798007,
     36.116363
    ],
    "type": "Point"
   },
   "properties": {
    "accumulation": 381392.0,
    "bank_slope_deg": 6.85,
    "bank_slope_score": 1.0,
    "bank_slope_source": "nc-dps-lidar-dem03-cross-section",
    "beach_dist_km": 230.93,
    "bridge_proximity_bonus": 0.0,
    "catchment_area_km2": 38.0917,
    "channel_width_m": 14.13,
    "channel_width_score": 1.0,
    "composite_score": 46.0973,
    "cso_density": 0.0,
    "ej_index": 0.6035,
    "elevation_m": 77.4679,
    "estuary_dist_km": 275.33,
    "feasibility_score": 45.9184,
    "flood_q10_cfs": 2227.11,
    "flow_score": 68.6451,
    "flow_velocity_ms": 0.1024,
    "generation_score": 16.4703,
    "impact_score": 57.0239,
    "impervious_pct": 2.7,
    "land_ownership": 0.5,
    "lat": 36.1164,
    "litter_complaint_density": 0.0,
    "lon": -78.798,
    "navigable_dist_m": null,
    "npdes_points": 0,
    "pixel_col": 164.0,
    "pixel_row": 890.0,
    "population_density": 133.7,
    "position_along": 0.7,
    "protected_area_score": 24.0268,
    "rank": 6,
    "road_access_m": 895.4,
    "road_access_score": 0.6,
    "road_density_km_km2": 0.805,
    "robustness_pct": 45.5,
    "runoff_coeff_C": 0.0743,
    "seasonal_cv": 0.7185,
    "segment_id": 19,
    "segment_length_m": 8034.4982,
    "stream_order": 3,
    "superfund_score": 0.0,
    "tourism_amenity_density": 0.4775,
    "tri_facility_density": 0.0,
    "usgs_mean_q_cfs": 47.657,
    "velocity_feasibility": 0.7,
    "water_intake_score": 2.0883
   },
   "type": "Feature"
  },
  {
   "geometry": {
    "coordinates": [
     -78.797793,
     36.137368
    ],
    "type": "Point"
   },
   "properties": {
    "accumulation": 364592.0,
    "bank_slope_deg": 20.84,
    "bank_slope_score": 0.5,
    "bank_slope_source": "nc-dps-lidar-dem03-cross-section",
    "beach_dist_km": 233.06,
    "bridge_proximity_bonus": 0.0,
    "catchment_area_km2": 36.4138,
    "channel_width_m": 13.87,
    "channel_width_score": 1.0,
    "composite_score": 42.9787,
    "cso_density": 0.0,
    "ej_index": 0.5151,
    "elevation_m": 79.2019,
    "estuary_dist_km": 276.3,
    "feasibility_score": 16.3265,
    "flood_q10_cfs": 2159.66,
    "flow_score": 69.7982,
    "flow_velocity_ms": 0.0618,
    "generation_score": 17.258,
    "impact_score": 59.6761,
    "impervious_pct": 2.28,
    "land_ownership": 0.5,
    "lat": 36.1374,
    "litter_complaint_density": 0.0,
    "lon": -78.7978,
    "navigable_dist_m": null,
    "npdes_points": 0,
    "pixel_col": 160.0,
    "pixel_row": 661.0,
    "population_density": 144.3,
    "position_along": 0.3,
    "protected_area_score": 22.9979,
    "rank": 7,
    "road_access_m": 1030.9,
    "road_access_score": 0.3,
    "road_density_km_km2": 0.983,
    "robustness_pct": 12.5,
    "runoff_coeff_C": 0.0705,
    "seasonal_cv": 0.4568,
    "segment_id": 19,
    "segment_length_m": 8034.4982,
    "stream_order": 3,
    "superfund_score": 0.0,
    "tourism_amenity_density": 1.1937,
    "tri_facility_density": 0.0,
    "usgs_mean_q_cfs": 47.262,
    "velocity_feasibility": 0.7,
    "water_intake_score": 2.2617
   },
   "type": "Feature"
  },
  {
   "geometry": {
    "coordinates": [
     -78.781427,
     36.128159
    ],
    "type": "Point"
   },
   "properties": {
    "accumulation": 30465.0,
    "bank_slope_deg": 11.91,
    "bank_slope_score": 1.0,
    "bank_slope_source": "nc-dps-lidar-dem03-cross-section",
    "beach_dist_km": 231.54,
    "bridge_proximity_bonus": 0.0,
    "catchment_area_km2": 3.0427,
    "channel_width_m": 4.95,
    "channel_width_score": 1.0,
    "composite_score": 40.5125,
    "cso_density": 0.0,
    "ej_index": 0.4689,
    "elevation_m": 88.6816,
    "estuary_dist_km": 274.53,
    "feasibility_score": 67.3469,
    "flood_q10_cfs": 491.11,
    "flow_score": 12.2492,
    "flow_velocity_ms": 0.1111,
    "generation_score": 37.0137,
    "impact_score": 54.1467,
    "impervious_pct": 7.57,
    "land_ownership": 1.0,
    "lat": 36.1282,
    "litter_complaint_density": 0.0,
    "lon": -78.7814,
    "navigable_dist_m": null,
    "npdes_points": 0,
    "pixel_col": 309.0,
    "pixel_row": 760.0,
    "population_density": 264.9,
    "position_along": 0.5,
    "protected_area_score": 22.4799,
    "rank": 8,
    "road_access_m": 582.2,
    "road_access_score": 0.6,
    "road_density_km_km2": 1.593,
    "robustness_pct": 18.5,
    "runoff_coeff_C": 0.1181,
    "seasonal_cv": 0.3953,
    "segment_id": 24,
    "segment_length_m": 369.4754,
    "stream_order": 1,
    "superfund_score": 0.0,
    "tourism_amenity_density": 0.8754,
    "tri_facility_density": 0.0,
    "usgs_mean_q_cfs": 2.698,
    "velocity_feasibility": 0.7,
    "water_intake_score": 2.0778
   },
   "type": "Feature"
  },
  {
   "geometry": {
    "coordinates": [
     -78.660109,
     36.119054
    ],
    "type": "Point"
   },
   "properties": {
    "accumulation": 133179.0,
    "bank_slope_deg": 0.79,
    "bank_slope_score": 1.0,
    "bank_slope_source": "nc-dps-lidar-dem03-cross-section",
    "beach_dist_km": 226.53,
    "bridge_proximity_bonus": 0.0,
    "catchment_area_km2": 13.3013,
    "channel_width_m": 9.13,
    "channel_width_score": 1.0,
    "composite_score": 40.5088,
    "cso_density": 0.0,
    "ej_index": 0.602,
    "elevation_m": 82.4562,
    "estuary_dist_km": 264.26,
    "feasibility_score": 77.551,
    "flood_q10_cfs": 1251.43,
    "flow_score": 38.7433,
    "flow_velocity_ms": 0.0966,
    "generation_score": 14.6303,
    "impact_score": 49.3374,
    "impervious_pct": 3.16,
    "land_ownership": 1.0,
    "lat": 36.1191,
    "litter_complaint_density": 0.0,
    "lon": -78.6601,
    "navigable_dist_m": null,
    "npdes_points": 0,
    "pixel_col": 1406.0,
    "pixel_row": 835.0,
    "population_density": 63.8,
    "position_along": 0.5,
    "protected_area_score": 13.6457,
    "rank": 9,
    "road_access_m": 272.1,
    "road_access_score": 0.8,
    "road_density_km_km2": 2.617,
    "robustness_pct": 8.5,
    "runoff_coeff_C": 0.0784,
    "seasonal_cv": 0.4122,
    "segment_id": 22,
    "segment_length_m": 1515.1578,
    "stream_order": 3,
    "superfund_score": 0.0,
    "tourism_amenity_density": 1.1141,
    "tri_facility_density": 0.0,
    "usgs_mean_q_cfs": 12.014,
    "velocity_feasibility": 0.7,
    "water_intake_score": 1.3216
   },
   "type": "Feature"
  },
  {
   "geometry": {
    "coordinates": [
     -78.760417,
     36.153918
    ],
    "type": "Point"
   },
   "properties": {
    "accumulation": 140861.0,
    "bank_slope_deg": 19.51,
    "bank_slope_score": 0.5,
    "bank_slope_source": "nc-dps-lidar-dem03-cross-section",
    "beach_dist_km": 233.45,
    "bridge_proximity_bonus": 0.0,
    "catchment_area_km2": 14.0686,
    "channel_width_m": 9.35,
    "channel_width_score": 1.0,
    "composite_score": 40.4639,
    "cso_density": 0.0,
    "ej_index": 0.4341,
    "elevation_m": 84.1933,
    "estuary_dist_km": 274.06,
    "feasibility_score": 53.0612,
    "flood_q10_cfs": 1414.54,
    "flow_score": 39.7508,
    "flow_velocity_ms": 0.0844,
    "generation_score": 31.0848,
    "impact_score": 44.1386,
    "impervious_pct": 9.78,
    "land_ownership": 1.0,
    "lat": 36.1539,
    "litter_complaint_density": 0.0,
    "lon": -78.7604,
    "navigable_dist_m": null,
    "npdes_points": 0,
    "pixel_col": 490.0,
    "pixel_row": 468.0,
    "population_density": 133.7,
    "position_along": 0.5,
    "protected_area_score": 19.0935,
    "rank": 10,
    "road_access_m": 535.4,
    "road_access_score": 0.6,
    "road_density_km_km2": 3.016,
    "robustness_pct": 0.0,
    "runoff_coeff_C": 0.138,
    "seasonal_cv": 0.3917,
    "segment_id": 17,
    "segment_length_m": 2898.3877,
    "stream_order": 3,
    "superfund_score": 0.0,
    "tourism_amenity_density": 0.557,
    "tri_facility_density": 0.0,
    "usgs_mean_q_cfs": 7.228,
    "velocity_feasibility": 0.7,
    "water_intake_score": 2.0704
   },
   "type": "Feature"
  },
  {
   "geometry": {
    "coordinates": [
     -78.770384,
     36.097386
    ],
    "type": "Point"
   },
   "properties": {
    "accumulation": 36012.0,
    "bank_slope_deg": 5.31,
    "bank_slope_score": 1.0,
    "bank_slope_source": "nc-dps-lidar-dem03-cross-section",
    "beach_dist_km": 228.01,
    "bridge_proximity_bonus": 0.0,
    "catchment_area_km2": 3.5967,
    "channel_width_m": 5.31,
    "channel_width_score": 1.0,
    "composite_score": 40.1762,
    "cso_density": 0.0,
    "ej_index": 0.8832,
    "elevation_m": 79.3376,
    "estuary_dist_km": 272.2,
    "feasibility_score": 56.1224,
    "flood_q10_cfs": 578.45,
    "flow_score": 15.2782,
    "flow_velocity_ms": 0.12,
    "generation_score": 33.4258,
    "impact_score": 59.7017,
    "impervious_pct": 9.72,
    "land_ownership": 0.5,
    "lat": 36.0974,
    "litter_complaint_density": 0.0,
    "lon": -78.7704,
    "navigable_dist_m": null,
    "npdes_points": 1,
    "pixel_col": 417.0,
    "pixel_row": 1099.0,
    "population_density": 87.7,
    "position_along": 0.25,
    "protected_area_score": 22.4912,
    "rank": 11,
    "road_access_m": 230.6,
    "road_access_score": 0.8,
    "road_density_km_km2": 2.547,
    "robustness_pct": 10.0,
    "runoff_coeff_C": 0.1375,
    "seasonal_cv": 0.39,
    "segment_id": 31,
    "segment_length_m": 3157.8098,
    "stream_order": 1,
    "superfund_score": 0.0,
    "tourism_amenity_density": 0.0796,
    "tri_facility_density": 0.0,
    "usgs_mean_q_cfs": 5.7,
    "velocity_feasibility": 0.7,
    "water_intake_score": 1.7373
   },
   "type": "Feature"
  },
  {
   "geometry": {
    "coordinates": [
     -78.725977,
     36.115165
    ],
    "type": "Point"
   },
   "properties": {
    "accumulation": 25390.0,
    "bank_slope_deg": 12.06,
    "bank_slope_score": 1.0,
    "bank_slope_source": "nc-dps-lidar-dem03-cross-section",
    "beach_dist_km": 228.29,
    "bridge_proximity_bonus": 0.0,
    "catchment_area_km2": 2.5358,
    "channel_width_m": 4.59,
    "channel_width_score": 1.0,
    "composite_score": 38.7267,
    "cso_density": 0.0,
    "ej_index": 0.5433,
    "elevation_m": 91.5851,
    "estuary_dist_km": 269.41,
    "feasibility_score": 50.0,
    "flood_q10_cfs": 451.33,
    "flow_score": 10.8517,
    "flow_velocity_ms": 0.0363,
    "generation_score": 50.8739,
    "impact_score": 44.1719,
    "impervious_pct": 10.59,
    "land_ownership": 0.5,
    "lat": 36.1152,
    "litter_complaint_density": 0.0,
    "lon": -78.726,
    "navigable_dist_m": null,
    "npdes_points": 1,
    "pixel_col": 811.0,
    "pixel_row": 892.0,
    "population_density": 207.8,
    "position_along": 0.125,
    "protected_area_score": 17.888,
    "rank": 12,
    "road_access_m": 98.8,
    "road_access_score": 1.0,
    "road_density_km_km2": 4.909,
    "robustness_pct": 15.5,
    "runoff_coeff_C": 0.1453,
    "seasonal_cv": 0.4006,
    "segment_id": 26,
    "segment_length_m": 6073.2222,
    "stream_order": 1,
    "superfund_score": 0.0,
    "tourism_amenity_density": 0.3183,
    "tri_facility_density": 0.0,
    "usgs_mean_q_cfs": 2.777,
    "velocity_feasibility": 0.3,
    "water_intake_score": 1.5931
   },
   "type": "Feature"
  },
  {
   "geometry": {
    "coordinates": [
     -78.701632,
     36.138712
    ],
    "type": "Point"
   },
   "properties": {
    "accumulation": 135312.0,
    "bank_slope_deg": 0.0,
    "bank_slope_score": 1.0,
    "bank_slope_source": "nc-dps-lidar-dem03-cross-section",
    "beach_dist_km": 229.91,
    "bridge_proximity_bonus": 0.0,
    "catchment_area_km2": 13.5144,
    "channel_width_m": 9.19,
    "channel_width_score": 1.0,
    "composite_score": 38.2335,
    "cso_density": 0.0,
    "ej_index": 0.3488,
    "elevation_m": 84.8335,
    "estuary_dist_km": 268.57,
    "feasibility_score": 67.3469,
    "flood_q10_cfs": 1269.13,
    "flow_score": 37.1627,
    "flow_velocity_ms": 0.0516,
    "generation_score": 30.0884,
    "impact_score": 32.7141,
    "impervious_pct": 3.54,
    "land_ownership": 1.0,
    "lat": 36.1387,
    "litter_complaint_density": 0.0,
    "lon": -78.7016,
    "navigable_dist_m": null,
    "npdes_points": 0,
    "pixel_col": 1023.0,
    "pixel_row": 625.0,
    "population_density": 105.9,
    "position_along": 0.8333,
    "protected_area_score": 15.6459,
    "rank": 13,
    "road_access_m": 947.4,
    "road_access_score": 0.6,
    "road_density_km_km2": 1.529,
    "robustness_pct": 0.5,
    "runoff_coeff_C": 0.0819,
    "seasonal_cv": 0.3966,
    "segment_id": 12,
    "segment_length_m": 4866.4005,
    "stream_order": 3,
    "superfund_score": 0.0,
    "tourism_amenity_density": 0.3979,
    "tri_facility_density": 0.074,
    "usgs_mean_q_cfs": 9.442,
    "velocity_feasibility": 0.7,
    "water_intake_score": 1.4896
   },
   "type": "Feature"
  },
  {
   "geometry": {
    "coordinates": [
     -78.706377,
     36.11519
    ],
    "type": "Point"
   },
   "properties": {
    "accumulation": 77992.0,
    "bank_slope_deg": 1.37,
    "bank_slope_score": 1.0,
    "bank_slope_source": "nc-dps-lidar-dem03-cross-section",
    "beach_dist_km": 227.63,
    "bridge_proximity_bonus": 0.0,
    "catchment_area_km2": 7.7895,
    "channel_width_m": 7.31,
    "channel_width_score": 1.0,
    "composite_score": 38.2223,
    "cso_density": 0.0,
    "ej_index": 0.6248,
    "elevation_m": 80.9256,
    "estuary_dist_km": 267.82,
    "feasibility_score": 45.9184,
    "flood_q10_cfs": 937.53,
    "flow_score": 25.8027,
    "flow_velocity_ms": 0.0869,
    "generation_score": 38.5416,
    "impact_score": 44.4048,
    "impervious_pct": 3.71,
    "land_ownership": 0.5,
    "lat": 36.1152,
    "litter_complaint_density": 0.0,
    "lon": -78.7064,
    "navigable_dist_m": null,
    "npdes_points": 2,
    "pixel_col": 987.0,
    "pixel_row": 888.0,
    "population_density": 147.1,
    "position_along": 0.75,
    "protected_area_score": 15.6521,
    "rank": 14,
    "road_access_m": 512.0,
    "road_access_score": 0.6,
    "road_density_km_km2": 2.657,
    "robustness_pct": 0.0,
    "runoff_coeff_C": 0.0834,
    "seasonal_cv": 0.4099,
    "segment_id": 23,
    "segment_length_m": 3291.5742,
    "stream_order": 1,
    "superfund_score": 0.0,
    "tourism_amenity_density": 0.3979,
    "tri_facility_density": 0.0,
    "usgs_mean_q_cfs": 25.081,
    "velocity_feasibility": 0.7,
    "water_intake_score": 1.4668
   },
   "type": "Feature"
  },
  {
   "geometry": {
    "coordinates": [
     -78.774112,
     36.158601
    ],
    "type": "Point"
   },
   "properties": {
    "accumulation": 98276.0,
    "bank_slope_deg": 14.04,
    "bank_slope_score": 1.0,
    "bank_slope_source": "nc-dps-lidar-dem03-cross-section",
    "beach_dist_km": 234.4,
    "bridge_proximity_bonus": 0.0,
    "catchment_area_km2": 9.8154,
    "channel_width_m": 8.05,
    "channel_width_score": 1.0,
    "composite_score": 37.9486,
    "cso_density": 0.0,
    "ej_index": 0.3445,
    "elevation_m": 83.3545,
    "estuary_dist_km": 275.39,
    "feasibility_score": 77.551,
    "flood_q10_cfs": 1018.68,
    "flow_score": 44.9911,
    "flow_velocity_ms": 0.1147,
    "generation_score": 10.4171,
    "impact_score": 39.8099,
    "impervious_pct": 0.45,
    "land_ownership": 1.0,
    "lat": 36.1586,
    "litter_complaint_density": 0.0,
    "lon": -78.7741,
    "navigable_dist_m": null,
    "npdes_points": 0,
    "pixel_col": 368.0,
    "pixel_row": 420.0,
    "population_density": 94.5,
    "position_along": 0.5,
    "protected_area_score": 19.5587,
    "rank": 15,
    "road_access_m": 324.2,
    "road_access_score": 0.8,
    "road_density_km_km2": 1.109,
    "robustness_pct": 1.0,
    "runoff_coeff_C": 0.0541,
    "seasonal_cv": 0.4518,
    "segment_id": 8,
    "segment_length_m": 2586.7442,
    "stream_order": 3,
    "superfund_score": 0.0,
    "tourism_amenity_density": 0.2387,
    "tri_facility_density": 0.0,
    "usgs_mean_q_cfs": 35.004,
    "velocity_feasibility": 0.7,
    "water_intake_score": 2.2319
   },
   "type": "Feature"
  },
  {
   "geometry": {
    "coordinates": [
     -78.662043,
     36.095697
    ],
    "type": "Point"
   },
   "properties": {
    "accumulation": 235209.0,
    "bank_slope_deg": 0.94,
    "bank_slope_score": 1.0,
    "bank_slope_source": "nc-dps-lidar-dem03-cross-section",
    "beach_dist_km": 224.17,
    "bridge_proximity_bonus": 0.0,
    "catchment_area_km2": 23.4916,
    "channel_width_m": 11.56,
    "channel_width_score": 1.0,
    "composite_score": 37.8075,
    "cso_density": 0.0,
    "ej_index": 0.6027,
    "elevation_m": 78.7636,
    "estuary_dist_km": 263.29,
    "feasibility_score": 56.1224,
    "flood_q10_cfs": 1730.33,
    "flow_score": 49.8688,
    "flow_velocity_ms": 0.14,
    "generation_score": 12.1518,
    "impact_score": 44.2548,
    "impervious_pct": 3.81,
    "land_ownership": 0.5,
    "lat": 36.0957,
    "litter_complaint_density": 0.0,
    "lon": -78.662,
    "navigable_dist_m": null,
    "npdes_points": 0,
    "pixel_col": 1391.0,
    "pixel_row": 1094.0,
    "population_density": 63.9,
    "position_along": 0.5,
    "protected_area_score": 13.6046,
    "rank": 16,
    "road_access_m": 363.6,
    "road_access_score": 0.8,
    "road_density_km_km2": 1.072,
    "robustness_pct": 0.0,
    "runoff_coeff_C": 0.0843,
    "seasonal_cv": 0.4174,
    "segment_id": 33,
    "segment_length_m": 1601.6725,
    "stream_order": 3,
    "superfund_score": 0.0,
    "tourism_amenity_density": 0.2387,
    "tri_facility_density": 0.0,
    "usgs_mean_q_cfs": 16.39,
    "velocity_feasibility": 0.7,
    "water_intake_score": 1.3065
   },
   "type": "Feature"
  },
  {
   "geometry": {
    "coordinates": [
     -78.664436,
     36.11407
    ],
    "type": "Point"
   },
   "properties": {
    "accumulation": 27161.0,
    "bank_slope_deg": 11.83,
    "bank_slope_score": 1.0,
    "bank_slope_source": "nc-dps-lidar-dem03-cross-section",
    "beach_dist_km": 226.15,
    "bridge_proximity_bonus": 0.0,
    "catchment_area_km2": 2.7127,
    "channel_width_m": 4.72,
    "channel_width_score": 1.0,
    "composite_score": 37.7774,
    "cso_density": 0.0,
    "ej_index": 0.6687,
    "elevation_m": 84.3551,
    "estuary_dist_km": 264.37,
    "feasibility_score": 56.1224,
    "flood_q10_cfs": 475.85,
    "flow_score": 25.7139,
    "flow_velocity_ms": 0.0974,
    "generation_score": 23.497,
    "impact_score": 52.9382,
    "impervious_pct": 10.71,
    "land_ownership": 0.5,
    "lat": 36.1141,
    "litter_complaint_density": 0.0,
    "lon": -78.6644,
    "navigable_dist_m": null,
    "npdes_points": 0,
    "pixel_col": 1369.0,
    "pixel_row": 890.0,
    "population_density": 77.4,
    "position_along": 0.5,
    "protected_area_score": 13.8733,
    "rank": 17,
    "road_access_m": 387.3,
    "road_access_score": 0.8,
    "road_density_km_km2": 1.336,
    "robustness_pct": 0.0,
    "runoff_coeff_C": 0.1464,
    "seasonal_cv": 0.4155,
    "segment_id": 27,
    "segment_length_m": 1046.749,
    "stream_order": 3,
    "superfund_score": 0.0,
    "tourism_amenity_density": 1.1937,
    "tri_facility_density": 0.0,
    "usgs_mean_q_cfs": 1.666,
    "velocity_feasibility": 0.7,
    "water_intake_score": 1.3268
   },
   "type": "Feature"
  },
  {
   "geometry": {
    "coordinates": [
     -78.658239,
     36.106254
    ],
    "type": "Point"
   },
   "properties": {
    "accumulation": 192429.0,
    "bank_slope_deg": 1.72,
    "bank_slope_score": 1.0,
    "bank_slope_source": "nc-dps-lidar-dem03-cross-section",
    "beach_dist_km": 225.14,
    "bridge_proximity_bonus": 0.0,
    "catchment_area_km2": 19.2189,
    "channel_width_m": 10.64,
    "channel_width_score": 1.0,
    "composite_score": 37.6021,
    "cso_density": 0.0,
    "ej_index": 0.6077,
    "elevation_m": 80.8841,
    "estuary_dist_km": 263.49,
    "feasibility_score": 56.1224,
    "flood_q10_cfs": 1554.24,
    "flow_score": 44.9514,
    "flow_velocity_ms": 0.0922,
    "generation_score": 14.5454,
    "impact_score": 45.2742,
    "impervious_pct": 4.09,
    "land_ownership": 0.5,
    "lat": 36.1063,
    "litter_complaint_density": 0.0,
    "lon": -78.6582,
    "navigable_dist_m": null,
    "npdes_points": 0,
    "pixel_col": 1425.0,
    "pixel_row": 977.0,
    "population_density": 66.4,
    "position_along": 0.5,
    "protected_area_score": 13.3379,
    "rank": 18,
    "road_access_m": 392.3,
    "road_access_score": 0.8,
    "road_density_km_km2": 1.883,
    "robustness_pct": 0.0,
    "runoff_coeff_C": 0.0868,
    "seasonal_cv": 0.4156,
    "segment_id": 28,
    "segment_length_m": 2091.7834,
    "stream_order": 3,
    "superfund_score": 0.0,
    "tourism_amenity_density": 0.4775,
    "tri_facility_density": 0.0,
    "usgs_mean_q_cfs": 14.927,
    "velocity_feasibility": 0.7,
    "water_intake_score": 1.314
   },
   "type": "Feature"
  },
  {
   "geometry": {
    "coordinates": [
     -78.766191,
     36.084755
    ],
    "type": "Point"
   },
   "properties": {
    "accumulation": 51286.0,
    "bank_slope_deg": 0.0,
    "bank_slope_score": 1.0,
    "bank_slope_source": "nc-dps-lidar-dem03-cross-section",
    "beach_dist_km": 226.57,
    "bridge_proximity_bonus": 0.0,
    "catchment_area_km2": 5.1222,
    "channel_width_m": 6.15,
    "channel_width_score": 1.0,
    "composite_score": 37.2743,
    "cso_density": 0.0,
    "ej_index": 0.803,
    "elevation_m": 75.3881,
    "estuary_dist_km": 271.27,
    "feasibility_score": 50.0,
    "flood_q10_cfs": 749.27,
    "flow_score": 15.8193,
    "flow_velocity_ms": 0.0415,
    "generation_score": 29.0853,
    "impact_score": 56.9797,
    "impervious_pct": 9.28,
    "land_ownership": 0.5,
    "lat": 36.0848,
    "litter_complaint_density": 0.0,
    "lon": -78.7662,
    "navigable_dist_m": null,
    "npdes_points": 0,
    "pixel_col": 458.0,
    "pixel_row": 1238.0,
    "population_density": 98.8,
    "position_along": 0.75,
    "protected_area_score": 22.5059,
    "rank": 19,
    "road_access_m": 143.9,
    "road_access_score": 1.0,
    "road_density_km_km2": 3.887,
    "robustness_pct": 0.0,
    "runoff_coeff_C": 0.1335,
    "seasonal_cv": 0.3922,
    "segment_id": 31,
    "segment_length_m": 3157.8098,
    "stream_order": 1,
    "superfund_score": 0.0,
    "tourism_amenity_density": 0.0796,
    "tri_facility_density": 0.0,
    "usgs_mean_q_cfs": 6.845,
    "velocity_feasibility": 0.3,
    "water_intake_score": 1.6179
   },
   "type": "Feature"
  },
  {
   "geometry": {
    "coordinates": [
     -78.705168,
     36.126215
    ],
    "type": "Point"
   },
   "properties": {
    "accumulation": 43410.0,
    "bank_slope_deg": 4.68,
    "bank_slope_score": 1.0,
    "bank_slope_source": "nc-dps-lidar-dem03-cross-section",
    "beach_dist_km": 228.73,
    "bridge_proximity_bonus": 0.0,
    "catchment_area_km2": 4.3356,
    "channel_width_m": 5.73,
    "channel_width_score": 1.0,
    "composite_score": 36.7369,
    "cso_density": 0.0,
    "ej_index": 0.4545,
    "elevation_m": 82.4889,
    "estuary_dist_km": 268.25,
    "feasibility_score": 68.3673,
    "flood_q10_cfs": 561.75,
    "flow_score": 28.655,
    "flow_velocity_ms": 0.5,
    "generation_score": 25.9371,
    "impact_score": 38.4565,
    "impervious_pct": null,
    "land_ownership": 0.5,
    "lat": 36.1262,
    "litter_complaint_density": 0.0,
    "lon": -78.7052,
    "navigable_dist_m": null,
    "npdes_points": 1,
    "pixel_col": 997.0,
    "pixel_row": 765.0,
    "population_density": 166.7,
    "position_along": 0.25,
    "protected_area_score": 15.6684,
    "rank": 20,
    "road_access_m": 384.7,
    "road_access_score": 0.8,
    "road_density_km_km2": 1.927,
    "robustness_pct": 0.0,
    "runoff_coeff_C": null,
    "seasonal_cv": null,
    "segment_id": 23,
    "segment_length_m": 3291.5742,
    "stream_order": 1,
    "superfund_score": 0.0,
    "tourism_amenity_density": 0.4775,
    "tri_facility_density": 0.0,
    "usgs_mean_q_cfs": null,
    "velocity_feasibility": 1.0,
    "water_intake_score": 1.4905
   },
   "type": "Feature"
  },
  {
   "geometry": {
    "coordinates": [
     -78.765349,
     36.118375
    ],
    "type": "Point"
   },
   "properties": {
    "accumulation": 48181.0,
    "bank_slope_deg": 9.54,
    "bank_slope_score": 1.0,
    "bank_slope_source": "nc-dps-lidar-dem03-cross-section",
    "beach_dist_km": 229.98,
    "bridge_proximity_bonus": 0.0,
    "catchment_area_km2": 4.8121,
    "channel_width_m": 5.99,
    "channel_width_score": 1.0,
    "composite_score": 36.6626,
    "cso_density": 0.0,
    "ej_index": 0.7877,
    "elevation_m": 92.419,
    "estuary_dist_km": 272.76,
    "feasibility_score": 45.9184,
    "flood_q10_cfs": 720.35,
    "flow_score": 16.7573,
    "flow_velocity_ms": 0.1172,
    "generation_score": 25.9032,
    "impact_score": 59.3819,
    "impervious_pct": 9.72,
    "land_ownership": 0.5,
    "lat": 36.1184,
    "litter_complaint_density": 0.0,
    "lon": -78.7653,
    "navigable_dist_m": null,
    "npdes_points": 0,
    "pixel_col": 457.0,
    "pixel_row": 865.0,
    "population_density": 102.8,
    "position_along": 0.5,
    "protected_area_score": 21.6034,
    "rank": 21,
    "road_access_m": 722.7,
    "road_access_score": 0.6,
    "road_density_km_km2": 1.989,
    "robustness_pct": 0.0,
    "runoff_coeff_C": 0.1375,
    "seasonal_cv": 0.39,
    "segment_id": 25,
    "segment_length_m": 2645.7024,
    "stream_order": 1,
    "superfund_score": 0.0,
    "tourism_amenity_density": 0.4775,
    "tri_facility_density": 0.0,
    "usgs_mean_q_cfs": 5.7,
    "velocity_feasibility": 0.7,
    "water_intake_score": 1.8806
   },
   "type": "Feature"
  },
  {
   "geometry": {
    "coordinates": [
     -78.725111,
     36.104625
    ],
    "type": "Point"
   },
   "properties": {
    "accumulation": 48417.0,
    "bank_slope_deg": 9.43,
    "bank_slope_score": 1.0,
    "bank_slope_source": "nc-dps-lidar-dem03-cross-section",
    "beach_dist_km": 227.17,
    "bridge_proximity_bonus": 0.0,
    "catchment_area_km2": 4.8357,
    "channel_width_m": 6.0,
    "channel_width_score": 1.0,
    "composite_score": 36.0807,
    "cso_density": 0.0,
    "ej_index": 0.6453,
    "elevation_m": 84.9827,
    "estuary_dist_km": 268.84,
    "feasibility_score": 56.1224,
    "flood_q10_cfs": 734.1,
    "flow_score": 14.9675,
    "flow_velocity_ms": 0.089,
    "generation_score": 31.5988,
    "impact_score": 48.1358,
    "impervious_pct": 10.59,
    "land_ownership": 0.5,
    "lat": 36.1046,
    "litter_complaint_density": 0.0,
    "lon": -78.7251,
    "navigable_dist_m": null,
    "npdes_points": 0,
    "pixel_col": 823.0,
    "pixel_row": 1009.0,
    "population_density": 140.6,
    "position_along": 0.375,
    "protected_area_score": 17.8956,
    "rank": 22,
    "road_access_m": 369.3,
    "road_access_score": 0.8,
    "road_density_km_km2": 2.45,
    "robustness_pct": 0.0,
    "runoff_coeff_C": 0.1453,
    "seasonal_cv": 0.4006,
    "segment_id": 26,
    "segment_length_m": 6073.2222,
    "stream_order": 1,
    "superfund_score": 0.0,
    "tourism_amenity_density": 0.3183,
    "tri_facility_density": 0.0,
    "usgs_mean_q_cfs": 2.777,
    "velocity_feasibility": 0.7,
    "water_intake_score": 1.5381
   },
   "type": "Feature"
  },
  {
   "geometry": {
    "coordinates": [
     -78.666035,
     36.075921
    ],
    "type": "Point"
   },
   "properties": {
    "accumulation": 353610.0,
    "bank_slope_deg": 0.37,
    "bank_slope_score": 1.0,
    "bank_slope_source": "nc-dps-lidar-dem03-cross-section",
    "beach_dist_km": 222.24,
    "bridge_proximity_bonus": 0.0,
    "catchment_area_km2": 35.317,
    "channel_width_m": 13.7,
    "channel_width_score": 1.0,
    "composite_score": 35.9105,
    "cso_density": 0.0,
    "ej_index": 0.479,
    "elevation_m": 76.3332,
    "estuary_dist_km": 262.68,
    "feasibility_score": 30.6122,
    "flood_q10_cfs": 2125.44,
    "flow_score": 65.5882,
    "flow_velocity_ms": 0.1605,
    "generation_score": 6.8579,
    "impact_score": 42.8806,
    "impervious_pct": 2.35,
    "land_ownership": 0.5,
    "lat": 36.0759,
    "litter_complaint_density": 0.0,
    "lon": -78.666,
    "navigable_dist_m": null,
    "npdes_points": 0,
    "pixel_col": 1364.0,
    "pixel_row": 1315.0,
    "population_density": 43.4,
    "position_along": 0.5,
    "protected_area_score": 15.1938,
    "rank": 23,
    "road_access_m": 1521.7,
    "road_access_score": 0.3,
    "road_density_km_km2": 0.438,
    "robustness_pct": 0.0,
    "runoff_coeff_C": 0.0712,
    "seasonal_cv": 0.4384,
    "segment_id": 40,
    "segment_length_m": 245.4106,
    "stream_order": 3,
    "superfund_score": 0.0,
    "tourism_amenity_density": 0.0796,
    "tri_facility_density": 0.0,
    "usgs_mean_q_cfs": 33.523,
    "velocity_feasibility": 0.7,
    "water_intake_score": 1.2891
   },
   "type": "Feature"
  },
  {
   "geometry": {
    "coordinates": [
     -78.662706,
     36.083837
    ],
    "type": "Point"
   },
   "properties": {
    "accumulation": 272681.0,
    "bank_slope_deg": 3.34,
    "bank_slope_score": 1.0,
    "bank_slope_source": "nc-dps-lidar-dem03-cross-section",
    "beach_dist_km": 222.96,
    "bridge_proximity_bonus": 0.0,
    "catchment_area_km2": 27.2342,
    "channel_width_m": 12.29,
    "channel_width_score": 1.0,
    "composite_score": 35.4955,
    "cso_density": 0.0,
    "ej_index": 0.5342,
    "elevation_m": 77.0777,
    "estuary_dist_km": 262.78,
    "feasibility_score": 45.9184,
    "flood_q10_cfs": 1872.27,
    "flow_score": 51.2279,
    "flow_velocity_ms": 0.0585,
    "generation_score": 9.8804,
    "impact_score": 42.789,
    "impervious_pct": 3.59,
    "land_ownership": 0.5,
    "lat": 36.0838,
    "litter_complaint_density": 0.0,
    "lon": -78.6627,
    "navigable_dist_m": null,
    "npdes_points": 0,
    "pixel_col": 1389.0,
    "pixel_row": 1227.0,
    "population_density": 51.8,
    "position_along": 0.5,
    "protected_area_score": 14.3242,
    "rank": 24,
    "road_access_m": 749.3,
    "road_access_score": 0.6,
    "road_density_km_km2": 0.683,
    "robustness_pct": 0.0,
    "runoff_coeff_C": 0.0823,
    "seasonal_cv": 0.4197,
    "segment_id": 36,
    "segment_length_m": 1641.6476,
    "stream_order": 3,
    "superfund_score": 0.0,
    "tourism_amenity_density": 0.0796,
    "tri_facility_density": 0.0,
    "usgs_mean_q_cfs": 17.824,
    "velocity_feasibility": 0.7,
    "water_intake_score": 1.289
   },
   "type": "Feature"
  },
  {
   "geometry": {
    "coordinates": [
     -78.697946,
     36.136811
    ],
    "type": "Point"
   },
   "properties": {
    "accumulation": 78797.0,
    "bank_slope_deg": 5.54,
    "bank_slope_score": 1.0,
    "bank_slope_source": "nc-dps-lidar-dem03-cross-section",
    "beach_dist_km": 229.59,
    "bridge_proximity_bonus": 0.0,
    "catchment_area_km2": 7.8699,
    "channel_width_m": 7.34,
    "channel_width_score": 1.0,
    "composite_score": 35.4764,
    "cso_density": 0.0,
    "ej_index": 0.3225,
    "elevation_m": 85.5208,
    "estuary_dist_km": 268.18,
    "feasibility_score": 67.3469,
    "flood_q10_cfs": 923.54,
    "flow_score": 20.4016,
    "flow_velocity_ms": 0.1213,
    "generation_score": 35.8896,
    "impact_score": 31.6903,
    "impervious_pct": 2.21,
    "land_ownership": 1.0,
    "lat": 36.1368,
    "litter_complaint_density": 0.0,
    "lon": -78.6979,
    "navigable_dist_m": null,
    "npdes_points": 0,
    "pixel_col": 1059.0,
    "pixel_row": 646.0,
    "population_density": 89.6,
    "position_along": 0.75,
    "protected_area_score": 15.3535,
    "rank": 25,
    "road_access_m": 943.3,
    "road_access_score": 0.6,
    "road_density_km_km2": 1.3,
    "robustness_pct": 1.5,
    "runoff_coeff_C": 0.0699,
    "seasonal_cv": 0.4027,
    "segment_id": 14,
    "segment_length_m": 4401.1269,
    "stream_order": 1,
    "superfund_score": 0.0,
    "tourism_amenity_density": 0.3979,
    "tri_facility_density": 0.1271,
    "usgs_mean_q_cfs": 11.898,
    "velocity_feasibility": 0.7,
    "water_intake_score": 1.4664
   },
   "type": "Feature"
  },
  {
   "geometry": {
    "coordinates": [
     -78.768224,
     36.177585
    ],
    "type": "Point"
   },
   "properties": {
    "accumulation": 49515.0,
    "bank_slope_deg": 0.0,
    "bank_slope_score": 1.0,
    "bank_slope_source": "nc-dps-lidar-dem03-cross-section",
    "beach_dist_km": 236.15,
    "bridge_proximity_bonus": 0.0,
    "catchment_area_km2": 4.9453,
    "channel_width_m": 6.06,
    "channel_width_score": 1.0,
    "composite_score": 34.7213,
    "cso_density": 0.0,
    "ej_index": 0.2975,
    "elevation_m": 107.7265,
    "estuary_dist_km": 275.84,
    "feasibility_score": 89.7959,
    "flood_q10_cfs": 620.31,
    "flow_score": 43.3435,
    "flow_velocity_ms": 0.5,
    "generation_score": 1.7702,
    "impact_score": 32.9501,
    "impervious_pct": null,
    "land_ownership": 1.0,
    "lat": 36.1776,
    "litter_complaint_density": 0.0,
    "lon": -78.7682,
    "navigable_dist_m": null,
    "npdes_points": 0,
    "pixel_col": 416.0,
    "pixel_row": 208.0,
    "population_density": 14.6,
    "position_along": 0.5,
    "protected_area_score": 18.314,
    "rank": 26,
    "road_access_m": 355.4,
    "road_access_score": 0.8,
    "road_density_km_km2": 0.808,
    "robustness_pct": 5.0,
    "runoff_coeff_C": null,
    "seasonal_cv": null,
    "segment_id": 1,
    "segment_length_m": 2874.2606,
    "stream_order": 3,
    "superfund_score": 0.0,
    "tourism_amenity_density": 0.3979,
    "tri_facility_density": 0.0,
    "usgs_mean_q_cfs": null,
    "velocity_feasibility": 1.0,
    "water_intake_score": 2.0824
   },
   "type": "Feature"
  },
  {
   "geometry": {
    "coordinates": [
     -78.664356,
     36.077407
    ],
    "type": "Point"
   },
   "properties": {
    "accumulation": 315166.0,
    "bank_slope_deg": 0.0,
    "bank_slope_score": 1.0,
    "bank_slope_source": "nc-dps-lidar-dem03-cross-section",
    "beach_dist_km": 222.34,
    "bridge_proximity_bonus": 0.0,
    "catchment_area_km2": 31.4774,
    "channel_width_m": 13.06,
    "channel_width_score": 1.0,
    "composite_score": 34.7023,
    "cso_density": 0.0,
    "ej_index": 0.4886,
    "elevation_m": 75.9487,
    "estuary_dist_km": 262.61,
    "feasibility_score": 30.6122,
    "flood_q10_cfs": 1994.16,
    "flow_score": 60.4779,
    "flow_velocity_ms": 0.0594,
    "generation_score": 7.0352,
    "impact_score": 42.9346,
    "impervious_pct": 2.35,
    "land_ownership": 0.5,
    "lat": 36.0774,
    "litter_complaint_density": 0.0,
    "lon": -78.6644,
    "navigable_dist_m": null,
    "npdes_points": 0,
    "pixel_col": 1375.0,
    "pixel_row": 1298.0,
    "population_density": 44.8,
    "position_along": 0.5,
    "protected_area_score": 14.9698,
    "rank": 27,
    "road_access_m": 1298.1,
    "road_access_score": 0.3,
    "road_density_km_km2": 0.46,
    "robustness_pct": 0.0,
    "runoff_coeff_C": 0.0712,
    "seasonal_cv": 0.4384,
    "segment_id": 39,
    "segment_length_m": 257.8293,
    "stream_order": 3,
    "superfund_score": 0.0,
    "tourism_amenity_density": 0.0796,
    "tri_facility_density": 0.0,
    "usgs_mean_q_cfs": 33.523,
    "velocity_feasibility": 0.7,
    "water_intake_score": 1.2917
   },
   "type": "Feature"
  },
  {
   "geometry": {
    "coordinates": [
     -78.809213,
     36.137974
    ],
    "type": "Point"
   },
   "properties": {
    "accumulation": 28362.0,
    "bank_slope_deg": 1.89,
    "bank_slope_score": 1.0,
    "bank_slope_source": "nc-dps-lidar-dem03-cross-section",
    "beach_dist_km": 233.54,
    "bridge_proximity_bonus": 0.0,
    "catchment_area_km2": 2.8327,
    "channel_width_m": 4.81,
    "channel_width_score": 1.0,
    "composite_score": 34.2605,
    "cso_density": 0.0,
    "ej_index": 0.5719,
    "elevation_m": 84.3333,
    "estuary_dist_km": 277.26,
    "feasibility_score": 52.0408,
    "flood_q10_cfs": 465.5,
    "flow_score": 11.007,
    "flow_velocity_ms": 0.0771,
    "generation_score": 16.6885,
    "impact_score": 62.3203,
    "impervious_pct": 7.59,
    "land_ownership": 1.0,
    "lat": 36.138,
    "litter_complaint_density": 0.0,
    "lon": -78.8092,
    "navigable_dist_m": null,
    "npdes_points": 0,
    "pixel_col": 59.0,
    "pixel_row": 657.0,
    "population_density": 82.0,
    "position_along": 0.5,
    "protected_area_score": 24.0485,
    "rank": 28,
    "road_access_m": 1853.6,
    "road_access_score": 0.3,
    "road_density_km_km2": 0.0,
    "robustness_pct": 0.5,
    "runoff_coeff_C": 0.1183,
    "seasonal_cv": 0.3983,
    "segment_id": 20,
    "segment_length_m": 2590.1735,
    "stream_order": 1,
    "superfund_score": 0.0,
    "tourism_amenity_density": 1.1141,
    "tri_facility_density": 0.0,
    "usgs_mean_q_cfs": 2.354,
    "velocity_feasibility": 0.7,
    "water_intake_score": 2.3382
   },
   "type": "Feature"
  },
  {
   "geometry": {
    "coordinates": [
     -78.753261,
     36.082801
    ],
    "type": "Point"
   },
   "properties": {
    "accumulation": 32349.0,
    "bank_slope_deg": 0.0,
    "bank_slope_score": 1.0,
    "bank_slope_source": "nc-dps-lidar-dem03-cross-section",
    "beach_dist_km": 225.91,
    "bridge_proximity_bonus": 0.0,
    "catchment_area_km2": 3.2309,
    "channel_width_m": 5.08,
    "channel_width_score": 1.0,
    "composite_score": 33.7119,
    "cso_density": 0.0,
    "ej_index": 0.6885,
    "elevation_m": 75.9994,
    "estuary_dist_km": 270.12,
    "feasibility_score": 66.3265,
    "flood_q10_cfs": 470.21,
    "flow_score": 11.0082,
    "flow_velocity_ms": 0.0697,
    "generation_score": 17.7267,
    "impact_score": 52.3097,
    "impervious_pct": 2.5,
    "land_ownership": 0.5,
    "lat": 36.0828,
    "litter_complaint_density": 0.0,
    "lon": -78.7533,
    "navigable_dist_m": null,
    "npdes_points": 0,
    "pixel_col": 574.0,
    "pixel_row": 1257.0,
    "population_density": 110.4,
    "position_along": 0.5,
    "protected_area_score": 21.5899,
    "rank": 29,
    "road_access_m": 195.7,
    "road_access_score": 1.0,
    "road_density_km_km2": 2.485,
    "robustness_pct": 0.0,
    "runoff_coeff_C": 0.0725,
    "seasonal_cv": 0.3993,
    "segment_id": 41,
    "segment_length_m": 1763.7035,
    "stream_order": 1,
    "superfund_score": 0.0,
    "tourism_amenity_density": 0.0796,
    "tri_facility_density": 0.0,
    "usgs_mean_q_cfs": 5.097,
    "velocity_feasibility": 0.7,
    "water_intake_score": 1.5455
   },
   "type": "Feature"
  },
  {
   "geometry": {
    "coordinates": [
     -78.654463,
     36.128692
    ],
    "type": "Point"
   },
   "properties": {
    "accumulation": 63974.0,
    "bank_slope_deg": 1.5,
    "bank_slope_score": 1.0,
    "bank_slope_source": "nc-dps-lidar-dem03-cross-section",
    "beach_dist_km": 227.36,
    "bridge_proximity_bonus": 0.0,
    "catchment_area_km2": 6.3894,
    "channel_width_m": 6.74,
    "channel_width_score": 1.0,
    "composite_score": 32.6421,
    "cso_density": 0.0,
    "ej_index": 0.5954,
    "elevation_m": 86.0892,
    "estuary_dist_km": 264.28,
    "feasibility_score": 56.1224,
    "flood_q10_cfs": 782.77,
    "flow_score": 29.0544,
    "flow_velocity_ms": 0.1061,
    "generation_score": 11.7068,
    "impact_score": 44.827,
    "impervious_pct": 2.26,
    "land_ownership": 0.5,
    "lat": 36.1287,
    "litter_complaint_density": 0.0,
    "lon": -78.6545,
    "navigable_dist_m": null,
    "npdes_points": 0,
    "pixel_col": 1451.0,
    "pixel_row": 727.0,
    "population_density": 38.6,
    "position_along": 0.75,
    "protected_area_score": 13.372,
    "rank": 30,
    "road_access_m": 332.6,
    "road_access_score": 0.8,
    "road_density_km_km2": 2.91,
    "robustness_pct": 0.0,
    "runoff_coeff_C": 0.0703,
    "seasonal_cv": 0.4046,
    "segment_id": 15,
    "segment_length_m": 3979.2576,
    "stream_order": 3,
    "superfund_score": 0.0,
    "tourism_amenity_density": 0.7958,
    "tri_facility_density": 0.0,
    "usgs_mean_q_cfs": 4.496,
    "velocity_feasibility": 0.7,
    "water_intake_score": 1.3101
   },
   "type": "Feature"
  },
  {
   "geometry": {
    "coordinates": [
     -78.708117,
     36.083326
    ],
    "type": "Point"
   },
   "properties": {
    "accumulation": 51475.0,
    "bank_slope_deg": 4.13,
    "bank_slope_score": 1.0,
    "bank_slope_source": "nc-dps-lidar-dem03-cross-section",
    "beach_dist_km": 224.41,
    "bridge_proximity_bonus": 0.0,
    "catchment_area_km2": 5.1411,
    "channel_width_m": 6.16,
    "channel_width_score": 1.0,
    "composite_score": 32.6031,
    "cso_density": 0.0,
    "ej_index": 0.6779,
    "elevation_m": 77.0315,
    "estuary_dist_km": 266.46,
    "feasibility_score": 58.1633,
    "flood_q10_cfs": 638.73,
    "flow_score": 29.5618,
    "flow_velocity_ms": 0.5,
    "generation_score": 6.4764,
    "impact_score": 48.484,
    "impervious_pct": null,
    "land_ownership": 0.5,
    "lat": 36.0833,
    "litter_complaint_density": 0.0,
    "lon": -78.7081,
    "navigable_dist_m": null,
    "npdes_points": 0,
    "pixel_col": 982.0,
    "pixel_row": 1242.0,
    "population_density": 71.8,
    "position_along": 0.75,
    "protected_area_score": 17.6798,
    "rank": 31,
    "road_access_m": 973.2,
    "road_access_score": 0.6,
    "road_density_km_km2": 0.549,
    "robustness_pct": 0.0,
    "runoff_coeff_C": null,
    "seasonal_cv": null,
    "segment_id": 30,
    "segment_length_m": 4153.1695,
    "stream_order": 1,
    "superfund_score": 0.0,
    "tourism_amenity_density": 0.0796,
    "tri_facility_density": 0.0,
    "usgs_mean_q_cfs": null,
    "velocity_feasibility": 1.0,
    "water_intake_score": 1.3704
   },
   "type": "Feature"
  },
  {
   "geometry": {
    "coordinates": [
     -78.704721,
     36.14918
    ],
    "type": "Point"
   },
   "properties": {
    "accumulation": 109557.0,
    "bank_slope_deg": 0.81,
    "bank_slope_score": 1.0,
    "bank_slope_source": "nc-dps-lidar-dem03-cross-section",
    "beach_dist_km": 231.09,
    "bridge_proximity_bonus": 0.0,
    "catchment_area_km2": 10.9421,
    "channel_width_m": 8.42,
    "channel_width_score": 1.0,
    "composite_score": 32.6023,
    "cso_density": 0.0,
    "ej_index": 0.3151,
    "elevation_m": 85.9672,
    "estuary_dist_km": 269.33,
    "feasibility_score": 56.1224,
    "flood_q10_cfs": 1132.5,
    "flow_score": 35.8448,
    "flow_velocity_ms": 0.099,
    "generation_score": 20.9844,
    "impact_score": 29.758,
    "impervious_pct": 3.76,
    "land_ownership": 0.5,
    "lat": 36.1492,
    "litter_complaint_density": 0.0,
    "lon": -78.7047,
    "navigable_dist_m": null,
    "npdes_points": 1,
    "pixel_col": 994.0,
    "pixel_row": 510.0,
    "population_density": 71.1,
    "position_along": 0.5,
    "protected_area_score": 15.7821,
    "rank": 32,
    "road_access_m": 456.9,
    "road_access_score": 0.8,
    "road_density_km_km2": 1.321,
    "robustness_pct": 0.0,
    "runoff_coeff_C": 0.0838,
    "seasonal_cv": 0.3969,
    "segment_id": 12,
    "segment_length_m": 4866.4005,
    "stream_order": 3,
    "superfund_score": 0.0,
    "tourism_amenity_density": 0.3183,
    "tri_facility_density": 0.0,
    "usgs_mean_q_cfs": 8.872,
    "velocity_feasibility": 0.7,
    "water_intake_score": 1.5202
   },
   "type": "Feature"
  },
  {
   "geometry": {
    "coordinates": [
     -78.78184,
     36.15456
    ],
    "type": "Point"
   },
   "properties": {
    "accumulation": 28761.0,
    "bank_slope_deg": 10.99,
    "bank_slope_score": 1.0,
    "bank_slope_source": "nc-dps-lidar-dem03-cross-section",
    "beach_dist_km": 234.26,
    "bridge_proximity_bonus": 0.0,
    "catchment_area_km2": 2.8725,
    "channel_width_m": 4.83,
    "channel_width_score": 1.0,
    "composite_score": 31.5609,
    "cso_density": 0.0,
    "ej_index": 0.3338,
    "elevation_m": 88.2822,
    "estuary_dist_km": 275.82,
    "feasibility_score": 67.3469,
    "flood_q10_cfs": 415.39,
    "flow_score": 23.3915,
    "flow_velocity_ms": 0.113,
    "generation_score": 10.8388,
    "impact_score": 41.1976,
    "impervious_pct": 0.48,
    "land_ownership": 1.0,
    "lat": 36.1546,
    "litter_complaint_density": 0.0,
    "lon": -78.7818,
    "navigable_dist_m": null,
    "npdes_points": 0,
    "pixel_col": 300.0,
    "pixel_row": 467.0,
    "population_density": 101.5,
    "position_along": 0.5,
    "protected_area_score": 20.7745,
    "rank": 33,
    "road_access_m": 933.0,
    "road_access_score": 0.6,
    "road_density_km_km2": 0.988,
    "robustness_pct": 0.0,
    "runoff_coeff_C": 0.0543,
    "seasonal_cv": 0.41,
    "segment_id": 13,
    "segment_length_m": 2088.6483,
    "stream_order": 3,
    "superfund_score": 0.0,
    "tourism_amenity_density": 0.2387,
    "tri_facility_density": 0.0,
    "usgs_mean_q_cfs": 1.95,
    "velocity_feasibility": 0.7,
    "water_intake_score": 2.2543
   },
   "type": "Feature"
  },
  {
   "geometry": {
    "coordinates": [
     -78.720567,
     36.081327
    ],
    "type": "Point"
   },
   "properties": {
    "accumulation": 81196.0,
    "bank_slope_deg": 1.71,
    "bank_slope_score": 1.0,
    "bank_slope_source": "nc-dps-lidar-dem03-cross-section",
    "beach_dist_km": 224.62,
    "bridge_proximity_bonus": 0.0,
    "catchment_area_km2": 8.1095,
    "channel_width_m": 7.44,
    "channel_width_score": 1.0,
    "composite_score": 30.9764,
    "cso_density": 0.0,
    "ej_index": 0.6262,
    "elevation_m": 78.6104,
    "estuary_dist_km": 267.38,
    "feasibility_score": 45.9184,
    "flood_q10_cfs": 1006.45,
    "flow_score": 18.8772,
    "flow_velocity_ms": 0.1163,
    "generation_score": 16.5697,
    "impact_score": 47.9949,
    "impervious_pct": 7.23,
    "land_ownership": 0.5,
    "lat": 36.0813,
    "litter_complaint_density": 0.0,
    "lon": -78.7206,
    "navigable_dist_m": null,
    "npdes_points": 0,
    "pixel_col": 870.0,
    "pixel_row": 1267.0,
    "population_density": 64.5,
    "position_along": 0.875,
    "protected_area_score": 18.9491,
    "rank": 34,
    "road_access_m": 736.6,
    "road_access_score": 0.6,
    "road_density_km_km2": 0.909,
    "robustness_pct": 0.0,
    "runoff_coeff_C": 0.1151,
    "seasonal_cv": 0.3973,
    "segment_id": 26,
    "segment_length_m": 6073.2222,
    "stream_order": 1,
    "superfund_score": 0.0,
    "tourism_amenity_density": 0.0796,
    "tri_facility_density": 0.0,
    "usgs_mean_q_cfs": 4.245,
    "velocity_feasibility": 0.7,
    "water_intake_score": 1.4058
   },
   "type": "Feature"
  },
  {
   "geometry": {
    "coordinates": [
     -78.723239,
     36.092577
    ],
    "type": "Point"
   },
   "properties": {
    "accumulation": 60182.0,
    "bank_slope_deg": 6.98,
    "bank_slope_score": 1.0,
    "bank_slope_source": "nc-dps-lidar-dem03-cross-section",
    "beach_dist_km": 225.87,
    "bridge_proximity_bonus": 0.0,
    "catchment_area_km2": 6.0107,
    "channel_width_m": 6.57,
    "channel_width_score": 1.0,
    "composite_score": 30.8573,
    "cso_density": 0.0,
    "ej_index": 0.7288,
    "elevation_m": 81.5214,
    "estuary_dist_km": 268.12,
    "feasibility_score": 39.7959,
    "flood_q10_cfs": 815.47,
    "flow_score": 14.9899,
    "flow_velocity_ms": 0.0435,
    "generation_score": 20.4855,
    "impact_score": 49.9825,
    "impervious_pct": 7.23,
    "land_ownership": 0.5,
    "lat": 36.0926,
    "litter_complaint_density": 0.0,
    "lon": -78.7232,
    "navigable_dist_m": null,
    "npdes_points": 0,
    "pixel_col": 842.0,
    "pixel_row": 1143.0,
    "population_density": 85.8,
    "position_along": 0.625,
    "protected_area_score": 18.3586,
    "rank": 35,
    "road_access_m": 268.4,
    "road_access_score": 0.8,
    "road_density_km_km2": 1.8,
    "robustness_pct": 0.0,
    "runoff_coeff_C": 0.1151,
    "seasonal_cv": 0.3973,
    "segment_id": 26,
    "segment_length_m": 6073.2222,
    "stream_order": 1,
    "superfund_score": 0.0,
    "tourism_amenity_density": 0.0796,
    "tri_facility_density": 0.0,
    "usgs_mean_q_cfs": 4.245,
    "velocity_feasibility": 0.3,
    "water_intake_score": 1.4703
   },
   "type": "Feature"
  },
  {
   "geometry": {
    "coordinates": [
     -78.747397,
     36.093882
    ],
    "type": "Point"
   },
   "properties": {
    "accumulation": 41421.0,
    "bank_slope_deg": 2.3,
    "bank_slope_score": 1.0,
    "bank_slope_source": "nc-dps-lidar-dem03-cross-section",
    "beach_dist_km": 226.84,
    "bridge_proximity_bonus": 0.0,
    "catchment_area_km2": 4.1369,
    "channel_width_m": 5.62,
    "channel_width_score": 1.0,
    "composite_score": 30.8234,
    "cso_density": 0.0,
    "ej_index": 0.6462,
    "elevation_m": 80.4801,
    "estuary_dist_km": 270.16,
    "feasibility_score": 45.9184,
    "flood_q10_cfs": 573.57,
    "flow_score": 11.8644,
    "flow_velocity_ms": 0.1018,
    "generation_score": 20.3885,
    "impact_score": 49.51,
    "impervious_pct": 3.21,
    "land_ownership": 0.5,
    "lat": 36.0939,
    "litter_complaint_density": 0.0,
    "lon": -78.7474,
    "navigable_dist_m": null,
    "npdes_points": 0,
    "pixel_col": 624.0,
    "pixel_row": 1133.0,
    "population_density": 138.6,
    "position_along": 0.5,
    "protected_area_score": 20.5854,
    "rank": 36,
    "road_access_m": 681.1,
    "road_access_score": 0.6,
    "road_density_km_km2": 2.066,
    "robustness_pct": 0.0,
    "runoff_coeff_C": 0.0789,
    "seasonal_cv": 0.4018,
    "segment_id": 34,
    "segment_length_m": 2527.786,
    "stream_order": 1,
    "superfund_score": 0.0,
    "tourism_amenity_density": 0.0796,
    "tri_facility_density": 0.0,
    "usgs_mean_q_cfs": 2.543,
    "velocity_feasibility": 0.7,
    "water_intake_score": 1.5887
   },
   "type": "Feature"
  },
  {
   "geometry": {
    "coordinates": [
     -78.690425,
     36.170044
    ],
    "type": "Point"
   },
   "properties": {
    "accumulation": 82854.0,
    "bank_slope_deg": 4.1,
    "bank_slope_score": 1.0,
    "bank_slope_source": "nc-dps-lidar-dem03-cross-section",
    "beach_dist_km": 232.8,
    "bridge_proximity_bonus": 0.0,
    "catchment_area_km2": 8.2751,
    "channel_width_m": 7.5,
    "channel_width_score": 1.0,
    "composite_score": 30.5028,
    "cso_density": 0.0,
    "ej_index": 0.5485,
    "elevation_m": 91.3613,
    "estuary_dist_km": 269.22,
    "feasibility_score": 58.1633,
    "flood_q10_cfs": 921.03,
    "flow_score": 46.9696,
    "flow_velocity_ms": 0.5,
    "generation_score": 4.3336,
    "impact_score": 29.1194,
    "impervious_pct": null,
    "land_ownership": 0.5,
    "lat": 36.17,
    "litter_complaint_density": 0.0,
    "lon": -78.6904,
    "navigable_dist_m": null,
    "npdes_points": 0,
    "pixel_col": 1116.0,
    "pixel_row": 273.0,
    "population_density": 32.4,
    "position_along": 0.5,
    "protected_area_score": 14.6961,
    "rank": 37,
    "road_access_m": 772.5,
    "road_access_score": 0.6,
    "road_density_km_km2": 1.229,
    "robustness_pct": 0.0,
    "runoff_coeff_C": null,
    "seasonal_cv": null,
    "segment_id": 6,
    "segment_length_m": 380.1795,
    "stream_order": 3,
    "superfund_score": 0.0,
    "tourism_amenity_density": 0.0,
    "tri_facility_density": 0.0,
    "usgs_mean_q_cfs": null,
    "velocity_feasibility": 1.0,
    "water_intake_score": 1.3894
   },
   "type": "Feature"
  },
  {
   "geometry": {
    "coordinates": [
     -78.709932,
     36.15713
    ],
    "type": "Point"
   },
   "properties": {
    "accumulation": 93260.0,
    "bank_slope_deg": 4.05,
    "bank_slope_score": 1.0,
    "bank_slope_source": "nc-dps-lidar-dem03-cross-section",
    "beach_dist_km": 232.09,
    "bridge_proximity_bonus": 0.0,
    "catchment_area_km2": 9.3144,
    "channel_width_m": 7.88,
    "channel_width_score": 1.0,
    "composite_score": 30.1233,
    "cso_density": 0.0,
    "ej_index": 0.3123,
    "elevation_m": 88.0641,
    "estuary_dist_km": 270.15,
    "feasibility_score": 51.0204,
    "flood_q10_cfs": 1035.84,
    "flow_score": 33.3257,
    "flow_velocity_ms": 0.0476,
    "generation_score": 18.7371,
    "impact_score": 28.3924,
    "impervious_pct": 3.76,
    "land_ownership": 1.0,
    "lat": 36.1571,
    "litter_complaint_density": 0.0,
    "lon": -78.7099,
    "navigable_dist_m": null,
    "npdes_points": 1,
    "pixel_col": 946.0,
    "pixel_row": 423.0,
    "population_density": 49.6,
    "position_along": 0.1667,
    "protected_area_score": 15.6751,
    "rank": 38,
    "road_access_m": 551.4,
    "road_access_score": 0.6,
    "road_density_km_km2": 1.2,
    "robustness_pct": 0.0,
    "runoff_coeff_C": 0.0838,
    "seasonal_cv": 0.3969,
    "segment_id": 12,
    "segment_length_m": 4866.4005,
    "stream_order": 3,
    "superfund_score": 0.0,
    "tourism_amenity_density": 0.3183,
    "tri_facility_density": 0.0,
    "usgs_mean_q_cfs": 8.872,
    "velocity_feasibility": 0.3,
    "water_intake_score": 1.5533
   },
   "type": "Feature"
  },
  {
   "geometry": {
    "coordinates": [
     -78.742382,
     36.160866
    ],
    "type": "Point"
   },
   "properties": {
    "accumulation": 51836.0,
    "bank_slope_deg": 29.59,
    "bank_slope_score": 0.5,
    "bank_slope_source": "nc-dps-lidar-dem03-cross-section",
    "beach_dist_km": 233.55,
    "bridge_proximity_bonus": 0.0,
    "catchment_area_km2": 5.1771,
    "channel_width_m": 6.17,
    "channel_width_score": 1.0,
    "composite_score": 29.8876,
    "cso_density": 0.0,
    "ej_index": 0.3425,
    "elevation_m": 90.5397,
    "estuary_dist_km": 272.94,
    "feasibility_score": 53.0612,
    "flood_q10_cfs": 712.31,
    "flow_score": 28.2517,
    "flow_velocity_ms": 0.0786,
    "generation_score": 15.1324,
    "impact_score": 34.4193,
    "impervious_pct": 5.93,
    "land_ownership": 1.0,
    "lat": 36.1609,
    "litter_complaint_density": 0.0,
    "lon": -78.7424,
    "navigable_dist_m": null,
    "npdes_points": 0,
    "pixel_col": 651.0,
    "pixel_row": 389.0,
    "population_density": 48.1,
    "position_along": 0.5,
    "protected_area_score": 17.4904,
    "rank": 39,
    "road_access_m": 657.0,
    "road_access_score": 0.6,
    "road_density_km_km2": 1.762,
    "robustness_pct": 0.0,
    "runoff_coeff_C": 0.1034,
    "seasonal_cv": 0.3969,
    "segment_id": 9,
    "segment_length_m": 2862.1361,
    "stream_order": 3,
    "superfund_score": 0.0,
    "tourism_amenity_density": 0.3979,
    "tri_facility_density": 0.0,
    "usgs_mean_q_cfs": 4.162,
    "velocity_feasibility": 0.7,
    "water_intake_score": 1.862
   },
   "type": "Feature"
  },
  {
   "geometry": {
    "coordinates": [
     -78.665473,
     36.100433
    ],
    "type": "Point"
   },
   "properties": {
    "accumulation": 22752.0,
    "bank_slope_deg": 0.8,
    "bank_slope_score": 1.0,
    "bank_slope_source": "nc-dps-lidar-dem03-cross-section",
    "beach_dist_km": 224.77,
    "bridge_proximity_bonus": 0.0,
    "catchment_area_km2": 2.2724,
    "channel_width_m": 4.39,
    "channel_width_score": 1.0,
    "composite_score": 28.3401,
    "cso_density": 0.0,
    "ej_index": 0.6374,
    "elevation_m": 79.9236,
    "estuary_dist_km": 263.8,
    "feasibility_score": 45.9184,
    "flood_q10_cfs": 352.74,
    "flow_score": 21.554,
    "flow_velocity_ms": 0.0772,
    "generation_score": 8.6766,
    "impact_score": 44.8695,
    "impervious_pct": 1.23,
    "land_ownership": 0.5,
    "lat": 36.1004,
    "litter_complaint_density": 0.0,
    "lon": -78.6655,
    "navigable_dist_m": null,
    "npdes_points": 0,
    "pixel_col": 1362.0,
    "pixel_row": 1039.0,
    "population_density": 68.2,
    "position_along": 0.5,
    "protected_area_score": 13.8838,
    "rank": 40,
    "road_access_m": 804.8,
    "road_access_score": 0.6,
    "road_density_km_km2": 0.93,
    "robustness_pct": 0.0,
    "runoff_coeff_C": 0.0611,
    "seasonal_cv": 0.4228,
    "segment_id": 32,
    "segment_length_m": 544.9296,
    "stream_order": 3,
    "superfund_score": 0.0,
    "tourism_amenity_density": 0.2387,
    "tri_facility_density": 0.0,
    "usgs_mean_q_cfs": 1.241,
    "velocity_feasibility": 0.7,
    "water_intake_score": 1.3154
   },
   "type": "Feature"
  },
  {
   "geometry": {
    "coordinates": [
     -78.660728,
     36.133305
    ],
    "type": "Point"
   },
   "properties": {
    "accumulation": 42550.0,
    "bank_slope_deg": 3.12,
    "bank_slope_score": 1.0,
    "bank_slope_source": "nc-dps-lidar-dem03-cross-section",
    "beach_dist_km": 228.03,
    "bridge_proximity_bonus": 0.0,
    "catchment_area_km2": 4.2497,
    "channel_width_m": 5.69,
    "channel_width_score": 1.0,
    "composite_score": 27.8694,
    "cso_density": 0.0,
    "ej_index": 0.5597,
    "elevation_m": 85.0891,
    "estuary_dist_km": 265.01,
    "feasibility_score": 45.9184,
    "flood_q10_cfs": 565.88,
    "flow_score": 27.0059,
    "flow_velocity_ms": 0.0937,
    "generation_score": 5.7275,
    "impact_score": 41.7064,
    "impervious_pct": 1.28,
    "land_ownership": 0.5,
    "lat": 36.1333,
    "litter_complaint_density": 0.0,
    "lon": -78.6607,
    "navigable_dist_m": null,
    "npdes_points": 0,
    "pixel_col": 1396.0,
    "pixel_row": 677.0,
    "population_density": 27.1,
    "position_along": 0.5,
    "protected_area_score": 13.3735,
    "rank": 41,
    "road_access_m": 912.3,
    "road_access_score": 0.6,
    "road_density_km_km2": 1.282,
    "robustness_pct": 0.0,
    "runoff_coeff_C": 0.0615,
    "seasonal_cv": 0.4062,
    "segment_id": 21,
    "segment_length_m": 2327.9105,
    "stream_order": 3,
    "superfund_score": 0.0,
    "tourism_amenity_density": 0.7162,
    "tri_facility_density": 0.0,
    "usgs_mean_q_cfs": 6.741,
    "velocity_feasibility": 0.7,
    "water_intake_score": 1.3192
   },
   "type": "Feature"
  },
  {
   "geometry": {
    "coordinates": [
     -78.775627,
     36.170235
    ],
    "type": "Point"
   },
   "properties": {
    "accumulation": 23922.0,
    "bank_slope_deg": 12.09,
    "bank_slope_score": 1.0,
    "bank_slope_source": "nc-dps-lidar-dem03-cross-section",
    "beach_dist_km": 235.65,
    "bridge_proximity_bonus": 0.0,
    "catchment_area_km2": 2.3892,
    "channel_width_m": 4.48,
    "channel_width_score": 1.0,
    "composite_score": 27.7129,
    "cso_density": 0.0,
    "ej_index": 0.2975,
    "elevation_m": 108.3858,
    "estuary_dist_km": 276.08,
    "feasibility_score": 67.3469,
    "flood_q10_cfs": 368.12,
    "flow_score": 22.603,
    "flow_velocity_ms": 0.0985,
    "generation_score": 2.7827,
    "impact_score": 37.0844,
    "impervious_pct": 1.51,
    "land_ownership": 1.0,
    "lat": 36.1702,
    "litter_complaint_density": 0.0,
    "lon": -78.7756,
    "navigable_dist_m": null,
    "npdes_points": 0,
    "pixel_col": 353.0,
    "pixel_row": 290.0,
    "population_density": 14.6,
    "position_along": 0.5,
    "protected_area_score": 19.2785,
    "rank": 42,
    "road_access_m": 832.8,
    "road_access_score": 0.6,
    "road_density_km_km2": 0.319,
    "robustness_pct": 0.0,
    "runoff_coeff_C": 0.0636,
    "seasonal_cv": 0.4167,
    "segment_id": 7,
    "segment_length_m": 1106.4175,
    "stream_order": 3,
    "superfund_score": 0.0,
    "tourism_amenity_density": 0.3183,
    "tri_facility_density": 0.0,
    "usgs_mean_q_cfs": 1.82,
    "velocity_feasibility": 0.7,
    "water_intake_score": 2.251
   },
   "type": "Feature"
  },
  {
   "geometry": {
    "coordinates": [
     -78.705616,
     36.099396
    ],
    "type": "Point"
   },
   "properties": {
    "accumulation": 22916.0,
    "bank_slope_deg": 0.95,
    "bank_slope_score": 1.0,
    "bank_slope_source": "nc-dps-lidar-dem03-cross-section",
    "beach_dist_km": 225.98,
    "bridge_proximity_bonus": 0.0,
    "catchment_area_km2": 2.2887,
    "channel_width_m": 4.4,
    "channel_width_score": 1.0,
    "composite_score": 27.3222,
    "cso_density": 0.0,
    "ej_index": 0.7374,
    "elevation_m": 79.2162,
    "estuary_dist_km": 267.01,
    "feasibility_score": 45.9184,
    "flood_q10_cfs": 374.23,
    "flow_score": 8.5834,
    "flow_velocity_ms": 0.0712,
    "generation_score": 13.4238,
    "impact_score": 47.5383,
    "impervious_pct": 4.3,
    "land_ownership": 0.5,
    "lat": 36.0994,
    "litter_complaint_density": 0.0,
    "lon": -78.7056,
    "navigable_dist_m": null,
    "npdes_points": 0,
    "pixel_col": 1000.0,
    "pixel_row": 1063.0,
    "population_density": 80.2,
    "position_along": 0.25,
    "protected_area_score": 15.5604,
    "rank": 43,
    "road_access_m": 683.8,
    "road_access_score": 0.6,
    "road_density_km_km2": 0.658,
    "robustness_pct": 0.0,
    "runoff_coeff_C": 0.0887,
    "seasonal_cv": 0.4186,
    "segment_id": 30,
    "segment_length_m": 4153.1695,
    "stream_order": 1,
    "superfund_score": 0.0,
    "tourism_amenity_density": 0.1592,
    "tri_facility_density": 0.0,
    "usgs_mean_q_cfs": 1.646,
    "velocity_feasibility": 0.7,
    "water_intake_score": 1.4306
   },
   "type": "Feature"
  },
  {
   "geometry": {
    "coordinates": [
     -78.660557,
     36.092272
    ],
    "type": "Point"
   },
   "properties": {
    "accumulation": 20735.0,
    "bank_slope_deg": 0.87,
    "bank_slope_score": 1.0,
    "bank_slope_source": "nc-dps-lidar-dem03-cross-section",
    "beach_dist_km": 223.76,
    "bridge_proximity_bonus": 0.0,
    "catchment_area_km2": 2.0709,
    "channel_width_m": 4.22,
    "channel_width_score": 1.0,
    "composite_score": 26.7423,
    "cso_density": 0.0,
    "ej_index": 0.5508,
    "elevation_m": 78.432,
    "estuary_dist_km": 263.01,
    "feasibility_score": 45.9184,
    "flood_q10_cfs": 330.23,
    "flow_score": 21.4198,
    "flow_velocity_ms": 0.0804,
    "generation_score": 6.4933,
    "impact_score": 41.8387,
    "impervious_pct": 1.46,
    "land_ownership": 0.5,
    "lat": 36.0923,
    "litter_complaint_density": 0.0,
    "lon": -78.6606,
    "navigable_dist_m": null,
    "npdes_points": 0,
    "pixel_col": 1406.0,
    "pixel_row": 1133.0,
    "population_density": 53.1,
    "position_along": 0.5,
    "protected_area_score": 13.7527,
    "rank": 44,
    "road_access_m": 504.3,
    "road_access_score": 0.6,
    "road_density_km_km2": 0.424,
    "robustness_pct": 0.0,
    "runoff_coeff_C": 0.0631,
    "seasonal_cv": 0.4198,
    "segment_id": 35,
    "segment_length_m": 711.3945,
    "stream_order": 3,
    "superfund_score": 0.0,
    "tourism_amenity_density": 0.0796,
    "tri_facility_density": 0.0,
    "usgs_mean_q_cfs": 1.128,
    "velocity_feasibility": 0.7,
    "water_intake_score": 1.3012
   },
   "type": "Feature"
  },
  {
   "geometry": {
    "coordinates": [
     -78.670647,
     36.080772
    ],
    "type": "Point"
   },
   "properties": {
    "accumulation": 32002.0,
    "bank_slope_deg": 1.79,
    "bank_slope_score": 1.0,
    "bank_slope_source": "nc-dps-lidar-dem03-cross-section",
    "beach_dist_km": 222.9,
    "bridge_proximity_bonus": 0.0,
    "catchment_area_km2": 3.1962,
    "channel_width_m": 5.05,
    "channel_width_score": 1.0,
    "composite_score": 26.644,
    "cso_density": 0.0,
    "ej_index": 0.6482,
    "elevation_m": 79.5023,
    "estuary_dist_km": 263.28,
    "feasibility_score": 30.6122,
    "flood_q10_cfs": 454.4,
    "flow_score": 23.6527,
    "flow_velocity_ms": 0.1027,
    "generation_score": 6.4739,
    "impact_score": 47.3227,
    "impervious_pct": 1.01,
    "land_ownership": 0.5,
    "lat": 36.0808,
    "litter_complaint_density": 0.0,
    "lon": -78.6706,
    "navigable_dist_m": null,
    "npdes_points": 0,
    "pixel_col": 1321.0,
    "pixel_row": 1262.0,
    "population_density": 69.7,
    "position_along": 0.5,
    "protected_area_score": 15.0529,
    "rank": 45,
    "road_access_m": 1540.2,
    "road_access_score": 0.3,
    "road_density_km_km2": 0.0,
    "robustness_pct": 0.0,
    "runoff_coeff_C": 0.0591,
    "seasonal_cv": 0.4138,
    "segment_id": 37,
    "segment_length_m": 2276.227,
    "stream_order": 3,
    "superfund_score": 0.0,
    "tourism_amenity_density": 0.0796,
    "tri_facility_density": 0.0,
    "usgs_mean_q_cfs": 1.963,
    "velocity_feasibility": 0.7,
    "water_intake_score": 1.3001
   },
   "type": "Feature"
  },
  {
   "geometry": {
    "coordinates": [
     -78.799355,
     36.102634
    ],
    "type": "Point"
   },
   "properties": {
    "accumulation": 22797.0,
    "bank_slope_deg": 0.0,
    "bank_slope_score": 1.0,
    "bank_slope_source": "nc-dps-lidar-dem03-cross-section",
    "beach_dist_km": 229.58,
    "bridge_proximity_bonus": 0.0,
    "catchment_area_km2": 2.2769,
    "channel_width_m": 4.39,
    "channel_width_score": 1.0,
    "composite_score": 26.0171,
    "cso_density": 0.0,
    "ej_index": 0.5775,
    "elevation_m": 76.0471,
    "estuary_dist_km": 274.81,
    "feasibility_score": 30.6122,
    "flood_q10_cfs": 346.23,
    "flow_score": 6.7423,
    "flow_velocity_ms": 0.0708,
    "generation_score": 10.4088,
    "impact_score": 55.39,
    "impervious_pct": 0.08,
    "land_ownership": 0.5,
    "lat": 36.1026,
    "litter_complaint_density": 0.0,
    "lon": -78.7994,
    "navigable_dist_m": null,
    "npdes_points": 0,
    "pixel_col": 155.0,
    "pixel_row": 1047.0,
    "population_density": 126.3,
    "position_along": 0.5,
    "protected_area_score": 24.6077,
    "rank": 46,
    "road_access_m": 1212.1,
    "road_access_score": 0.3,
    "road_density_km_km2": 0.0,
    "robustness_pct": 0.0,
    "runoff_coeff_C": 0.0507,
    "seasonal_cv": 0.4334,
    "segment_id": 29,
    "segment_length_m": 1493.4556,
    "stream_order": 1,
    "superfund_score": 0.0,
    "tourism_amenity_density": 0.3979,
    "tri_facility_density": 0.0,
    "usgs_mean_q_cfs": 0.794,
    "velocity_feasibility": 0.7,
    "water_intake_score": 1.9569
   },
   "type": "Feature"
  },
  {
   "geometry": {
    "coordinates": [
     -78.685215,
     36.171205
    ],
    "type": "Point"
   },
   "properties": {
    "accumulation": 22482.0,
    "bank_slope_deg": 5.28,
    "bank_slope_score": 1.0,
    "bank_slope_source": "nc-dps-lidar-dem03-cross-section",
    "beach_dist_km": 232.75,
    "bridge_proximity_bonus": 0.0,
    "catchment_area_km2": 2.2454,
    "channel_width_m": 4.36,
    "channel_width_score": 1.0,
    "composite_score": 24.5709,
    "cso_density": 0.0,
    "ej_index": 0.6041,
    "elevation_m": 94.5782,
    "estuary_dist_km": 268.86,
    "feasibility_score": 56.1224,
    "flood_q10_cfs": 352.53,
    "flow_score": 22.6577,
    "flow_velocity_ms": 0.1119,
    "generation_score": 4.7019,
    "impact_score": 30.2585,
    "impervious_pct": 1.71,
    "land_ownership": 0.5,
    "lat": 36.1712,
    "litter_complaint_density": 0.0,
    "lon": -78.6852,
    "navigable_dist_m": null,
    "npdes_points": 0,
    "pixel_col": 1162.0,
    "pixel_row": 262.0,
    "population_density": 19.9,
    "position_along": 0.5,
    "protected_area_score": 14.3409,
    "rank": 47,
    "road_access_m": 305.2,
    "road_access_score": 0.8,
    "road_density_km_km2": 0.846,
    "robustness_pct": 0.0,
    "runoff_coeff_C": 0.0654,
    "seasonal_cv": 0.4195,
    "segment_id": 5,
    "segment_length_m": 826.1758,
    "stream_order": 3,
    "superfund_score": 0.0,
    "tourism_amenity_density": 0.0,
    "tri_facility_density": 0.0,
    "usgs_mean_q_cfs": 1.596,
    "velocity_feasibility": 0.7,
    "water_intake_score": 1.3559
   },
   "type": "Feature"
  },
  {
   "geometry": {
    "coordinates": [
     -78.693718,
     36.179758
    ],
    "type": "Point"
   },
   "properties": {
    "accumulation": 44711.0,
    "bank_slope_deg": 3.05,
    "bank_slope_score": 1.0,
    "bank_slope_source": "nc-dps-lidar-dem03-cross-section",
    "beach_dist_km": 233.91,
    "bridge_proximity_bonus": 0.0,
    "catchment_area_km2": 4.4655,
    "channel_width_m": 5.81,
    "channel_width_score": 1.0,
    "composite_score": 24.3146,
    "cso_density": 0.0,
    "ej_index": 0.5803,
    "elevation_m": 93.7886,
    "estuary_dist_km": 269.97,
    "feasibility_score": 45.9184,
    "flood_q10_cfs": 605.67,
    "flow_score": 25.7255,
    "flow_velocity_ms": 0.0901,
    "generation_score": 8.1571,
    "impact_score": 28.4944,
    "impervious_pct": 3.03,
    "land_ownership": 0.5,
    "lat": 36.1798,
    "litter_complaint_density": 0.0,
    "lon": -78.6937,
    "navigable_dist_m": null,
    "npdes_points": 0,
    "pixel_col": 1086.0,
    "pixel_row": 169.0,
    "population_density": 44.2,
    "position_along": 0.5,
    "protected_area_score": 14.4902,
    "rank": 48,
    "road_access_m": 897.7,
    "road_access_score": 0.6,
    "road_density_km_km2": 0.569,
    "robustness_pct": 0.0,
    "runoff_coeff_C": 0.0773,
    "seasonal_cv": 0.4155,
    "segment_id": 2,
    "segment_length_m": 2671.9602,
    "stream_order": 3,
    "superfund_score": 0.0,
    "tourism_amenity_density": 0.0796,
    "tri_facility_density": 0.0,
    "usgs_mean_q_cfs": 2.513,
    "velocity_feasibility": 0.7,
    "water_intake_score": 1.3734
   },
   "type": "Feature"
  },
  {
   "geometry": {
    "coordinates": [
     -78.70904,
     36.17037
    ],
    "type": "Point"
   },
   "properties": {
    "accumulation": 43600.0,
    "bank_slope_deg": 1.08,
    "bank_slope_score": 1.0,
    "bank_slope_source": "nc-dps-lidar-dem03-cross-section",
    "beach_dist_km": 233.43,
    "bridge_proximity_bonus": 0.0,
    "catchment_area_km2": 4.3546,
    "channel_width_m": 5.75,
    "channel_width_score": 1.0,
    "composite_score": 22.8056,
    "cso_density": 0.0,
    "ej_index": 0.3814,
    "elevation_m": 92.1721,
    "estuary_dist_km": 270.73,
    "feasibility_score": 39.7959,
    "flood_q10_cfs": 584.8,
    "flow_score": 25.9304,
    "flow_velocity_ms": 0.0405,
    "generation_score": 7.585,
    "impact_score": 26.9269,
    "impervious_pct": 2.11,
    "land_ownership": 0.5,
    "lat": 36.1704,
    "litter_complaint_density": 0.0,
    "lon": -78.709,
    "navigable_dist_m": null,
    "npdes_points": 0,
    "pixel_col": 952.0,
    "pixel_row": 276.0,
    "population_density": 37.2,
    "position_along": 0.5,
    "protected_area_score": 15.337,
    "rank": 49,
    "road_access_m": 446.3,
    "road_access_score": 0.8,
    "road_density_km_km2": 1.182,
    "robustness_pct": 0.0,
    "runoff_coeff_C": 0.069,
    "seasonal_cv": 0.4005,
    "segment_id": 3,
    "segment_length_m": 2987.0331,
    "stream_order": 3,
    "superfund_score": 0.0,
    "tourism_amenity_density": 0.2387,
    "tri_facility_density": 0.0,
    "usgs_mean_q_cfs": 5.783,
    "velocity_feasibility": 0.3,
    "water_intake_score": 1.5161
   },
   "type": "Feature"
  },
  {
   "geometry": {
    "coordinates": [
     -78.643336,
     36.140608
    ],
    "type": "Point"
   },
   "properties": {
    "accumulation": 31015.0,
    "bank_slope_deg": 17.17,
    "bank_slope_score": 0.5,
    "bank_slope_source": "nc-dps-lidar-dem03-cross-section",
    "beach_dist_km": 228.25,
    "bridge_proximity_bonus": 0.0,
    "catchment_area_km2": 3.0976,
    "channel_width_m": 4.99,
    "channel_width_score": 1.0,
    "composite_score": 22.0228,
    "cso_density": 0.0,
    "ej_index": 0.6041,
    "elevation_m": 91.3427,
    "estuary_dist_km": 263.97,
    "feasibility_score": 31.6327,
    "flood_q10_cfs": 439.16,
    "flow_score": 23.4648,
    "flow_velocity_ms": 0.0933,
    "generation_score": 2.1849,
    "impact_score": 35.854,
    "impervious_pct": 0.41,
    "land_ownership": 0.5,
    "lat": 36.1406,
    "litter_complaint_density": 0.0,
    "lon": -78.6433,
    "navigable_dist_m": null,
    "npdes_points": 0,
    "pixel_col": 1550.0,
    "pixel_row": 592.0,
    "population_density": 19.9,
    "position_along": 0.25,
    "protected_area_score": 12.1534,
    "rank": 50,
    "road_access_m": 853.3,
    "road_access_score": 0.6,
    "road_density_km_km2": 0.516,
    "robustness_pct": 0.0,
    "runoff_coeff_C": 0.0537,
    "seasonal_cv": 0.4084,
    "segment_id": 15,
    "segment_length_m": 3979.2576,
    "stream_order": 3,
    "superfund_score": 0.0,
    "tourism_amenity_density": 0.0796,
    "tri_facility_density": 0.0,
    "usgs_mean_q_cfs": 2.54,
    "velocity_feasibility": 0.7,
    "water_intake_score": 1.2794
   },
   "type": "Feature"
  },
  {
   "geometry": {
    "coordinates": [
     -78.659946,
     36.150734
    ],
    "type": "Point"
   },
   "properties": {
    "accumulation": 76701.0,
    "bank_slope_deg": 2.26,
    "bank_slope_score": 1.0,
    "bank_slope_source": "nc-dps-lidar-dem03-cross-section",
    "beach_dist_km": 229.82,
    "bridge_proximity_bonus": 0.0,
    "catchment_area_km2": 7.6606,
    "channel_width_m": 7.26,
    "channel_width_score": 1.0,
    "composite_score": 21.6132,
    "cso_density": 0.0,
    "ej_index": 0.6041,
    "elevation_m": 89.7958,
    "estuary_dist_km": 265.81,
    "feasibility_score": 45.9184,
    "flood_q10_cfs": 879.74,
    "flow_score": 14.9136,
    "flow_velocity_ms": 0.0552,
    "generation_score": 3.8811,
    "impact_score": 32.7757,
    "impervious_pct": 1.12,
    "land_ownership": 0.5,
    "lat": 36.1507,
    "litter_complaint_density": 0.0,
    "lon": -78.6599,
    "navigable_dist_m": null,
    "npdes_points": 0,
    "pixel_col": 1399.0,
    "pixel_row": 482.0,
    "population_density": 19.9,
    "position_along": 0.75,
    "protected_area_score": 12.7131,
    "rank": 51,
    "road_access_m": 693.2,
    "road_access_score": 0.6,
    "road_density_km_km2": 0.843,
    "robustness_pct": 0.0,
    "runoff_coeff_C": 0.0601,
    "seasonal_cv": 0.4063,
    "segment_id": 10,
    "segment_length_m": 3638.6372,
    "stream_order": 1,
    "superfund_score": 0.0,
    "tourism_amenity_density": 0.0,
    "tri_facility_density": 0.0,
    "usgs_mean_q_cfs": 4.54,
    "velocity_feasibility": 0.7,
    "water_intake_score": 1.2938
   },
   "type": "Feature"
  },
  {
   "geometry": {
    "coordinates": [
     -78.690366,
     36.150681
    ],
    "type": "Point"
   },
   "properties": {
    "accumulation": 33516.0,
    "bank_slope_deg": 7.62,
    "bank_slope_score": 1.0,
    "bank_slope_source": "nc-dps-lidar-dem03-cross-section",
    "beach_dist_km": 230.78,
    "bridge_proximity_bonus": 0.0,
    "catchment_area_km2": 3.3474,
    "channel_width_m": 5.15,
    "channel_width_score": 1.0,
    "composite_score": 20.7777,
    "cso_density": 0.0,
    "ej_index": 0.3582,
    "elevation_m": 87.3488,
    "estuary_dist_km": 268.25,
    "feasibility_score": 45.9184,
    "flood_q10_cfs": 479.4,
    "flow_score": 12.9751,
    "flow_velocity_ms": 0.0641,
    "generation_score": 8.7032,
    "impact_score": 26.7841,
    "impervious_pct": 2.08,
    "land_ownership": 0.5,
    "lat": 36.1507,
    "litter_complaint_density": 0.0,
    "lon": -78.6904,
    "navigable_dist_m": null,
    "npdes_points": 0,
    "pixel_col": 1123.0,
    "pixel_row": 491.0,
    "population_density": 59.9,
    "position_along": 0.25,
    "protected_area_score": 15.0474,
    "rank": 52,
    "road_access_m": 785.2,
    "road_access_score": 0.6,
    "road_density_km_km2": 0.756,
    "robustness_pct": 0.0,
    "runoff_coeff_C": 0.0687,
    "seasonal_cv": 0.4022,
    "segment_id": 14,
    "segment_length_m": 4401.1269,
    "stream_order": 1,
    "superfund_score": 0.0,
    "tourism_amenity_density": 0.0,
    "tri_facility_density": 0.0,
    "usgs_mean_q_cfs": 9.831,
    "velocity_feasibility": 0.7,
    "water_intake_score": 1.4222
   },
   "type": "Feature"
  },
  {
   "geometry": {
    "coordinates": [
     -78.662475,
     36.161788
    ],
    "type": "Point"
   },
   "properties": {
    "accumulation": 39061.0,
    "bank_slope_deg": 14.86,
    "bank_slope_score": 1.0,
    "bank_slope_source": "nc-dps-lidar-dem03-cross-section",
    "beach_dist_km": 231.06,
    "bridge_proximity_bonus": 0.0,
    "catchment_area_km2": 3.9012,
    "channel_width_m": 5.49,
    "channel_width_score": 1.0,
    "composite_score": 19.6504,
    "cso_density": 0.0,
    "ej_index": 0.6041,
    "elevation_m": 95.2052,
    "estuary_dist_km": 266.57,
    "feasibility_score": 45.9184,
    "flood_q10_cfs": 528.78,
    "flow_score": 10.5157,
    "flow_velocity_ms": 0.0814,
    "generation_score": 3.1452,
    "impact_score": 30.6339,
    "impervious_pct": 1.09,
    "land_ownership": 0.5,
    "lat": 36.1618,
    "litter_complaint_density": 0.0,
    "lon": -78.6625,
    "navigable_dist_m": null,
    "npdes_points": 0,
    "pixel_col": 1372.0,
    "pixel_row": 361.0,
    "population_density": 19.9,
    "position_along": 0.25,
    "protected_area_score": 12.8404,
    "rank": 53,
    "road_access_m": 962.3,
    "road_access_score": 0.6,
    "road_density_km_km2": 0.526,
    "robustness_pct": 0.0,
    "runoff_coeff_C": 0.0598,
    "seasonal_cv": 0.4096,
    "segment_id": 10,
    "segment_length_m": 3638.6372,
    "stream_order": 1,
    "superfund_score": 0.0,
    "tourism_amenity_density": 0.0,
    "tri_facility_density": 0.0,
    "usgs_mean_q_cfs": 2.923,
    "velocity_feasibility": 0.7,
    "water_intake_score": 1.2758
   },
   "type": "Feature"
  },
  {
   "geometry": {
    "coordinates": [
     -78.650602,
     36.188474
    ],
    "type": "Point"
   },
   "properties": {
    "accumulation": 40097.0,
    "bank_slope_deg": 11.03,
    "bank_slope_score": 1.0,
    "bank_slope_source": "nc-dps-lidar-dem03-cross-section",
    "beach_dist_km": 233.48,
    "bridge_proximity_bonus": 0.0,
    "catchment_area_km2": 4.0047,
    "channel_width_m": 5.55,
    "channel_width_score": 1.0,
    "composite_score": 19.6332,
    "cso_density": 0.0,
    "ej_index": 0.6041,
    "elevation_m": 99.4834,
    "estuary_dist_km": 266.98,
    "feasibility_score": 56.1224,
    "flood_q10_cfs": 543.96,
    "flow_score": 11.221,
    "flow_velocity_ms": 0.0969,
    "generation_score": 4.1063,
    "impact_score": 23.9255,
    "impervious_pct": 1.58,
    "land_ownership": 0.5,
    "lat": 36.1885,
    "litter_complaint_density": 0.0,
    "lon": -78.6506,
    "navigable_dist_m": null,
    "npdes_points": 0,
    "pixel_col": 1473.0,
    "pixel_row": 61.0,
    "population_density": 19.9,
    "position_along": 0.5,
    "protected_area_score": 11.8194,
    "rank": 54,
    "road_access_m": 460.2,
    "road_access_score": 0.8,
    "road_density_km_km2": 0.656,
    "robustness_pct": 0.0,
    "runoff_coeff_C": 0.0642,
    "seasonal_cv": 0.413,
    "segment_id": 0,
    "segment_length_m": 2480.5362,
    "stream_order": 1,
    "superfund_score": 0.0,
    "tourism_amenity_density": 0.0,
    "tri_facility_density": 0.0,
    "usgs_mean_q_cfs": 3.209,
    "velocity_feasibility": 0.7,
    "water_intake_score": 1.1424
   },
   "type": "Feature"
  },
  {
   "geometry": {
    "coordinates": [
     -78.633922,
     36.179519
    ],
    "type": "Point"
   },
   "properties": {
    "accumulation": 23372.0,
    "bank_slope_deg": 3.82,
    "bank_slope_score": 1.0,
    "bank_slope_source": "nc-dps-lidar-dem03-cross-section",
    "beach_dist_km": 232.04,
    "bridge_proximity_bonus": 0.0,
    "catchment_area_km2": 2.3343,
    "channel_width_m": 4.44,
    "channel_width_score": 1.0,
    "composite_score": 17.6971,
    "cso_density": 0.0,
    "ej_index": 0.6041,
    "elevation_m": 101.1625,
    "estuary_dist_km": 265.19,
    "feasibility_score": 45.9184,
    "flood_q10_cfs": 356.01,
    "flow_score": 8.8009,
    "flow_velocity_ms": 0.1086,
    "generation_score": 2.0637,
    "impact_score": 26.6334,
    "impervious_pct": 0.6,
    "land_ownership": 0.5,
    "lat": 36.1795,
    "litter_complaint_density": 0.0,
    "lon": -78.6339,
    "navigable_dist_m": null,
    "npdes_points": 0,
    "pixel_col": 1626.0,
    "pixel_row": 156.0,
    "population_density": 19.9,
    "position_along": 0.5,
    "protected_area_score": 11.509,
    "rank": 55,
    "road_access_m": 826.6,
    "road_access_score": 0.6,
    "road_density_km_km2": 0.341,
    "robustness_pct": 0.0,
    "runoff_coeff_C": 0.0554,
    "seasonal_cv": 0.4155,
    "segment_id": 4,
    "segment_length_m": 492.5359,
    "stream_order": 1,
    "superfund_score": 0.0,
    "tourism_amenity_density": 0.0,
    "tri_facility_density": 0.0,
    "usgs_mean_q_cfs": 2.447,
    "velocity_feasibility": 0.7,
    "water_intake_score": 1.1379
   },
   "type": "Feature"
  }
 ],
 "note": "GRIME region 'Butner, NC' \u2014 real-data pipeline (DEM\u2192streams\u2192candidates\u2192stream mask (sites confined to \u00b1150 m of mapped OSM/NHD waterways)\u2192region-appropriate real parameters\u2192shipped scoring, math unchanged). Width curve: Bieger et al. 2015 JAWRA Table 3, Appalachian Highlands. Flood: SIR 2014-5030 HR1. NC Piedmont (DEQ physiography polygon); merged nearby towns: Creedmoor",
 "provenance": {
  "candidates_pre_gate": 55,
  "constant": [
   "bridge_proximity_bonus",
   "channel_width_score",
   "cso_density",
   "litter_complaint_density",
   "superfund_score"
  ],
  "gated_navigable": 0,
  "hard_gate_removed": 0,
  "n_parameters": 27,
  "parameters": {
   "bank_slope_score": {
    "kind": "real",
    "n_3dep_10m_fallback": 0,
    "n_nc_lidar_3_125ft": 55,
    "n_real": 55,
    "n_sites": 55,
    "source": "NC OneMap / NC DPS DEM03 statewide lidar-derived 3.125-ft (0.953 m) elevations (perpendicular 50 m transect; robust 5 m bank-rise metric); unavailable profiles use the region 10 m 3DEP DEM-gradient fallback",
    "source_mosaics": [
     "Durham_2024_QL1_03ft_CountywideRaster",
     "Granville_2024_QL1_03ft_CountywideRaster"
    ]
   },
   "beach_dist_km": {
    "kind": "real",
    "n_real": 55,
    "n_sites": 55,
    "source": "haversine to region ref: Wrightsville Beach (shipped NC reference)"
   },
   "bridge_proximity_bonus": {
    "kind": "real",
    "n_real": 55,
    "n_sites": 55,
    "source": "FHWA/BTS NBI (NTAD), 50 m proximity"
   },
   "catchment_area_km2": {
    "kind": "real",
    "n_real": 55,
    "n_sites": 55,
    "source": "DEM flow accumulation (pipeline)"
   },
   "channel_width_score": {
    "kind": "real",
    "n_real": 55,
    "n_sites": 55,
    "source": "Bieger 2015 AHI width curve on DEM drainage area \u2192 shipped width curve"
   },
   "cso_density": {
    "kind": "real",
    "n_real": 55,
    "n_sites": 55,
    "source": "EPA ECHO open CSO/TCS outfall PF coordinates states=NC, Cauchy proximity"
   },
   "ej_index": {
    "kind": "real",
    "n_real": 55,
    "n_sites": 55,
    "source": "Census ACS C17002+B03002 two-component demographic index, percentile-ranked within region"
   },
   "estuary_dist_km": {
    "kind": "real",
    "n_real": 55,
    "n_sites": 55,
    "source": "haversine to region ref: Pamlico Sound (shipped NC reference)"
   },
   "flood_q10_cfs": {
    "impervious_fallback_reason": "StreamCat imperviousness unavailable; the existing regression-input fallback of 0.0% impervious was used and is disclosed here",
    "kind": "real",
    "n_impervious_fallback": 4,
    "n_real": 55,
    "n_sites": 55,
    "source": "USGS SIR 2014-5030 Table 7 HR1 (NC Piedmont)"
   },
   "flow_velocity_ms": {
    "fallback_reason": "EROM/DEM continuity input unavailable; shipped 0.5 m/s default used",
    "kind": "real",
    "n_fallback": 4,
    "n_real": 51,
    "n_sites": 55,
    "source": "Manning (region DEM/D8) blended with EROM continuity (shipped M4 logic)"
   },
   "impervious_pct": {
    "fallback_reason": "NLDI/StreamCat did not return a snap-compatible catchment value; value remains null and is removed by constant-column handling",
    "kind": "real",
    "n_fallback": 4,
    "n_real": 51,
    "n_sites": 55,
    "source": "EPA StreamCat pctimp2019 (per NHDPlus watershed)"
   },
   "land_ownership": {
    "kind": "real",
    "n_fallback": 0,
    "n_real": 55,
    "n_sites": 55,
    "source": "NC OneMap statewide parcels (NC Parcels Transformer) ownname"
   },
   "litter_complaint_density": {
    "kind": "fallback",
    "n_real": 0,
    "n_sites": 55,
    "source": "no public machine-readable litter/illegal-dumping feed for this region"
   },
   "navigable_dist_m": {
    "kind": "real",
    "n_real": 55,
    "n_sites": 55,
    "source": "USACE/BTS NWN (NTAD): no navigable segment within this bbox (+2 km) \u2014 computed absence, gate passes all sites"
   },
   "npdes_points": {
    "kind": "real",
    "n_real": 55,
    "n_sites": 55,
    "source": "EPA ECHO active NPDES outfalls states=NC (types NPD/GPC/NGP; statuses ADC/EFF/EXP), per catchment"
   },
   "population_density": {
    "kind": "real",
    "n_real": 55,
    "n_sites": 55,
    "source": "Census ACS 2022 B01003 block groups (bbox, multi-county), area-weighted"
   },
   "protected_area_score": {
    "kind": "real",
    "n_real": 55,
    "n_sites": 55,
    "source": "USGS PAD-US 4.1 state GDB; states=NC; shipped designation-weighted proximity curve"
   },
   "road_access_score": {
    "kind": "real",
    "n_real": 55,
    "n_sites": 55,
    "source": "OSM drive network nearest-node distance"
   },
   "road_density_km_km2": {
    "kind": "real",
    "n_real": 55,
    "n_sites": 55,
    "source": "OSM drive network (osmnx, cached) clipped per catchment"
   },
   "runoff_coeff_C": {
    "fallback_reason": "source impervious_pct was unavailable; derived value remains null",
    "kind": "real",
    "n_fallback": 4,
    "n_real": 51,
    "n_sites": 55,
    "source": "derived from real impervious_pct (C=0.05+0.009*I)"
   },
   "seasonal_cv": {
    "fallback_reason": "NHDPlus monthly EROM was unavailable or failed the drainage-area snap guard; value remains null",
    "kind": "real",
    "n_fallback": 4,
    "n_real": 51,
    "n_sites": 55,
    "source": "CV of NHDPlus EROM monthly flows per COMID"
   },
   "stream_order": {
    "kind": "real",
    "n_real": 55,
    "n_sites": 55,
    "source": "DEM stream-network confluence heuristic (pipeline)"
   },
   "superfund_score": {
    "kind": "real",
    "n_real": 55,
    "n_sites": 55,
    "source": "EPA DataMap SEMS active sites states=NC (non-archived, georeferenced), shipped 500 m inverse-distance curve"
   },
   "tourism_amenity_density": {
    "kind": "real",
    "n_real": 55,
    "n_sites": 55,
    "source": "OSM leisure/tourism features per 2 km radius"
   },
   "tri_facility_density": {
    "kind": "real",
    "n_real": 55,
    "n_sites": 55,
    "source": "EPA DataMap TRI open facilities states=NC (preferred decimal or packed-DMS recovery), per catchment"
   },
   "usgs_mean_q_cfs": {
    "fallback_reason": "NHDPlus EROM was unavailable or failed the drainage-area snap guard; value remains null",
    "kind": "real",
    "n_fallback": 4,
    "n_real": 51,
    "n_sites": 55,
    "source": "NHDPlus EROM qe_ma per COMID (snap-guarded)"
   },
   "velocity_feasibility": {
    "fallback_reason": "derived from the shipped 0.5 m/s velocity fallback",
    "kind": "real",
    "n_fallback": 4,
    "n_real": 51,
    "n_sites": 55,
    "source": "shipped step curve on the computed velocity"
   },
   "velocity_transport_favorability": {
    "fallback_reason": "EROM/DEM continuity input unavailable; shipped 0.5 m/s default used",
    "kind": "derived",
    "n_fallback": 4,
    "n_real": 51,
    "n_sites": 55,
    "source": "scored form of flow_velocity_ms inside the Flow family \u2014 peaked Gaussian exp(-((v-0.9)/0.6)^2), model.json curves.velocity_transport_favorability; construct: transport/delivery favorability, deliberately distinct from velocity_feasibility (device operability)"
   },
   "water_intake_score": {
    "kind": "real",
    "n_real": 55,
    "n_sites": 55,
    "source": "NC OneMap / NC DEQ SWAP public water supply sources (source_typ='Surface Water'), shipped exp(-d/10km) curve"
   }
  },
  "stream_mask": {
   "buffer_m": 150.0,
   "pre_mask": 57,
   "removed": 2,
   "sources": [
    "osm-overpass (all waterway ways)",
    "usgs-nhdplus flowlines"
   ]
  },
  "varying": [
   "bank_slope_score",
   "beach_dist_km",
   "catchment_area_km2",
   "ej_index",
   "estuary_dist_km",
   "flood_q10_cfs",
   "flow_velocity_ms",
   "impervious_pct",
   "land_ownership",
   "npdes_points",
   "population_density",
   "protected_area_score",
   "road_access_score",
   "road_density_km_km2",
   "runoff_coeff_C",
   "seasonal_cv",
   "stream_order",
   "tourism_amenity_density",
   "tri_facility_density",
   "usgs_mean_q_cfs",
   "velocity_feasibility",
   "water_intake_score"
  ]
 },
 "region": {
  "bbox": [
   -78.814,
   36.0751,
   -78.6319,
   36.1936
  ],
  "beach_ref": {
   "label": "Wrightsville Beach (shipped NC reference)",
   "lat": 34.21,
   "lon": -77.79
  },
  "center": [
   -78.740676,
   36.134328
  ],
  "estuary_ref": {
   "label": "Pamlico Sound (shipped NC reference)",
   "lat": 35.05,
   "lon": -76.05
  },
  "flood_method": "sir2014_hr1",
  "name": "Butner, NC",
  "notes": "NC Piedmont (DEQ physiography polygon); merged nearby towns: Creedmoor",
  "slug": "butner",
  "state": "NC",
  "utm_epsg": 32617,
  "width_curve": {
   "a": 3.12,
   "b": 0.415,
   "code": "AHI",
   "source": "Bieger et al. 2015 JAWRA Table 3, Appalachian Highlands"
  }
 },
 "type": "FeatureCollection"
}
