{
 "features": [
  {
   "geometry": {
    "coordinates": [
     -79.252589,
     35.321964
    ],
    "type": "Point"
   },
   "properties": {
    "accumulation": 90506.0,
    "bank_slope_deg": 1.53,
    "bank_slope_score": 1.0,
    "bank_slope_source": "nc-dps-lidar-dem03-cross-section",
    "beach_dist_km": 182.03,
    "bridge_proximity_bonus": 0.0,
    "catchment_area_km2": 9.0331,
    "channel_width_m": 4.94,
    "channel_width_score": 1.0,
    "composite_score": 56.5883,
    "cso_density": 0.0,
    "ej_index": 0.5699,
    "elevation_m": 90.3364,
    "estuary_dist_km": 292.6,
    "feasibility_score": 64.2857,
    "flood_q10_cfs": 358.52,
    "flow_score": 64.8925,
    "flow_velocity_ms": 0.1489,
    "generation_score": 59.1331,
    "impact_score": 43.2745,
    "impervious_pct": 2.6,
    "land_ownership": 0.5,
    "lat": 35.322,
    "litter_complaint_density": 0.0,
    "lon": -79.2526,
    "navigable_dist_m": null,
    "npdes_points": 3,
    "pixel_col": 221.0,
    "pixel_row": 248.0,
    "population_density": 30.3,
    "position_along": 0.25,
    "protected_area_score": 6.2342,
    "rank": 1,
    "road_access_m": 262.4,
    "road_access_score": 0.8,
    "road_density_km_km2": 2.99,
    "robustness_pct": 100.0,
    "runoff_coeff_C": 0.0734,
    "seasonal_cv": 0.4548,
    "segment_id": 2,
    "segment_length_m": 3158.4355,
    "stream_order": 3,
    "superfund_score": 0.0,
    "tourism_amenity_density": 0.1592,
    "tri_facility_density": 0.0,
    "usgs_mean_q_cfs": 18.519,
    "velocity_feasibility": 0.7,
    "water_intake_score": 0.4014
   },
   "type": "Feature"
  },
  {
   "geometry": {
    "coordinates": [
     -79.254304,
     35.331703
    ],
    "type": "Point"
   },
   "properties": {
    "accumulation": 31502.0,
    "bank_slope_deg": 1.87,
    "bank_slope_score": 1.0,
    "bank_slope_source": "nc-dps-lidar-dem03-cross-section",
    "beach_dist_km": 182.88,
    "bridge_proximity_bonus": 0.0,
    "catchment_area_km2": 3.1441,
    "channel_width_m": 3.36,
    "channel_width_score": 1.0,
    "composite_score": 50.5974,
    "cso_density": 0.0,
    "ej_index": 0.6278,
    "elevation_m": 93.146,
    "estuary_dist_km": 292.85,
    "feasibility_score": 100.0,
    "flood_q10_cfs": 187.31,
    "flow_score": 5.8249,
    "flow_velocity_ms": 0.1051,
    "generation_score": 46.6667,
    "impact_score": 67.1373,
    "impervious_pct": 1.93,
    "land_ownership": 0.5,
    "lat": 35.3317,
    "litter_complaint_density": 0.0,
    "lon": -79.2543,
    "navigable_dist_m": null,
    "npdes_points": 0,
    "pixel_col": 204.0,
    "pixel_row": 139.0,
    "population_density": 31.3,
    "position_along": 0.5,
    "protected_area_score": 6.1094,
    "rank": 2,
    "road_access_m": 51.1,
    "road_access_score": 1.0,
    "road_density_km_km2": 3.359,
    "robustness_pct": 100.0,
    "runoff_coeff_C": 0.0674,
    "seasonal_cv": 0.4496,
    "segment_id": 0,
    "segment_length_m": 1723.4285,
    "stream_order": 3,
    "superfund_score": 0.0,
    "tourism_amenity_density": 0.1592,
    "tri_facility_density": 0.0,
    "usgs_mean_q_cfs": 2.55,
    "velocity_feasibility": 0.7,
    "water_intake_score": 0.4172
   },
   "type": "Feature"
  },
  {
   "geometry": {
    "coordinates": [
     -79.259973,
     35.313591
    ],
    "type": "Point"
   },
   "properties": {
    "accumulation": 128193.0,
    "bank_slope_deg": 17.48,
    "bank_slope_score": 0.5,
    "bank_slope_source": "nc-dps-lidar-dem03-cross-section",
    "beach_dist_km": 181.9,
    "bridge_proximity_bonus": 0.0,
    "catchment_area_km2": 12.7945,
    "channel_width_m": 5.6,
    "channel_width_score": 1.0,
    "composite_score": 49.4763,
    "cso_density": 0.0,
    "ej_index": 0.5911,
    "elevation_m": 87.6129,
    "estuary_dist_km": 293.19,
    "feasibility_score": 0.0,
    "flood_q10_cfs": 442.47,
    "flow_score": 87.3623,
    "flow_velocity_ms": 0.1804,
    "generation_score": 50.9608,
    "impact_score": 41.1583,
    "impervious_pct": 2.66,
    "land_ownership": 0.5,
    "lat": 35.3136,
    "litter_complaint_density": 0.0,
    "lon": -79.26,
    "navigable_dist_m": null,
    "npdes_points": 2,
    "pixel_col": 152.0,
    "pixel_row": 342.0,
    "population_density": 30.6,
    "position_along": 0.75,
    "protected_area_score": 5.9697,
    "rank": 3,
    "road_access_m": 785.0,
    "road_access_score": 0.6,
    "road_density_km_km2": 1.744,
    "robustness_pct": 100.0,
    "runoff_coeff_C": 0.0739,
    "seasonal_cv": 0.4558,
    "segment_id": 2,
    "segment_length_m": 3158.4355,
    "stream_order": 3,
    "superfund_score": 0.0,
    "tourism_amenity_density": 0.1592,
    "tri_facility_density": 0.0,
    "usgs_mean_q_cfs": 19.515,
    "velocity_feasibility": 0.7,
    "water_intake_score": 0.4102
   },
   "type": "Feature"
  },
  {
   "geometry": {
    "coordinates": [
     -79.248244,
     35.329796
    ],
    "type": "Point"
   },
   "properties": {
    "accumulation": 29290.0,
    "bank_slope_deg": 7.84,
    "bank_slope_score": 1.0,
    "bank_slope_source": "nc-dps-lidar-dem03-cross-section",
    "beach_dist_km": 182.33,
    "bridge_proximity_bonus": 0.0,
    "catchment_area_km2": 2.9233,
    "channel_width_m": 3.28,
    "channel_width_score": 1.0,
    "composite_score": 48.2931,
    "cso_density": 0.0,
    "ej_index": 0.5716,
    "elevation_m": 92.1171,
    "estuary_dist_km": 292.28,
    "feasibility_score": 64.2857,
    "flood_q10_cfs": 182.88,
    "flow_score": 23.6651,
    "flow_velocity_ms": 0.102,
    "generation_score": 65.0134,
    "impact_score": 44.0999,
    "impervious_pct": 2.78,
    "land_ownership": 0.5,
    "lat": 35.3298,
    "litter_complaint_density": 0.0,
    "lon": -79.2482,
    "navigable_dist_m": null,
    "npdes_points": 1,
    "pixel_col": 257.0,
    "pixel_row": 161.0,
    "population_density": 30.7,
    "position_along": 0.5,
    "protected_area_score": 5.911,
    "rank": 4,
    "road_access_m": 376.1,
    "road_access_score": 0.8,
    "road_density_km_km2": 3.005,
    "robustness_pct": 100.0,
    "runoff_coeff_C": 0.075,
    "seasonal_cv": 0.4395,
    "segment_id": 1,
    "segment_length_m": 999.1548,
    "stream_order": 3,
    "superfund_score": 0.0,
    "tourism_amenity_density": 0.1592,
    "tri_facility_density": 0.0,
    "usgs_mean_q_cfs": 5.906,
    "velocity_feasibility": 0.7,
    "water_intake_score": 0.4121
   },
   "type": "Feature"
  }
 ],
 "note": "GRIME region 'Cameron, NC' \u2014 real-data pipeline (DEM\u2192streams\u2192candidates\u2192stream mask (sites confined to \u00b1150 m of mapped OSM/NHD waterways)\u2192region-appropriate real parameters\u2192shipped scoring, math unchanged). Width curve: Bieger et al. 2015 JAWRA Table 3, Atlantic Plain. Flood: SIR 2014-5030 HR4 (I24H50Y: NOAA Atlas 14). NC Coastal Plain (SIR 2014-5030 HR4; I24H50Y from NOAA Atlas 14 at region center)",
 "provenance": {
  "candidates_pre_gate": 4,
  "constant": [
   "bridge_proximity_bonus",
   "channel_width_score",
   "cso_density",
   "land_ownership",
   "litter_complaint_density",
   "stream_order",
   "superfund_score",
   "tourism_amenity_density",
   "tri_facility_density",
   "velocity_feasibility"
  ],
  "gated_navigable": 0,
  "hard_gate_removed": 0,
  "n_parameters": 27,
  "parameters": {
   "bank_slope_score": {
    "kind": "real",
    "n_3dep_10m_fallback": 0,
    "n_nc_lidar_3_125ft": 4,
    "n_real": 4,
    "n_sites": 4,
    "source": "NC OneMap / NC DPS DEM03 statewide lidar-derived 3.125-ft (0.953 m) elevations (perpendicular 50 m transect; robust 5 m bank-rise metric); unavailable profiles use the region 10 m 3DEP DEM-gradient fallback",
    "source_mosaics": [
     "Moore_QL1_2024_03ft_CountywideRaster"
    ]
   },
   "beach_dist_km": {
    "kind": "real",
    "n_real": 4,
    "n_sites": 4,
    "source": "haversine to region ref: Wrightsville Beach (shipped NC reference)"
   },
   "bridge_proximity_bonus": {
    "kind": "real",
    "n_real": 4,
    "n_sites": 4,
    "source": "FHWA/BTS NBI (NTAD), 50 m proximity"
   },
   "catchment_area_km2": {
    "kind": "real",
    "n_real": 4,
    "n_sites": 4,
    "source": "DEM flow accumulation (pipeline)"
   },
   "channel_width_score": {
    "kind": "real",
    "n_real": 4,
    "n_sites": 4,
    "source": "Bieger 2015 APL width curve on DEM drainage area \u2192 shipped width curve"
   },
   "cso_density": {
    "kind": "real",
    "n_real": 4,
    "n_sites": 4,
    "source": "EPA ECHO open CSO/TCS outfall PF coordinates states=NC, Cauchy proximity"
   },
   "ej_index": {
    "kind": "real",
    "n_real": 4,
    "n_sites": 4,
    "source": "Census ACS C17002+B03002 two-component demographic index, percentile-ranked within region"
   },
   "estuary_dist_km": {
    "kind": "real",
    "n_real": 4,
    "n_sites": 4,
    "source": "haversine to region ref: Pamlico Sound (shipped NC reference)"
   },
   "flood_q10_cfs": {
    "kind": "real",
    "n_real": 4,
    "n_sites": 4,
    "source": "USGS SIR 2014-5030 Table 7 HR4 (NC Coastal Plain; I24H50Y from NOAA Atlas 14 at region center)"
   },
   "flow_velocity_ms": {
    "kind": "real",
    "n_fallback": 0,
    "n_real": 4,
    "n_sites": 4,
    "source": "Manning (region DEM/D8) blended with EROM continuity (shipped M4 logic)"
   },
   "impervious_pct": {
    "kind": "real",
    "n_real": 4,
    "n_sites": 4,
    "source": "EPA StreamCat pctimp2019 (per NHDPlus watershed)"
   },
   "land_ownership": {
    "fallback_reason": "no containing parcel owner returned; shipped unknown ownership 0.5 used",
    "kind": "real",
    "n_fallback": 2,
    "n_real": 2,
    "n_sites": 4,
    "source": "NC OneMap statewide parcels (NC Parcels Transformer) ownname"
   },
   "litter_complaint_density": {
    "kind": "fallback",
    "n_real": 0,
    "n_sites": 4,
    "source": "no public machine-readable litter/illegal-dumping feed for this region"
   },
   "navigable_dist_m": {
    "kind": "real",
    "n_real": 4,
    "n_sites": 4,
    "source": "USACE/BTS NWN (NTAD): no navigable segment within this bbox (+2 km) \u2014 computed absence, gate passes all sites"
   },
   "npdes_points": {
    "kind": "real",
    "n_real": 4,
    "n_sites": 4,
    "source": "EPA ECHO active NPDES outfalls states=NC (types NPD/GPC/NGP; statuses ADC/EFF/EXP), per catchment"
   },
   "population_density": {
    "kind": "real",
    "n_real": 4,
    "n_sites": 4,
    "source": "Census ACS 2022 B01003 block groups (bbox, multi-county), area-weighted"
   },
   "protected_area_score": {
    "kind": "real",
    "n_real": 4,
    "n_sites": 4,
    "source": "USGS PAD-US 4.1 state GDB; states=NC; shipped designation-weighted proximity curve"
   },
   "road_access_score": {
    "kind": "real",
    "n_real": 4,
    "n_sites": 4,
    "source": "OSM drive network nearest-node distance"
   },
   "road_density_km_km2": {
    "kind": "real",
    "n_real": 4,
    "n_sites": 4,
    "source": "OSM drive network (osmnx, cached) clipped per catchment"
   },
   "runoff_coeff_C": {
    "kind": "real",
    "n_real": 4,
    "n_sites": 4,
    "source": "derived from real impervious_pct (C=0.05+0.009*I)"
   },
   "seasonal_cv": {
    "kind": "real",
    "n_real": 4,
    "n_sites": 4,
    "source": "CV of NHDPlus EROM monthly flows per COMID"
   },
   "stream_order": {
    "kind": "real",
    "n_real": 4,
    "n_sites": 4,
    "source": "DEM stream-network confluence heuristic (pipeline)"
   },
   "superfund_score": {
    "kind": "real",
    "n_real": 4,
    "n_sites": 4,
    "source": "EPA DataMap SEMS active sites states=NC (non-archived, georeferenced), shipped 500 m inverse-distance curve"
   },
   "tourism_amenity_density": {
    "kind": "real",
    "n_real": 4,
    "n_sites": 4,
    "source": "OSM leisure/tourism features per 2 km radius"
   },
   "tri_facility_density": {
    "kind": "real",
    "n_real": 4,
    "n_sites": 4,
    "source": "EPA DataMap TRI open facilities states=NC (preferred decimal or packed-DMS recovery), per catchment"
   },
   "usgs_mean_q_cfs": {
    "kind": "real",
    "n_real": 4,
    "n_sites": 4,
    "source": "NHDPlus EROM qe_ma per COMID (snap-guarded)"
   },
   "velocity_feasibility": {
    "kind": "real",
    "n_fallback": 0,
    "n_real": 4,
    "n_sites": 4,
    "source": "shipped step curve on the computed velocity"
   },
   "velocity_transport_favorability": {
    "kind": "derived",
    "n_real": 4,
    "n_sites": 4,
    "source": "scored form of flow_velocity_ms inside the Flow family \u2014 peaked Gaussian exp(-((v-0.9)/0.6)^2), model.json curves.velocity_transport_favorability; construct: transport/delivery favorability, deliberately distinct from velocity_feasibility (device operability)"
   },
   "water_intake_score": {
    "kind": "real",
    "n_real": 4,
    "n_sites": 4,
    "source": "NC OneMap / NC DEQ SWAP public water supply sources (source_typ='Surface Water'), shipped exp(-d/10km) curve"
   }
  },
  "stream_mask": {
   "buffer_m": 150.0,
   "pre_mask": 4,
   "removed": 0,
   "sources": [
    "osm-overpass (all waterway ways)",
    "usgs-nhdplus flowlines"
   ]
  },
  "varying": [
   "bank_slope_score",
   "beach_dist_km",
   "catchment_area_km2",
   "ej_index",
   "estuary_dist_km",
   "flood_q10_cfs",
   "flow_velocity_ms",
   "impervious_pct",
   "npdes_points",
   "population_density",
   "protected_area_score",
   "road_access_score",
   "road_density_km_km2",
   "runoff_coeff_C",
   "seasonal_cv",
   "usgs_mean_q_cfs",
   "water_intake_score"
  ]
 },
 "region": {
  "bbox": [
   -79.2763,
   35.3079,
   -79.2321,
   35.3439
  ],
  "beach_ref": {
   "label": "Wrightsville Beach (shipped NC reference)",
   "lat": 34.21,
   "lon": -77.79
  },
  "center": [
   -79.254178,
   35.325872
  ],
  "estuary_ref": {
   "label": "Pamlico Sound (shipped NC reference)",
   "lat": 35.05,
   "lon": -76.05
  },
  "flood_method": "sir2014_hr4",
  "name": "Cameron, NC",
  "notes": "NC Coastal Plain (SIR 2014-5030 HR4; I24H50Y from NOAA Atlas 14 at region center)",
  "slug": "cameron",
  "state": "NC",
  "utm_epsg": 32617,
  "width_curve": {
   "a": 2.22,
   "b": 0.363,
   "code": "APL",
   "source": "Bieger et al. 2015 JAWRA Table 3, Atlantic Plain"
  }
 },
 "type": "FeatureCollection"
}
