{
 "features": [
  {
   "geometry": {
    "coordinates": [
     -82.839884,
     35.523583
    ],
    "type": "Point"
   },
   "properties": {
    "accumulation": 56187.0,
    "bank_slope_deg": 11.34,
    "bank_slope_score": 1.0,
    "bank_slope_source": "nc-dps-lidar-dem03-cross-section",
    "beach_dist_km": 483.25,
    "bridge_proximity_bonus": 0.0,
    "catchment_area_km2": 5.6101,
    "channel_width_m": 6.38,
    "channel_width_score": 1.0,
    "composite_score": 56.4564,
    "cso_density": 0.0,
    "ej_index": 0.7069,
    "elevation_m": 788.4438,
    "estuary_dist_km": 618.41,
    "feasibility_score": 87.7551,
    "flood_q10_cfs": null,
    "flow_score": 23.6032,
    "flow_velocity_ms": 0.1624,
    "generation_score": 68.1158,
    "impact_score": 56.5254,
    "impervious_pct": 5.01,
    "land_ownership": 1.0,
    "lat": 35.5236,
    "litter_complaint_density": 0.0,
    "lon": -82.8399,
    "navigable_dist_m": null,
    "npdes_points": 0,
    "pixel_col": 291.0,
    "pixel_row": 441.0,
    "population_density": 353.8,
    "position_along": 0.5,
    "protected_area_score": 12.8477,
    "rank": 1,
    "road_access_m": 44.6,
    "road_access_score": 1.0,
    "road_density_km_km2": 7.572,
    "robustness_pct": 95.5,
    "runoff_coeff_C": 0.0951,
    "seasonal_cv": 0.5322,
    "segment_id": 8,
    "segment_length_m": 450.0733,
    "stream_order": 3,
    "superfund_score": 0.1424,
    "tourism_amenity_density": 2.1486,
    "tri_facility_density": 0.1782,
    "usgs_mean_q_cfs": 3.716,
    "velocity_feasibility": 0.7,
    "water_intake_score": 1.7817
   },
   "type": "Feature"
  },
  {
   "geometry": {
    "coordinates": [
     -82.840192,
     35.528119
    ],
    "type": "Point"
   },
   "properties": {
    "accumulation": 139054.0,
    "bank_slope_deg": 18.67,
    "bank_slope_score": 0.5,
    "bank_slope_source": "nc-dps-lidar-dem03-cross-section",
    "beach_dist_km": 483.42,
    "bridge_proximity_bonus": 0.0,
    "catchment_area_km2": 13.8842,
    "channel_width_m": 9.3,
    "channel_width_score": 1.0,
    "composite_score": 54.5843,
    "cso_density": 0.0,
    "ej_index": 0.6593,
    "elevation_m": 784.4109,
    "estuary_dist_km": 618.46,
    "feasibility_score": 69.6429,
    "flood_q10_cfs": null,
    "flow_score": 59.7302,
    "flow_velocity_ms": 0.5,
    "generation_score": 34.6649,
    "impact_score": 62.686,
    "impervious_pct": null,
    "land_ownership": 0.5,
    "lat": 35.5281,
    "litter_complaint_density": 0.0,
    "lon": -82.8402,
    "navigable_dist_m": null,
    "npdes_points": 0,
    "pixel_col": 289.0,
    "pixel_row": 390.0,
    "population_density": 353.5,
    "position_along": 0.5,
    "protected_area_score": 13.3436,
    "rank": 2,
    "road_access_m": 99.2,
    "road_access_score": 1.0,
    "road_density_km_km2": 6.993,
    "robustness_pct": 100.0,
    "runoff_coeff_C": null,
    "seasonal_cv": null,
    "segment_id": 12,
    "segment_length_m": 644.0676,
    "stream_order": 3,
    "superfund_score": 0.3136,
    "tourism_amenity_density": 2.1486,
    "tri_facility_density": 0.072,
    "usgs_mean_q_cfs": null,
    "velocity_feasibility": 1.0,
    "water_intake_score": 1.7605
   },
   "type": "Feature"
  },
  {
   "geometry": {
    "coordinates": [
     -82.845308,
     35.538515
    ],
    "type": "Point"
   },
   "properties": {
    "accumulation": 34376.0,
    "bank_slope_deg": 19.24,
    "bank_slope_score": 0.5,
    "bank_slope_source": "nc-dps-lidar-dem03-cross-section",
    "beach_dist_km": 484.18,
    "bridge_proximity_bonus": 0.0,
    "catchment_area_km2": 3.4324,
    "channel_width_m": 5.21,
    "channel_width_score": 1.0,
    "composite_score": 54.2153,
    "cso_density": 0.0,
    "ej_index": 0.5501,
    "elevation_m": 781.5861,
    "estuary_dist_km": 618.98,
    "feasibility_score": 69.6429,
    "flood_q10_cfs": null,
    "flow_score": 38.8065,
    "flow_velocity_ms": 0.5,
    "generation_score": 60.3729,
    "impact_score": 53.1844,
    "impervious_pct": null,
    "land_ownership": 0.5,
    "lat": 35.5385,
    "litter_complaint_density": 0.0,
    "lon": -82.8453,
    "navigable_dist_m": null,
    "npdes_points": 0,
    "pixel_col": 247.0,
    "pixel_row": 274.0,
    "population_density": 385.1,
    "position_along": 0.5,
    "protected_area_score": 13.7014,
    "rank": 3,
    "road_access_m": 52.0,
    "road_access_score": 1.0,
    "road_density_km_km2": 8.423,
    "robustness_pct": 99.0,
    "runoff_coeff_C": null,
    "seasonal_cv": null,
    "segment_id": 3,
    "segment_length_m": 779.822,
    "stream_order": 3,
    "superfund_score": 0.2804,
    "tourism_amenity_density": 2.3873,
    "tri_facility_density": 0.2913,
    "usgs_mean_q_cfs": null,
    "velocity_feasibility": 1.0,
    "water_intake_score": 1.6634
   },
   "type": "Feature"
  },
  {
   "geometry": {
    "coordinates": [
     -82.833932,
     35.521512
    ],
    "type": "Point"
   },
   "properties": {
    "accumulation": 23467.0,
    "bank_slope_deg": 26.87,
    "bank_slope_score": 0.5,
    "bank_slope_source": "nc-dps-lidar-dem03-cross-section",
    "beach_dist_km": 482.67,
    "bridge_proximity_bonus": 0.0,
    "catchment_area_km2": 2.3431,
    "channel_width_m": 4.44,
    "channel_width_score": 1.0,
    "composite_score": 51.052,
    "cso_density": 0.0,
    "ej_index": 0.7418,
    "elevation_m": 797.3427,
    "estuary_dist_km": 617.86,
    "feasibility_score": 57.398,
    "flood_q10_cfs": null,
    "flow_score": 14.3369,
    "flow_velocity_ms": 0.1356,
    "generation_score": 72.7273,
    "impact_score": 56.7997,
    "impervious_pct": 6.8,
    "land_ownership": 0.5,
    "lat": 35.5215,
    "litter_complaint_density": 0.0,
    "lon": -82.8339,
    "navigable_dist_m": null,
    "npdes_points": 0,
    "pixel_col": 345.0,
    "pixel_row": 465.0,
    "population_density": 473.7,
    "position_along": 0.5,
    "protected_area_score": 12.8054,
    "rank": 4,
    "road_access_m": 31.5,
    "road_access_score": 1.0,
    "road_density_km_km2": 9.842,
    "robustness_pct": 67.5,
    "runoff_coeff_C": 0.1112,
    "seasonal_cv": 0.5312,
    "segment_id": 6,
    "segment_length_m": 944.2551,
    "stream_order": 3,
    "superfund_score": 0.1013,
    "tourism_amenity_density": 2.1486,
    "tri_facility_density": 0.0,
    "usgs_mean_q_cfs": 1.261,
    "velocity_feasibility": 0.7,
    "water_intake_score": 1.7408
   },
   "type": "Feature"
  },
  {
   "geometry": {
    "coordinates": [
     -82.849364,
     35.52473
    ],
    "type": "Point"
   },
   "properties": {
    "accumulation": 66045.0,
    "bank_slope_deg": 22.5,
    "bank_slope_score": 0.5,
    "bank_slope_source": "nc-dps-lidar-dem03-cross-section",
    "beach_dist_km": 484.11,
    "bridge_proximity_bonus": 0.0,
    "catchment_area_km2": 6.5944,
    "channel_width_m": 6.83,
    "channel_width_score": 1.0,
    "composite_score": 47.7686,
    "cso_density": 0.0,
    "ej_index": 0.6043,
    "elevation_m": 786.3635,
    "estuary_dist_km": 619.27,
    "feasibility_score": 69.6429,
    "flood_q10_cfs": null,
    "flow_score": 45.1366,
    "flow_velocity_ms": 0.5,
    "generation_score": 30.3204,
    "impact_score": 56.4729,
    "impervious_pct": null,
    "land_ownership": 0.5,
    "lat": 35.5247,
    "litter_complaint_density": 0.0,
    "lon": -82.8494,
    "navigable_dist_m": null,
    "npdes_points": 0,
    "pixel_col": 209.0,
    "pixel_row": 429.0,
    "population_density": 241.2,
    "position_along": 0.75,
    "protected_area_score": 13.3166,
    "rank": 5,
    "road_access_m": 44.8,
    "road_access_score": 1.0,
    "road_density_km_km2": 5.205,
    "robustness_pct": 93.5,
    "runoff_coeff_C": null,
    "seasonal_cv": null,
    "segment_id": 11,
    "segment_length_m": 3627.723,
    "stream_order": 3,
    "superfund_score": 0.0998,
    "tourism_amenity_density": 2.2282,
    "tri_facility_density": 0.1516,
    "usgs_mean_q_cfs": null,
    "velocity_feasibility": 1.0,
    "water_intake_score": 1.8601
   },
   "type": "Feature"
  },
  {
   "geometry": {
    "coordinates": [
     -82.805547,
     35.536174
    ],
    "type": "Point"
   },
   "properties": {
    "accumulation": 141733.0,
    "bank_slope_deg": 17.2,
    "bank_slope_score": 0.5,
    "bank_slope_source": "nc-dps-lidar-dem03-cross-section",
    "beach_dist_km": 480.66,
    "bridge_proximity_bonus": 0.0,
    "catchment_area_km2": 14.1517,
    "channel_width_m": 9.37,
    "channel_width_score": 1.0,
    "composite_score": 44.898,
    "cso_density": 0.0,
    "ej_index": 0.7201,
    "elevation_m": 720.0027,
    "estuary_dist_km": 615.38,
    "feasibility_score": 57.398,
    "flood_q10_cfs": null,
    "flow_score": 63.6263,
    "flow_velocity_ms": 0.1425,
    "generation_score": 8.9794,
    "impact_score": 58.9596,
    "impervious_pct": 1.81,
    "land_ownership": 0.5,
    "lat": 35.5362,
    "litter_complaint_density": 0.0,
    "lon": -82.8055,
    "navigable_dist_m": null,
    "npdes_points": 0,
    "pixel_col": 609.0,
    "pixel_row": 309.0,
    "population_density": 100.9,
    "position_along": 0.5,
    "protected_area_score": 14.0997,
    "rank": 6,
    "road_access_m": 158.4,
    "road_access_score": 1.0,
    "road_density_km_km2": 2.734,
    "robustness_pct": 34.0,
    "runoff_coeff_C": 0.0663,
    "seasonal_cv": 0.5426,
    "segment_id": 10,
    "segment_length_m": 2081.3784,
    "stream_order": 3,
    "superfund_score": 0.028,
    "tourism_amenity_density": 1.0345,
    "tri_facility_density": 0.0,
    "usgs_mean_q_cfs": 25.434,
    "velocity_feasibility": 0.7,
    "water_intake_score": 1.4993
   },
   "type": "Feature"
  },
  {
   "geometry": {
    "coordinates": [
     -82.851741,
     35.546336
    ],
    "type": "Point"
   },
   "properties": {
    "accumulation": 88048.0,
    "bank_slope_deg": 20.54,
    "bank_slope_score": 0.5,
    "bank_slope_source": "nc-dps-lidar-dem03-cross-section",
    "beach_dist_km": 484.99,
    "bridge_proximity_bonus": 0.0,
    "catchment_area_km2": 8.7914,
    "channel_width_m": 7.69,
    "channel_width_score": 1.0,
    "composite_score": 41.6391,
    "cso_density": 0.0,
    "ej_index": 0.5436,
    "elevation_m": 779.9138,
    "estuary_dist_km": 619.61,
    "feasibility_score": 69.6429,
    "flood_q10_cfs": null,
    "flow_score": 49.5348,
    "flow_velocity_ms": 0.5,
    "generation_score": 26.828,
    "impact_score": 35.8684,
    "impervious_pct": null,
    "land_ownership": 0.5,
    "lat": 35.5463,
    "litter_complaint_density": 0.0,
    "lon": -82.8517,
    "navigable_dist_m": null,
    "npdes_points": 0,
    "pixel_col": 190.0,
    "pixel_row": 190.0,
    "population_density": 213.9,
    "position_along": 0.25,
    "protected_area_score": 14.1098,
    "rank": 7,
    "road_access_m": 104.3,
    "road_access_score": 1.0,
    "road_density_km_km2": 6.23,
    "robustness_pct": 0.5,
    "runoff_coeff_C": null,
    "seasonal_cv": null,
    "segment_id": 4,
    "segment_length_m": 3433.4345,
    "stream_order": 3,
    "superfund_score": 0.0708,
    "tourism_amenity_density": 0.8754,
    "tri_facility_density": 0.1137,
    "usgs_mean_q_cfs": null,
    "velocity_feasibility": 1.0,
    "water_intake_score": 1.5672
   },
   "type": "Feature"
  },
  {
   "geometry": {
    "coordinates": [
     -82.838299,
     35.517254
    ],
    "type": "Point"
   },
   "properties": {
    "accumulation": 27026.0,
    "bank_slope_deg": 3.6,
    "bank_slope_score": 1.0,
    "bank_slope_source": "nc-dps-lidar-dem03-cross-section",
    "beach_dist_km": 482.92,
    "bridge_proximity_bonus": 0.0,
    "catchment_area_km2": 2.6985,
    "channel_width_m": 4.71,
    "channel_width_score": 1.0,
    "composite_score": 41.2686,
    "cso_density": 0.0,
    "ej_index": 0.8428,
    "elevation_m": 794.8901,
    "estuary_dist_km": 618.23,
    "feasibility_score": 66.3265,
    "flood_q10_cfs": null,
    "flow_score": 13.074,
    "flow_velocity_ms": 0.1017,
    "generation_score": 34.2056,
    "impact_score": 59.2981,
    "impervious_pct": 3.08,
    "land_ownership": 0.5,
    "lat": 35.5173,
    "litter_complaint_density": 0.0,
    "lon": -82.8383,
    "navigable_dist_m": null,
    "npdes_points": 0,
    "pixel_col": 305.0,
    "pixel_row": 511.0,
    "population_density": 281.1,
    "position_along": 0.5,
    "protected_area_score": 12.6649,
    "rank": 8,
    "road_access_m": 119.7,
    "road_access_score": 1.0,
    "road_density_km_km2": 5.921,
    "robustness_pct": 3.0,
    "runoff_coeff_C": 0.0777,
    "seasonal_cv": 0.5176,
    "segment_id": 7,
    "segment_length_m": 1291.2699,
    "stream_order": 3,
    "superfund_score": 0.0637,
    "tourism_amenity_density": 2.1486,
    "tri_facility_density": 0.0,
    "usgs_mean_q_cfs": 2.401,
    "velocity_feasibility": 0.7,
    "water_intake_score": 1.7684
   },
   "type": "Feature"
  },
  {
   "geometry": {
    "coordinates": [
     -82.811449,
     35.518879
    ],
    "type": "Point"
   },
   "properties": {
    "accumulation": 38703.0,
    "bank_slope_deg": 20.88,
    "bank_slope_score": 0.5,
    "bank_slope_source": "nc-dps-lidar-dem03-cross-section",
    "beach_dist_km": 480.63,
    "bridge_proximity_bonus": 0.0,
    "catchment_area_km2": 3.8644,
    "channel_width_m": 5.47,
    "channel_width_score": 1.0,
    "composite_score": 37.6937,
    "cso_density": 0.0,
    "ej_index": 0.7764,
    "elevation_m": 802.0339,
    "estuary_dist_km": 615.81,
    "feasibility_score": 57.398,
    "flood_q10_cfs": null,
    "flow_score": 28.132,
    "flow_velocity_ms": 0.1592,
    "generation_score": 13.319,
    "impact_score": 60.1843,
    "impervious_pct": 1.77,
    "land_ownership": 0.5,
    "lat": 35.5189,
    "litter_complaint_density": 0.0,
    "lon": -82.8114,
    "navigable_dist_m": null,
    "npdes_points": 0,
    "pixel_col": 548.0,
    "pixel_row": 499.0,
    "population_density": 134.7,
    "position_along": 0.25,
    "protected_area_score": 13.3931,
    "rank": 9,
    "road_access_m": 144.7,
    "road_access_score": 1.0,
    "road_density_km_km2": 3.755,
    "robustness_pct": 0.0,
    "runoff_coeff_C": 0.0659,
    "seasonal_cv": 0.4847,
    "segment_id": 9,
    "segment_length_m": 4091.6335,
    "stream_order": 3,
    "superfund_score": 0.0277,
    "tourism_amenity_density": 1.1937,
    "tri_facility_density": 0.0,
    "usgs_mean_q_cfs": 11.354,
    "velocity_feasibility": 0.7,
    "water_intake_score": 1.6126
   },
   "type": "Feature"
  },
  {
   "geometry": {
    "coordinates": [
     -82.869648,
     35.546012
    ],
    "type": "Point"
   },
   "properties": {
    "accumulation": 145962.0,
    "bank_slope_deg": 12.97,
    "bank_slope_score": 1.0,
    "bank_slope_source": "nc-dps-lidar-dem03-cross-section",
    "beach_dist_km": 486.53,
    "bridge_proximity_bonus": 0.0,
    "catchment_area_km2": 14.574,
    "channel_width_m": 9.49,
    "channel_width_score": 1.0,
    "composite_score": 35.973,
    "cso_density": 0.0,
    "ej_index": 0.5707,
    "elevation_m": 772.5883,
    "estuary_dist_km": 621.23,
    "feasibility_score": 78.5714,
    "flood_q10_cfs": null,
    "flow_score": 61.1111,
    "flow_velocity_ms": 0.5,
    "generation_score": 5.2268,
    "impact_score": 24.4714,
    "impervious_pct": null,
    "land_ownership": 0.5,
    "lat": 35.546,
    "litter_complaint_density": 0.0,
    "lon": -82.8696,
    "navigable_dist_m": null,
    "npdes_points": 0,
    "pixel_col": 26.0,
    "pixel_row": 189.0,
    "population_density": 158.3,
    "position_along": 0.5,
    "protected_area_score": 14.1357,
    "rank": 10,
    "road_access_m": 86.3,
    "road_access_score": 1.0,
    "road_density_km_km2": 2.791,
    "robustness_pct": 6.0,
    "runoff_coeff_C": null,
    "seasonal_cv": null,
    "segment_id": 5,
    "segment_length_m": 422.8149,
    "stream_order": 3,
    "superfund_score": 0.0247,
    "tourism_amenity_density": 0.2387,
    "tri_facility_density": 0.0,
    "usgs_mean_q_cfs": null,
    "velocity_feasibility": 1.0,
    "water_intake_score": 1.5364
   },
   "type": "Feature"
  },
  {
   "geometry": {
    "coordinates": [
     -82.852841,
     35.516116
    ],
    "type": "Point"
   },
   "properties": {
    "accumulation": 32033.0,
    "bank_slope_deg": 17.8,
    "bank_slope_score": 0.5,
    "bank_slope_source": "nc-dps-lidar-dem03-cross-section",
    "beach_dist_km": 484.15,
    "bridge_proximity_bonus": 0.0,
    "catchment_area_km2": 3.1984,
    "channel_width_m": 5.05,
    "channel_width_score": 1.0,
    "composite_score": 33.6863,
    "cso_density": 0.0,
    "ej_index": 0.5543,
    "elevation_m": 789.9769,
    "estuary_dist_km": 619.54,
    "feasibility_score": 69.6429,
    "flood_q10_cfs": null,
    "flow_score": 38.338,
    "flow_velocity_ms": 0.5,
    "generation_score": 2.8611,
    "impact_score": 42.6567,
    "impervious_pct": null,
    "land_ownership": 0.5,
    "lat": 35.5161,
    "litter_complaint_density": 0.0,
    "lon": -82.8528,
    "navigable_dist_m": null,
    "npdes_points": 0,
    "pixel_col": 176.0,
    "pixel_row": 523.0,
    "population_density": 123.8,
    "position_along": 0.25,
    "protected_area_score": 12.901,
    "rank": 11,
    "road_access_m": 114.3,
    "road_access_score": 1.0,
    "road_density_km_km2": 2.87,
    "robustness_pct": 0.0,
    "runoff_coeff_C": null,
    "seasonal_cv": null,
    "segment_id": 11,
    "segment_length_m": 3627.723,
    "stream_order": 3,
    "superfund_score": 0.04,
    "tourism_amenity_density": 1.9894,
    "tri_facility_density": 0.0,
    "usgs_mean_q_cfs": null,
    "velocity_feasibility": 1.0,
    "water_intake_score": 1.8005
   },
   "type": "Feature"
  },
  {
   "geometry": {
    "coordinates": [
     -82.818469,
     35.530466
    ],
    "type": "Point"
   },
   "properties": {
    "accumulation": 58603.0,
    "bank_slope_deg": 38.36,
    "bank_slope_score": 0.2,
    "bank_slope_source": "nc-dps-lidar-dem03-cross-section",
    "beach_dist_km": 481.6,
    "bridge_proximity_bonus": 0.0,
    "catchment_area_km2": 5.8514,
    "channel_width_m": 6.49,
    "channel_width_score": 1.0,
    "composite_score": 33.585,
    "cso_density": 0.0,
    "ej_index": 0.8373,
    "elevation_m": 742.3148,
    "estuary_dist_km": 616.51,
    "feasibility_score": 16.3265,
    "flood_q10_cfs": null,
    "flow_score": 33.3942,
    "flow_velocity_ms": 0.191,
    "generation_score": 18.8191,
    "impact_score": 57.1391,
    "impervious_pct": 1.77,
    "land_ownership": 0.5,
    "lat": 35.5305,
    "litter_complaint_density": 0.0,
    "lon": -82.8185,
    "navigable_dist_m": null,
    "npdes_points": 0,
    "pixel_col": 487.0,
    "pixel_row": 368.0,
    "population_density": 182.2,
    "position_along": 0.75,
    "protected_area_score": 13.0988,
    "rank": 12,
    "road_access_m": 296.8,
    "road_access_score": 0.8,
    "road_density_km_km2": 4.766,
    "robustness_pct": 0.0,
    "runoff_coeff_C": 0.0659,
    "seasonal_cv": 0.4847,
    "segment_id": 9,
    "segment_length_m": 4091.6335,
    "stream_order": 3,
    "superfund_score": 0.07,
    "tourism_amenity_density": 1.2732,
    "tri_facility_density": 0.0,
    "usgs_mean_q_cfs": 11.354,
    "velocity_feasibility": 0.7,
    "water_intake_score": 1.6004
   },
   "type": "Feature"
  },
  {
   "geometry": {
    "coordinates": [
     -82.862008,
     35.542882
    ],
    "type": "Point"
   },
   "properties": {
    "accumulation": 119410.0,
    "bank_slope_deg": 14.73,
    "bank_slope_score": 1.0,
    "bank_slope_source": "nc-dps-lidar-dem03-cross-section",
    "beach_dist_km": 485.77,
    "bridge_proximity_bonus": 0.0,
    "catchment_area_km2": 11.9228,
    "channel_width_m": 8.73,
    "channel_width_score": 1.0,
    "composite_score": 32.7108,
    "cso_density": 0.0,
    "ej_index": 0.561,
    "elevation_m": 775.0309,
    "estuary_dist_km": 620.52,
    "feasibility_score": 42.8571,
    "flood_q10_cfs": null,
    "flow_score": 55.8036,
    "flow_velocity_ms": 0.5,
    "generation_score": 9.786,
    "impact_score": 31.3185,
    "impervious_pct": null,
    "land_ownership": 0.5,
    "lat": 35.5429,
    "litter_complaint_density": 0.0,
    "lon": -82.862,
    "navigable_dist_m": null,
    "npdes_points": 0,
    "pixel_col": 94.0,
    "pixel_row": 225.0,
    "population_density": 183.0,
    "position_along": 0.75,
    "protected_area_score": 14.1327,
    "rank": 13,
    "road_access_m": 298.6,
    "road_access_score": 0.8,
    "road_density_km_km2": 4.165,
    "robustness_pct": 1.0,
    "runoff_coeff_C": null,
    "seasonal_cv": null,
    "segment_id": 4,
    "segment_length_m": 3433.4345,
    "stream_order": 3,
    "superfund_score": 0.0426,
    "tourism_amenity_density": 0.3183,
    "tri_facility_density": 0.0,
    "usgs_mean_q_cfs": null,
    "velocity_feasibility": 1.0,
    "water_intake_score": 1.5936
   },
   "type": "Feature"
  },
  {
   "geometry": {
    "coordinates": [
     -82.812963,
     35.54435
    ],
    "type": "Point"
   },
   "properties": {
    "accumulation": 36299.0,
    "bank_slope_deg": 5.26,
    "bank_slope_score": 1.0,
    "bank_slope_source": "nc-dps-lidar-dem03-cross-section",
    "beach_dist_km": 481.56,
    "bridge_proximity_bonus": 0.0,
    "catchment_area_km2": 3.6244,
    "channel_width_m": 5.32,
    "channel_width_score": 1.0,
    "composite_score": 30.1169,
    "cso_density": 0.0,
    "ej_index": 0.561,
    "elevation_m": 783.5308,
    "estuary_dist_km": 616.1,
    "feasibility_score": 50.0,
    "flood_q10_cfs": null,
    "flow_score": 19.1535,
    "flow_velocity_ms": 0.0372,
    "generation_score": 13.3121,
    "impact_score": 46.1162,
    "impervious_pct": 1.76,
    "land_ownership": 0.5,
    "lat": 35.5443,
    "litter_complaint_density": 0.0,
    "lon": -82.813,
    "navigable_dist_m": null,
    "npdes_points": 0,
    "pixel_col": 542.0,
    "pixel_row": 218.0,
    "population_density": 101.4,
    "position_along": 0.5,
    "protected_area_score": 14.0736,
    "rank": 14,
    "road_access_m": 133.2,
    "road_access_score": 1.0,
    "road_density_km_km2": 4.99,
    "robustness_pct": 0.0,
    "runoff_coeff_C": 0.0658,
    "seasonal_cv": 0.5687,
    "segment_id": 1,
    "segment_length_m": 2499.1718,
    "stream_order": 3,
    "superfund_score": 0.0381,
    "tourism_amenity_density": 1.0345,
    "tri_facility_density": 0.0,
    "usgs_mean_q_cfs": 9.275,
    "velocity_feasibility": 0.3,
    "water_intake_score": 1.4716
   },
   "type": "Feature"
  },
  {
   "geometry": {
    "coordinates": [
     -82.841663,
     35.549563
    ],
    "type": "Point"
   },
   "properties": {
    "accumulation": 32509.0,
    "bank_slope_deg": 7.97,
    "bank_slope_score": 1.0,
    "bank_slope_source": "nc-dps-lidar-dem03-cross-section",
    "beach_dist_km": 484.21,
    "bridge_proximity_bonus": 0.0,
    "catchment_area_km2": 3.246,
    "channel_width_m": 5.09,
    "channel_width_score": 1.0,
    "composite_score": 29.6217,
    "cso_density": 0.0,
    "ej_index": 0.4717,
    "elevation_m": 791.7073,
    "estuary_dist_km": 618.72,
    "feasibility_score": 30.6122,
    "flood_q10_cfs": null,
    "flow_score": 29.4668,
    "flow_velocity_ms": 0.1193,
    "generation_score": 25.8118,
    "impact_score": 33.0654,
    "impervious_pct": 2.07,
    "land_ownership": 0.5,
    "lat": 35.5496,
    "litter_complaint_density": 0.0,
    "lon": -82.8417,
    "navigable_dist_m": null,
    "npdes_points": 0,
    "pixel_col": 282.0,
    "pixel_row": 156.0,
    "population_density": 203.9,
    "position_along": 0.5,
    "protected_area_score": 14.0609,
    "rank": 15,
    "road_access_m": 212.5,
    "road_access_score": 0.8,
    "road_density_km_km2": 6.797,
    "robustness_pct": 0.0,
    "runoff_coeff_C": 0.0686,
    "seasonal_cv": 0.5015,
    "segment_id": 0,
    "segment_length_m": 2919.9781,
    "stream_order": 3,
    "superfund_score": 0.0795,
    "tourism_amenity_density": 0.8754,
    "tri_facility_density": 0.0,
    "usgs_mean_q_cfs": 14.883,
    "velocity_feasibility": 0.7,
    "water_intake_score": 1.5188
   },
   "type": "Feature"
  },
  {
   "geometry": {
    "coordinates": [
     -82.866834,
     35.547945
    ],
    "type": "Point"
   },
   "properties": {
    "accumulation": 20892.0,
    "bank_slope_deg": 28.07,
    "bank_slope_score": 0.5,
    "bank_slope_source": "nc-dps-lidar-dem03-cross-section",
    "beach_dist_km": 486.35,
    "bridge_proximity_bonus": 0.0,
    "catchment_area_km2": 2.086,
    "channel_width_m": 4.23,
    "channel_width_score": 1.0,
    "composite_score": 17.3091,
    "cso_density": 0.0,
    "ej_index": 0.5861,
    "elevation_m": 776.6639,
    "estuary_dist_km": 620.99,
    "feasibility_score": 21.6837,
    "flood_q10_cfs": null,
    "flow_score": 13.0633,
    "flow_velocity_ms": 0.1235,
    "generation_score": 11.5607,
    "impact_score": 24.4085,
    "impervious_pct": 1.56,
    "land_ownership": 0.5,
    "lat": 35.5479,
    "litter_complaint_density": 0.0,
    "lon": -82.8668,
    "navigable_dist_m": null,
    "npdes_points": 0,
    "pixel_col": 54.0,
    "pixel_row": 169.0,
    "population_density": 163.9,
    "position_along": 0.5,
    "protected_area_score": 14.034,
    "rank": 16,
    "road_access_m": 269.7,
    "road_access_score": 0.8,
    "road_density_km_km2": 2.278,
    "robustness_pct": 0.0,
    "runoff_coeff_C": 0.064,
    "seasonal_cv": 0.5268,
    "segment_id": 2,
    "segment_length_m": 421.8106,
    "stream_order": 3,
    "superfund_score": 0.0268,
    "tourism_amenity_density": 0.2387,
    "tri_facility_density": 0.0,
    "usgs_mean_q_cfs": 3.842,
    "velocity_feasibility": 0.7,
    "water_intake_score": 1.524
   },
   "type": "Feature"
  }
 ],
 "note": "GRIME region 'Canton, NC' \u2014 real-data pipeline (DEM\u2192streams\u2192candidates\u2192stream mask (sites confined to \u00b1150 m of mapped OSM/NHD waterways)\u2192region-appropriate real parameters\u2192shipped scoring, math unchanged). Width curve: Bieger et al. 2015 JAWRA Table 3, Appalachian Highlands. Flood: not applicable here (documented fallback). NC Blue Ridge (outside SIR 2014-5030 urban coverage)",
 "provenance": {
  "candidates_pre_gate": 16,
  "constant": [
   "bridge_proximity_bonus",
   "channel_width_score",
   "cso_density",
   "flood_q10_cfs",
   "litter_complaint_density",
   "npdes_points",
   "stream_order"
  ],
  "gated_navigable": 0,
  "hard_gate_removed": 0,
  "n_parameters": 27,
  "parameters": {
   "bank_slope_score": {
    "kind": "real",
    "n_3dep_10m_fallback": 0,
    "n_nc_lidar_3_125ft": 16,
    "n_real": 16,
    "n_sites": 16,
    "source": "NC OneMap / NC DPS DEM03 statewide lidar-derived 3.125-ft (0.953 m) elevations (perpendicular 50 m transect; robust 5 m bank-rise metric); unavailable profiles use the region 10 m 3DEP DEM-gradient fallback",
    "source_mosaics": [
     "Haywood_QL1_2025_03ft_CountywideRaster"
    ]
   },
   "beach_dist_km": {
    "kind": "real",
    "n_real": 16,
    "n_sites": 16,
    "source": "haversine to region ref: Wrightsville Beach (shipped NC reference)"
   },
   "bridge_proximity_bonus": {
    "kind": "real",
    "n_real": 16,
    "n_sites": 16,
    "source": "FHWA/BTS NBI (NTAD), 50 m proximity"
   },
   "catchment_area_km2": {
    "kind": "real",
    "n_real": 16,
    "n_sites": 16,
    "source": "DEM flow accumulation (pipeline)"
   },
   "channel_width_score": {
    "kind": "real",
    "n_real": 16,
    "n_sites": 16,
    "source": "Bieger 2015 AHI width curve on DEM drainage area \u2192 shipped width curve"
   },
   "cso_density": {
    "kind": "real",
    "n_real": 16,
    "n_sites": 16,
    "source": "EPA ECHO open CSO/TCS outfall PF coordinates states=NC, Cauchy proximity"
   },
   "ej_index": {
    "kind": "real",
    "n_real": 16,
    "n_sites": 16,
    "source": "Census ACS C17002+B03002 two-component demographic index, percentile-ranked within region"
   },
   "estuary_dist_km": {
    "kind": "real",
    "n_real": 16,
    "n_sites": 16,
    "source": "haversine to region ref: Pamlico Sound (shipped NC reference)"
   },
   "flood_q10_cfs": {
    "impervious_fallback_reason": "StreamCat imperviousness unavailable; the existing regression-input fallback of 0.0% impervious was used and is disclosed here",
    "kind": "fallback",
    "n_impervious_fallback": 7,
    "n_real": 0,
    "n_sites": 16,
    "source": "flood regression not valid here (NC Blue Ridge (outside SIR 2014-5030 urban coverage)...) \u2014 NaN, dropped by constant-column handling"
   },
   "flow_velocity_ms": {
    "fallback_reason": "EROM/DEM continuity input unavailable; shipped 0.5 m/s default used",
    "kind": "real",
    "n_fallback": 7,
    "n_real": 9,
    "n_sites": 16,
    "source": "Manning (region DEM/D8) blended with EROM continuity (shipped M4 logic)"
   },
   "impervious_pct": {
    "fallback_reason": "NLDI/StreamCat did not return a snap-compatible catchment value; value remains null and is removed by constant-column handling",
    "kind": "real",
    "n_fallback": 7,
    "n_real": 9,
    "n_sites": 16,
    "source": "EPA StreamCat pctimp2019 (per NHDPlus watershed)"
   },
   "land_ownership": {
    "fallback_reason": "no containing parcel owner returned; shipped unknown ownership 0.5 used",
    "kind": "real",
    "n_fallback": 6,
    "n_real": 10,
    "n_sites": 16,
    "source": "NC OneMap statewide parcels (NC Parcels Transformer) ownname"
   },
   "litter_complaint_density": {
    "kind": "fallback",
    "n_real": 0,
    "n_sites": 16,
    "source": "no public machine-readable litter/illegal-dumping feed for this region"
   },
   "navigable_dist_m": {
    "kind": "real",
    "n_real": 16,
    "n_sites": 16,
    "source": "USACE/BTS NWN (NTAD): no navigable segment within this bbox (+2 km) \u2014 computed absence, gate passes all sites"
   },
   "npdes_points": {
    "kind": "real",
    "n_real": 16,
    "n_sites": 16,
    "source": "EPA ECHO active NPDES outfalls states=NC (types NPD/GPC/NGP; statuses ADC/EFF/EXP), per catchment"
   },
   "population_density": {
    "kind": "real",
    "n_real": 16,
    "n_sites": 16,
    "source": "Census ACS 2022 B01003 block groups (bbox, multi-county), area-weighted"
   },
   "protected_area_score": {
    "kind": "real",
    "n_real": 16,
    "n_sites": 16,
    "source": "USGS PAD-US 4.1 state GDB; states=NC; shipped designation-weighted proximity curve"
   },
   "road_access_score": {
    "kind": "real",
    "n_real": 16,
    "n_sites": 16,
    "source": "OSM drive network nearest-node distance"
   },
   "road_density_km_km2": {
    "kind": "real",
    "n_real": 16,
    "n_sites": 16,
    "source": "OSM drive network (osmnx, cached) clipped per catchment"
   },
   "runoff_coeff_C": {
    "fallback_reason": "source impervious_pct was unavailable; derived value remains null",
    "kind": "real",
    "n_fallback": 7,
    "n_real": 9,
    "n_sites": 16,
    "source": "derived from real impervious_pct (C=0.05+0.009*I)"
   },
   "seasonal_cv": {
    "fallback_reason": "NHDPlus monthly EROM was unavailable or failed the drainage-area snap guard; value remains null",
    "kind": "real",
    "n_fallback": 7,
    "n_real": 9,
    "n_sites": 16,
    "source": "CV of NHDPlus EROM monthly flows per COMID"
   },
   "stream_order": {
    "kind": "real",
    "n_real": 16,
    "n_sites": 16,
    "source": "DEM stream-network confluence heuristic (pipeline)"
   },
   "superfund_score": {
    "kind": "real",
    "n_real": 16,
    "n_sites": 16,
    "source": "EPA DataMap SEMS active sites states=NC (non-archived, georeferenced), shipped 500 m inverse-distance curve"
   },
   "tourism_amenity_density": {
    "kind": "real",
    "n_real": 16,
    "n_sites": 16,
    "source": "OSM leisure/tourism features per 2 km radius"
   },
   "tri_facility_density": {
    "kind": "real",
    "n_real": 16,
    "n_sites": 16,
    "source": "EPA DataMap TRI open facilities states=NC (preferred decimal or packed-DMS recovery), per catchment"
   },
   "usgs_mean_q_cfs": {
    "fallback_reason": "NHDPlus EROM was unavailable or failed the drainage-area snap guard; value remains null",
    "kind": "real",
    "n_fallback": 7,
    "n_real": 9,
    "n_sites": 16,
    "source": "NHDPlus EROM qe_ma per COMID (snap-guarded)"
   },
   "velocity_feasibility": {
    "fallback_reason": "derived from the shipped 0.5 m/s velocity fallback",
    "kind": "real",
    "n_fallback": 7,
    "n_real": 9,
    "n_sites": 16,
    "source": "shipped step curve on the computed velocity"
   },
   "velocity_transport_favorability": {
    "fallback_reason": "EROM/DEM continuity input unavailable; shipped 0.5 m/s default used",
    "kind": "derived",
    "n_fallback": 7,
    "n_real": 9,
    "n_sites": 16,
    "source": "scored form of flow_velocity_ms inside the Flow family \u2014 peaked Gaussian exp(-((v-0.9)/0.6)^2), model.json curves.velocity_transport_favorability; construct: transport/delivery favorability, deliberately distinct from velocity_feasibility (device operability)"
   },
   "water_intake_score": {
    "kind": "real",
    "n_real": 16,
    "n_sites": 16,
    "source": "NC OneMap / NC DEQ SWAP public water supply sources (source_typ='Surface Water'), shipped exp(-d/10km) curve"
   }
  },
  "stream_mask": {
   "buffer_m": 150.0,
   "pre_mask": 16,
   "removed": 0,
   "sources": [
    "osm-overpass (all waterway ways)",
    "usgs-nhdplus flowlines"
   ]
  },
  "varying": [
   "bank_slope_score",
   "beach_dist_km",
   "catchment_area_km2",
   "ej_index",
   "estuary_dist_km",
   "flow_velocity_ms",
   "impervious_pct",
   "land_ownership",
   "population_density",
   "protected_area_score",
   "road_access_score",
   "road_density_km_km2",
   "runoff_coeff_C",
   "seasonal_cv",
   "superfund_score",
   "tourism_amenity_density",
   "tri_facility_density",
   "usgs_mean_q_cfs",
   "velocity_feasibility",
   "water_intake_score"
  ]
 },
 "region": {
  "bbox": [
   -82.8717,
   35.5012,
   -82.7958,
   35.563
  ],
  "beach_ref": {
   "label": "Wrightsville Beach (shipped NC reference)",
   "lat": 34.21,
   "lon": -77.79
  },
  "center": [
   -82.833734,
   35.532118
  ],
  "estuary_ref": {
   "label": "Pamlico Sound (shipped NC reference)",
   "lat": 35.05,
   "lon": -76.05
  },
  "flood_method": "none",
  "name": "Canton, NC",
  "notes": "NC Blue Ridge (outside SIR 2014-5030 urban coverage)",
  "slug": "canton",
  "state": "NC",
  "utm_epsg": 32617,
  "width_curve": {
   "a": 3.12,
   "b": 0.415,
   "code": "AHI",
   "source": "Bieger et al. 2015 JAWRA Table 3, Appalachian Highlands"
  }
 },
 "type": "FeatureCollection"
}
