{
 "features": [
  {
   "geometry": {
    "coordinates": [
     -79.379884,
     35.312731
    ],
    "type": "Point"
   },
   "properties": {
    "accumulation": 124747.0,
    "bank_slope_deg": 1.91,
    "bank_slope_score": 1.0,
    "bank_slope_source": "nc-dps-lidar-dem03-cross-section",
    "beach_dist_km": 190.07,
    "bridge_proximity_bonus": 0.0,
    "catchment_area_km2": 12.4519,
    "channel_width_m": 5.55,
    "channel_width_score": 1.0,
    "composite_score": 57.7167,
    "cso_density": 0.0,
    "ej_index": 0.6111,
    "elevation_m": 113.5387,
    "estuary_dist_km": 304.02,
    "feasibility_score": 50.0,
    "flood_q10_cfs": 445.67,
    "flow_score": 74.1423,
    "flow_velocity_ms": 0.1766,
    "generation_score": 49.752,
    "impact_score": 55.8517,
    "impervious_pct": 3.67,
    "land_ownership": 0.5,
    "lat": 35.3127,
    "litter_complaint_density": 0.0,
    "lon": -79.3799,
    "navigable_dist_m": null,
    "npdes_points": 0,
    "pixel_col": 758.0,
    "pixel_row": 572.0,
    "population_density": 55.0,
    "position_along": 0.5,
    "protected_area_score": 7.8517,
    "rank": 1,
    "road_access_m": 389.4,
    "road_access_score": 0.8,
    "road_density_km_km2": 1.524,
    "robustness_pct": 88.5,
    "runoff_coeff_C": 0.083,
    "seasonal_cv": 0.4584,
    "segment_id": 18,
    "segment_length_m": 262.8963,
    "stream_order": 3,
    "superfund_score": 0.0,
    "tourism_amenity_density": 0.0,
    "tri_facility_density": 0.0,
    "usgs_mean_q_cfs": 7.666,
    "velocity_feasibility": 0.7,
    "water_intake_score": 0.6031
   },
   "type": "Feature"
  },
  {
   "geometry": {
    "coordinates": [
     -79.382036,
     35.317239
    ],
    "type": "Point"
   },
   "properties": {
    "accumulation": 65118.0,
    "bank_slope_deg": 4.3,
    "bank_slope_score": 1.0,
    "bank_slope_source": "nc-dps-lidar-dem03-cross-section",
    "beach_dist_km": 190.54,
    "bridge_proximity_bonus": 0.0,
    "catchment_area_km2": 6.4999,
    "channel_width_m": 4.38,
    "channel_width_score": 1.0,
    "composite_score": 57.4525,
    "cso_density": 0.0,
    "ej_index": 0.6111,
    "elevation_m": 116.8814,
    "estuary_dist_km": 304.26,
    "feasibility_score": 77.7778,
    "flood_q10_cfs": 311.27,
    "flow_score": 51.1643,
    "flow_velocity_ms": 0.1618,
    "generation_score": 56.3382,
    "impact_score": 53.6443,
    "impervious_pct": 5.02,
    "land_ownership": 0.5,
    "lat": 35.3172,
    "litter_complaint_density": 0.0,
    "lon": -79.382,
    "navigable_dist_m": null,
    "npdes_points": 0,
    "pixel_col": 735.0,
    "pixel_row": 523.0,
    "population_density": 55.0,
    "position_along": 0.5,
    "protected_area_score": 7.7198,
    "rank": 2,
    "road_access_m": 149.6,
    "road_access_score": 1.0,
    "road_density_km_km2": 1.476,
    "robustness_pct": 99.5,
    "runoff_coeff_C": 0.0952,
    "seasonal_cv": 0.4726,
    "segment_id": 8,
    "segment_length_m": 1068.1385,
    "stream_order": 3,
    "superfund_score": 0.0,
    "tourism_amenity_density": 0.0,
    "tri_facility_density": 0.0,
    "usgs_mean_q_cfs": 3.376,
    "velocity_feasibility": 0.7,
    "water_intake_score": 0.592
   },
   "type": "Feature"
  },
  {
   "geometry": {
    "coordinates": [
     -79.386605,
     35.312196
    ],
    "type": "Point"
   },
   "properties": {
    "accumulation": 48974.0,
    "bank_slope_deg": 4.18,
    "bank_slope_score": 1.0,
    "bank_slope_source": "nc-dps-lidar-dem03-cross-section",
    "beach_dist_km": 190.5,
    "bridge_proximity_bonus": 0.0,
    "catchment_area_km2": 4.8884,
    "channel_width_m": 3.95,
    "channel_width_score": 1.0,
    "composite_score": 55.4866,
    "cso_density": 0.0,
    "ej_index": 0.6111,
    "elevation_m": 117.4358,
    "estuary_dist_km": 304.63,
    "feasibility_score": 77.7778,
    "flood_q10_cfs": 252.63,
    "flow_score": 45.6356,
    "flow_velocity_ms": 0.1596,
    "generation_score": 51.9582,
    "impact_score": 56.0787,
    "impervious_pct": 3.4,
    "land_ownership": 0.5,
    "lat": 35.3122,
    "litter_complaint_density": 0.0,
    "lon": -79.3866,
    "navigable_dist_m": null,
    "npdes_points": 0,
    "pixel_col": 697.0,
    "pixel_row": 577.0,
    "population_density": 55.0,
    "position_along": 0.5,
    "protected_area_score": 8.0019,
    "rank": 3,
    "road_access_m": 112.2,
    "road_access_score": 1.0,
    "road_density_km_km2": 2.108,
    "robustness_pct": 90.5,
    "runoff_coeff_C": 0.0806,
    "seasonal_cv": 0.4695,
    "segment_id": 17,
    "segment_length_m": 1239.697,
    "stream_order": 3,
    "superfund_score": 0.0,
    "tourism_amenity_density": 0.0,
    "tri_facility_density": 0.0,
    "usgs_mean_q_cfs": 2.879,
    "velocity_feasibility": 0.7,
    "water_intake_score": 0.6231
   },
   "type": "Feature"
  },
  {
   "geometry": {
    "coordinates": [
     -79.407813,
     35.284172
    ],
    "type": "Point"
   },
   "properties": {
    "accumulation": 22543.0,
    "bank_slope_deg": 2.7,
    "bank_slope_score": 1.0,
    "bank_slope_source": "nc-dps-lidar-dem03-cross-section",
    "beach_dist_km": 190.04,
    "bridge_proximity_bonus": 0.0,
    "catchment_area_km2": 2.2502,
    "channel_width_m": 2.98,
    "channel_width_score": 1.0,
    "composite_score": 52.6995,
    "cso_density": 0.0,
    "ej_index": 0.6111,
    "elevation_m": 115.1686,
    "estuary_dist_km": 306.32,
    "feasibility_score": 50.0,
    "flood_q10_cfs": 151.17,
    "flow_score": 23.0241,
    "flow_velocity_ms": 0.1665,
    "generation_score": 57.1298,
    "impact_score": 74.3485,
    "impervious_pct": 1.35,
    "land_ownership": 0.5,
    "lat": 35.2842,
    "litter_complaint_density": 0.0,
    "lon": -79.4078,
    "navigable_dist_m": null,
    "npdes_points": 3,
    "pixel_col": 507.0,
    "pixel_row": 894.0,
    "population_density": 55.0,
    "position_along": 0.5,
    "protected_area_score": 9.3581,
    "rank": 4,
    "road_access_m": 237.8,
    "road_access_score": 0.8,
    "road_density_km_km2": 1.394,
    "robustness_pct": 54.0,
    "runoff_coeff_C": 0.0622,
    "seasonal_cv": 0.4731,
    "segment_id": 25,
    "segment_length_m": 1033.0234,
    "stream_order": 1,
    "superfund_score": 0.0,
    "tourism_amenity_density": 0.1592,
    "tri_facility_density": 0.0,
    "usgs_mean_q_cfs": 2.11,
    "velocity_feasibility": 0.7,
    "water_intake_score": 0.8532
   },
   "type": "Feature"
  },
  {
   "geometry": {
    "coordinates": [
     -79.431101,
     35.332599
    ],
    "type": "Point"
   },
   "properties": {
    "accumulation": 41340.0,
    "bank_slope_deg": 12.73,
    "bank_slope_score": 1.0,
    "bank_slope_source": "nc-dps-lidar-dem03-cross-section",
    "beach_dist_km": 195.06,
    "bridge_proximity_bonus": 0.0,
    "catchment_area_km2": 4.1264,
    "channel_width_m": 3.71,
    "channel_width_score": 1.0,
    "composite_score": 52.2742,
    "cso_density": 0.0,
    "ej_index": 0.3536,
    "elevation_m": 109.8101,
    "estuary_dist_km": 308.84,
    "feasibility_score": 50.0,
    "flood_q10_cfs": 247.66,
    "flow_score": 49.2025,
    "flow_velocity_ms": 0.1696,
    "generation_score": 74.0434,
    "impact_score": 34.202,
    "impervious_pct": 6.92,
    "land_ownership": 0.5,
    "lat": 35.3326,
    "litter_complaint_density": 0.0,
    "lon": -79.4311,
    "navigable_dist_m": null,
    "npdes_points": 1,
    "pixel_col": 284.0,
    "pixel_row": 356.0,
    "population_density": 45.3,
    "position_along": 0.5,
    "protected_area_score": 6.9046,
    "rank": 5,
    "road_access_m": 466.0,
    "road_access_score": 0.8,
    "road_density_km_km2": 2.717,
    "robustness_pct": 59.0,
    "runoff_coeff_C": 0.1123,
    "seasonal_cv": 0.4715,
    "segment_id": 4,
    "segment_length_m": 2395.7449,
    "stream_order": 3,
    "superfund_score": 0.0,
    "tourism_amenity_density": 1.1141,
    "tri_facility_density": 0.0,
    "usgs_mean_q_cfs": 2.839,
    "velocity_feasibility": 0.7,
    "water_intake_score": 0.5337
   },
   "type": "Feature"
  },
  {
   "geometry": {
    "coordinates": [
     -79.372548,
     35.284291
    ],
    "type": "Point"
   },
   "properties": {
    "accumulation": 25484.0,
    "bank_slope_deg": 7.48,
    "bank_slope_score": 1.0,
    "bank_slope_source": "nc-dps-lidar-dem03-cross-section",
    "beach_dist_km": 187.55,
    "bridge_proximity_bonus": 0.0,
    "catchment_area_km2": 2.5437,
    "channel_width_m": 3.12,
    "channel_width_score": 1.0,
    "composite_score": 50.9792,
    "cso_density": 0.0,
    "ej_index": 0.5517,
    "elevation_m": 99.0268,
    "estuary_dist_km": 303.12,
    "feasibility_score": 77.7778,
    "flood_q10_cfs": 166.82,
    "flow_score": 15.427,
    "flow_velocity_ms": 0.1267,
    "generation_score": 47.6011,
    "impact_score": 70.5849,
    "impervious_pct": 2.42,
    "land_ownership": 0.5,
    "lat": 35.2843,
    "litter_complaint_density": 0.0,
    "lon": -79.3725,
    "navigable_dist_m": null,
    "npdes_points": 0,
    "pixel_col": 828.0,
    "pixel_row": 887.0,
    "population_density": 60.6,
    "position_along": 0.5,
    "protected_area_score": 8.7262,
    "rank": 6,
    "road_access_m": 187.8,
    "road_access_score": 1.0,
    "road_density_km_km2": 1.623,
    "robustness_pct": 38.5,
    "runoff_coeff_C": 0.0718,
    "seasonal_cv": 0.4789,
    "segment_id": 24,
    "segment_length_m": 994.0642,
    "stream_order": 1,
    "superfund_score": 0.0,
    "tourism_amenity_density": 0.0796,
    "tri_facility_density": 0.0,
    "usgs_mean_q_cfs": 1.304,
    "velocity_feasibility": 0.7,
    "water_intake_score": 0.7395
   },
   "type": "Feature"
  },
  {
   "geometry": {
    "coordinates": [
     -79.411962,
     35.358534
    ],
    "type": "Point"
   },
   "properties": {
    "accumulation": 38080.0,
    "bank_slope_deg": 10.89,
    "bank_slope_score": 1.0,
    "bank_slope_source": "nc-dps-lidar-dem03-cross-section",
    "beach_dist_km": 195.57,
    "bridge_proximity_bonus": 0.0,
    "catchment_area_km2": 3.801,
    "channel_width_m": 3.6,
    "channel_width_score": 1.0,
    "composite_score": 50.5957,
    "cso_density": 0.0,
    "ej_index": 0.7778,
    "elevation_m": 112.5744,
    "estuary_dist_km": 307.37,
    "feasibility_score": 77.7778,
    "flood_q10_cfs": 231.55,
    "flow_score": 28.2149,
    "flow_velocity_ms": 0.1607,
    "generation_score": 66.7903,
    "impact_score": 39.4606,
    "impervious_pct": 6.15,
    "land_ownership": 0.5,
    "lat": 35.3585,
    "litter_complaint_density": 0.0,
    "lon": -79.412,
    "navigable_dist_m": null,
    "npdes_points": 0,
    "pixel_col": 455.0,
    "pixel_row": 65.0,
    "population_density": 55.0,
    "position_along": 0.5,
    "protected_area_score": 5.7486,
    "rank": 7,
    "road_access_m": 107.7,
    "road_access_score": 1.0,
    "road_density_km_km2": 2.241,
    "robustness_pct": 34.5,
    "runoff_coeff_C": 0.1053,
    "seasonal_cv": 0.4858,
    "segment_id": 1,
    "segment_length_m": 1499.875,
    "stream_order": 1,
    "superfund_score": 0.0,
    "tourism_amenity_density": 0.7958,
    "tri_facility_density": 0.0,
    "usgs_mean_q_cfs": 2.373,
    "velocity_feasibility": 0.7,
    "water_intake_score": 0.4502
   },
   "type": "Feature"
  },
  {
   "geometry": {
    "coordinates": [
     -79.426253,
     35.290662
    ],
    "type": "Point"
   },
   "properties": {
    "accumulation": 51284.0,
    "bank_slope_deg": 5.41,
    "bank_slope_score": 1.0,
    "bank_slope_source": "nc-dps-lidar-dem03-cross-section",
    "beach_dist_km": 191.8,
    "bridge_proximity_bonus": 0.0,
    "catchment_area_km2": 5.119,
    "channel_width_m": 4.02,
    "channel_width_score": 1.0,
    "composite_score": 48.7032,
    "cso_density": 0.0,
    "ej_index": 0.3258,
    "elevation_m": 110.9056,
    "estuary_dist_km": 308.04,
    "feasibility_score": 50.0,
    "flood_q10_cfs": 264.84,
    "flow_score": 35.8849,
    "flow_velocity_ms": 0.1786,
    "generation_score": 49.9954,
    "impact_score": 57.4446,
    "impervious_pct": 4.24,
    "land_ownership": 0.5,
    "lat": 35.2907,
    "litter_complaint_density": 0.0,
    "lon": -79.4263,
    "navigable_dist_m": null,
    "npdes_points": 0,
    "pixel_col": 338.0,
    "pixel_row": 824.0,
    "population_density": 41.1,
    "position_along": 0.5,
    "protected_area_score": 9.077,
    "rank": 8,
    "road_access_m": 238.7,
    "road_access_score": 0.8,
    "road_density_km_km2": 2.552,
    "robustness_pct": 0.0,
    "runoff_coeff_C": 0.0882,
    "seasonal_cv": 0.4682,
    "segment_id": 20,
    "segment_length_m": 2613.1194,
    "stream_order": 1,
    "superfund_score": 0.0,
    "tourism_amenity_density": 0.557,
    "tri_facility_density": 0.0,
    "usgs_mean_q_cfs": 2.59,
    "velocity_feasibility": 0.7,
    "water_intake_score": 0.7929
   },
   "type": "Feature"
  },
  {
   "geometry": {
    "coordinates": [
     -79.387023,
     35.325462
    ],
    "type": "Point"
   },
   "properties": {
    "accumulation": 30676.0,
    "bank_slope_deg": 4.98,
    "bank_slope_score": 1.0,
    "bank_slope_source": "nc-dps-lidar-dem03-cross-section",
    "beach_dist_km": 191.47,
    "bridge_proximity_bonus": 0.0,
    "catchment_area_km2": 3.062,
    "channel_width_m": 3.33,
    "channel_width_score": 1.0,
    "composite_score": 47.0607,
    "cso_density": 0.0,
    "ej_index": 0.6111,
    "elevation_m": 125.8102,
    "estuary_dist_km": 304.78,
    "feasibility_score": 22.2222,
    "flood_q10_cfs": 209.66,
    "flow_score": 38.9725,
    "flow_velocity_ms": 0.1609,
    "generation_score": 64.1677,
    "impact_score": 49.1131,
    "impervious_pct": 7.46,
    "land_ownership": 0.5,
    "lat": 35.3255,
    "litter_complaint_density": 0.0,
    "lon": -79.387,
    "navigable_dist_m": null,
    "npdes_points": 0,
    "pixel_col": 690.0,
    "pixel_row": 431.0,
    "population_density": 55.0,
    "position_along": 0.5,
    "protected_area_score": 7.383,
    "rank": 9,
    "road_access_m": 805.0,
    "road_access_score": 0.6,
    "road_density_km_km2": 0.725,
    "robustness_pct": 10.5,
    "runoff_coeff_C": 0.1171,
    "seasonal_cv": 0.495,
    "segment_id": 5,
    "segment_length_m": 1324.8881,
    "stream_order": 3,
    "superfund_score": 0.0,
    "tourism_amenity_density": 0.0796,
    "tri_facility_density": 0.0,
    "usgs_mean_q_cfs": 1.805,
    "velocity_feasibility": 0.7,
    "water_intake_score": 0.5608
   },
   "type": "Feature"
  },
  {
   "geometry": {
    "coordinates": [
     -79.364589,
     35.309739
    ],
    "type": "Point"
   },
   "properties": {
    "accumulation": 27689.0,
    "bank_slope_deg": 2.39,
    "bank_slope_score": 1.0,
    "bank_slope_source": "nc-dps-lidar-dem03-cross-section",
    "beach_dist_km": 188.79,
    "bridge_proximity_bonus": 0.0,
    "catchment_area_km2": 2.7638,
    "channel_width_m": 3.21,
    "channel_width_score": 1.0,
    "composite_score": 45.8772,
    "cso_density": 0.0,
    "ej_index": 0.6111,
    "elevation_m": 106.5285,
    "estuary_dist_km": 302.61,
    "feasibility_score": 50.0,
    "flood_q10_cfs": 180.52,
    "flow_score": 32.4389,
    "flow_velocity_ms": 0.1085,
    "generation_score": 43.2497,
    "impact_score": 57.6419,
    "impervious_pct": 3.67,
    "land_ownership": 0.5,
    "lat": 35.3097,
    "litter_complaint_density": 0.0,
    "lon": -79.3646,
    "navigable_dist_m": null,
    "npdes_points": 0,
    "pixel_col": 897.0,
    "pixel_row": 602.0,
    "population_density": 55.0,
    "position_along": 0.5,
    "protected_area_score": 7.5833,
    "rank": 10,
    "road_access_m": 342.5,
    "road_access_score": 0.8,
    "road_density_km_km2": 0.464,
    "robustness_pct": 0.0,
    "runoff_coeff_C": 0.083,
    "seasonal_cv": 0.4584,
    "segment_id": 19,
    "segment_length_m": 1015.76,
    "stream_order": 1,
    "superfund_score": 0.0,
    "tourism_amenity_density": 0.0,
    "tri_facility_density": 0.0,
    "usgs_mean_q_cfs": 7.666,
    "velocity_feasibility": 0.7,
    "water_intake_score": 0.5855
   },
   "type": "Feature"
  },
  {
   "geometry": {
    "coordinates": [
     -79.393622,
     35.313468
    ],
    "type": "Point"
   },
   "properties": {
    "accumulation": 20508.0,
    "bank_slope_deg": 3.36,
    "bank_slope_score": 1.0,
    "bank_slope_source": "nc-dps-lidar-dem03-cross-section",
    "beach_dist_km": 191.08,
    "bridge_proximity_bonus": 0.0,
    "catchment_area_km2": 2.047,
    "channel_width_m": 2.88,
    "channel_width_score": 1.0,
    "composite_score": 45.5733,
    "cso_density": 0.0,
    "ej_index": 0.6111,
    "elevation_m": 123.2978,
    "estuary_dist_km": 305.27,
    "feasibility_score": 50.0,
    "flood_q10_cfs": 151.13,
    "flow_score": 26.8709,
    "flow_velocity_ms": 0.1416,
    "generation_score": 49.4968,
    "impact_score": 55.0217,
    "impervious_pct": 3.78,
    "land_ownership": 0.5,
    "lat": 35.3135,
    "litter_complaint_density": 0.0,
    "lon": -79.3936,
    "navigable_dist_m": null,
    "npdes_points": 0,
    "pixel_col": 632.0,
    "pixel_row": 565.0,
    "population_density": 55.0,
    "position_along": 0.5,
    "protected_area_score": 7.9708,
    "rank": 11,
    "road_access_m": 474.9,
    "road_access_score": 0.8,
    "road_density_km_km2": 1.391,
    "robustness_pct": 0.0,
    "runoff_coeff_C": 0.084,
    "seasonal_cv": 0.5021,
    "segment_id": 15,
    "segment_length_m": 311.8464,
    "stream_order": 3,
    "superfund_score": 0.0,
    "tourism_amenity_density": 0.0796,
    "tri_facility_density": 0.0,
    "usgs_mean_q_cfs": 1.15,
    "velocity_feasibility": 0.7,
    "water_intake_score": 0.6252
   },
   "type": "Feature"
  },
  {
   "geometry": {
    "coordinates": [
     -79.393628,
     35.3122
    ],
    "type": "Point"
   },
   "properties": {
    "accumulation": 20578.0,
    "bank_slope_deg": 2.33,
    "bank_slope_score": 1.0,
    "bank_slope_source": "nc-dps-lidar-dem03-cross-section",
    "beach_dist_km": 190.99,
    "bridge_proximity_bonus": 0.0,
    "catchment_area_km2": 2.054,
    "channel_width_m": 2.88,
    "channel_width_score": 1.0,
    "composite_score": 45.1207,
    "cso_density": 0.0,
    "ej_index": 0.6111,
    "elevation_m": 123.2878,
    "estuary_dist_km": 305.26,
    "feasibility_score": 50.0,
    "flood_q10_cfs": 149.62,
    "flow_score": 27.3209,
    "flow_velocity_ms": 0.1458,
    "generation_score": 46.8893,
    "impact_score": 55.7456,
    "impervious_pct": 3.26,
    "land_ownership": 0.5,
    "lat": 35.3122,
    "litter_complaint_density": 0.0,
    "lon": -79.3936,
    "navigable_dist_m": null,
    "npdes_points": 0,
    "pixel_col": 633.0,
    "pixel_row": 579.0,
    "population_density": 55.0,
    "position_along": 0.5,
    "protected_area_score": 8.017,
    "rank": 12,
    "road_access_m": 337.0,
    "road_access_score": 0.8,
    "road_density_km_km2": 1.398,
    "robustness_pct": 0.0,
    "runoff_coeff_C": 0.0793,
    "seasonal_cv": 0.5004,
    "segment_id": 16,
    "segment_length_m": 307.708,
    "stream_order": 3,
    "superfund_score": 0.0,
    "tourism_amenity_density": 0.0796,
    "tri_facility_density": 0.0,
    "usgs_mean_q_cfs": 1.125,
    "velocity_feasibility": 0.7,
    "water_intake_score": 0.6321
   },
   "type": "Feature"
  },
  {
   "geometry": {
    "coordinates": [
     -79.376758,
     35.283527
    ],
    "type": "Point"
   },
   "properties": {
    "accumulation": 34771.0,
    "bank_slope_deg": 24.61,
    "bank_slope_score": 0.5,
    "bank_slope_source": "nc-dps-lidar-dem03-cross-section",
    "beach_dist_km": 187.79,
    "bridge_proximity_bonus": 0.0,
    "catchment_area_km2": 3.4707,
    "channel_width_m": 3.49,
    "channel_width_score": 1.0,
    "composite_score": 44.8055,
    "cso_density": 0.0,
    "ej_index": 0.5727,
    "elevation_m": 101.437,
    "estuary_dist_km": 303.5,
    "feasibility_score": 27.7778,
    "flood_q10_cfs": 199.22,
    "flow_score": 27.9679,
    "flow_velocity_ms": 0.1778,
    "generation_score": 39.4708,
    "impact_score": 72.6853,
    "impervious_pct": 2.03,
    "land_ownership": 0.5,
    "lat": 35.2835,
    "litter_complaint_density": 0.0,
    "lon": -79.3768,
    "navigable_dist_m": null,
    "npdes_points": 0,
    "pixel_col": 791.0,
    "pixel_row": 896.0,
    "population_density": 58.6,
    "position_along": 0.5,
    "protected_area_score": 8.9626,
    "rank": 13,
    "road_access_m": 460.2,
    "road_access_score": 0.8,
    "road_density_km_km2": 0.832,
    "robustness_pct": 6.0,
    "runoff_coeff_C": 0.0683,
    "seasonal_cv": 0.4726,
    "segment_id": 26,
    "segment_length_m": 913.4274,
    "stream_order": 1,
    "superfund_score": 0.0,
    "tourism_amenity_density": 0.0796,
    "tri_facility_density": 0.0,
    "usgs_mean_q_cfs": 1.97,
    "velocity_feasibility": 0.7,
    "water_intake_score": 0.7603
   },
   "type": "Feature"
  },
  {
   "geometry": {
    "coordinates": [
     -79.360636,
     35.319342
    ],
    "type": "Point"
   },
   "properties": {
    "accumulation": 23080.0,
    "bank_slope_deg": 1.64,
    "bank_slope_score": 1.0,
    "bank_slope_source": "nc-dps-lidar-dem03-cross-section",
    "beach_dist_km": 189.2,
    "bridge_proximity_bonus": 0.0,
    "catchment_area_km2": 2.3038,
    "channel_width_m": 3.01,
    "channel_width_score": 1.0,
    "composite_score": 43.6973,
    "cso_density": 0.0,
    "ej_index": 0.6111,
    "elevation_m": 112.6963,
    "estuary_dist_km": 302.34,
    "feasibility_score": 77.7778,
    "flood_q10_cfs": 156.82,
    "flow_score": 17.0214,
    "flow_velocity_ms": 0.1377,
    "generation_score": 38.2153,
    "impact_score": 54.3691,
    "impervious_pct": 2.32,
    "land_ownership": 0.5,
    "lat": 35.3193,
    "litter_complaint_density": 0.0,
    "lon": -79.3606,
    "navigable_dist_m": null,
    "npdes_points": 0,
    "pixel_col": 930.0,
    "pixel_row": 496.0,
    "population_density": 55.0,
    "position_along": 0.5,
    "protected_area_score": 7.3433,
    "rank": 14,
    "road_access_m": 137.0,
    "road_access_score": 1.0,
    "road_density_km_km2": 0.765,
    "robustness_pct": 2.0,
    "runoff_coeff_C": 0.0709,
    "seasonal_cv": 0.4817,
    "segment_id": 14,
    "segment_length_m": 769.7113,
    "stream_order": 1,
    "superfund_score": 0.0,
    "tourism_amenity_density": 0.0,
    "tri_facility_density": 0.0,
    "usgs_mean_q_cfs": 1.818,
    "velocity_feasibility": 0.7,
    "water_intake_score": 0.5472
   },
   "type": "Feature"
  },
  {
   "geometry": {
    "coordinates": [
     -79.382566,
     35.32382
    ],
    "type": "Point"
   },
   "properties": {
    "accumulation": 23115.0,
    "bank_slope_deg": 2.23,
    "bank_slope_score": 1.0,
    "bank_slope_source": "nc-dps-lidar-dem03-cross-section",
    "beach_dist_km": 191.05,
    "bridge_proximity_bonus": 0.0,
    "catchment_area_km2": 2.3073,
    "channel_width_m": 3.01,
    "channel_width_score": 1.0,
    "composite_score": 41.8398,
    "cso_density": 0.0,
    "ej_index": 0.6111,
    "elevation_m": 123.3979,
    "estuary_dist_km": 304.37,
    "feasibility_score": 50.0,
    "flood_q10_cfs": 158.28,
    "flow_score": 27.8134,
    "flow_velocity_ms": 0.1504,
    "generation_score": 40.9581,
    "impact_score": 50.3302,
    "impervious_pct": 2.68,
    "land_ownership": 0.5,
    "lat": 35.3238,
    "litter_complaint_density": 0.0,
    "lon": -79.3826,
    "navigable_dist_m": null,
    "npdes_points": 0,
    "pixel_col": 728.0,
    "pixel_row": 450.0,
    "population_density": 55.0,
    "position_along": 0.5,
    "protected_area_score": 7.522,
    "rank": 15,
    "road_access_m": 398.4,
    "road_access_score": 0.8,
    "road_density_km_km2": 0.913,
    "robustness_pct": 0.0,
    "runoff_coeff_C": 0.0741,
    "seasonal_cv": 0.5031,
    "segment_id": 7,
    "segment_length_m": 765.2788,
    "stream_order": 3,
    "superfund_score": 0.0,
    "tourism_amenity_density": 0.0,
    "tri_facility_density": 0.0,
    "usgs_mean_q_cfs": 1.289,
    "velocity_feasibility": 0.7,
    "water_intake_score": 0.5634
   },
   "type": "Feature"
  },
  {
   "geometry": {
    "coordinates": [
     -79.443918,
     35.337748
    ],
    "type": "Point"
   },
   "properties": {
    "accumulation": 120453.0,
    "bank_slope_deg": 11.41,
    "bank_slope_score": 1.0,
    "bank_slope_source": "nc-dps-lidar-dem03-cross-section",
    "beach_dist_km": 196.32,
    "bridge_proximity_bonus": 0.0,
    "catchment_area_km2": 12.0233,
    "channel_width_m": 5.48,
    "channel_width_score": 1.0,
    "composite_score": 41.6012,
    "cso_density": 0.0,
    "ej_index": 0.3472,
    "elevation_m": 98.0531,
    "estuary_dist_km": 310.04,
    "feasibility_score": 50.0,
    "flood_q10_cfs": 438.94,
    "flow_score": 65.5791,
    "flow_velocity_ms": 0.15,
    "generation_score": 40.5695,
    "impact_score": 18.4518,
    "impervious_pct": 3.92,
    "land_ownership": 0.5,
    "lat": 35.3377,
    "litter_complaint_density": 0.0,
    "lon": -79.4439,
    "navigable_dist_m": null,
    "npdes_points": 0,
    "pixel_col": 168.0,
    "pixel_row": 300.0,
    "population_density": 42.7,
    "position_along": 0.5,
    "protected_area_score": 6.5179,
    "rank": 16,
    "road_access_m": 461.5,
    "road_access_score": 0.8,
    "road_density_km_km2": 1.113,
    "robustness_pct": 7.0,
    "runoff_coeff_C": 0.0853,
    "seasonal_cv": 0.4583,
    "segment_id": 11,
    "segment_length_m": 766.6989,
    "stream_order": 3,
    "superfund_score": 0.0,
    "tourism_amenity_density": 0.2387,
    "tri_facility_density": 0.0,
    "usgs_mean_q_cfs": 5.916,
    "velocity_feasibility": 0.7,
    "water_intake_score": 0.5051
   },
   "type": "Feature"
  },
  {
   "geometry": {
    "coordinates": [
     -79.45448,
     35.354583
    ],
    "type": "Point"
   },
   "properties": {
    "accumulation": 216967.0,
    "bank_slope_deg": 12.79,
    "bank_slope_score": 1.0,
    "bank_slope_source": "nc-dps-lidar-dem03-cross-section",
    "beach_dist_km": 198.25,
    "bridge_proximity_bonus": 0.2,
    "catchment_area_km2": 21.657,
    "channel_width_m": 6.78,
    "channel_width_score": 1.0,
    "composite_score": 37.4206,
    "cso_density": 0.0,
    "ej_index": 0.501,
    "elevation_m": 92.0469,
    "estuary_dist_km": 311.16,
    "feasibility_score": 44.4444,
    "flood_q10_cfs": 609.17,
    "flow_score": 80.1815,
    "flow_velocity_ms": 0.0785,
    "generation_score": 26.0351,
    "impact_score": 9.6601,
    "impervious_pct": 2.82,
    "land_ownership": 0.5,
    "lat": 35.3546,
    "litter_complaint_density": 0.0,
    "lon": -79.4545,
    "navigable_dist_m": null,
    "npdes_points": 0,
    "pixel_col": 70.0,
    "pixel_row": 115.0,
    "population_density": 34.5,
    "position_along": 0.5,
    "protected_area_score": 5.5091,
    "rank": 17,
    "road_access_m": 817.2,
    "road_access_score": 0.6,
    "road_density_km_km2": 0.52,
    "robustness_pct": 9.0,
    "runoff_coeff_C": 0.0754,
    "seasonal_cv": 0.4568,
    "segment_id": 13,
    "segment_length_m": 2770.9647,
    "stream_order": 3,
    "superfund_score": 0.0,
    "tourism_amenity_density": 0.0796,
    "tri_facility_density": 0.0,
    "usgs_mean_q_cfs": 11.379,
    "velocity_feasibility": 0.7,
    "water_intake_score": 0.4281
   },
   "type": "Feature"
  },
  {
   "geometry": {
    "coordinates": [
     -79.449146,
     35.285631
    ],
    "type": "Point"
   },
   "properties": {
    "accumulation": 54039.0,
    "bank_slope_deg": 6.79,
    "bank_slope_score": 1.0,
    "bank_slope_source": "nc-dps-lidar-dem03-cross-section",
    "beach_dist_km": 193.09,
    "bridge_proximity_bonus": 0.0,
    "catchment_area_km2": 5.394,
    "channel_width_m": 4.09,
    "channel_width_score": 1.0,
    "composite_score": 36.5669,
    "cso_density": 0.0,
    "ej_index": 0.2709,
    "elevation_m": 106.941,
    "estuary_dist_km": 310.07,
    "feasibility_score": 22.2222,
    "flood_q10_cfs": 256.36,
    "flow_score": 54.5915,
    "flow_velocity_ms": 0.1379,
    "generation_score": 21.6129,
    "impact_score": 43.6728,
    "impervious_pct": 1.49,
    "land_ownership": 0.5,
    "lat": 35.2856,
    "litter_complaint_density": 0.0,
    "lon": -79.4491,
    "navigable_dist_m": null,
    "npdes_points": 0,
    "pixel_col": 132.0,
    "pixel_row": 882.0,
    "population_density": 38.4,
    "position_along": 0.5,
    "protected_area_score": 9.1861,
    "rank": 18,
    "road_access_m": 800.7,
    "road_access_score": 0.6,
    "road_density_km_km2": 0.494,
    "robustness_pct": 0.0,
    "runoff_coeff_C": 0.0634,
    "seasonal_cv": 0.4552,
    "segment_id": 23,
    "segment_length_m": 1174.6095,
    "stream_order": 3,
    "superfund_score": 0.0,
    "tourism_amenity_density": 0.0,
    "tri_facility_density": 0.0,
    "usgs_mean_q_cfs": 7.842,
    "velocity_feasibility": 0.7,
    "water_intake_score": 0.7638
   },
   "type": "Feature"
  },
  {
   "geometry": {
    "coordinates": [
     -79.448283,
     35.342323
    ],
    "type": "Point"
   },
   "properties": {
    "accumulation": 154449.0,
    "bank_slope_deg": 10.18,
    "bank_slope_score": 1.0,
    "bank_slope_source": "nc-dps-lidar-dem03-cross-section",
    "beach_dist_km": 196.95,
    "bridge_proximity_bonus": 0.0,
    "catchment_area_km2": 15.4166,
    "channel_width_m": 5.99,
    "channel_width_score": 1.0,
    "composite_score": 34.3783,
    "cso_density": 0.0,
    "ej_index": 0.382,
    "elevation_m": 95.9911,
    "estuary_dist_km": 310.48,
    "feasibility_score": 22.2222,
    "flood_q10_cfs": 502.42,
    "flow_score": 62.7151,
    "flow_velocity_ms": 0.0725,
    "generation_score": 34.4912,
    "impact_score": 16.7294,
    "impervious_pct": 3.31,
    "land_ownership": 0.5,
    "lat": 35.3423,
    "litter_complaint_density": 0.0,
    "lon": -79.4483,
    "navigable_dist_m": null,
    "npdes_points": 0,
    "pixel_col": 128.0,
    "pixel_row": 250.0,
    "population_density": 39.6,
    "position_along": 0.5,
    "protected_area_score": 6.2857,
    "rank": 19,
    "road_access_m": 729.1,
    "road_access_score": 0.6,
    "road_density_km_km2": 0.955,
    "robustness_pct": 1.0,
    "runoff_coeff_C": 0.0798,
    "seasonal_cv": 0.4567,
    "segment_id": 12,
    "segment_length_m": 617.8403,
    "stream_order": 3,
    "superfund_score": 0.0,
    "tourism_amenity_density": 0.3183,
    "tri_facility_density": 0.0,
    "usgs_mean_q_cfs": 7.553,
    "velocity_feasibility": 0.7,
    "water_intake_score": 0.4826
   },
   "type": "Feature"
  },
  {
   "geometry": {
    "coordinates": [
     -79.449178,
     35.291858
    ],
    "type": "Point"
   },
   "properties": {
    "accumulation": 21236.0,
    "bank_slope_deg": 6.14,
    "bank_slope_score": 1.0,
    "bank_slope_source": "nc-dps-lidar-dem03-cross-section",
    "beach_dist_km": 193.51,
    "bridge_proximity_bonus": 0.0,
    "catchment_area_km2": 2.1197,
    "channel_width_m": 2.92,
    "channel_width_score": 1.0,
    "composite_score": 34.2581,
    "cso_density": 0.0,
    "ej_index": 0.2708,
    "elevation_m": 111.6404,
    "estuary_dist_km": 310.12,
    "feasibility_score": 22.2222,
    "flood_q10_cfs": 146.32,
    "flow_score": 49.9884,
    "flow_velocity_ms": 0.1488,
    "generation_score": 22.7416,
    "impact_score": 38.684,
    "impervious_pct": 1.49,
    "land_ownership": 0.5,
    "lat": 35.2919,
    "litter_complaint_density": 0.0,
    "lon": -79.4492,
    "navigable_dist_m": null,
    "npdes_points": 0,
    "pixel_col": 130.0,
    "pixel_row": 814.0,
    "population_density": 38.4,
    "position_along": 0.5,
    "protected_area_score": 8.6734,
    "rank": 20,
    "road_access_m": 562.3,
    "road_access_score": 0.6,
    "road_density_km_km2": 0.678,
    "robustness_pct": 0.0,
    "runoff_coeff_C": 0.0634,
    "seasonal_cv": 0.4552,
    "segment_id": 21,
    "segment_length_m": 627.1211,
    "stream_order": 3,
    "superfund_score": 0.0,
    "tourism_amenity_density": 0.0,
    "tri_facility_density": 0.0,
    "usgs_mean_q_cfs": 7.842,
    "velocity_feasibility": 0.7,
    "water_intake_score": 0.727
   },
   "type": "Feature"
  },
  {
   "geometry": {
    "coordinates": [
     -79.441169,
     35.332072
    ],
    "type": "Point"
   },
   "properties": {
    "accumulation": 52709.0,
    "bank_slope_deg": 10.21,
    "bank_slope_score": 1.0,
    "bank_slope_source": "nc-dps-lidar-dem03-cross-section",
    "beach_dist_km": 195.73,
    "bridge_proximity_bonus": 0.0,
    "catchment_area_km2": 5.2613,
    "channel_width_m": 4.06,
    "channel_width_score": 1.0,
    "composite_score": 33.9528,
    "cso_density": 0.0,
    "ej_index": 0.3472,
    "elevation_m": 102.2337,
    "estuary_dist_km": 309.74,
    "feasibility_score": 50.0,
    "flood_q10_cfs": 251.03,
    "flow_score": 44.7413,
    "flow_velocity_ms": 0.1609,
    "generation_score": 28.8833,
    "impact_score": 22.0084,
    "impervious_pct": 1.23,
    "land_ownership": 0.5,
    "lat": 35.3321,
    "litter_complaint_density": 0.0,
    "lon": -79.4412,
    "navigable_dist_m": null,
    "npdes_points": 0,
    "pixel_col": 195.0,
    "pixel_row": 363.0,
    "population_density": 42.7,
    "position_along": 0.5,
    "protected_area_score": 6.7823,
    "rank": 21,
    "road_access_m": 207.5,
    "road_access_score": 0.8,
    "road_density_km_km2": 1.443,
    "robustness_pct": 0.0,
    "runoff_coeff_C": 0.0611,
    "seasonal_cv": 0.4668,
    "segment_id": 10,
    "segment_length_m": 791.4071,
    "stream_order": 3,
    "superfund_score": 0.0,
    "tourism_amenity_density": 0.2387,
    "tri_facility_density": 0.0,
    "usgs_mean_q_cfs": 2.889,
    "velocity_feasibility": 0.7,
    "water_intake_score": 0.5251
   },
   "type": "Feature"
  },
  {
   "geometry": {
    "coordinates": [
     -79.436645,
     35.326625
    ],
    "type": "Point"
   },
   "properties": {
    "accumulation": 28357.0,
    "bank_slope_deg": 14.18,
    "bank_slope_score": 1.0,
    "bank_slope_source": "nc-dps-lidar-dem03-cross-section",
    "beach_dist_km": 195.03,
    "bridge_proximity_bonus": 0.0,
    "catchment_area_km2": 2.8305,
    "channel_width_m": 3.24,
    "channel_width_score": 1.0,
    "composite_score": 33.3066,
    "cso_density": 0.0,
    "ej_index": 0.3472,
    "elevation_m": 109.3687,
    "estuary_dist_km": 309.28,
    "feasibility_score": 50.0,
    "flood_q10_cfs": 173.3,
    "flow_score": 34.3066,
    "flow_velocity_ms": 0.1655,
    "generation_score": 30.2768,
    "impact_score": 27.1564,
    "impervious_pct": 1.3,
    "land_ownership": 0.5,
    "lat": 35.3266,
    "litter_complaint_density": 0.0,
    "lon": -79.4366,
    "navigable_dist_m": null,
    "npdes_points": 0,
    "pixel_col": 235.0,
    "pixel_row": 424.0,
    "population_density": 42.7,
    "position_along": 0.5,
    "protected_area_score": 7.1849,
    "rank": 22,
    "road_access_m": 290.8,
    "road_access_score": 0.8,
    "road_density_km_km2": 1.612,
    "robustness_pct": 0.0,
    "runoff_coeff_C": 0.0617,
    "seasonal_cv": 0.4849,
    "segment_id": 9,
    "segment_length_m": 986.4975,
    "stream_order": 3,
    "superfund_score": 0.0,
    "tourism_amenity_density": 0.2387,
    "tri_facility_density": 0.0,
    "usgs_mean_q_cfs": 1.534,
    "velocity_feasibility": 0.7,
    "water_intake_score": 0.555
   },
   "type": "Feature"
  },
  {
   "geometry": {
    "coordinates": [
     -79.451499,
     35.290505
    ],
    "type": "Point"
   },
   "properties": {
    "accumulation": 22670.0,
    "bank_slope_deg": 2.33,
    "bank_slope_score": 1.0,
    "bank_slope_source": "nc-dps-lidar-dem03-cross-section",
    "beach_dist_km": 193.59,
    "bridge_proximity_bonus": 0.0,
    "catchment_area_km2": 2.2629,
    "channel_width_m": 2.99,
    "channel_width_score": 1.0,
    "composite_score": 31.6021,
    "cso_density": 0.0,
    "ej_index": 0.2708,
    "elevation_m": 109.6672,
    "estuary_dist_km": 310.32,
    "feasibility_score": 22.2222,
    "flood_q10_cfs": 152.18,
    "flow_score": 43.5428,
    "flow_velocity_ms": 0.1041,
    "generation_score": 19.3555,
    "impact_score": 38.5881,
    "impervious_pct": 1.49,
    "land_ownership": 0.5,
    "lat": 35.2905,
    "litter_complaint_density": 0.0,
    "lon": -79.4515,
    "navigable_dist_m": null,
    "npdes_points": 0,
    "pixel_col": 110.0,
    "pixel_row": 830.0,
    "population_density": 38.4,
    "position_along": 0.5,
    "protected_area_score": 8.7464,
    "rank": 23,
    "road_access_m": 800.3,
    "road_access_score": 0.6,
    "road_density_km_km2": 0.126,
    "robustness_pct": 0.0,
    "runoff_coeff_C": 0.0634,
    "seasonal_cv": 0.4552,
    "segment_id": 22,
    "segment_length_m": 247.7629,
    "stream_order": 3,
    "superfund_score": 0.0,
    "tourism_amenity_density": 0.0,
    "tri_facility_density": 0.0,
    "usgs_mean_q_cfs": 7.842,
    "velocity_feasibility": 0.7,
    "water_intake_score": 0.7273
   },
   "type": "Feature"
  },
  {
   "geometry": {
    "coordinates": [
     -79.368995,
     35.361663
    ],
    "type": "Point"
   },
   "properties": {
    "accumulation": 33408.0,
    "bank_slope_deg": 7.09,
    "bank_slope_score": 1.0,
    "bank_slope_source": "nc-dps-lidar-dem03-cross-section",
    "beach_dist_km": 192.85,
    "bridge_proximity_bonus": 0.0,
    "catchment_area_km2": 3.3347,
    "channel_width_m": 3.44,
    "channel_width_score": 1.0,
    "composite_score": 28.8862,
    "cso_density": 0.0,
    "ej_index": 0.7083,
    "elevation_m": 108.7105,
    "estuary_dist_km": 303.52,
    "feasibility_score": 50.0,
    "flood_q10_cfs": 199.63,
    "flow_score": 23.378,
    "flow_velocity_ms": 0.15,
    "generation_score": 12.74,
    "impact_score": 39.0656,
    "impervious_pct": 3.15,
    "land_ownership": 0.5,
    "lat": 35.3617,
    "litter_complaint_density": 0.0,
    "lon": -79.369,
    "navigable_dist_m": null,
    "npdes_points": 0,
    "pixel_col": 844.0,
    "pixel_row": 24.0,
    "population_density": 14.1,
    "position_along": 0.5,
    "protected_area_score": 5.7679,
    "rank": 24,
    "road_access_m": 443.2,
    "road_access_score": 0.8,
    "road_density_km_km2": 0.224,
    "robustness_pct": 0.0,
    "runoff_coeff_C": 0.0784,
    "seasonal_cv": 0.4809,
    "segment_id": 0,
    "segment_length_m": 689.4904,
    "stream_order": 1,
    "superfund_score": 0.0,
    "tourism_amenity_density": 0.0,
    "tri_facility_density": 0.0,
    "usgs_mean_q_cfs": 2.39,
    "velocity_feasibility": 0.7,
    "water_intake_score": 0.4503
   },
   "type": "Feature"
  },
  {
   "geometry": {
    "coordinates": [
     -79.443816,
     35.347466
    ],
    "type": "Point"
   },
   "properties": {
    "accumulation": 31998.0,
    "bank_slope_deg": 7.61,
    "bank_slope_score": 1.0,
    "bank_slope_source": "nc-dps-lidar-dem03-cross-section",
    "beach_dist_km": 197.0,
    "bridge_proximity_bonus": 0.0,
    "catchment_area_km2": 3.1939,
    "channel_width_m": 3.38,
    "channel_width_score": 1.0,
    "composite_score": 27.6491,
    "cso_density": 0.0,
    "ej_index": 0.3472,
    "elevation_m": 101.3516,
    "estuary_dist_km": 310.13,
    "feasibility_score": 22.2222,
    "flood_q10_cfs": 197.44,
    "flow_score": 37.8611,
    "flow_velocity_ms": 0.1636,
    "generation_score": 35.5946,
    "impact_score": 13.9069,
    "impervious_pct": 3.79,
    "land_ownership": 0.5,
    "lat": 35.3475,
    "litter_complaint_density": 0.0,
    "lon": -79.4438,
    "navigable_dist_m": null,
    "npdes_points": 0,
    "pixel_col": 167.0,
    "pixel_row": 196.0,
    "population_density": 42.7,
    "position_along": 0.5,
    "protected_area_score": 5.9987,
    "rank": 25,
    "road_access_m": 505.7,
    "road_access_score": 0.6,
    "road_density_km_km2": 0.41,
    "robustness_pct": 0.0,
    "runoff_coeff_C": 0.0841,
    "seasonal_cv": 0.4852,
    "segment_id": 2,
    "segment_length_m": 1676.992,
    "stream_order": 3,
    "superfund_score": 0.0,
    "tourism_amenity_density": 0.3183,
    "tri_facility_density": 0.0,
    "usgs_mean_q_cfs": 1.808,
    "velocity_feasibility": 0.7,
    "water_intake_score": 0.4697
   },
   "type": "Feature"
  },
  {
   "geometry": {
    "coordinates": [
     -79.440475,
     35.32816
    ],
    "type": "Point"
   },
   "properties": {
    "accumulation": 30200.0,
    "bank_slope_deg": 1.08,
    "bank_slope_score": 1.0,
    "bank_slope_source": "nc-dps-lidar-dem03-cross-section",
    "beach_dist_km": 195.41,
    "bridge_proximity_bonus": 0.0,
    "catchment_area_km2": 3.0145,
    "channel_width_m": 3.31,
    "channel_width_score": 1.0,
    "composite_score": 26.6833,
    "cso_density": 0.0,
    "ej_index": 0.3472,
    "elevation_m": 104.7661,
    "estuary_dist_km": 309.64,
    "feasibility_score": 22.2222,
    "flood_q10_cfs": 179.98,
    "flow_score": 28.4523,
    "flow_velocity_ms": 0.1266,
    "generation_score": 29.6818,
    "impact_score": 24.4413,
    "impervious_pct": 1.3,
    "land_ownership": 0.5,
    "lat": 35.3282,
    "litter_complaint_density": 0.0,
    "lon": -79.4405,
    "navigable_dist_m": null,
    "npdes_points": 0,
    "pixel_col": 203.0,
    "pixel_row": 406.0,
    "population_density": 42.7,
    "position_along": 0.5,
    "protected_area_score": 6.9709,
    "rank": 26,
    "road_access_m": 566.1,
    "road_access_score": 0.6,
    "road_density_km_km2": 1.515,
    "robustness_pct": 0.0,
    "runoff_coeff_C": 0.0617,
    "seasonal_cv": 0.4849,
    "segment_id": 6,
    "segment_length_m": 132.3052,
    "stream_order": 3,
    "superfund_score": 0.0,
    "tourism_amenity_density": 0.2387,
    "tri_facility_density": 0.0,
    "usgs_mean_q_cfs": 1.534,
    "velocity_feasibility": 0.7,
    "water_intake_score": 0.5432
   },
   "type": "Feature"
  },
  {
   "geometry": {
    "coordinates": [
     -79.44962,
     35.336957
    ],
    "type": "Point"
   },
   "properties": {
    "accumulation": 25314.0,
    "bank_slope_deg": 2.87,
    "bank_slope_score": 1.0,
    "bank_slope_source": "nc-dps-lidar-dem03-cross-section",
    "beach_dist_km": 196.67,
    "bridge_proximity_bonus": 0.0,
    "catchment_area_km2": 2.5268,
    "channel_width_m": 3.11,
    "channel_width_score": 1.0,
    "composite_score": 21.2013,
    "cso_density": 0.0,
    "ej_index": 0.3472,
    "elevation_m": 100.1028,
    "estuary_dist_km": 310.55,
    "feasibility_score": 22.2222,
    "flood_q10_cfs": 160.46,
    "flow_score": 29.4419,
    "flow_velocity_ms": 0.1342,
    "generation_score": 18.4516,
    "impact_score": 16.5733,
    "impervious_pct": 0.92,
    "land_ownership": 0.5,
    "lat": 35.337,
    "litter_complaint_density": 0.0,
    "lon": -79.4496,
    "navigable_dist_m": null,
    "npdes_points": 0,
    "pixel_col": 118.0,
    "pixel_row": 310.0,
    "population_density": 42.7,
    "position_along": 0.5,
    "protected_area_score": 6.4436,
    "rank": 27,
    "road_access_m": 987.1,
    "road_access_score": 0.6,
    "road_density_km_km2": 0.0,
    "robustness_pct": 0.0,
    "runoff_coeff_C": 0.0583,
    "seasonal_cv": 0.4798,
    "segment_id": 3,
    "segment_length_m": 965.5117,
    "stream_order": 3,
    "superfund_score": 0.0,
    "tourism_amenity_density": 0.2387,
    "tri_facility_density": 0.0,
    "usgs_mean_q_cfs": 1.603,
    "velocity_feasibility": 0.7,
    "water_intake_score": 0.5009
   },
   "type": "Feature"
  }
 ],
 "note": "GRIME region 'Carthage, NC' \u2014 real-data pipeline (DEM\u2192streams\u2192candidates\u2192stream mask (sites confined to \u00b1150 m of mapped OSM/NHD waterways)\u2192region-appropriate real parameters\u2192shipped scoring, math unchanged). Width curve: Bieger et al. 2015 JAWRA Table 3, Atlantic Plain. Flood: SIR 2014-5030 HR4 (I24H50Y: NOAA Atlas 14). NC Coastal Plain (SIR 2014-5030 HR4; I24H50Y from NOAA Atlas 14 at region center)",
 "provenance": {
  "candidates_pre_gate": 27,
  "constant": [
   "channel_width_score",
   "cso_density",
   "land_ownership",
   "litter_complaint_density",
   "superfund_score",
   "tri_facility_density",
   "velocity_feasibility"
  ],
  "gated_navigable": 0,
  "hard_gate_removed": 0,
  "n_parameters": 27,
  "parameters": {
   "bank_slope_score": {
    "kind": "real",
    "n_3dep_10m_fallback": 0,
    "n_nc_lidar_3_125ft": 27,
    "n_real": 27,
    "n_sites": 27,
    "source": "NC OneMap / NC DPS DEM03 statewide lidar-derived 3.125-ft (0.953 m) elevations (perpendicular 50 m transect; robust 5 m bank-rise metric); unavailable profiles use the region 10 m 3DEP DEM-gradient fallback",
    "source_mosaics": [
     "Moore_QL1_2024_03ft_CountywideRaster"
    ]
   },
   "beach_dist_km": {
    "kind": "real",
    "n_real": 27,
    "n_sites": 27,
    "source": "haversine to region ref: Wrightsville Beach (shipped NC reference)"
   },
   "bridge_proximity_bonus": {
    "kind": "real",
    "n_real": 27,
    "n_sites": 27,
    "source": "FHWA/BTS NBI (NTAD), 50 m proximity"
   },
   "catchment_area_km2": {
    "kind": "real",
    "n_real": 27,
    "n_sites": 27,
    "source": "DEM flow accumulation (pipeline)"
   },
   "channel_width_score": {
    "kind": "real",
    "n_real": 27,
    "n_sites": 27,
    "source": "Bieger 2015 APL width curve on DEM drainage area \u2192 shipped width curve"
   },
   "cso_density": {
    "kind": "real",
    "n_real": 27,
    "n_sites": 27,
    "source": "EPA ECHO open CSO/TCS outfall PF coordinates states=NC, Cauchy proximity"
   },
   "ej_index": {
    "kind": "real",
    "n_real": 27,
    "n_sites": 27,
    "source": "Census ACS C17002+B03002 two-component demographic index, percentile-ranked within region"
   },
   "estuary_dist_km": {
    "kind": "real",
    "n_real": 27,
    "n_sites": 27,
    "source": "haversine to region ref: Pamlico Sound (shipped NC reference)"
   },
   "flood_q10_cfs": {
    "kind": "real",
    "n_real": 27,
    "n_sites": 27,
    "source": "USGS SIR 2014-5030 Table 7 HR4 (NC Coastal Plain; I24H50Y from NOAA Atlas 14 at region center)"
   },
   "flow_velocity_ms": {
    "kind": "real",
    "n_fallback": 0,
    "n_real": 27,
    "n_sites": 27,
    "source": "Manning (region DEM/D8) blended with EROM continuity (shipped M4 logic)"
   },
   "impervious_pct": {
    "kind": "real",
    "n_real": 27,
    "n_sites": 27,
    "source": "EPA StreamCat pctimp2019 (per NHDPlus watershed)"
   },
   "land_ownership": {
    "fallback_reason": "no containing parcel owner returned; shipped unknown ownership 0.5 used",
    "kind": "real",
    "n_fallback": 1,
    "n_real": 26,
    "n_sites": 27,
    "source": "NC OneMap statewide parcels (NC Parcels Transformer) ownname"
   },
   "litter_complaint_density": {
    "kind": "fallback",
    "n_real": 0,
    "n_sites": 27,
    "source": "no public machine-readable litter/illegal-dumping feed for this region"
   },
   "navigable_dist_m": {
    "kind": "real",
    "n_real": 27,
    "n_sites": 27,
    "source": "USACE/BTS NWN (NTAD): no navigable segment within this bbox (+2 km) \u2014 computed absence, gate passes all sites"
   },
   "npdes_points": {
    "kind": "real",
    "n_real": 27,
    "n_sites": 27,
    "source": "EPA ECHO active NPDES outfalls states=NC (types NPD/GPC/NGP; statuses ADC/EFF/EXP), per catchment"
   },
   "population_density": {
    "kind": "real",
    "n_real": 27,
    "n_sites": 27,
    "source": "Census ACS 2022 B01003 block groups (bbox, multi-county), area-weighted"
   },
   "protected_area_score": {
    "kind": "real",
    "n_real": 27,
    "n_sites": 27,
    "source": "USGS PAD-US 4.1 state GDB; states=NC; shipped designation-weighted proximity curve"
   },
   "road_access_score": {
    "kind": "real",
    "n_real": 27,
    "n_sites": 27,
    "source": "OSM drive network nearest-node distance"
   },
   "road_density_km_km2": {
    "kind": "real",
    "n_real": 27,
    "n_sites": 27,
    "source": "OSM drive network (osmnx, cached) clipped per catchment"
   },
   "runoff_coeff_C": {
    "kind": "real",
    "n_real": 27,
    "n_sites": 27,
    "source": "derived from real impervious_pct (C=0.05+0.009*I)"
   },
   "seasonal_cv": {
    "kind": "real",
    "n_real": 27,
    "n_sites": 27,
    "source": "CV of NHDPlus EROM monthly flows per COMID"
   },
   "stream_order": {
    "kind": "real",
    "n_real": 27,
    "n_sites": 27,
    "source": "DEM stream-network confluence heuristic (pipeline)"
   },
   "superfund_score": {
    "kind": "real",
    "n_real": 27,
    "n_sites": 27,
    "source": "EPA DataMap SEMS active sites states=NC (non-archived, georeferenced), shipped 500 m inverse-distance curve"
   },
   "tourism_amenity_density": {
    "kind": "real",
    "n_real": 27,
    "n_sites": 27,
    "source": "OSM leisure/tourism features per 2 km radius"
   },
   "tri_facility_density": {
    "kind": "real",
    "n_real": 27,
    "n_sites": 27,
    "source": "EPA DataMap TRI open facilities states=NC (preferred decimal or packed-DMS recovery), per catchment"
   },
   "usgs_mean_q_cfs": {
    "kind": "real",
    "n_real": 27,
    "n_sites": 27,
    "source": "NHDPlus EROM qe_ma per COMID (snap-guarded)"
   },
   "velocity_feasibility": {
    "kind": "real",
    "n_fallback": 0,
    "n_real": 27,
    "n_sites": 27,
    "source": "shipped step curve on the computed velocity"
   },
   "velocity_transport_favorability": {
    "kind": "derived",
    "n_real": 27,
    "n_sites": 27,
    "source": "scored form of flow_velocity_ms inside the Flow family \u2014 peaked Gaussian exp(-((v-0.9)/0.6)^2), model.json curves.velocity_transport_favorability; construct: transport/delivery favorability, deliberately distinct from velocity_feasibility (device operability)"
   },
   "water_intake_score": {
    "kind": "real",
    "n_real": 27,
    "n_sites": 27,
    "source": "NC OneMap / NC DEQ SWAP public water supply sources (source_typ='Surface Water'), shipped exp(-d/10km) curve"
   }
  },
  "stream_mask": {
   "buffer_m": 150.0,
   "pre_mask": 27,
   "removed": 0,
   "sources": [
    "osm-overpass (all waterway ways)",
    "usgs-nhdplus flowlines"
   ]
  },
  "varying": [
   "bank_slope_score",
   "beach_dist_km",
   "bridge_proximity_bonus",
   "catchment_area_km2",
   "ej_index",
   "estuary_dist_km",
   "flood_q10_cfs",
   "flow_velocity_ms",
   "impervious_pct",
   "npdes_points",
   "population_density",
   "protected_area_score",
   "road_access_score",
   "road_density_km_km2",
   "runoff_coeff_C",
   "seasonal_cv",
   "stream_order",
   "tourism_amenity_density",
   "usgs_mean_q_cfs",
   "water_intake_score"
  ]
 },
 "region": {
  "bbox": [
   -79.462,
   35.2806,
   -79.3599,
   35.3639
  ],
  "beach_ref": {
   "label": "Wrightsville Beach (shipped NC reference)",
   "lat": 34.21,
   "lon": -77.79
  },
  "center": [
   -79.410927,
   35.322266
  ],
  "estuary_ref": {
   "label": "Pamlico Sound (shipped NC reference)",
   "lat": 35.05,
   "lon": -76.05
  },
  "flood_method": "sir2014_hr4",
  "name": "Carthage, NC",
  "notes": "NC Coastal Plain (SIR 2014-5030 HR4; I24H50Y from NOAA Atlas 14 at region center)",
  "slug": "carthage",
  "state": "NC",
  "utm_epsg": 32617,
  "width_curve": {
   "a": 2.22,
   "b": 0.363,
   "code": "APL",
   "source": "Bieger et al. 2015 JAWRA Table 3, Atlantic Plain"
  }
 },
 "type": "FeatureCollection"
}
