{
 "features": [
  {
   "geometry": {
    "coordinates": [
     -81.628125,
     35.515661
    ],
    "type": "Point"
   },
   "properties": {
    "accumulation": 55878.0,
    "bank_slope_deg": 28.65,
    "bank_slope_score": 0.5,
    "bank_slope_source": "nc-dps-lidar-dem03-cross-section",
    "beach_dist_km": 379.05,
    "bridge_proximity_bonus": 0.0,
    "catchment_area_km2": 5.5721,
    "channel_width_m": 6.36,
    "channel_width_score": 1.0,
    "composite_score": 46.3626,
    "cso_density": 0.0,
    "ej_index": 0.2678,
    "elevation_m": 297.6967,
    "estuary_dist_km": 508.9,
    "feasibility_score": 71.4286,
    "flood_q10_cfs": 686.45,
    "flow_score": 76.2911,
    "flow_velocity_ms": 0.1747,
    "generation_score": 22.753,
    "impact_score": 32.4989,
    "impervious_pct": 0.65,
    "land_ownership": 0.5,
    "lat": 35.5157,
    "litter_complaint_density": 0.0,
    "lon": -81.6281,
    "navigable_dist_m": null,
    "npdes_points": 0,
    "pixel_col": 134.0,
    "pixel_row": 204.0,
    "population_density": 19.1,
    "position_along": 0.25,
    "protected_area_score": 4.1884,
    "rank": 1,
    "road_access_m": 432.5,
    "road_access_score": 0.8,
    "road_density_km_km2": 1.836,
    "robustness_pct": 99.0,
    "runoff_coeff_C": 0.0559,
    "seasonal_cv": 0.3616,
    "segment_id": 0,
    "segment_length_m": 3576.5945,
    "stream_order": 1,
    "superfund_score": 0.0,
    "tourism_amenity_density": 0.0796,
    "tri_facility_density": 0.0,
    "usgs_mean_q_cfs": 17.369,
    "velocity_feasibility": 0.7,
    "water_intake_score": 1.3409
   },
   "type": "Feature"
  },
  {
   "geometry": {
    "coordinates": [
     -81.638321,
     35.509862
    ],
    "type": "Point"
   },
   "properties": {
    "accumulation": 70453.0,
    "bank_slope_deg": 20.15,
    "bank_slope_score": 0.5,
    "bank_slope_source": "nc-dps-lidar-dem03-cross-section",
    "beach_dist_km": 379.67,
    "bridge_proximity_bonus": 0.0,
    "catchment_area_km2": 7.0256,
    "channel_width_m": 7.01,
    "channel_width_score": 1.0,
    "composite_score": 38.583,
    "cso_density": 0.0,
    "ej_index": 0.395,
    "elevation_m": 284.0063,
    "estuary_dist_km": 509.77,
    "feasibility_score": 0.0,
    "flood_q10_cfs": 816.74,
    "flow_score": 87.6056,
    "flow_velocity_ms": 0.1553,
    "generation_score": 7.7791,
    "impact_score": 47.8261,
    "impervious_pct": 0.6,
    "land_ownership": 0.5,
    "lat": 35.5099,
    "litter_complaint_density": 0.0,
    "lon": -81.6383,
    "navigable_dist_m": null,
    "npdes_points": 0,
    "pixel_col": 42.0,
    "pixel_row": 268.0,
    "population_density": 16.8,
    "position_along": 0.75,
    "protected_area_score": 4.3991,
    "rank": 2,
    "road_access_m": 511.8,
    "road_access_score": 0.6,
    "road_density_km_km2": 0.922,
    "robustness_pct": 83.0,
    "runoff_coeff_C": 0.0554,
    "seasonal_cv": 0.3595,
    "segment_id": 0,
    "segment_length_m": 3576.5945,
    "stream_order": 1,
    "superfund_score": 0.0,
    "tourism_amenity_density": 0.0796,
    "tri_facility_density": 0.0,
    "usgs_mean_q_cfs": 22.324,
    "velocity_feasibility": 0.7,
    "water_intake_score": 1.3241
   },
   "type": "Feature"
  },
  {
   "geometry": {
    "coordinates": [
     -81.594163,
     35.507308
    ],
    "type": "Point"
   },
   "properties": {
    "accumulation": 21423.0,
    "bank_slope_deg": 18.96,
    "bank_slope_score": 0.5,
    "bank_slope_source": "nc-dps-lidar-dem03-cross-section",
    "beach_dist_km": 375.85,
    "bridge_proximity_bonus": 0.0,
    "catchment_area_km2": 2.1363,
    "channel_width_m": 4.28,
    "channel_width_score": 1.0,
    "composite_score": 35.8047,
    "cso_density": 0.0,
    "ej_index": 0.2578,
    "elevation_m": 291.7175,
    "estuary_dist_km": 505.76,
    "feasibility_score": 0.0,
    "flood_q10_cfs": 339.96,
    "flow_score": 7.1362,
    "flow_velocity_ms": 0.1165,
    "generation_score": 56.3686,
    "impact_score": 57.0336,
    "impervious_pct": 1.78,
    "land_ownership": 0.5,
    "lat": 35.5073,
    "litter_complaint_density": 0.0,
    "lon": -81.5942,
    "navigable_dist_m": null,
    "npdes_points": 4,
    "pixel_col": 444.0,
    "pixel_row": 297.0,
    "population_density": 24.8,
    "position_along": 0.5,
    "protected_area_score": 4.068,
    "rank": 3,
    "road_access_m": 542.0,
    "road_access_score": 0.6,
    "road_density_km_km2": 0.159,
    "robustness_pct": 100.0,
    "runoff_coeff_C": 0.066,
    "seasonal_cv": 0.461,
    "segment_id": 2,
    "segment_length_m": 661.9136,
    "stream_order": 1,
    "superfund_score": 0.0,
    "tourism_amenity_density": 0.0,
    "tri_facility_density": 0.0,
    "usgs_mean_q_cfs": 1.462,
    "velocity_feasibility": 0.7,
    "water_intake_score": 1.5641
   },
   "type": "Feature"
  },
  {
   "geometry": {
    "coordinates": [
     -81.59381,
     35.514825
    ],
    "type": "Point"
   },
   "properties": {
    "accumulation": 31848.0,
    "bank_slope_deg": 17.03,
    "bank_slope_score": 0.5,
    "bank_slope_source": "nc-dps-lidar-dem03-cross-section",
    "beach_dist_km": 376.13,
    "bridge_proximity_bonus": 0.0,
    "catchment_area_km2": 3.1759,
    "channel_width_m": 5.04,
    "channel_width_score": 1.0,
    "composite_score": 34.84,
    "cso_density": 0.0,
    "ej_index": 0.36,
    "elevation_m": 295.5021,
    "estuary_dist_km": 505.79,
    "feasibility_score": 0.0,
    "flood_q10_cfs": 451.98,
    "flow_score": 24.9474,
    "flow_velocity_ms": 0.127,
    "generation_score": 35.9742,
    "impact_score": 59.3697,
    "impervious_pct": 0.98,
    "land_ownership": 0.5,
    "lat": 35.5148,
    "litter_complaint_density": 0.0,
    "lon": -81.5938,
    "navigable_dist_m": null,
    "npdes_points": 0,
    "pixel_col": 448.0,
    "pixel_row": 214.0,
    "population_density": 29.7,
    "position_along": 0.5,
    "protected_area_score": 4.0629,
    "rank": 4,
    "road_access_m": 913.7,
    "road_access_score": 0.6,
    "road_density_km_km2": 0.16,
    "robustness_pct": 100.0,
    "runoff_coeff_C": 0.0588,
    "seasonal_cv": 0.4146,
    "segment_id": 1,
    "segment_length_m": 1633.0988,
    "stream_order": 1,
    "superfund_score": 0.0,
    "tourism_amenity_density": 0.0,
    "tri_facility_density": 0.0,
    "usgs_mean_q_cfs": 4.86,
    "velocity_feasibility": 0.7,
    "water_intake_score": 1.5025
   },
   "type": "Feature"
  },
  {
   "geometry": {
    "coordinates": [
     -81.612639,
     35.492258
    ],
    "type": "Point"
   },
   "properties": {
    "accumulation": 20848.0,
    "bank_slope_deg": 11.42,
    "bank_slope_score": 1.0,
    "bank_slope_source": "nc-dps-lidar-dem03-cross-section",
    "beach_dist_km": 376.8,
    "bridge_proximity_bonus": 0.0,
    "catchment_area_km2": 2.079,
    "channel_width_m": 4.23,
    "channel_width_score": 1.0,
    "composite_score": 34.6968,
    "cso_density": 0.0,
    "ej_index": 0.1753,
    "elevation_m": 297.1226,
    "estuary_dist_km": 507.31,
    "feasibility_score": 28.5714,
    "flood_q10_cfs": 339.23,
    "flow_score": 7.435,
    "flow_velocity_ms": 0.103,
    "generation_score": 42.6599,
    "impact_score": 52.5145,
    "impervious_pct": 2.83,
    "land_ownership": 0.5,
    "lat": 35.4923,
    "litter_complaint_density": 0.0,
    "lon": -81.6126,
    "navigable_dist_m": null,
    "npdes_points": 0,
    "pixel_col": 274.0,
    "pixel_row": 465.0,
    "population_density": 20.8,
    "position_along": 0.5,
    "protected_area_score": 4.2459,
    "rank": 5,
    "road_access_m": 614.4,
    "road_access_score": 0.6,
    "road_density_km_km2": 0.17,
    "robustness_pct": 97.0,
    "runoff_coeff_C": 0.0755,
    "seasonal_cv": 0.4564,
    "segment_id": 4,
    "segment_length_m": 150.4994,
    "stream_order": 1,
    "superfund_score": 0.0,
    "tourism_amenity_density": 0.0,
    "tri_facility_density": 0.0,
    "usgs_mean_q_cfs": 1.447,
    "velocity_feasibility": 0.7,
    "water_intake_score": 1.5953
   },
   "type": "Feature"
  },
  {
   "geometry": {
    "coordinates": [
     -81.622243,
     35.492599
    ],
    "type": "Point"
   },
   "properties": {
    "accumulation": 21761.0,
    "bank_slope_deg": 21.03,
    "bank_slope_score": 0.5,
    "bank_slope_source": "nc-dps-lidar-dem03-cross-section",
    "beach_dist_km": 377.62,
    "bridge_proximity_bonus": 0.0,
    "catchment_area_km2": 2.17,
    "channel_width_m": 4.3,
    "channel_width_score": 1.0,
    "composite_score": 29.0141,
    "cso_density": 0.0,
    "ej_index": 0.1753,
    "elevation_m": 297.8858,
    "estuary_dist_km": 508.18,
    "feasibility_score": 0.0,
    "flood_q10_cfs": 350.56,
    "flow_score": 12.8192,
    "flow_velocity_ms": 0.1126,
    "generation_score": 42.6357,
    "impact_score": 43.3953,
    "impervious_pct": 2.86,
    "land_ownership": 0.5,
    "lat": 35.4926,
    "litter_complaint_density": 0.0,
    "lon": -81.6222,
    "navigable_dist_m": null,
    "npdes_points": 0,
    "pixel_col": 188.0,
    "pixel_row": 460.0,
    "population_density": 20.8,
    "position_along": 0.5,
    "protected_area_score": 4.2987,
    "rank": 6,
    "road_access_m": 652.7,
    "road_access_score": 0.6,
    "road_density_km_km2": 0.122,
    "robustness_pct": 21.0,
    "runoff_coeff_C": 0.0757,
    "seasonal_cv": 0.4431,
    "segment_id": 3,
    "segment_length_m": 428.0997,
    "stream_order": 1,
    "superfund_score": 0.0,
    "tourism_amenity_density": 0.0,
    "tri_facility_density": 0.0,
    "usgs_mean_q_cfs": 2.062,
    "velocity_feasibility": 0.7,
    "water_intake_score": 1.5301
   },
   "type": "Feature"
  }
 ],
 "note": "GRIME region 'Casar, NC' \u2014 real-data pipeline (DEM\u2192streams\u2192candidates\u2192stream mask (sites confined to \u00b1150 m of mapped OSM/NHD waterways)\u2192region-appropriate real parameters\u2192shipped scoring, math unchanged). Width curve: Bieger et al. 2015 JAWRA Table 3, Appalachian Highlands. Flood: SIR 2014-5030 HR1. NC Piedmont (DEQ physiography polygon)",
 "provenance": {
  "candidates_pre_gate": 6,
  "constant": [
   "bridge_proximity_bonus",
   "channel_width_score",
   "cso_density",
   "land_ownership",
   "litter_complaint_density",
   "stream_order",
   "superfund_score",
   "tri_facility_density",
   "velocity_feasibility"
  ],
  "gated_navigable": 0,
  "hard_gate_removed": 0,
  "n_parameters": 27,
  "parameters": {
   "bank_slope_score": {
    "kind": "real",
    "n_3dep_10m_fallback": 0,
    "n_nc_lidar_3_125ft": 6,
    "n_real": 6,
    "n_sites": 6,
    "source": "NC OneMap / NC DPS DEM03 statewide lidar-derived 3.125-ft (0.953 m) elevations (perpendicular 50 m transect; robust 5 m bank-rise metric); unavailable profiles use the region 10 m 3DEP DEM-gradient fallback",
    "source_mosaics": [
     "Cleveland_Ground_3ft"
    ]
   },
   "beach_dist_km": {
    "kind": "real",
    "n_real": 6,
    "n_sites": 6,
    "source": "haversine to region ref: Wrightsville Beach (shipped NC reference)"
   },
   "bridge_proximity_bonus": {
    "kind": "real",
    "n_real": 6,
    "n_sites": 6,
    "source": "FHWA/BTS NBI (NTAD), 50 m proximity"
   },
   "catchment_area_km2": {
    "kind": "real",
    "n_real": 6,
    "n_sites": 6,
    "source": "DEM flow accumulation (pipeline)"
   },
   "channel_width_score": {
    "kind": "real",
    "n_real": 6,
    "n_sites": 6,
    "source": "Bieger 2015 AHI width curve on DEM drainage area \u2192 shipped width curve"
   },
   "cso_density": {
    "kind": "real",
    "n_real": 6,
    "n_sites": 6,
    "source": "EPA ECHO open CSO/TCS outfall PF coordinates states=NC, Cauchy proximity"
   },
   "ej_index": {
    "kind": "real",
    "n_real": 6,
    "n_sites": 6,
    "source": "Census ACS C17002+B03002 two-component demographic index, percentile-ranked within region"
   },
   "estuary_dist_km": {
    "kind": "real",
    "n_real": 6,
    "n_sites": 6,
    "source": "haversine to region ref: Pamlico Sound (shipped NC reference)"
   },
   "flood_q10_cfs": {
    "kind": "real",
    "n_real": 6,
    "n_sites": 6,
    "source": "USGS SIR 2014-5030 Table 7 HR1 (NC Piedmont)"
   },
   "flow_velocity_ms": {
    "kind": "real",
    "n_fallback": 0,
    "n_real": 6,
    "n_sites": 6,
    "source": "Manning (region DEM/D8) blended with EROM continuity (shipped M4 logic)"
   },
   "impervious_pct": {
    "kind": "real",
    "n_real": 6,
    "n_sites": 6,
    "source": "EPA StreamCat pctimp2019 (per NHDPlus watershed)"
   },
   "land_ownership": {
    "kind": "real",
    "n_fallback": 0,
    "n_real": 6,
    "n_sites": 6,
    "source": "NC OneMap statewide parcels (NC Parcels Transformer) ownname"
   },
   "litter_complaint_density": {
    "kind": "fallback",
    "n_real": 0,
    "n_sites": 6,
    "source": "no public machine-readable litter/illegal-dumping feed for this region"
   },
   "navigable_dist_m": {
    "kind": "real",
    "n_real": 6,
    "n_sites": 6,
    "source": "USACE/BTS NWN (NTAD): no navigable segment within this bbox (+2 km) \u2014 computed absence, gate passes all sites"
   },
   "npdes_points": {
    "kind": "real",
    "n_real": 6,
    "n_sites": 6,
    "source": "EPA ECHO active NPDES outfalls states=NC (types NPD/GPC/NGP; statuses ADC/EFF/EXP), per catchment"
   },
   "population_density": {
    "kind": "real",
    "n_real": 6,
    "n_sites": 6,
    "source": "Census ACS 2022 B01003 block groups (bbox, multi-county), area-weighted"
   },
   "protected_area_score": {
    "kind": "real",
    "n_real": 6,
    "n_sites": 6,
    "source": "USGS PAD-US 4.1 state GDB; states=NC; shipped designation-weighted proximity curve"
   },
   "road_access_score": {
    "kind": "real",
    "n_real": 6,
    "n_sites": 6,
    "source": "OSM drive network nearest-node distance"
   },
   "road_density_km_km2": {
    "kind": "real",
    "n_real": 6,
    "n_sites": 6,
    "source": "OSM drive network (osmnx, cached) clipped per catchment"
   },
   "runoff_coeff_C": {
    "kind": "real",
    "n_real": 6,
    "n_sites": 6,
    "source": "derived from real impervious_pct (C=0.05+0.009*I)"
   },
   "seasonal_cv": {
    "kind": "real",
    "n_real": 6,
    "n_sites": 6,
    "source": "CV of NHDPlus EROM monthly flows per COMID"
   },
   "stream_order": {
    "kind": "real",
    "n_real": 6,
    "n_sites": 6,
    "source": "DEM stream-network confluence heuristic (pipeline)"
   },
   "superfund_score": {
    "kind": "real",
    "n_real": 6,
    "n_sites": 6,
    "source": "EPA DataMap SEMS active sites states=NC (non-archived, georeferenced), shipped 500 m inverse-distance curve"
   },
   "tourism_amenity_density": {
    "kind": "real",
    "n_real": 6,
    "n_sites": 6,
    "source": "OSM leisure/tourism features per 2 km radius"
   },
   "tri_facility_density": {
    "kind": "real",
    "n_real": 6,
    "n_sites": 6,
    "source": "EPA DataMap TRI open facilities states=NC (preferred decimal or packed-DMS recovery), per catchment"
   },
   "usgs_mean_q_cfs": {
    "kind": "real",
    "n_real": 6,
    "n_sites": 6,
    "source": "NHDPlus EROM qe_ma per COMID (snap-guarded)"
   },
   "velocity_feasibility": {
    "kind": "real",
    "n_fallback": 0,
    "n_real": 6,
    "n_sites": 6,
    "source": "shipped step curve on the computed velocity"
   },
   "velocity_transport_favorability": {
    "kind": "derived",
    "n_real": 6,
    "n_sites": 6,
    "source": "scored form of flow_velocity_ms inside the Flow family \u2014 peaked Gaussian exp(-((v-0.9)/0.6)^2), model.json curves.velocity_transport_favorability; construct: transport/delivery favorability, deliberately distinct from velocity_feasibility (device operability)"
   },
   "water_intake_score": {
    "kind": "real",
    "n_real": 6,
    "n_sites": 6,
    "source": "NC OneMap / NC DEQ SWAP public water supply sources (source_typ='Surface Water'), shipped exp(-d/10km) curve"
   }
  },
  "stream_mask": {
   "buffer_m": 150.0,
   "pre_mask": 6,
   "removed": 0,
   "sources": [
    "osm-overpass (all waterway ways)",
    "usgs-nhdplus flowlines"
   ]
  },
  "varying": [
   "bank_slope_score",
   "beach_dist_km",
   "catchment_area_km2",
   "ej_index",
   "estuary_dist_km",
   "flood_q10_cfs",
   "flow_velocity_ms",
   "impervious_pct",
   "npdes_points",
   "population_density",
   "protected_area_score",
   "road_access_score",
   "road_density_km_km2",
   "runoff_coeff_C",
   "seasonal_cv",
   "tourism_amenity_density",
   "usgs_mean_q_cfs",
   "water_intake_score"
  ]
 },
 "region": {
  "bbox": [
   -81.6428,
   35.4916,
   -81.5909,
   35.5338
  ],
  "beach_ref": {
   "label": "Wrightsville Beach (shipped NC reference)",
   "lat": 34.21,
   "lon": -77.79
  },
  "center": [
   -81.616844,
   35.512708
  ],
  "estuary_ref": {
   "label": "Pamlico Sound (shipped NC reference)",
   "lat": 35.05,
   "lon": -76.05
  },
  "flood_method": "sir2014_hr1",
  "name": "Casar, NC",
  "notes": "NC Piedmont (DEQ physiography polygon)",
  "slug": "casar",
  "state": "NC",
  "utm_epsg": 32617,
  "width_curve": {
   "a": 3.12,
   "b": 0.415,
   "code": "AHI",
   "source": "Bieger et al. 2015 JAWRA Table 3, Appalachian Highlands"
  }
 },
 "type": "FeatureCollection"
}
