{
 "features": [
  {
   "geometry": {
    "coordinates": [
     -81.095414,
     35.711409
    ],
    "type": "Point"
   },
   "properties": {
    "accumulation": 59006.0,
    "bank_slope_deg": 11.39,
    "bank_slope_score": 1.0,
    "bank_slope_source": "nc-dps-lidar-dem03-cross-section",
    "beach_dist_km": 344.36,
    "bridge_proximity_bonus": 0.0,
    "catchment_area_km2": 5.88,
    "channel_width_m": 6.51,
    "channel_width_score": 1.0,
    "composite_score": 52.7512,
    "cso_density": 0.0,
    "ej_index": 0.6078,
    "elevation_m": 232.6522,
    "estuary_dist_km": 463.24,
    "feasibility_score": 54.5455,
    "flood_q10_cfs": 706.75,
    "flow_score": 38.5628,
    "flow_velocity_ms": 0.5,
    "generation_score": 57.6673,
    "impact_score": 58.7615,
    "impervious_pct": null,
    "land_ownership": 0.5,
    "lat": 35.7114,
    "litter_complaint_density": 0.0,
    "lon": -81.0954,
    "navigable_dist_m": null,
    "npdes_points": 2,
    "pixel_col": 150.0,
    "pixel_row": 340.0,
    "population_density": 87.0,
    "position_along": 0.75,
    "protected_area_score": 7.1785,
    "rank": 1,
    "road_access_m": 506.2,
    "road_access_score": 0.6,
    "road_density_km_km2": 1.967,
    "robustness_pct": 99.0,
    "runoff_coeff_C": null,
    "seasonal_cv": null,
    "segment_id": 6,
    "segment_length_m": 3229.9748,
    "stream_order": 1,
    "superfund_score": 0.0,
    "tourism_amenity_density": 0.2387,
    "tri_facility_density": 0.1701,
    "usgs_mean_q_cfs": null,
    "velocity_feasibility": 1.0,
    "water_intake_score": 1.5817
   },
   "type": "Feature"
  },
  {
   "geometry": {
    "coordinates": [
     -81.06186,
     35.711164
    ],
    "type": "Point"
   },
   "properties": {
    "accumulation": 50707.0,
    "bank_slope_deg": 0.06,
    "bank_slope_score": 1.0,
    "bank_slope_source": "nc-dps-lidar-dem03-cross-section",
    "beach_dist_km": 341.68,
    "bridge_proximity_bonus": 0.0,
    "catchment_area_km2": 5.053,
    "channel_width_m": 6.11,
    "channel_width_score": 1.0,
    "composite_score": 51.1611,
    "cso_density": 0.0,
    "ej_index": 0.5219,
    "elevation_m": 229.9438,
    "estuary_dist_km": 460.23,
    "feasibility_score": 100.0,
    "flood_q10_cfs": 630.46,
    "flow_score": 49.9868,
    "flow_velocity_ms": 0.5,
    "generation_score": 18.7628,
    "impact_score": 60.1185,
    "impervious_pct": null,
    "land_ownership": 0.5,
    "lat": 35.7112,
    "litter_complaint_density": 0.0,
    "lon": -81.0619,
    "navigable_dist_m": null,
    "npdes_points": 0,
    "pixel_col": 453.0,
    "pixel_row": 345.0,
    "population_density": 67.4,
    "position_along": 0.5,
    "protected_area_score": 7.2092,
    "rank": 2,
    "road_access_m": 134.6,
    "road_access_score": 1.0,
    "road_density_km_km2": 2.118,
    "robustness_pct": 94.0,
    "runoff_coeff_C": null,
    "seasonal_cv": null,
    "segment_id": 5,
    "segment_length_m": 39.93,
    "stream_order": 3,
    "superfund_score": 0.0,
    "tourism_amenity_density": 0.3979,
    "tri_facility_density": 0.0,
    "usgs_mean_q_cfs": null,
    "velocity_feasibility": 1.0,
    "water_intake_score": 1.5082
   },
   "type": "Feature"
  },
  {
   "geometry": {
    "coordinates": [
     -81.09815,
     35.717059
    ],
    "type": "Point"
   },
   "properties": {
    "accumulation": 32867.0,
    "bank_slope_deg": 35.47,
    "bank_slope_score": 0.2,
    "bank_slope_source": "nc-dps-lidar-dem03-cross-section",
    "beach_dist_km": 344.87,
    "bridge_proximity_bonus": 0.0,
    "catchment_area_km2": 3.2752,
    "channel_width_m": 5.1,
    "channel_width_score": 1.0,
    "composite_score": 50.4278,
    "cso_density": 0.0,
    "ej_index": 0.5571,
    "elevation_m": 232.4331,
    "estuary_dist_km": 463.57,
    "feasibility_score": 59.0909,
    "flood_q10_cfs": 454.72,
    "flow_score": 30.2642,
    "flow_velocity_ms": 0.5,
    "generation_score": 59.1705,
    "impact_score": 54.1564,
    "impervious_pct": null,
    "land_ownership": 0.5,
    "lat": 35.7171,
    "litter_complaint_density": 0.0,
    "lon": -81.0981,
    "navigable_dist_m": null,
    "npdes_points": 1,
    "pixel_col": 126.0,
    "pixel_row": 278.0,
    "population_density": 86.4,
    "position_along": 0.5,
    "protected_area_score": 7.1807,
    "rank": 3,
    "road_access_m": 434.4,
    "road_access_score": 0.8,
    "road_density_km_km2": 1.859,
    "robustness_pct": 74.5,
    "runoff_coeff_C": null,
    "seasonal_cv": null,
    "segment_id": 2,
    "segment_length_m": 2097.6949,
    "stream_order": 1,
    "superfund_score": 0.0,
    "tourism_amenity_density": 0.0796,
    "tri_facility_density": 0.3053,
    "usgs_mean_q_cfs": null,
    "velocity_feasibility": 1.0,
    "water_intake_score": 1.5974
   },
   "type": "Feature"
  },
  {
   "geometry": {
    "coordinates": [
     -81.070099,
     35.712747
    ],
    "type": "Point"
   },
   "properties": {
    "accumulation": 25701.0,
    "bank_slope_deg": 5.55,
    "bank_slope_score": 1.0,
    "bank_slope_source": "nc-dps-lidar-dem03-cross-section",
    "beach_dist_km": 342.42,
    "bridge_proximity_bonus": 0.0,
    "catchment_area_km2": 2.5611,
    "channel_width_m": 4.61,
    "channel_width_score": 1.0,
    "composite_score": 47.4875,
    "cso_density": 0.0,
    "ej_index": 0.5136,
    "elevation_m": 229.9973,
    "estuary_dist_km": 460.99,
    "feasibility_score": 77.2727,
    "flood_q10_cfs": 377.79,
    "flow_score": 41.8656,
    "flow_velocity_ms": 0.5,
    "generation_score": 24.8915,
    "impact_score": 59.8757,
    "impervious_pct": null,
    "land_ownership": 0.5,
    "lat": 35.7127,
    "litter_complaint_density": 0.0,
    "lon": -81.0701,
    "navigable_dist_m": null,
    "npdes_points": 0,
    "pixel_col": 380.0,
    "pixel_row": 326.0,
    "population_density": 68.4,
    "position_along": 0.5,
    "protected_area_score": 7.0816,
    "rank": 4,
    "road_access_m": 313.1,
    "road_access_score": 0.8,
    "road_density_km_km2": 3.012,
    "robustness_pct": 73.5,
    "runoff_coeff_C": null,
    "seasonal_cv": null,
    "segment_id": 3,
    "segment_length_m": 1932.8366,
    "stream_order": 3,
    "superfund_score": 0.0,
    "tourism_amenity_density": 0.4775,
    "tri_facility_density": 0.0,
    "usgs_mean_q_cfs": null,
    "velocity_feasibility": 1.0,
    "water_intake_score": 1.5288
   },
   "type": "Feature"
  },
  {
   "geometry": {
    "coordinates": [
     -81.063328,
     35.711407
    ],
    "type": "Point"
   },
   "properties": {
    "accumulation": 20851.0,
    "bank_slope_deg": 6.12,
    "bank_slope_score": 1.0,
    "bank_slope_source": "nc-dps-lidar-dem03-cross-section",
    "beach_dist_km": 341.81,
    "bridge_proximity_bonus": 0.0,
    "catchment_area_km2": 2.0778,
    "channel_width_m": 4.23,
    "channel_width_score": 1.0,
    "composite_score": 46.9495,
    "cso_density": 0.0,
    "ej_index": 0.5364,
    "elevation_m": 229.9562,
    "estuary_dist_km": 460.37,
    "feasibility_score": 100.0,
    "flood_q10_cfs": 322.71,
    "flow_score": 40.1946,
    "flow_velocity_ms": 0.5,
    "generation_score": 12.8325,
    "impact_score": 60.1702,
    "impervious_pct": null,
    "land_ownership": 0.5,
    "lat": 35.7114,
    "litter_complaint_density": 0.0,
    "lon": -81.0633,
    "navigable_dist_m": null,
    "npdes_points": 0,
    "pixel_col": 441.0,
    "pixel_row": 338.0,
    "population_density": 64.6,
    "position_along": 0.5,
    "protected_area_score": 7.1771,
    "rank": 5,
    "road_access_m": 177.9,
    "road_access_score": 1.0,
    "road_density_km_km2": 1.428,
    "robustness_pct": 52.5,
    "runoff_coeff_C": null,
    "seasonal_cv": null,
    "segment_id": 4,
    "segment_length_m": 320.8591,
    "stream_order": 3,
    "superfund_score": 0.0,
    "tourism_amenity_density": 0.3979,
    "tri_facility_density": 0.0,
    "usgs_mean_q_cfs": null,
    "velocity_feasibility": 1.0,
    "water_intake_score": 1.5118
   },
   "type": "Feature"
  },
  {
   "geometry": {
    "coordinates": [
     -81.103372,
     35.70022
    ],
    "type": "Point"
   },
   "properties": {
    "accumulation": 34440.0,
    "bank_slope_deg": 8.56,
    "bank_slope_score": 1.0,
    "bank_slope_source": "nc-dps-lidar-dem03-cross-section",
    "beach_dist_km": 344.41,
    "bridge_proximity_bonus": 0.0,
    "catchment_area_km2": 3.432,
    "channel_width_m": 5.2,
    "channel_width_score": 1.0,
    "composite_score": 46.3402,
    "cso_density": 0.0,
    "ej_index": 0.7838,
    "elevation_m": 235.3,
    "estuary_dist_km": 463.78,
    "feasibility_score": 77.2727,
    "flood_q10_cfs": 471.03,
    "flow_score": 30.7817,
    "flow_velocity_ms": 0.5,
    "generation_score": 32.4368,
    "impact_score": 57.7426,
    "impervious_pct": null,
    "land_ownership": 0.5,
    "lat": 35.7002,
    "litter_complaint_density": 0.0,
    "lon": -81.1034,
    "navigable_dist_m": null,
    "npdes_points": 1,
    "pixel_col": 78.0,
    "pixel_row": 464.0,
    "population_density": 85.6,
    "position_along": 0.25,
    "protected_area_score": 7.2405,
    "rank": 6,
    "road_access_m": 226.6,
    "road_access_score": 0.8,
    "road_density_km_km2": 1.345,
    "robustness_pct": 49.0,
    "runoff_coeff_C": null,
    "seasonal_cv": null,
    "segment_id": 6,
    "segment_length_m": 3229.9748,
    "stream_order": 1,
    "superfund_score": 0.0,
    "tourism_amenity_density": 0.0796,
    "tri_facility_density": 0.0,
    "usgs_mean_q_cfs": null,
    "velocity_feasibility": 1.0,
    "water_intake_score": 1.5625
   },
   "type": "Feature"
  },
  {
   "geometry": {
    "coordinates": [
     -81.06275,
     35.692605
    ],
    "type": "Point"
   },
   "properties": {
    "accumulation": 66785.0,
    "bank_slope_deg": 12.04,
    "bank_slope_score": 1.0,
    "bank_slope_source": "nc-dps-lidar-dem03-cross-section",
    "beach_dist_km": 340.78,
    "bridge_proximity_bonus": 0.0,
    "catchment_area_km2": 6.6552,
    "channel_width_m": 6.85,
    "channel_width_score": 1.0,
    "composite_score": 44.4214,
    "cso_density": 0.0,
    "ej_index": 0.3087,
    "elevation_m": 248.174,
    "estuary_dist_km": 460.04,
    "feasibility_score": 40.9091,
    "flood_q10_cfs": 804.36,
    "flow_score": 38.4028,
    "flow_velocity_ms": 0.11,
    "generation_score": 51.1974,
    "impact_score": 44.4169,
    "impervious_pct": 2.06,
    "land_ownership": 0.5,
    "lat": 35.6926,
    "litter_complaint_density": 0.0,
    "lon": -81.0627,
    "navigable_dist_m": null,
    "npdes_points": 2,
    "pixel_col": 444.0,
    "pixel_row": 551.0,
    "population_density": 54.2,
    "position_along": 0.375,
    "protected_area_score": 6.9545,
    "rank": 7,
    "road_access_m": 221.7,
    "road_access_score": 0.8,
    "road_density_km_km2": 1.992,
    "robustness_pct": 38.0,
    "runoff_coeff_C": 0.0685,
    "seasonal_cv": 0.4178,
    "segment_id": 7,
    "segment_length_m": 7161.6846,
    "stream_order": 1,
    "superfund_score": 0.0,
    "tourism_amenity_density": 0.0796,
    "tri_facility_density": 0.0,
    "usgs_mean_q_cfs": 14.546,
    "velocity_feasibility": 0.7,
    "water_intake_score": 1.5123
   },
   "type": "Feature"
  },
  {
   "geometry": {
    "coordinates": [
     -81.049337,
     35.689748
    ],
    "type": "Point"
   },
   "properties": {
    "accumulation": 92124.0,
    "bank_slope_deg": 14.61,
    "bank_slope_score": 1.0,
    "bank_slope_source": "nc-dps-lidar-dem03-cross-section",
    "beach_dist_km": 339.56,
    "bridge_proximity_bonus": 0.0,
    "catchment_area_km2": 9.1802,
    "channel_width_m": 7.83,
    "channel_width_score": 1.0,
    "composite_score": 40.9648,
    "cso_density": 0.0,
    "ej_index": 0.2964,
    "elevation_m": 245.6688,
    "estuary_dist_km": 458.79,
    "feasibility_score": 40.9091,
    "flood_q10_cfs": 1003.7,
    "flow_score": 47.5803,
    "flow_velocity_ms": 0.1779,
    "generation_score": 31.5793,
    "impact_score": 44.8653,
    "impervious_pct": 2.06,
    "land_ownership": 0.5,
    "lat": 35.6897,
    "litter_complaint_density": 0.0,
    "lon": -81.0493,
    "navigable_dist_m": null,
    "npdes_points": 0,
    "pixel_col": 568.0,
    "pixel_row": 582.0,
    "population_density": 53.2,
    "position_along": 0.625,
    "protected_area_score": 6.8901,
    "rank": 8,
    "road_access_m": 300.5,
    "road_access_score": 0.8,
    "road_density_km_km2": 1.404,
    "robustness_pct": 4.0,
    "runoff_coeff_C": 0.0685,
    "seasonal_cv": 0.4178,
    "segment_id": 7,
    "segment_length_m": 7161.6846,
    "stream_order": 1,
    "superfund_score": 0.0,
    "tourism_amenity_density": 0.0,
    "tri_facility_density": 0.0,
    "usgs_mean_q_cfs": 14.546,
    "velocity_feasibility": 0.7,
    "water_intake_score": 1.5013
   },
   "type": "Feature"
  },
  {
   "geometry": {
    "coordinates": [
     -81.063252,
     35.726374
    ],
    "type": "Point"
   },
   "properties": {
    "accumulation": 20295.0,
    "bank_slope_deg": 10.98,
    "bank_slope_score": 1.0,
    "bank_slope_source": "nc-dps-lidar-dem03-cross-section",
    "beach_dist_km": 342.59,
    "bridge_proximity_bonus": 0.0,
    "catchment_area_km2": 2.0224,
    "channel_width_m": 4.18,
    "channel_width_score": 1.0,
    "composite_score": 40.1765,
    "cso_density": 0.0,
    "ej_index": 0.4115,
    "elevation_m": 230.1207,
    "estuary_dist_km": 460.59,
    "feasibility_score": 77.2727,
    "flood_q10_cfs": 316.2,
    "flow_score": 26.0,
    "flow_velocity_ms": 0.5,
    "generation_score": 24.2312,
    "impact_score": 49.3874,
    "impervious_pct": null,
    "land_ownership": 0.5,
    "lat": 35.7264,
    "litter_complaint_density": 0.0,
    "lon": -81.0633,
    "navigable_dist_m": null,
    "npdes_points": 0,
    "pixel_col": 438.0,
    "pixel_row": 175.0,
    "population_density": 84.9,
    "position_along": 0.5,
    "protected_area_score": 6.6755,
    "rank": 9,
    "road_access_m": 242.8,
    "road_access_score": 0.8,
    "road_density_km_km2": 1.329,
    "robustness_pct": 0.5,
    "runoff_coeff_C": null,
    "seasonal_cv": null,
    "segment_id": 1,
    "segment_length_m": 78.1473,
    "stream_order": 1,
    "superfund_score": 0.0,
    "tourism_amenity_density": 0.2387,
    "tri_facility_density": 0.0,
    "usgs_mean_q_cfs": null,
    "velocity_feasibility": 1.0,
    "water_intake_score": 1.5524
   },
   "type": "Feature"
  },
  {
   "geometry": {
    "coordinates": [
     -81.035424,
     35.688624
    ],
    "type": "Point"
   },
   "properties": {
    "accumulation": 129114.0,
    "bank_slope_deg": 16.57,
    "bank_slope_score": 0.5,
    "bank_slope_source": "nc-dps-lidar-dem03-cross-section",
    "beach_dist_km": 338.39,
    "bridge_proximity_bonus": 0.0,
    "catchment_area_km2": 12.8663,
    "channel_width_m": 9.01,
    "channel_width_score": 1.0,
    "composite_score": 40.1167,
    "cso_density": 0.0,
    "ej_index": 0.2667,
    "elevation_m": 241.5459,
    "estuary_dist_km": 457.53,
    "feasibility_score": 29.5455,
    "flood_q10_cfs": 1203.89,
    "flow_score": 59.7109,
    "flow_velocity_ms": 0.0508,
    "generation_score": 22.5741,
    "impact_score": 46.6164,
    "impervious_pct": 1.69,
    "land_ownership": 0.5,
    "lat": 35.6886,
    "litter_complaint_density": 0.0,
    "lon": -81.0354,
    "navigable_dist_m": null,
    "npdes_points": 0,
    "pixel_col": 694.0,
    "pixel_row": 592.0,
    "population_density": 50.6,
    "position_along": 0.875,
    "protected_area_score": 6.8765,
    "rank": 10,
    "road_access_m": 417.0,
    "road_access_score": 0.8,
    "road_density_km_km2": 0.942,
    "robustness_pct": 14.5,
    "runoff_coeff_C": 0.0652,
    "seasonal_cv": 0.4246,
    "segment_id": 7,
    "segment_length_m": 7161.6846,
    "stream_order": 1,
    "superfund_score": 0.0,
    "tourism_amenity_density": 0.0,
    "tri_facility_density": 0.0,
    "usgs_mean_q_cfs": 20.6,
    "velocity_feasibility": 0.7,
    "water_intake_score": 1.487
   },
   "type": "Feature"
  },
  {
   "geometry": {
    "coordinates": [
     -81.074769,
     35.68819
    ],
    "type": "Point"
   },
   "properties": {
    "accumulation": 47688.0,
    "bank_slope_deg": 1.24,
    "bank_slope_score": 1.0,
    "bank_slope_source": "nc-dps-lidar-dem03-cross-section",
    "beach_dist_km": 341.5,
    "bridge_proximity_bonus": 0.0,
    "catchment_area_km2": 4.7521,
    "channel_width_m": 5.96,
    "channel_width_score": 1.0,
    "composite_score": 37.6967,
    "cso_density": 0.0,
    "ej_index": 0.24,
    "elevation_m": 252.6693,
    "estuary_dist_km": 461.05,
    "feasibility_score": 40.9091,
    "flood_q10_cfs": 624.05,
    "flow_score": 32.4912,
    "flow_velocity_ms": 0.1137,
    "generation_score": 37.9041,
    "impact_score": 40.2209,
    "impervious_pct": 2.06,
    "land_ownership": 0.5,
    "lat": 35.6882,
    "litter_complaint_density": 0.0,
    "lon": -81.0748,
    "navigable_dist_m": null,
    "npdes_points": 1,
    "pixel_col": 337.0,
    "pixel_row": 597.0,
    "population_density": 48.0,
    "position_along": 0.125,
    "protected_area_score": 6.8793,
    "rank": 11,
    "road_access_m": 354.7,
    "road_access_score": 0.8,
    "road_density_km_km2": 1.68,
    "robustness_pct": 0.5,
    "runoff_coeff_C": 0.0685,
    "seasonal_cv": 0.4178,
    "segment_id": 7,
    "segment_length_m": 7161.6846,
    "stream_order": 1,
    "superfund_score": 0.0,
    "tourism_amenity_density": 0.1592,
    "tri_facility_density": 0.0,
    "usgs_mean_q_cfs": 14.546,
    "velocity_feasibility": 0.7,
    "water_intake_score": 1.5211
   },
   "type": "Feature"
  },
  {
   "geometry": {
    "coordinates": [
     -81.028076,
     35.73483
    ],
    "type": "Point"
   },
   "properties": {
    "accumulation": 20754.0,
    "bank_slope_deg": 25.48,
    "bank_slope_score": 0.5,
    "bank_slope_source": "nc-dps-lidar-dem03-cross-section",
    "beach_dist_km": 340.26,
    "bridge_proximity_bonus": 0.0,
    "catchment_area_km2": 2.0681,
    "channel_width_m": 4.22,
    "channel_width_score": 1.0,
    "composite_score": 31.1837,
    "cso_density": 0.0,
    "ej_index": 0.5054,
    "elevation_m": 240.3562,
    "estuary_dist_km": 457.57,
    "feasibility_score": 65.9091,
    "flood_q10_cfs": 321.58,
    "flow_score": 26.1607,
    "flow_velocity_ms": 0.5,
    "generation_score": 15.2423,
    "impact_score": 33.9481,
    "impervious_pct": null,
    "land_ownership": 0.5,
    "lat": 35.7348,
    "litter_complaint_density": 0.0,
    "lon": -81.0281,
    "navigable_dist_m": null,
    "npdes_points": 0,
    "pixel_col": 761.0,
    "pixel_row": 82.0,
    "population_density": 73.1,
    "position_along": 0.5,
    "protected_area_score": 6.0588,
    "rank": 12,
    "road_access_m": 346.7,
    "road_access_score": 0.8,
    "road_density_km_km2": 1.005,
    "robustness_pct": 0.0,
    "runoff_coeff_C": null,
    "seasonal_cv": null,
    "segment_id": 0,
    "segment_length_m": 235.1514,
    "stream_order": 1,
    "superfund_score": 0.0,
    "tourism_amenity_density": 0.0,
    "tri_facility_density": 0.0,
    "usgs_mean_q_cfs": null,
    "velocity_feasibility": 1.0,
    "water_intake_score": 1.4551
   },
   "type": "Feature"
  }
 ],
 "note": "GRIME region 'Catawba, NC' \u2014 real-data pipeline (DEM\u2192streams\u2192candidates\u2192stream mask (sites confined to \u00b1150 m of mapped OSM/NHD waterways)\u2192region-appropriate real parameters\u2192shipped scoring, math unchanged). Width curve: Bieger et al. 2015 JAWRA Table 3, Appalachian Highlands. Flood: SIR 2014-5030 HR1. NC Piedmont (DEQ physiography polygon)",
 "provenance": {
  "candidates_pre_gate": 12,
  "constant": [
   "bridge_proximity_bonus",
   "channel_width_score",
   "cso_density",
   "land_ownership",
   "litter_complaint_density",
   "superfund_score"
  ],
  "gated_navigable": 0,
  "hard_gate_removed": 0,
  "n_parameters": 27,
  "parameters": {
   "bank_slope_score": {
    "kind": "real",
    "n_3dep_10m_fallback": 0,
    "n_nc_lidar_3_125ft": 12,
    "n_real": 12,
    "n_sites": 12,
    "source": "NC OneMap / NC DPS DEM03 statewide lidar-derived 3.125-ft (0.953 m) elevations (perpendicular 50 m transect; robust 5 m bank-rise metric); unavailable profiles use the region 10 m 3DEP DEM-gradient fallback",
    "source_mosaics": [
     "Catawba_Ground_3ft",
     "Iredell_Ground_3ft"
    ]
   },
   "beach_dist_km": {
    "kind": "real",
    "n_real": 12,
    "n_sites": 12,
    "source": "haversine to region ref: Wrightsville Beach (shipped NC reference)"
   },
   "bridge_proximity_bonus": {
    "kind": "real",
    "n_real": 12,
    "n_sites": 12,
    "source": "FHWA/BTS NBI (NTAD), 50 m proximity"
   },
   "catchment_area_km2": {
    "kind": "real",
    "n_real": 12,
    "n_sites": 12,
    "source": "DEM flow accumulation (pipeline)"
   },
   "channel_width_score": {
    "kind": "real",
    "n_real": 12,
    "n_sites": 12,
    "source": "Bieger 2015 AHI width curve on DEM drainage area \u2192 shipped width curve"
   },
   "cso_density": {
    "kind": "real",
    "n_real": 12,
    "n_sites": 12,
    "source": "EPA ECHO open CSO/TCS outfall PF coordinates states=NC, Cauchy proximity"
   },
   "ej_index": {
    "kind": "real",
    "n_real": 12,
    "n_sites": 12,
    "source": "Census ACS C17002+B03002 two-component demographic index, percentile-ranked within region"
   },
   "estuary_dist_km": {
    "kind": "real",
    "n_real": 12,
    "n_sites": 12,
    "source": "haversine to region ref: Pamlico Sound (shipped NC reference)"
   },
   "flood_q10_cfs": {
    "impervious_fallback_reason": "StreamCat imperviousness unavailable; the existing regression-input fallback of 0.0% impervious was used and is disclosed here",
    "kind": "real",
    "n_impervious_fallback": 8,
    "n_real": 12,
    "n_sites": 12,
    "source": "USGS SIR 2014-5030 Table 7 HR1 (NC Piedmont)"
   },
   "flow_velocity_ms": {
    "fallback_reason": "EROM/DEM continuity input unavailable; shipped 0.5 m/s default used",
    "kind": "real",
    "n_fallback": 8,
    "n_real": 4,
    "n_sites": 12,
    "source": "Manning (region DEM/D8) blended with EROM continuity (shipped M4 logic)"
   },
   "impervious_pct": {
    "fallback_reason": "NLDI/StreamCat did not return a snap-compatible catchment value; value remains null and is removed by constant-column handling",
    "kind": "real",
    "n_fallback": 8,
    "n_real": 4,
    "n_sites": 12,
    "source": "EPA StreamCat pctimp2019 (per NHDPlus watershed)"
   },
   "land_ownership": {
    "kind": "real",
    "n_fallback": 0,
    "n_real": 12,
    "n_sites": 12,
    "source": "NC OneMap statewide parcels (NC Parcels Transformer) ownname"
   },
   "litter_complaint_density": {
    "kind": "fallback",
    "n_real": 0,
    "n_sites": 12,
    "source": "no public machine-readable litter/illegal-dumping feed for this region"
   },
   "navigable_dist_m": {
    "kind": "real",
    "n_real": 12,
    "n_sites": 12,
    "source": "USACE/BTS NWN (NTAD): no navigable segment within this bbox (+2 km) \u2014 computed absence, gate passes all sites"
   },
   "npdes_points": {
    "kind": "real",
    "n_real": 12,
    "n_sites": 12,
    "source": "EPA ECHO active NPDES outfalls states=NC (types NPD/GPC/NGP; statuses ADC/EFF/EXP), per catchment"
   },
   "population_density": {
    "kind": "real",
    "n_real": 12,
    "n_sites": 12,
    "source": "Census ACS 2022 B01003 block groups (bbox, multi-county), area-weighted"
   },
   "protected_area_score": {
    "kind": "real",
    "n_real": 12,
    "n_sites": 12,
    "source": "USGS PAD-US 4.1 state GDB; states=NC; shipped designation-weighted proximity curve"
   },
   "road_access_score": {
    "kind": "real",
    "n_real": 12,
    "n_sites": 12,
    "source": "OSM drive network nearest-node distance"
   },
   "road_density_km_km2": {
    "kind": "real",
    "n_real": 12,
    "n_sites": 12,
    "source": "OSM drive network (osmnx, cached) clipped per catchment"
   },
   "runoff_coeff_C": {
    "fallback_reason": "source impervious_pct was unavailable; derived value remains null",
    "kind": "real",
    "n_fallback": 8,
    "n_real": 4,
    "n_sites": 12,
    "source": "derived from real impervious_pct (C=0.05+0.009*I)"
   },
   "seasonal_cv": {
    "fallback_reason": "NHDPlus monthly EROM was unavailable or failed the drainage-area snap guard; value remains null",
    "kind": "real",
    "n_fallback": 8,
    "n_real": 4,
    "n_sites": 12,
    "source": "CV of NHDPlus EROM monthly flows per COMID"
   },
   "stream_order": {
    "kind": "real",
    "n_real": 12,
    "n_sites": 12,
    "source": "DEM stream-network confluence heuristic (pipeline)"
   },
   "superfund_score": {
    "kind": "real",
    "n_real": 12,
    "n_sites": 12,
    "source": "EPA DataMap SEMS active sites states=NC (non-archived, georeferenced), shipped 500 m inverse-distance curve"
   },
   "tourism_amenity_density": {
    "kind": "real",
    "n_real": 12,
    "n_sites": 12,
    "source": "OSM leisure/tourism features per 2 km radius"
   },
   "tri_facility_density": {
    "kind": "real",
    "n_real": 12,
    "n_sites": 12,
    "source": "EPA DataMap TRI open facilities states=NC (preferred decimal or packed-DMS recovery), per catchment"
   },
   "usgs_mean_q_cfs": {
    "fallback_reason": "NHDPlus EROM was unavailable or failed the drainage-area snap guard; value remains null",
    "kind": "real",
    "n_fallback": 8,
    "n_real": 4,
    "n_sites": 12,
    "source": "NHDPlus EROM qe_ma per COMID (snap-guarded)"
   },
   "velocity_feasibility": {
    "fallback_reason": "derived from the shipped 0.5 m/s velocity fallback",
    "kind": "real",
    "n_fallback": 8,
    "n_real": 4,
    "n_sites": 12,
    "source": "shipped step curve on the computed velocity"
   },
   "velocity_transport_favorability": {
    "fallback_reason": "EROM/DEM continuity input unavailable; shipped 0.5 m/s default used",
    "kind": "derived",
    "n_fallback": 8,
    "n_real": 4,
    "n_sites": 12,
    "source": "scored form of flow_velocity_ms inside the Flow family \u2014 peaked Gaussian exp(-((v-0.9)/0.6)^2), model.json curves.velocity_transport_favorability; construct: transport/delivery favorability, deliberately distinct from velocity_feasibility (device operability)"
   },
   "water_intake_score": {
    "kind": "real",
    "n_real": 12,
    "n_sites": 12,
    "source": "NC OneMap / NC DEQ SWAP public water supply sources (source_typ='Surface Water'), shipped exp(-d/10km) curve"
   }
  },
  "stream_mask": {
   "buffer_m": 150.0,
   "pre_mask": 12,
   "removed": 0,
   "sources": [
    "osm-overpass (all waterway ways)",
    "usgs-nhdplus flowlines"
   ]
  },
  "varying": [
   "bank_slope_score",
   "beach_dist_km",
   "catchment_area_km2",
   "ej_index",
   "estuary_dist_km",
   "flood_q10_cfs",
   "flow_velocity_ms",
   "impervious_pct",
   "npdes_points",
   "population_density",
   "protected_area_score",
   "road_access_score",
   "road_density_km_km2",
   "runoff_coeff_C",
   "seasonal_cv",
   "stream_order",
   "tourism_amenity_density",
   "tri_facility_density",
   "usgs_mean_q_cfs",
   "velocity_feasibility",
   "water_intake_score"
  ]
 },
 "region": {
  "bbox": [
   -81.1118,
   35.6733,
   -81.0273,
   35.742
  ],
  "beach_ref": {
   "label": "Wrightsville Beach (shipped NC reference)",
   "lat": 34.21,
   "lon": -77.79
  },
  "center": [
   -81.069547,
   35.707622
  ],
  "estuary_ref": {
   "label": "Pamlico Sound (shipped NC reference)",
   "lat": 35.05,
   "lon": -76.05
  },
  "flood_method": "sir2014_hr1",
  "name": "Catawba, NC",
  "notes": "NC Piedmont (DEQ physiography polygon)",
  "slug": "catawba",
  "state": "NC",
  "utm_epsg": 32617,
  "width_curve": {
   "a": 3.12,
   "b": 0.415,
   "code": "AHI",
   "source": "Bieger et al. 2015 JAWRA Table 3, Appalachian Highlands"
  }
 },
 "type": "FeatureCollection"
}
