{
 "features": [
  {
   "geometry": {
    "coordinates": [
     -81.370487,
     35.415532
    ],
    "type": "Point"
   },
   "properties": {
    "accumulation": 129710.0,
    "bank_slope_deg": 4.95,
    "bank_slope_score": 1.0,
    "bank_slope_source": "nc-dps-lidar-dem03-cross-section",
    "beach_dist_km": 353.26,
    "bridge_proximity_bonus": 0.0,
    "catchment_area_km2": 12.9305,
    "channel_width_m": 9.03,
    "channel_width_score": 1.0,
    "composite_score": 53.6709,
    "cso_density": 0.0,
    "ej_index": 0.3248,
    "elevation_m": 240.8098,
    "estuary_dist_km": 484.88,
    "feasibility_score": 76.7857,
    "flood_q10_cfs": 1290.52,
    "flow_score": 65.6023,
    "flow_velocity_ms": 0.1373,
    "generation_score": 34.2441,
    "impact_score": 51.5973,
    "impervious_pct": 6.52,
    "land_ownership": 1.0,
    "lat": 35.4155,
    "litter_complaint_density": 0.0,
    "lon": -81.3705,
    "navigable_dist_m": null,
    "npdes_points": 3,
    "pixel_col": 511.0,
    "pixel_row": 83.0,
    "population_density": 89.9,
    "position_along": 0.5,
    "protected_area_score": 6.3111,
    "rank": 1,
    "road_access_m": 95.8,
    "road_access_score": 1.0,
    "road_density_km_km2": 1.142,
    "robustness_pct": 100.0,
    "runoff_coeff_C": 0.1087,
    "seasonal_cv": 0.4135,
    "segment_id": 7,
    "segment_length_m": 2399.0421,
    "stream_order": 3,
    "superfund_score": 0.0,
    "tourism_amenity_density": 0.0,
    "tri_facility_density": 0.0,
    "usgs_mean_q_cfs": 7.558,
    "velocity_feasibility": 0.7,
    "water_intake_score": 2.8794
   },
   "type": "Feature"
  },
  {
   "geometry": {
    "coordinates": [
     -81.342592,
     35.376647
    ],
    "type": "Point"
   },
   "properties": {
    "accumulation": 34748.0,
    "bank_slope_deg": 18.09,
    "bank_slope_score": 0.5,
    "bank_slope_source": "nc-dps-lidar-dem03-cross-section",
    "beach_dist_km": 349.35,
    "bridge_proximity_bonus": 0.0,
    "catchment_area_km2": 3.464,
    "channel_width_m": 5.22,
    "channel_width_score": 1.0,
    "composite_score": 46.4787,
    "cso_density": 0.0,
    "ej_index": 0.4669,
    "elevation_m": 254.3239,
    "estuary_dist_km": 482.13,
    "feasibility_score": 34.5982,
    "flood_q10_cfs": 522.17,
    "flow_score": 32.6985,
    "flow_velocity_ms": 0.1178,
    "generation_score": 45.0071,
    "impact_score": 65.3742,
    "impervious_pct": 5.49,
    "land_ownership": 0.5,
    "lat": 35.3766,
    "litter_complaint_density": 0.0,
    "lon": -81.3426,
    "navigable_dist_m": null,
    "npdes_points": 0,
    "pixel_col": 763.0,
    "pixel_row": 516.0,
    "population_density": 118.6,
    "position_along": 0.5,
    "protected_area_score": 6.5477,
    "rank": 2,
    "road_access_m": 301.1,
    "road_access_score": 0.8,
    "road_density_km_km2": 2.171,
    "robustness_pct": 94.0,
    "runoff_coeff_C": 0.0994,
    "seasonal_cv": 0.4172,
    "segment_id": 10,
    "segment_length_m": 2213.4743,
    "stream_order": 1,
    "superfund_score": 0.0,
    "tourism_amenity_density": 0.7162,
    "tri_facility_density": 0.2887,
    "usgs_mean_q_cfs": 12.504,
    "velocity_feasibility": 0.7,
    "water_intake_score": 2.727
   },
   "type": "Feature"
  },
  {
   "geometry": {
    "coordinates": [
     -81.388933,
     35.392632
    ],
    "type": "Point"
   },
   "properties": {
    "accumulation": 50448.0,
    "bank_slope_deg": 1.56,
    "bank_slope_score": 1.0,
    "bank_slope_source": "nc-dps-lidar-dem03-cross-section",
    "beach_dist_km": 353.91,
    "bridge_proximity_bonus": 0.0,
    "catchment_area_km2": 5.0291,
    "channel_width_m": 6.1,
    "channel_width_score": 1.0,
    "composite_score": 45.0832,
    "cso_density": 0.0,
    "ej_index": 0.2846,
    "elevation_m": 257.3065,
    "estuary_dist_km": 486.42,
    "feasibility_score": 58.0357,
    "flood_q10_cfs": 704.14,
    "flow_score": 44.0521,
    "flow_velocity_ms": 0.1349,
    "generation_score": 40.3713,
    "impact_score": 44.1779,
    "impervious_pct": 6.52,
    "land_ownership": 0.5,
    "lat": 35.3926,
    "litter_complaint_density": 0.0,
    "lon": -81.3889,
    "navigable_dist_m": null,
    "npdes_points": 1,
    "pixel_col": 342.0,
    "pixel_row": 336.0,
    "population_density": 171.0,
    "position_along": 0.25,
    "protected_area_score": 6.5976,
    "rank": 3,
    "road_access_m": 90.2,
    "road_access_score": 1.0,
    "road_density_km_km2": 4.281,
    "robustness_pct": 86.0,
    "runoff_coeff_C": 0.1087,
    "seasonal_cv": 0.4135,
    "segment_id": 6,
    "segment_length_m": 3158.9811,
    "stream_order": 3,
    "superfund_score": 0.0,
    "tourism_amenity_density": 2.2282,
    "tri_facility_density": 0.0,
    "usgs_mean_q_cfs": 7.558,
    "velocity_feasibility": 0.7,
    "water_intake_score": 2.6833
   },
   "type": "Feature"
  },
  {
   "geometry": {
    "coordinates": [
     -81.3498,
     35.407202
    ],
    "type": "Point"
   },
   "properties": {
    "accumulation": 43586.0,
    "bank_slope_deg": 2.08,
    "bank_slope_score": 1.0,
    "bank_slope_source": "nc-dps-lidar-dem03-cross-section",
    "beach_dist_km": 351.18,
    "bridge_proximity_bonus": 0.0,
    "catchment_area_km2": 4.345,
    "channel_width_m": 5.74,
    "channel_width_score": 1.0,
    "composite_score": 44.783,
    "cso_density": 0.0,
    "ej_index": 0.2608,
    "elevation_m": 239.9751,
    "estuary_dist_km": 482.96,
    "feasibility_score": 42.4107,
    "flood_q10_cfs": 708.63,
    "flow_score": 36.08,
    "flow_velocity_ms": 0.1159,
    "generation_score": 40.9376,
    "impact_score": 57.0671,
    "impervious_pct": 13.18,
    "land_ownership": 0.5,
    "lat": 35.4072,
    "litter_complaint_density": 0.0,
    "lon": -81.3498,
    "navigable_dist_m": null,
    "npdes_points": 1,
    "pixel_col": 698.0,
    "pixel_row": 176.0,
    "population_density": 103.5,
    "position_along": 0.5,
    "protected_area_score": 6.9059,
    "rank": 4,
    "road_access_m": 442.9,
    "road_access_score": 0.8,
    "road_density_km_km2": 2.083,
    "robustness_pct": 92.5,
    "runoff_coeff_C": 0.1686,
    "seasonal_cv": 0.4227,
    "segment_id": 2,
    "segment_length_m": 1992.6924,
    "stream_order": 3,
    "superfund_score": 0.0,
    "tourism_amenity_density": 0.0796,
    "tri_facility_density": 0.0,
    "usgs_mean_q_cfs": 2.818,
    "velocity_feasibility": 0.7,
    "water_intake_score": 2.7934
   },
   "type": "Feature"
  },
  {
   "geometry": {
    "coordinates": [
     -81.400036,
     35.363835
    ],
    "type": "Point"
   },
   "properties": {
    "accumulation": 34024.0,
    "bank_slope_deg": 22.19,
    "bank_slope_score": 0.5,
    "bank_slope_source": "nc-dps-lidar-dem03-cross-section",
    "beach_dist_km": 353.73,
    "bridge_proximity_bonus": 0.0,
    "catchment_area_km2": 3.3918,
    "channel_width_m": 5.18,
    "channel_width_score": 1.0,
    "composite_score": 44.6822,
    "cso_density": 0.0,
    "ej_index": 0.2975,
    "elevation_m": 252.7092,
    "estuary_dist_km": 487.27,
    "feasibility_score": 50.2232,
    "flood_q10_cfs": 508.67,
    "flow_score": 28.7703,
    "flow_velocity_ms": 0.127,
    "generation_score": 74.6803,
    "impact_score": 25.1737,
    "impervious_pct": 4.9,
    "land_ownership": 0.5,
    "lat": 35.3638,
    "litter_complaint_density": 0.0,
    "lon": -81.4,
    "navigable_dist_m": null,
    "npdes_points": 2,
    "pixel_col": 237.0,
    "pixel_row": 660.0,
    "population_density": 326.6,
    "position_along": 0.25,
    "protected_area_score": 6.403,
    "rank": 5,
    "road_access_m": 74.8,
    "road_access_score": 1.0,
    "road_density_km_km2": 2.922,
    "robustness_pct": 62.0,
    "runoff_coeff_C": 0.0941,
    "seasonal_cv": 0.4208,
    "segment_id": 11,
    "segment_length_m": 3368.0655,
    "stream_order": 1,
    "superfund_score": 0.0,
    "tourism_amenity_density": 0.0796,
    "tri_facility_density": 0.2948,
    "usgs_mean_q_cfs": 10.474,
    "velocity_feasibility": 0.7,
    "water_intake_score": 2.5809
   },
   "type": "Feature"
  },
  {
   "geometry": {
    "coordinates": [
     -81.356108,
     35.375798
    ],
    "type": "Point"
   },
   "properties": {
    "accumulation": 33114.0,
    "bank_slope_deg": 17.32,
    "bank_slope_score": 0.5,
    "bank_slope_source": "nc-dps-lidar-dem03-cross-section",
    "beach_dist_km": 350.47,
    "bridge_proximity_bonus": 0.0,
    "catchment_area_km2": 3.3011,
    "channel_width_m": 5.12,
    "channel_width_score": 1.0,
    "composite_score": 41.2787,
    "cso_density": 0.0,
    "ej_index": 0.4178,
    "elevation_m": 260.5961,
    "estuary_dist_km": 483.35,
    "feasibility_score": 39.0625,
    "flood_q10_cfs": 503.55,
    "flow_score": 30.4398,
    "flow_velocity_ms": 0.0389,
    "generation_score": 28.0438,
    "impact_score": 64.6542,
    "impervious_pct": 5.49,
    "land_ownership": 1.0,
    "lat": 35.3758,
    "litter_complaint_density": 0.0,
    "lon": -81.3561,
    "navigable_dist_m": null,
    "npdes_points": 0,
    "pixel_col": 640.0,
    "pixel_row": 526.0,
    "population_density": 169.1,
    "position_along": 0.5,
    "protected_area_score": 6.4267,
    "rank": 6,
    "road_access_m": 306.1,
    "road_access_score": 0.8,
    "road_density_km_km2": 2.606,
    "robustness_pct": 24.5,
    "runoff_coeff_C": 0.0994,
    "seasonal_cv": 0.4172,
    "segment_id": 8,
    "segment_length_m": 1336.7329,
    "stream_order": 1,
    "superfund_score": 0.0,
    "tourism_amenity_density": 2.7056,
    "tri_facility_density": 0.0,
    "usgs_mean_q_cfs": 12.504,
    "velocity_feasibility": 0.3,
    "water_intake_score": 2.7188
   },
   "type": "Feature"
  },
  {
   "geometry": {
    "coordinates": [
     -81.38209,
     35.403784
    ],
    "type": "Point"
   },
   "properties": {
    "accumulation": 61889.0,
    "bank_slope_deg": 15.56,
    "bank_slope_score": 0.5,
    "bank_slope_source": "nc-dps-lidar-dem03-cross-section",
    "beach_dist_km": 353.77,
    "bridge_proximity_bonus": 0.0,
    "catchment_area_km2": 6.1696,
    "channel_width_m": 6.64,
    "channel_width_score": 1.0,
    "composite_score": 40.0936,
    "cso_density": 0.0,
    "ej_index": 0.2367,
    "elevation_m": 247.5677,
    "estuary_dist_km": 485.86,
    "feasibility_score": 34.5982,
    "flood_q10_cfs": 821.4,
    "flow_score": 47.6988,
    "flow_velocity_ms": 0.1378,
    "generation_score": 36.0567,
    "impact_score": 40.5404,
    "impervious_pct": 6.52,
    "land_ownership": 0.5,
    "lat": 35.4038,
    "litter_complaint_density": 0.0,
    "lon": -81.3821,
    "navigable_dist_m": null,
    "npdes_points": 2,
    "pixel_col": 404.0,
    "pixel_row": 213.0,
    "population_density": 138.2,
    "position_along": 0.75,
    "protected_area_score": 6.5152,
    "rank": 7,
    "road_access_m": 359.2,
    "road_access_score": 0.8,
    "road_density_km_km2": 2.074,
    "robustness_pct": 9.5,
    "runoff_coeff_C": 0.1087,
    "seasonal_cv": 0.4135,
    "segment_id": 6,
    "segment_length_m": 3158.9811,
    "stream_order": 3,
    "superfund_score": 0.0,
    "tourism_amenity_density": 0.6366,
    "tri_facility_density": 0.0,
    "usgs_mean_q_cfs": 7.558,
    "velocity_feasibility": 0.7,
    "water_intake_score": 2.7522
   },
   "type": "Feature"
  },
  {
   "geometry": {
    "coordinates": [
     -81.339367,
     35.4177
    ],
    "type": "Point"
   },
   "properties": {
    "accumulation": 88955.0,
    "bank_slope_deg": 28.85,
    "bank_slope_score": 0.5,
    "bank_slope_source": "nc-dps-lidar-dem03-cross-section",
    "beach_dist_km": 350.73,
    "bridge_proximity_bonus": 0.0,
    "catchment_area_km2": 8.8678,
    "channel_width_m": 7.72,
    "channel_width_score": 1.0,
    "composite_score": 38.0431,
    "cso_density": 0.0,
    "ej_index": 0.3227,
    "elevation_m": 234.8688,
    "estuary_dist_km": 482.08,
    "feasibility_score": 29.6875,
    "flood_q10_cfs": 957.0,
    "flow_score": 60.491,
    "flow_velocity_ms": 0.5,
    "generation_score": 3.3134,
    "impact_score": 58.244,
    "impervious_pct": null,
    "land_ownership": 0.5,
    "lat": 35.4177,
    "litter_complaint_density": 0.0,
    "lon": -81.3394,
    "navigable_dist_m": null,
    "npdes_points": 0,
    "pixel_col": 794.0,
    "pixel_row": 61.0,
    "population_density": 76.6,
    "position_along": 0.5,
    "protected_area_score": 6.7847,
    "rank": 8,
    "road_access_m": 644.1,
    "road_access_score": 0.6,
    "road_density_km_km2": 0.569,
    "robustness_pct": 21.0,
    "runoff_coeff_C": null,
    "seasonal_cv": null,
    "segment_id": 3,
    "segment_length_m": 1785.8584,
    "stream_order": 3,
    "superfund_score": 0.0,
    "tourism_amenity_density": 0.0,
    "tri_facility_density": 0.0,
    "usgs_mean_q_cfs": null,
    "velocity_feasibility": 1.0,
    "water_intake_score": 2.7579
   },
   "type": "Feature"
  },
  {
   "geometry": {
    "coordinates": [
     -81.378234,
     35.402098
    ],
    "type": "Point"
   },
   "properties": {
    "accumulation": 26313.0,
    "bank_slope_deg": 9.9,
    "bank_slope_score": 1.0,
    "bank_slope_source": "nc-dps-lidar-dem03-cross-section",
    "beach_dist_km": 353.38,
    "bridge_proximity_bonus": 0.0,
    "catchment_area_km2": 2.6231,
    "channel_width_m": 4.66,
    "channel_width_score": 1.0,
    "composite_score": 37.977,
    "cso_density": 0.0,
    "ej_index": 0.2358,
    "elevation_m": 249.3052,
    "estuary_dist_km": 485.5,
    "feasibility_score": 42.4107,
    "flood_q10_cfs": 431.16,
    "flow_score": 35.3657,
    "flow_velocity_ms": 0.1033,
    "generation_score": 31.6612,
    "impact_score": 44.252,
    "impervious_pct": 6.52,
    "land_ownership": 0.5,
    "lat": 35.4021,
    "litter_complaint_density": 0.0,
    "lon": -81.3782,
    "navigable_dist_m": null,
    "npdes_points": 1,
    "pixel_col": 437.0,
    "pixel_row": 231.0,
    "population_density": 137.6,
    "position_along": 0.5,
    "protected_area_score": 6.5235,
    "rank": 9,
    "road_access_m": 299.8,
    "road_access_score": 0.8,
    "road_density_km_km2": 2.335,
    "robustness_pct": 0.0,
    "runoff_coeff_C": 0.1087,
    "seasonal_cv": 0.4135,
    "segment_id": 4,
    "segment_length_m": 1700.6007,
    "stream_order": 3,
    "superfund_score": 0.0,
    "tourism_amenity_density": 1.0345,
    "tri_facility_density": 0.0,
    "usgs_mean_q_cfs": 7.558,
    "velocity_feasibility": 0.7,
    "water_intake_score": 2.7625
   },
   "type": "Feature"
  },
  {
   "geometry": {
    "coordinates": [
     -81.332051,
     35.374834
    ],
    "type": "Point"
   },
   "properties": {
    "accumulation": 20393.0,
    "bank_slope_deg": 11.26,
    "bank_slope_score": 1.0,
    "bank_slope_source": "nc-dps-lidar-dem03-cross-section",
    "beach_dist_km": 348.39,
    "bridge_proximity_bonus": 0.0,
    "catchment_area_km2": 2.0329,
    "channel_width_m": 4.19,
    "channel_width_score": 1.0,
    "composite_score": 35.6407,
    "cso_density": 0.0,
    "ej_index": 0.5169,
    "elevation_m": 255.8511,
    "estuary_dist_km": 481.17,
    "feasibility_score": 53.125,
    "flood_q10_cfs": 317.44,
    "flow_score": 26.0,
    "flow_velocity_ms": 0.5,
    "generation_score": 3.7016,
    "impact_score": 66.8714,
    "impervious_pct": null,
    "land_ownership": 0.5,
    "lat": 35.3748,
    "litter_complaint_density": 0.0,
    "lon": -81.3321,
    "navigable_dist_m": null,
    "npdes_points": 0,
    "pixel_col": 858.0,
    "pixel_row": 536.0,
    "population_density": 75.1,
    "position_along": 0.5,
    "protected_area_score": 6.4345,
    "rank": 10,
    "road_access_m": 325.5,
    "road_access_score": 0.8,
    "road_density_km_km2": 0.741,
    "robustness_pct": 10.5,
    "runoff_coeff_C": null,
    "seasonal_cv": null,
    "segment_id": 9,
    "segment_length_m": 54.0576,
    "stream_order": 1,
    "superfund_score": 0.0,
    "tourism_amenity_density": 0.0,
    "tri_facility_density": 0.0,
    "usgs_mean_q_cfs": null,
    "velocity_feasibility": 1.0,
    "water_intake_score": 2.7252
   },
   "type": "Feature"
  },
  {
   "geometry": {
    "coordinates": [
     -81.346892,
     35.413846
    ],
    "type": "Point"
   },
   "properties": {
    "accumulation": 20921.0,
    "bank_slope_deg": 8.94,
    "bank_slope_score": 1.0,
    "bank_slope_source": "nc-dps-lidar-dem03-cross-section",
    "beach_dist_km": 351.2,
    "bridge_proximity_bonus": 0.0,
    "catchment_area_km2": 2.0856,
    "channel_width_m": 4.23,
    "channel_width_score": 1.0,
    "composite_score": 34.7911,
    "cso_density": 0.0,
    "ej_index": 0.3024,
    "elevation_m": 236.8004,
    "estuary_dist_km": 482.74,
    "feasibility_score": 37.5,
    "flood_q10_cfs": 323.62,
    "flow_score": 40.176,
    "flow_velocity_ms": 0.5,
    "generation_score": 5.2375,
    "impact_score": 58.5027,
    "impervious_pct": null,
    "land_ownership": 0.5,
    "lat": 35.4138,
    "litter_complaint_density": 0.0,
    "lon": -81.3469,
    "navigable_dist_m": null,
    "npdes_points": 0,
    "pixel_col": 725.0,
    "pixel_row": 105.0,
    "population_density": 85.2,
    "position_along": 0.5,
    "protected_area_score": 6.8428,
    "rank": 11,
    "road_access_m": 605.0,
    "road_access_score": 0.6,
    "road_density_km_km2": 0.964,
    "robustness_pct": 0.0,
    "runoff_coeff_C": null,
    "seasonal_cv": null,
    "segment_id": 1,
    "segment_length_m": 275.1334,
    "stream_order": 3,
    "superfund_score": 0.0,
    "tourism_amenity_density": 0.0,
    "tri_facility_density": 0.0,
    "usgs_mean_q_cfs": null,
    "velocity_feasibility": 1.0,
    "water_intake_score": 2.7943
   },
   "type": "Feature"
  },
  {
   "geometry": {
    "coordinates": [
     -81.413975,
     35.368249
    ],
    "type": "Point"
   },
   "properties": {
    "accumulation": 64695.0,
    "bank_slope_deg": 3.37,
    "bank_slope_score": 1.0,
    "bank_slope_source": "nc-dps-lidar-dem03-cross-section",
    "beach_dist_km": 355.09,
    "bridge_proximity_bonus": 0.0,
    "catchment_area_km2": 6.4493,
    "channel_width_m": 6.76,
    "channel_width_score": 1.0,
    "composite_score": 31.9683,
    "cso_density": 0.0,
    "ej_index": 0.4889,
    "elevation_m": 247.5163,
    "estuary_dist_km": 488.55,
    "feasibility_score": 42.4107,
    "flood_q10_cfs": 785.4,
    "flow_score": 33.9187,
    "flow_velocity_ms": 0.1694,
    "generation_score": 31.4735,
    "impact_score": 25.6165,
    "impervious_pct": 2.05,
    "land_ownership": 0.5,
    "lat": 35.3682,
    "litter_complaint_density": 0.0,
    "lon": -81.414,
    "navigable_dist_m": null,
    "npdes_points": 1,
    "pixel_col": 111.0,
    "pixel_row": 610.0,
    "population_density": 128.8,
    "position_along": 0.5,
    "protected_area_score": 6.2606,
    "rank": 12,
    "road_access_m": 231.5,
    "road_access_score": 0.8,
    "road_density_km_km2": 1.377,
    "robustness_pct": 0.0,
    "runoff_coeff_C": 0.0684,
    "seasonal_cv": 0.4198,
    "segment_id": 5,
    "segment_length_m": 5816.1982,
    "stream_order": 1,
    "superfund_score": 0.0,
    "tourism_amenity_density": 0.0796,
    "tri_facility_density": 0.1551,
    "usgs_mean_q_cfs": 8.121,
    "velocity_feasibility": 0.7,
    "water_intake_score": 2.5424
   },
   "type": "Feature"
  },
  {
   "geometry": {
    "coordinates": [
     -81.378346,
     35.355437
    ],
    "type": "Point"
   },
   "properties": {
    "accumulation": 30786.0,
    "bank_slope_deg": 16.49,
    "bank_slope_score": 0.5,
    "bank_slope_source": "nc-dps-lidar-dem03-cross-section",
    "beach_dist_km": 351.56,
    "bridge_proximity_bonus": 0.0,
    "catchment_area_km2": 3.069,
    "channel_width_m": 4.97,
    "channel_width_score": 1.0,
    "composite_score": 31.6277,
    "cso_density": 0.0,
    "ej_index": 0.5692,
    "elevation_m": 253.646,
    "estuary_dist_km": 485.26,
    "feasibility_score": 34.5982,
    "flood_q10_cfs": 471.74,
    "flow_score": 27.2242,
    "flow_velocity_ms": 0.1075,
    "generation_score": 18.3818,
    "impact_score": 47.0578,
    "impervious_pct": 4.9,
    "land_ownership": 0.5,
    "lat": 35.3554,
    "litter_complaint_density": 0.0,
    "lon": -81.3783,
    "navigable_dist_m": null,
    "npdes_points": 0,
    "pixel_col": 436.0,
    "pixel_row": 754.0,
    "population_density": 94.7,
    "position_along": 0.25,
    "protected_area_score": 5.9674,
    "rank": 13,
    "road_access_m": 258.3,
    "road_access_score": 0.8,
    "road_density_km_km2": 1.895,
    "robustness_pct": 0.0,
    "runoff_coeff_C": 0.0941,
    "seasonal_cv": 0.4208,
    "segment_id": 12,
    "segment_length_m": 3626.6562,
    "stream_order": 1,
    "superfund_score": 0.0,
    "tourism_amenity_density": 0.557,
    "tri_facility_density": 0.0,
    "usgs_mean_q_cfs": 10.474,
    "velocity_feasibility": 0.7,
    "water_intake_score": 2.6424
   },
   "type": "Feature"
  },
  {
   "geometry": {
    "coordinates": [
     -81.388406,
     35.348391
    ],
    "type": "Point"
   },
   "properties": {
    "accumulation": 47231.0,
    "bank_slope_deg": 11.76,
    "bank_slope_score": 1.0,
    "bank_slope_source": "nc-dps-lidar-dem03-cross-section",
    "beach_dist_km": 352.15,
    "bridge_proximity_bonus": 0.2,
    "catchment_area_km2": 4.7084,
    "channel_width_m": 5.93,
    "channel_width_score": 1.0,
    "composite_score": 29.7684,
    "cso_density": 0.0,
    "ej_index": 0.6254,
    "elevation_m": 243.0206,
    "estuary_dist_km": 486.14,
    "feasibility_score": 39.2857,
    "flood_q10_cfs": 651.3,
    "flow_score": 32.2913,
    "flow_velocity_ms": 0.098,
    "generation_score": 15.8479,
    "impact_score": 36.8279,
    "impervious_pct": 4.9,
    "land_ownership": 0.5,
    "lat": 35.3484,
    "litter_complaint_density": 0.0,
    "lon": -81.3884,
    "navigable_dist_m": null,
    "npdes_points": 0,
    "pixel_col": 341.0,
    "pixel_row": 829.0,
    "population_density": 103.8,
    "position_along": 0.75,
    "protected_area_score": 5.5089,
    "rank": 14,
    "road_access_m": 553.4,
    "road_access_score": 0.6,
    "road_density_km_km2": 0.792,
    "robustness_pct": 0.0,
    "runoff_coeff_C": 0.0941,
    "seasonal_cv": 0.4208,
    "segment_id": 12,
    "segment_length_m": 3626.6562,
    "stream_order": 1,
    "superfund_score": 0.0,
    "tourism_amenity_density": 0.0,
    "tri_facility_density": 0.0,
    "usgs_mean_q_cfs": 10.474,
    "velocity_feasibility": 0.7,
    "water_intake_score": 2.6077
   },
   "type": "Feature"
  },
  {
   "geometry": {
    "coordinates": [
     -81.397948,
     35.351927
    ],
    "type": "Point"
   },
   "properties": {
    "accumulation": 57856.0,
    "bank_slope_deg": 18.75,
    "bank_slope_score": 0.5,
    "bank_slope_source": "nc-dps-lidar-dem03-cross-section",
    "beach_dist_km": 353.1,
    "bridge_proximity_bonus": 0.0,
    "catchment_area_km2": 5.7676,
    "channel_width_m": 6.46,
    "channel_width_score": 1.0,
    "composite_score": 29.3709,
    "cso_density": 0.0,
    "ej_index": 0.5845,
    "elevation_m": 241.8702,
    "estuary_dist_km": 487.02,
    "feasibility_score": 34.5982,
    "flood_q10_cfs": 758.9,
    "flow_score": 36.4798,
    "flow_velocity_ms": 0.1342,
    "generation_score": 18.6598,
    "impact_score": 31.5441,
    "impervious_pct": 4.9,
    "land_ownership": 0.5,
    "lat": 35.3519,
    "litter_complaint_density": 0.0,
    "lon": -81.3979,
    "navigable_dist_m": null,
    "npdes_points": 0,
    "pixel_col": 255.0,
    "pixel_row": 792.0,
    "population_density": 127.7,
    "position_along": 0.75,
    "protected_area_score": 5.6452,
    "rank": 15,
    "road_access_m": 335.5,
    "road_access_score": 0.8,
    "road_density_km_km2": 1.046,
    "robustness_pct": 0.0,
    "runoff_coeff_C": 0.0941,
    "seasonal_cv": 0.4208,
    "segment_id": 11,
    "segment_length_m": 3368.0655,
    "stream_order": 1,
    "superfund_score": 0.0,
    "tourism_amenity_density": 0.0796,
    "tri_facility_density": 0.0,
    "usgs_mean_q_cfs": 10.474,
    "velocity_feasibility": 0.7,
    "water_intake_score": 2.5793
   },
   "type": "Feature"
  },
  {
   "geometry": {
    "coordinates": [
     -81.409983,
     35.353161
    ],
    "type": "Point"
   },
   "properties": {
    "accumulation": 107499.0,
    "bank_slope_deg": 20.06,
    "bank_slope_score": 0.5,
    "bank_slope_source": "nc-dps-lidar-dem03-cross-section",
    "beach_dist_km": 354.17,
    "bridge_proximity_bonus": 0.0,
    "catchment_area_km2": 10.7164,
    "channel_width_m": 8.35,
    "channel_width_score": 1.0,
    "composite_score": 28.005,
    "cso_density": 0.0,
    "ej_index": 0.564,
    "elevation_m": 240.023,
    "estuary_dist_km": 488.12,
    "feasibility_score": 34.5982,
    "flood_q10_cfs": 1093.36,
    "flow_score": 44.0837,
    "flow_velocity_ms": 0.1204,
    "generation_score": 10.6937,
    "impact_score": 28.6209,
    "impervious_pct": 2.05,
    "land_ownership": 0.5,
    "lat": 35.3532,
    "litter_complaint_density": 0.0,
    "lon": -81.41,
    "navigable_dist_m": null,
    "npdes_points": 0,
    "pixel_col": 147.0,
    "pixel_row": 778.0,
    "population_density": 109.3,
    "position_along": 0.8333,
    "protected_area_score": 6.0239,
    "rank": 16,
    "road_access_m": 467.3,
    "road_access_score": 0.8,
    "road_density_km_km2": 0.765,
    "robustness_pct": 0.0,
    "runoff_coeff_C": 0.0684,
    "seasonal_cv": 0.4198,
    "segment_id": 5,
    "segment_length_m": 5816.1982,
    "stream_order": 1,
    "superfund_score": 0.0,
    "tourism_amenity_density": 0.0,
    "tri_facility_density": 0.0,
    "usgs_mean_q_cfs": 8.121,
    "velocity_feasibility": 0.7,
    "water_intake_score": 2.5449
   },
   "type": "Feature"
  },
  {
   "geometry": {
    "coordinates": [
     -81.419463,
     35.383308
    ],
    "type": "Point"
   },
   "properties": {
    "accumulation": 31390.0,
    "bank_slope_deg": 29.26,
    "bank_slope_score": 0.5,
    "bank_slope_source": "nc-dps-lidar-dem03-cross-section",
    "beach_dist_km": 356.14,
    "bridge_proximity_bonus": 0.0,
    "catchment_area_km2": 3.1292,
    "channel_width_m": 5.01,
    "channel_width_score": 1.0,
    "composite_score": 20.1247,
    "cso_density": 0.0,
    "ej_index": 0.564,
    "elevation_m": 262.3239,
    "estuary_dist_km": 489.13,
    "feasibility_score": 18.9732,
    "flood_q10_cfs": 455.41,
    "flow_score": 23.7648,
    "flow_velocity_ms": 0.1721,
    "generation_score": 9.9669,
    "impact_score": 27.8248,
    "impervious_pct": 2.05,
    "land_ownership": 0.5,
    "lat": 35.3833,
    "litter_complaint_density": 0.0,
    "lon": -81.4195,
    "navigable_dist_m": null,
    "npdes_points": 0,
    "pixel_col": 64.0,
    "pixel_row": 443.0,
    "population_density": 92.2,
    "position_along": 0.1667,
    "protected_area_score": 6.3799,
    "rank": 17,
    "road_access_m": 658.3,
    "road_access_score": 0.6,
    "road_density_km_km2": 1.011,
    "robustness_pct": 0.0,
    "runoff_coeff_C": 0.0684,
    "seasonal_cv": 0.4198,
    "segment_id": 5,
    "segment_length_m": 5816.1982,
    "stream_order": 1,
    "superfund_score": 0.0,
    "tourism_amenity_density": 0.0,
    "tri_facility_density": 0.0,
    "usgs_mean_q_cfs": 8.121,
    "velocity_feasibility": 0.7,
    "water_intake_score": 2.5437
   },
   "type": "Feature"
  },
  {
   "geometry": {
    "coordinates": [
     -81.404175,
     35.422508
    ],
    "type": "Point"
   },
   "properties": {
    "accumulation": 32471.0,
    "bank_slope_deg": 30.65,
    "bank_slope_score": 0.2,
    "bank_slope_source": "nc-dps-lidar-dem03-cross-section",
    "beach_dist_km": 356.39,
    "bridge_proximity_bonus": 0.0,
    "catchment_area_km2": 3.237,
    "channel_width_m": 5.08,
    "channel_width_score": 1.0,
    "composite_score": 17.9181,
    "cso_density": 0.0,
    "ej_index": 0.3894,
    "elevation_m": 258.9387,
    "estuary_dist_km": 487.98,
    "feasibility_score": 14.2857,
    "flood_q10_cfs": 461.98,
    "flow_score": 26.3287,
    "flow_velocity_ms": 0.1216,
    "generation_score": 2.7431,
    "impact_score": 27.9006,
    "impervious_pct": 1.41,
    "land_ownership": 0.5,
    "lat": 35.4225,
    "litter_complaint_density": 0.0,
    "lon": -81.4042,
    "navigable_dist_m": null,
    "npdes_points": 0,
    "pixel_col": 203.0,
    "pixel_row": 8.0,
    "population_density": 57.4,
    "position_along": 0.5,
    "protected_area_score": 6.5811,
    "rank": 18,
    "road_access_m": 996.7,
    "road_access_score": 0.6,
    "road_density_km_km2": 0.014,
    "robustness_pct": 0.0,
    "runoff_coeff_C": 0.0627,
    "seasonal_cv": 0.4156,
    "segment_id": 0,
    "segment_length_m": 1694.8737,
    "stream_order": 1,
    "superfund_score": 0.0,
    "tourism_amenity_density": 0.0,
    "tri_facility_density": 0.0,
    "usgs_mean_q_cfs": 10.256,
    "velocity_feasibility": 0.7,
    "water_intake_score": 2.6078
   },
   "type": "Feature"
  }
 ],
 "note": "GRIME region 'Cherryville, NC' \u2014 real-data pipeline (DEM\u2192streams\u2192candidates\u2192stream mask (sites confined to \u00b1150 m of mapped OSM/NHD waterways)\u2192region-appropriate real parameters\u2192shipped scoring, math unchanged). Width curve: Bieger et al. 2015 JAWRA Table 3, Appalachian Highlands. Flood: SIR 2014-5030 HR1. NC Piedmont (DEQ physiography polygon)",
 "provenance": {
  "candidates_pre_gate": 18,
  "constant": [
   "channel_width_score",
   "cso_density",
   "litter_complaint_density",
   "superfund_score"
  ],
  "gated_navigable": 0,
  "hard_gate_removed": 0,
  "n_parameters": 27,
  "parameters": {
   "bank_slope_score": {
    "kind": "real",
    "n_3dep_10m_fallback": 0,
    "n_nc_lidar_3_125ft": 18,
    "n_real": 18,
    "n_sites": 18,
    "source": "NC OneMap / NC DPS DEM03 statewide lidar-derived 3.125-ft (0.953 m) elevations (perpendicular 50 m transect; robust 5 m bank-rise metric); unavailable profiles use the region 10 m 3DEP DEM-gradient fallback",
    "source_mosaics": [
     "Cleveland_Ground_3ft",
     "Gaston_Ground_3ft",
     "Lincoln_Ground_3ft"
    ]
   },
   "beach_dist_km": {
    "kind": "real",
    "n_real": 18,
    "n_sites": 18,
    "source": "haversine to region ref: Wrightsville Beach (shipped NC reference)"
   },
   "bridge_proximity_bonus": {
    "kind": "real",
    "n_real": 18,
    "n_sites": 18,
    "source": "FHWA/BTS NBI (NTAD), 50 m proximity"
   },
   "catchment_area_km2": {
    "kind": "real",
    "n_real": 18,
    "n_sites": 18,
    "source": "DEM flow accumulation (pipeline)"
   },
   "channel_width_score": {
    "kind": "real",
    "n_real": 18,
    "n_sites": 18,
    "source": "Bieger 2015 AHI width curve on DEM drainage area \u2192 shipped width curve"
   },
   "cso_density": {
    "kind": "real",
    "n_real": 18,
    "n_sites": 18,
    "source": "EPA ECHO open CSO/TCS outfall PF coordinates states=NC, Cauchy proximity"
   },
   "ej_index": {
    "kind": "real",
    "n_real": 18,
    "n_sites": 18,
    "source": "Census ACS C17002+B03002 two-component demographic index, percentile-ranked within region"
   },
   "estuary_dist_km": {
    "kind": "real",
    "n_real": 18,
    "n_sites": 18,
    "source": "haversine to region ref: Pamlico Sound (shipped NC reference)"
   },
   "flood_q10_cfs": {
    "impervious_fallback_reason": "StreamCat imperviousness unavailable; the existing regression-input fallback of 0.0% impervious was used and is disclosed here",
    "kind": "real",
    "n_impervious_fallback": 3,
    "n_real": 18,
    "n_sites": 18,
    "source": "USGS SIR 2014-5030 Table 7 HR1 (NC Piedmont)"
   },
   "flow_velocity_ms": {
    "fallback_reason": "EROM/DEM continuity input unavailable; shipped 0.5 m/s default used",
    "kind": "real",
    "n_fallback": 3,
    "n_real": 15,
    "n_sites": 18,
    "source": "Manning (region DEM/D8) blended with EROM continuity (shipped M4 logic)"
   },
   "impervious_pct": {
    "fallback_reason": "NLDI/StreamCat did not return a snap-compatible catchment value; value remains null and is removed by constant-column handling",
    "kind": "real",
    "n_fallback": 3,
    "n_real": 15,
    "n_sites": 18,
    "source": "EPA StreamCat pctimp2019 (per NHDPlus watershed)"
   },
   "land_ownership": {
    "fallback_reason": "no containing parcel owner returned; shipped unknown ownership 0.5 used",
    "kind": "real",
    "n_fallback": 1,
    "n_real": 17,
    "n_sites": 18,
    "source": "NC OneMap statewide parcels (NC Parcels Transformer) ownname"
   },
   "litter_complaint_density": {
    "kind": "fallback",
    "n_real": 0,
    "n_sites": 18,
    "source": "no public machine-readable litter/illegal-dumping feed for this region"
   },
   "navigable_dist_m": {
    "kind": "real",
    "n_real": 18,
    "n_sites": 18,
    "source": "USACE/BTS NWN (NTAD): no navigable segment within this bbox (+2 km) \u2014 computed absence, gate passes all sites"
   },
   "npdes_points": {
    "kind": "real",
    "n_real": 18,
    "n_sites": 18,
    "source": "EPA ECHO active NPDES outfalls states=NC (types NPD/GPC/NGP; statuses ADC/EFF/EXP), per catchment"
   },
   "population_density": {
    "kind": "real",
    "n_real": 18,
    "n_sites": 18,
    "source": "Census ACS 2022 B01003 block groups (bbox, multi-county), area-weighted"
   },
   "protected_area_score": {
    "kind": "real",
    "n_real": 18,
    "n_sites": 18,
    "source": "USGS PAD-US 4.1 state GDB; states=NC; shipped designation-weighted proximity curve"
   },
   "road_access_score": {
    "kind": "real",
    "n_real": 18,
    "n_sites": 18,
    "source": "OSM drive network nearest-node distance"
   },
   "road_density_km_km2": {
    "kind": "real",
    "n_real": 18,
    "n_sites": 18,
    "source": "OSM drive network (osmnx, cached) clipped per catchment"
   },
   "runoff_coeff_C": {
    "fallback_reason": "source impervious_pct was unavailable; derived value remains null",
    "kind": "real",
    "n_fallback": 3,
    "n_real": 15,
    "n_sites": 18,
    "source": "derived from real impervious_pct (C=0.05+0.009*I)"
   },
   "seasonal_cv": {
    "fallback_reason": "NHDPlus monthly EROM was unavailable or failed the drainage-area snap guard; value remains null",
    "kind": "real",
    "n_fallback": 3,
    "n_real": 15,
    "n_sites": 18,
    "source": "CV of NHDPlus EROM monthly flows per COMID"
   },
   "stream_order": {
    "kind": "real",
    "n_real": 18,
    "n_sites": 18,
    "source": "DEM stream-network confluence heuristic (pipeline)"
   },
   "superfund_score": {
    "kind": "real",
    "n_real": 18,
    "n_sites": 18,
    "source": "EPA DataMap SEMS active sites states=NC (non-archived, georeferenced), shipped 500 m inverse-distance curve"
   },
   "tourism_amenity_density": {
    "kind": "real",
    "n_real": 18,
    "n_sites": 18,
    "source": "OSM leisure/tourism features per 2 km radius"
   },
   "tri_facility_density": {
    "kind": "real",
    "n_real": 18,
    "n_sites": 18,
    "source": "EPA DataMap TRI open facilities states=NC (preferred decimal or packed-DMS recovery), per catchment"
   },
   "usgs_mean_q_cfs": {
    "fallback_reason": "NHDPlus EROM was unavailable or failed the drainage-area snap guard; value remains null",
    "kind": "real",
    "n_fallback": 3,
    "n_real": 15,
    "n_sites": 18,
    "source": "NHDPlus EROM qe_ma per COMID (snap-guarded)"
   },
   "velocity_feasibility": {
    "fallback_reason": "derived from the shipped 0.5 m/s velocity fallback",
    "kind": "real",
    "n_fallback": 3,
    "n_real": 15,
    "n_sites": 18,
    "source": "shipped step curve on the computed velocity"
   },
   "velocity_transport_favorability": {
    "fallback_reason": "EROM/DEM continuity input unavailable; shipped 0.5 m/s default used",
    "kind": "derived",
    "n_fallback": 3,
    "n_real": 15,
    "n_sites": 18,
    "source": "scored form of flow_velocity_ms inside the Flow family \u2014 peaked Gaussian exp(-((v-0.9)/0.6)^2), model.json curves.velocity_transport_favorability; construct: transport/delivery favorability, deliberately distinct from velocity_feasibility (device operability)"
   },
   "water_intake_score": {
    "kind": "real",
    "n_real": 18,
    "n_sites": 18,
    "source": "NC OneMap / NC DEQ SWAP public water supply sources (source_typ='Surface Water'), shipped exp(-d/10km) curve"
   }
  },
  "stream_mask": {
   "buffer_m": 150.0,
   "pre_mask": 18,
   "removed": 0,
   "sources": [
    "osm-overpass (all waterway ways)",
    "usgs-nhdplus flowlines"
   ]
  },
  "varying": [
   "bank_slope_score",
   "beach_dist_km",
   "bridge_proximity_bonus",
   "catchment_area_km2",
   "ej_index",
   "estuary_dist_km",
   "flood_q10_cfs",
   "flow_velocity_ms",
   "impervious_pct",
   "land_ownership",
   "npdes_points",
   "population_density",
   "protected_area_score",
   "road_access_score",
   "road_density_km_km2",
   "runoff_coeff_C",
   "seasonal_cv",
   "stream_order",
   "tourism_amenity_density",
   "tri_facility_density",
   "usgs_mean_q_cfs",
   "velocity_feasibility",
   "water_intake_score"
  ]
 },
 "region": {
  "bbox": [
   -81.4261,
   35.3461,
   -81.3318,
   35.423
  ],
  "beach_ref": {
   "label": "Wrightsville Beach (shipped NC reference)",
   "lat": 34.21,
   "lon": -77.79
  },
  "center": [
   -81.378942,
   35.384566
  ],
  "estuary_ref": {
   "label": "Pamlico Sound (shipped NC reference)",
   "lat": 35.05,
   "lon": -76.05
  },
  "flood_method": "sir2014_hr1",
  "name": "Cherryville, NC",
  "notes": "NC Piedmont (DEQ physiography polygon)",
  "slug": "cherryville",
  "state": "NC",
  "utm_epsg": 32617,
  "width_curve": {
   "a": 3.12,
   "b": 0.415,
   "code": "AHI",
   "source": "Bieger et al. 2015 JAWRA Table 3, Appalachian Highlands"
  }
 },
 "type": "FeatureCollection"
}
