{
 "features": [
  {
   "geometry": {
    "coordinates": [
     -87.65635,
     41.825727
    ],
    "type": "Point"
   },
   "properties": {
    "accumulation": 26949.0,
    "bank_slope_deg": 0.39,
    "bank_slope_score": 1.0,
    "beach_dist_km": 15.77,
    "bridge_proximity_bonus": 0.0,
    "catchment_area_km2": 2.6872,
    "channel_width_m": 3.62,
    "channel_width_score": 1.0,
    "composite_score": 50.0,
    "cso_density": 0.039,
    "ej_index": 0.5458,
    "elevation_m": 179.9661,
    "estuary_dist_km": 8.54,
    "feasibility_score": 50.0,
    "flood_q10_cfs": null,
    "flow_score": 50.0,
    "flow_velocity_ms": 0.5,
    "generation_score": 50.0,
    "impact_score": 50.0,
    "impervious_pct": null,
    "land_ownership": 0.5,
    "lat": 41.8257,
    "litter_complaint_density": 0.0,
    "lon": -87.6563,
    "navigable_dist_m": null,
    "npdes_points": 5,
    "pixel_col": 989.0,
    "pixel_row": 1112.0,
    "population_density": 2105.4,
    "position_along": 0.5,
    "protected_area_score": 0.0,
    "rank": 1,
    "road_access_m": 88.9,
    "road_access_score": 1.0,
    "road_density_km_km2": 8.548,
    "robustness_pct": 100.0,
    "runoff_coeff_C": null,
    "seasonal_cv": null,
    "segment_id": 23,
    "segment_length_m": 1625.0786,
    "stream_order": 1,
    "superfund_score": 1.3472,
    "tourism_amenity_density": 15.3585,
    "tri_facility_density": 3.3492,
    "usgs_mean_q_cfs": null,
    "velocity_feasibility": 1.0,
    "water_intake_score": 0.0
   },
   "type": "Feature"
  }
 ],
 "note": "GRIME region 'Chicago' \u2014 real-data pipeline (DEM\u2192streams\u2192candidates\u2192stream mask (sites confined to \u00b1150 m of mapped OSM/NHD waterways)\u2192region-appropriate real parameters\u2192shipped scoring, math unchanged). Width curve: Bieger et al. 2015 JAWRA Table 3, Interior Plains. Flood: not applicable here (documented fallback). Great Lakes basin: receiving water is Lake Michigan, not an ocean estuary \u2014 estuary_dist repurposed as distance-to-receiving-water, documented",
 "provenance": {
  "candidates_pre_gate": 1,
  "constant": [
   "bank_slope_score",
   "beach_dist_km",
   "bridge_proximity_bonus",
   "catchment_area_km2",
   "channel_width_score",
   "cso_density",
   "ej_index",
   "estuary_dist_km",
   "flood_q10_cfs",
   "flow_velocity_ms",
   "impervious_pct",
   "land_ownership",
   "litter_complaint_density",
   "npdes_points",
   "population_density",
   "protected_area_score",
   "road_access_score",
   "road_density_km_km2",
   "runoff_coeff_C",
   "seasonal_cv",
   "stream_order",
   "superfund_score",
   "tourism_amenity_density",
   "tri_facility_density",
   "usgs_mean_q_cfs",
   "velocity_feasibility",
   "water_intake_score"
  ],
  "gated_navigable": 0,
  "hard_gate_removed": 0,
  "n_parameters": 27,
  "parameters": {
   "bank_slope_score": {
    "kind": "real",
    "n_real": 1,
    "n_sites": 1,
    "source": "region DEM gradient (3x3)"
   },
   "beach_dist_km": {
    "kind": "real",
    "n_real": 1,
    "n_sites": 1,
    "source": "haversine to region ref: Montrose Beach"
   },
   "bridge_proximity_bonus": {
    "kind": "real",
    "n_real": 1,
    "n_sites": 1,
    "source": "FHWA/BTS NBI (NTAD), 50 m proximity"
   },
   "catchment_area_km2": {
    "kind": "real",
    "n_real": 1,
    "n_sites": 1,
    "source": "DEM flow accumulation (pipeline)"
   },
   "channel_width_score": {
    "kind": "real",
    "n_real": 1,
    "n_sites": 1,
    "source": "Bieger 2015 IPL width curve on DEM drainage area \u2192 shipped width curve"
   },
   "cso_density": {
    "kind": "real",
    "n_real": 1,
    "n_sites": 1,
    "source": "EPA ECHO CSO inventory (national bulk), Cauchy proximity"
   },
   "ej_index": {
    "kind": "real",
    "n_real": 1,
    "n_sites": 1,
    "source": "Census ACS C17002+B03002 two-component demographic index, percentile-ranked within region"
   },
   "estuary_dist_km": {
    "kind": "real",
    "n_real": 1,
    "n_sites": 1,
    "source": "haversine to region ref: Lake Michigan shoreline (receiving water; Great Lakes basin, not an ocean estuary)"
   },
   "flood_q10_cfs": {
    "kind": "fallback",
    "n_real": 0,
    "n_sites": 1,
    "source": "flood regression not valid here (Great Lakes basin: receiving water is Lake Michigan, not an ...) \u2014 NaN, dropped by constant-column handling"
   },
   "flow_velocity_ms": {
    "kind": "real",
    "n_real": 0,
    "n_sites": 1,
    "source": "Manning (region DEM/D8) blended with EROM continuity (shipped M4 logic)"
   },
   "impervious_pct": {
    "kind": "real",
    "n_real": 0,
    "n_sites": 1,
    "source": "EPA StreamCat pctimp2019 (per NHDPlus watershed)"
   },
   "land_ownership": {
    "kind": "fallback",
    "n_real": 0,
    "n_sites": 1,
    "source": "no parcel integration outside NC (statewide layer is NC OneMap) \u2014 unknown 0.5"
   },
   "litter_complaint_density": {
    "kind": "fallback",
    "n_real": 0,
    "n_sites": 1,
    "source": "no machine-readable 311/litter source for this region"
   },
   "navigable_dist_m": {
    "kind": "real",
    "n_real": 1,
    "n_sites": 1,
    "source": "USACE/BTS NWN (NTAD): no navigable segment within this bbox (+2 km) \u2014 computed absence, gate passes all sites"
   },
   "npdes_points": {
    "kind": "real",
    "n_real": 1,
    "n_sites": 1,
    "source": "EPA ECHO NPDES outfalls (national bulk), per catchment"
   },
   "population_density": {
    "kind": "real",
    "n_real": 1,
    "n_sites": 1,
    "source": "Census ACS 2022 B01003 block groups (bbox, multi-county), area-weighted"
   },
   "protected_area_score": {
    "kind": "fallback",
    "n_real": 0,
    "n_sites": 1,
    "source": "no local PAD-US 4.1 clip for this state (NC-only download)"
   },
   "road_access_score": {
    "kind": "real",
    "n_real": 1,
    "n_sites": 1,
    "source": "OSM drive network nearest-node distance"
   },
   "road_density_km_km2": {
    "kind": "real",
    "n_real": 1,
    "n_sites": 1,
    "source": "OSM drive network (osmnx, cached) clipped per catchment"
   },
   "runoff_coeff_C": {
    "kind": "real",
    "n_real": 0,
    "n_sites": 1,
    "source": "derived from real impervious_pct (C=0.05+0.009*I)"
   },
   "seasonal_cv": {
    "kind": "real",
    "n_real": 0,
    "n_sites": 1,
    "source": "CV of NHDPlus EROM monthly flows per COMID"
   },
   "stream_order": {
    "kind": "real",
    "n_real": 1,
    "n_sites": 1,
    "source": "DEM stream-network confluence heuristic (pipeline)"
   },
   "superfund_score": {
    "kind": "real",
    "n_real": 1,
    "n_sites": 1,
    "source": "EPA Envirofacts SEMS state=IL (sign-fixed, georeferenced sites), shipped 500 m inverse-distance curve"
   },
   "tourism_amenity_density": {
    "kind": "real",
    "n_real": 1,
    "n_sites": 1,
    "source": "OSM leisure/tourism features per 2 km radius"
   },
   "tri_facility_density": {
    "kind": "real",
    "n_real": 1,
    "n_sites": 1,
    "source": "EPA Envirofacts TRI state=IL (sign-fixed), per catchment"
   },
   "usgs_mean_q_cfs": {
    "kind": "real",
    "n_real": 0,
    "n_sites": 1,
    "source": "NHDPlus EROM qe_ma per COMID (snap-guarded)"
   },
   "velocity_feasibility": {
    "kind": "real",
    "n_real": 0,
    "n_sites": 1,
    "source": "shipped step curve on the computed velocity"
   },
   "velocity_transport_favorability": {
    "kind": "derived",
    "n_real": 0,
    "n_sites": 1,
    "source": "scored form of flow_velocity_ms inside the Flow family \u2014 peaked Gaussian exp(-((v-0.9)/0.6)^2), model.json curves.velocity_transport_favorability; construct: transport/delivery favorability, deliberately distinct from velocity_feasibility (device operability)"
   },
   "water_intake_score": {
    "kind": "fallback",
    "n_real": 0,
    "n_sites": 1,
    "source": "no public surface-intake layer wired outside NC (SWAP layer is NC-only)"
   }
  },
  "stream_mask": {
   "buffer_m": 150.0,
   "pre_mask": 49,
   "removed": 48,
   "sources": [
    "osm-overpass (all waterway ways)",
    "usgs-nhdplus flowlines"
   ]
  },
  "varying": []
 },
 "region": {
  "bbox": [
   -87.775,
   41.775,
   -87.525,
   41.925
  ],
  "beach_ref": {
   "label": "Montrose Beach",
   "lat": 41.967,
   "lon": -87.64
  },
  "center": [
   -87.65,
   41.85
  ],
  "estuary_ref": {
   "label": "Lake Michigan shoreline (receiving water; Great Lakes basin, not an ocean estuary)",
   "lat": 41.89,
   "lon": -87.6
  },
  "flood_method": "none",
  "name": "Chicago",
  "notes": "Great Lakes basin: receiving water is Lake Michigan, not an ocean estuary \u2014 estuary_dist repurposed as distance-to-receiving-water, documented",
  "slug": "chicago",
  "state": "IL",
  "utm_epsg": 32616,
  "width_curve": {
   "a": 2.56,
   "b": 0.351,
   "code": "IPL",
   "source": "Bieger et al. 2015 JAWRA Table 3, Interior Plains"
  }
 },
 "type": "FeatureCollection"
}
