{
 "features": [
  {
   "geometry": {
    "coordinates": [
     -78.652204,
     34.478304
    ],
    "type": "Point"
   },
   "properties": {
    "accumulation": 21527.0,
    "bank_slope_deg": 5.31,
    "bank_slope_score": 1.0,
    "bank_slope_source": "nc-dps-lidar-dem03-cross-section",
    "beach_dist_km": 84.59,
    "bridge_proximity_bonus": 0.0,
    "catchment_area_km2": 2.1473,
    "channel_width_m": 2.93,
    "channel_width_score": 1.0,
    "composite_score": 61.5021,
    "cso_density": 0.0,
    "ej_index": 0.8333,
    "elevation_m": 21.9562,
    "estuary_dist_km": 246.05,
    "feasibility_score": 42.8571,
    "flood_q10_cfs": 188.22,
    "flow_score": 43.1969,
    "flow_velocity_ms": 0.0712,
    "generation_score": 82.0965,
    "impact_score": 65.4847,
    "impervious_pct": 4.4,
    "land_ownership": 1.0,
    "lat": 34.4783,
    "litter_complaint_density": 0.0,
    "lon": -78.6522,
    "navigable_dist_m": null,
    "npdes_points": 0,
    "pixel_col": 240.0,
    "pixel_row": 321.0,
    "population_density": 44.6,
    "position_along": 0.5,
    "protected_area_score": 2.2478,
    "rank": 1,
    "road_access_m": 674.1,
    "road_access_score": 0.6,
    "road_density_km_km2": 1.258,
    "robustness_pct": 100.0,
    "runoff_coeff_C": 0.0896,
    "seasonal_cv": 0.4458,
    "segment_id": 1,
    "segment_length_m": 770.8707,
    "stream_order": 3,
    "superfund_score": 0.0,
    "tourism_amenity_density": 0.7162,
    "tri_facility_density": 0.0,
    "usgs_mean_q_cfs": 6.379,
    "velocity_feasibility": 0.7,
    "water_intake_score": 0.2005
   },
   "type": "Feature"
  },
  {
   "geometry": {
    "coordinates": [
     -78.648696,
     34.472138
    ],
    "type": "Point"
   },
   "properties": {
    "accumulation": 64360.0,
    "bank_slope_deg": 1.81,
    "bank_slope_score": 1.0,
    "bank_slope_source": "nc-dps-lidar-dem03-cross-section",
    "beach_dist_km": 84.05,
    "bridge_proximity_bonus": 0.0,
    "catchment_area_km2": 6.4199,
    "channel_width_m": 4.36,
    "channel_width_score": 1.0,
    "composite_score": 53.8522,
    "cso_density": 0.0,
    "ej_index": 0.8242,
    "elevation_m": 21.0201,
    "estuary_dist_km": 245.93,
    "feasibility_score": 33.3333,
    "flood_q10_cfs": 327.94,
    "flow_score": 72.0,
    "flow_velocity_ms": 0.5,
    "generation_score": 14.9272,
    "impact_score": 87.9135,
    "impervious_pct": null,
    "land_ownership": 0.5,
    "lat": 34.4721,
    "litter_complaint_density": 0.0,
    "lon": -78.6487,
    "navigable_dist_m": null,
    "npdes_points": 0,
    "pixel_col": 277.0,
    "pixel_row": 387.0,
    "population_density": 38.4,
    "position_along": 0.5,
    "protected_area_score": 2.4019,
    "rank": 2,
    "road_access_m": 1294.9,
    "road_access_score": 0.3,
    "road_density_km_km2": 0.32,
    "robustness_pct": 100.0,
    "runoff_coeff_C": null,
    "seasonal_cv": null,
    "segment_id": 3,
    "segment_length_m": 1358.5398,
    "stream_order": 3,
    "superfund_score": 0.0,
    "tourism_amenity_density": 0.3979,
    "tri_facility_density": 0.0,
    "usgs_mean_q_cfs": null,
    "velocity_feasibility": 1.0,
    "water_intake_score": 0.2044
   },
   "type": "Feature"
  },
  {
   "geometry": {
    "coordinates": [
     -78.657037,
     34.476554
    ],
    "type": "Point"
   },
   "properties": {
    "accumulation": 21345.0,
    "bank_slope_deg": 2.4,
    "bank_slope_score": 1.0,
    "bank_slope_source": "nc-dps-lidar-dem03-cross-section",
    "beach_dist_km": 84.94,
    "bridge_proximity_bonus": 0.0,
    "catchment_area_km2": 2.1292,
    "channel_width_m": 2.92,
    "channel_width_score": 1.0,
    "composite_score": 47.678,
    "cso_density": 0.0,
    "ej_index": 0.8333,
    "elevation_m": 22.0429,
    "estuary_dist_km": 246.53,
    "feasibility_score": 17.8571,
    "flood_q10_cfs": 187.26,
    "flow_score": 43.3399,
    "flow_velocity_ms": 0.0848,
    "generation_score": 80.5628,
    "impact_score": 33.3185,
    "impervious_pct": 4.4,
    "land_ownership": 0.5,
    "lat": 34.4766,
    "litter_complaint_density": 0.0,
    "lon": -78.657,
    "navigable_dist_m": null,
    "npdes_points": 0,
    "pixel_col": 199.0,
    "pixel_row": 341.0,
    "population_density": 44.6,
    "position_along": 0.5,
    "protected_area_score": 2.2404,
    "rank": 3,
    "road_access_m": 616.8,
    "road_access_score": 0.6,
    "road_density_km_km2": 0.767,
    "robustness_pct": 100.0,
    "runoff_coeff_C": 0.0896,
    "seasonal_cv": 0.4458,
    "segment_id": 2,
    "segment_length_m": 1116.7111,
    "stream_order": 3,
    "superfund_score": 0.0,
    "tourism_amenity_density": 0.6366,
    "tri_facility_density": 0.0,
    "usgs_mean_q_cfs": 6.379,
    "velocity_feasibility": 0.7,
    "water_intake_score": 0.1954
   },
   "type": "Feature"
  },
  {
   "geometry": {
    "coordinates": [
     -78.656885,
     34.493751
    ],
    "type": "Point"
   },
   "properties": {
    "accumulation": 20219.0,
    "bank_slope_deg": 8.39,
    "bank_slope_score": 1.0,
    "bank_slope_source": "nc-dps-lidar-dem03-cross-section",
    "beach_dist_km": 85.61,
    "bridge_proximity_bonus": 0.0,
    "catchment_area_km2": 2.0168,
    "channel_width_m": 2.86,
    "channel_width_score": 1.0,
    "composite_score": 42.817,
    "cso_density": 0.0,
    "ej_index": 0.687,
    "elevation_m": 26.0343,
    "estuary_dist_km": 246.0,
    "feasibility_score": 41.6667,
    "flood_q10_cfs": 181.27,
    "flow_score": 28.848,
    "flow_velocity_ms": 0.1072,
    "generation_score": 62.5,
    "impact_score": 35.3501,
    "impervious_pct": 4.4,
    "land_ownership": 0.5,
    "lat": 34.4938,
    "litter_complaint_density": 0.0,
    "lon": -78.6569,
    "navigable_dist_m": null,
    "npdes_points": 0,
    "pixel_col": 195.0,
    "pixel_row": 150.0,
    "population_density": 34.3,
    "position_along": 0.5,
    "protected_area_score": 2.3207,
    "rank": 4,
    "road_access_m": 94.4,
    "road_access_score": 1.0,
    "road_density_km_km2": 6.99,
    "robustness_pct": 100.0,
    "runoff_coeff_C": 0.0896,
    "seasonal_cv": 0.4458,
    "segment_id": 0,
    "segment_length_m": 224.5711,
    "stream_order": 1,
    "superfund_score": 0.0,
    "tourism_amenity_density": 0.7162,
    "tri_facility_density": 0.0,
    "usgs_mean_q_cfs": 6.379,
    "velocity_feasibility": 0.7,
    "water_intake_score": 0.1963
   },
   "type": "Feature"
  }
 ],
 "note": "GRIME region 'Clarkton, NC' \u2014 real-data pipeline (DEM\u2192streams\u2192candidates\u2192stream mask (sites confined to \u00b1150 m of mapped OSM/NHD waterways)\u2192region-appropriate real parameters\u2192shipped scoring, math unchanged). Width curve: Bieger et al. 2015 JAWRA Table 3, Atlantic Plain. Flood: SIR 2014-5030 HR4 (I24H50Y: NOAA Atlas 14). NC Coastal Plain (SIR 2014-5030 HR4; I24H50Y from NOAA Atlas 14 at region center)",
 "provenance": {
  "candidates_pre_gate": 4,
  "constant": [
   "bank_slope_score",
   "bridge_proximity_bonus",
   "channel_width_score",
   "cso_density",
   "litter_complaint_density",
   "npdes_points",
   "superfund_score",
   "tri_facility_density"
  ],
  "gated_navigable": 0,
  "hard_gate_removed": 0,
  "n_parameters": 27,
  "parameters": {
   "bank_slope_score": {
    "kind": "real",
    "n_3dep_10m_fallback": 0,
    "n_nc_lidar_3_125ft": 4,
    "n_real": 4,
    "n_sites": 4,
    "source": "NC OneMap / NC DPS DEM03 statewide lidar-derived 3.125-ft (0.953 m) elevations (perpendicular 50 m transect; robust 5 m bank-rise metric); unavailable profiles use the region 10 m 3DEP DEM-gradient fallback",
    "source_mosaics": [
     "Bladen_Ground_3ft"
    ]
   },
   "beach_dist_km": {
    "kind": "real",
    "n_real": 4,
    "n_sites": 4,
    "source": "haversine to region ref: Wrightsville Beach (shipped NC reference)"
   },
   "bridge_proximity_bonus": {
    "kind": "real",
    "n_real": 4,
    "n_sites": 4,
    "source": "FHWA/BTS NBI (NTAD), 50 m proximity"
   },
   "catchment_area_km2": {
    "kind": "real",
    "n_real": 4,
    "n_sites": 4,
    "source": "DEM flow accumulation (pipeline)"
   },
   "channel_width_score": {
    "kind": "real",
    "n_real": 4,
    "n_sites": 4,
    "source": "Bieger 2015 APL width curve on DEM drainage area \u2192 shipped width curve"
   },
   "cso_density": {
    "kind": "real",
    "n_real": 4,
    "n_sites": 4,
    "source": "EPA ECHO open CSO/TCS outfall PF coordinates states=NC, Cauchy proximity"
   },
   "ej_index": {
    "kind": "real",
    "n_real": 4,
    "n_sites": 4,
    "source": "Census ACS C17002+B03002 two-component demographic index, percentile-ranked within region"
   },
   "estuary_dist_km": {
    "kind": "real",
    "n_real": 4,
    "n_sites": 4,
    "source": "haversine to region ref: Pamlico Sound (shipped NC reference)"
   },
   "flood_q10_cfs": {
    "impervious_fallback_reason": "StreamCat imperviousness unavailable; the existing regression-input fallback of 0.0% impervious was used and is disclosed here",
    "kind": "real",
    "n_impervious_fallback": 1,
    "n_real": 4,
    "n_sites": 4,
    "source": "USGS SIR 2014-5030 Table 7 HR4 (NC Coastal Plain; I24H50Y from NOAA Atlas 14 at region center)"
   },
   "flow_velocity_ms": {
    "fallback_reason": "EROM/DEM continuity input unavailable; shipped 0.5 m/s default used",
    "kind": "real",
    "n_fallback": 1,
    "n_real": 3,
    "n_sites": 4,
    "source": "Manning (region DEM/D8) blended with EROM continuity (shipped M4 logic)"
   },
   "impervious_pct": {
    "fallback_reason": "NLDI/StreamCat did not return a snap-compatible catchment value; value remains null and is removed by constant-column handling",
    "kind": "real",
    "n_fallback": 1,
    "n_real": 3,
    "n_sites": 4,
    "source": "EPA StreamCat pctimp2019 (per NHDPlus watershed)"
   },
   "land_ownership": {
    "kind": "real",
    "n_fallback": 0,
    "n_real": 4,
    "n_sites": 4,
    "source": "NC OneMap statewide parcels (NC Parcels Transformer) ownname"
   },
   "litter_complaint_density": {
    "kind": "fallback",
    "n_real": 0,
    "n_sites": 4,
    "source": "no public machine-readable litter/illegal-dumping feed for this region"
   },
   "navigable_dist_m": {
    "kind": "real",
    "n_real": 4,
    "n_sites": 4,
    "source": "USACE/BTS NWN (NTAD): no navigable segment within this bbox (+2 km) \u2014 computed absence, gate passes all sites"
   },
   "npdes_points": {
    "kind": "real",
    "n_real": 4,
    "n_sites": 4,
    "source": "EPA ECHO active NPDES outfalls states=NC (types NPD/GPC/NGP; statuses ADC/EFF/EXP), per catchment"
   },
   "population_density": {
    "kind": "real",
    "n_real": 4,
    "n_sites": 4,
    "source": "Census ACS 2022 B01003 block groups (bbox, multi-county), area-weighted"
   },
   "protected_area_score": {
    "kind": "real",
    "n_real": 4,
    "n_sites": 4,
    "source": "USGS PAD-US 4.1 state GDB; states=NC; shipped designation-weighted proximity curve"
   },
   "road_access_score": {
    "kind": "real",
    "n_real": 4,
    "n_sites": 4,
    "source": "OSM drive network nearest-node distance"
   },
   "road_density_km_km2": {
    "kind": "real",
    "n_real": 4,
    "n_sites": 4,
    "source": "OSM drive network (osmnx, cached) clipped per catchment"
   },
   "runoff_coeff_C": {
    "fallback_reason": "source impervious_pct was unavailable; derived value remains null",
    "kind": "real",
    "n_fallback": 1,
    "n_real": 3,
    "n_sites": 4,
    "source": "derived from real impervious_pct (C=0.05+0.009*I)"
   },
   "seasonal_cv": {
    "fallback_reason": "NHDPlus monthly EROM was unavailable or failed the drainage-area snap guard; value remains null",
    "kind": "real",
    "n_fallback": 1,
    "n_real": 3,
    "n_sites": 4,
    "source": "CV of NHDPlus EROM monthly flows per COMID"
   },
   "stream_order": {
    "kind": "real",
    "n_real": 4,
    "n_sites": 4,
    "source": "DEM stream-network confluence heuristic (pipeline)"
   },
   "superfund_score": {
    "kind": "real",
    "n_real": 4,
    "n_sites": 4,
    "source": "EPA DataMap SEMS active sites states=NC (non-archived, georeferenced), shipped 500 m inverse-distance curve"
   },
   "tourism_amenity_density": {
    "kind": "real",
    "n_real": 4,
    "n_sites": 4,
    "source": "OSM leisure/tourism features per 2 km radius"
   },
   "tri_facility_density": {
    "kind": "real",
    "n_real": 4,
    "n_sites": 4,
    "source": "EPA DataMap TRI open facilities states=NC (preferred decimal or packed-DMS recovery), per catchment"
   },
   "usgs_mean_q_cfs": {
    "fallback_reason": "NHDPlus EROM was unavailable or failed the drainage-area snap guard; value remains null",
    "kind": "real",
    "n_fallback": 1,
    "n_real": 3,
    "n_sites": 4,
    "source": "NHDPlus EROM qe_ma per COMID (snap-guarded)"
   },
   "velocity_feasibility": {
    "fallback_reason": "derived from the shipped 0.5 m/s velocity fallback",
    "kind": "real",
    "n_fallback": 1,
    "n_real": 3,
    "n_sites": 4,
    "source": "shipped step curve on the computed velocity"
   },
   "velocity_transport_favorability": {
    "fallback_reason": "EROM/DEM continuity input unavailable; shipped 0.5 m/s default used",
    "kind": "derived",
    "n_fallback": 1,
    "n_real": 3,
    "n_sites": 4,
    "source": "scored form of flow_velocity_ms inside the Flow family \u2014 peaked Gaussian exp(-((v-0.9)/0.6)^2), model.json curves.velocity_transport_favorability; construct: transport/delivery favorability, deliberately distinct from velocity_feasibility (device operability)"
   },
   "water_intake_score": {
    "kind": "real",
    "n_real": 4,
    "n_sites": 4,
    "source": "NC OneMap / NC DEQ SWAP public water supply sources (source_typ='Surface Water'), shipped exp(-d/10km) curve"
   }
  },
  "stream_mask": {
   "buffer_m": 150.0,
   "pre_mask": 4,
   "removed": 0,
   "sources": [
    "osm-overpass (all waterway ways)",
    "usgs-nhdplus flowlines"
   ]
  },
  "varying": [
   "beach_dist_km",
   "catchment_area_km2",
   "ej_index",
   "estuary_dist_km",
   "flood_q10_cfs",
   "flow_velocity_ms",
   "impervious_pct",
   "land_ownership",
   "population_density",
   "protected_area_score",
   "road_access_score",
   "road_density_km_km2",
   "runoff_coeff_C",
   "seasonal_cv",
   "stream_order",
   "tourism_amenity_density",
   "usgs_mean_q_cfs",
   "velocity_feasibility",
   "water_intake_score"
  ]
 },
 "region": {
  "bbox": [
   -78.6777,
   34.4706,
   -78.634,
   34.5067
  ],
  "beach_ref": {
   "label": "Wrightsville Beach (shipped NC reference)",
   "lat": 34.21,
   "lon": -77.79
  },
  "center": [
   -78.655849,
   34.488647
  ],
  "estuary_ref": {
   "label": "Pamlico Sound (shipped NC reference)",
   "lat": 35.05,
   "lon": -76.05
  },
  "flood_method": "sir2014_hr4",
  "name": "Clarkton, NC",
  "notes": "NC Coastal Plain (SIR 2014-5030 HR4; I24H50Y from NOAA Atlas 14 at region center)",
  "slug": "clarkton",
  "state": "NC",
  "utm_epsg": 32617,
  "width_curve": {
   "a": 2.22,
   "b": 0.363,
   "code": "APL",
   "source": "Bieger et al. 2015 JAWRA Table 3, Atlantic Plain"
  }
 },
 "type": "FeatureCollection"
}
