{
 "features": [
  {
   "geometry": {
    "coordinates": [
     -78.342208,
     35.002469
    ],
    "type": "Point"
   },
   "properties": {
    "accumulation": 30785.0,
    "bank_slope_deg": 2.95,
    "bank_slope_score": 1.0,
    "bank_slope_source": "nc-dps-lidar-dem03-cross-section",
    "beach_dist_km": 101.58,
    "bridge_proximity_bonus": 0.0,
    "catchment_area_km2": 3.0766,
    "channel_width_m": 3.34,
    "channel_width_score": 1.0,
    "composite_score": 61.7631,
    "cso_density": 0.0,
    "ej_index": 0.7044,
    "elevation_m": 32.2065,
    "estuary_dist_km": 208.78,
    "feasibility_score": 79.8186,
    "flood_q10_cfs": 299.75,
    "flow_score": 48.3249,
    "flow_velocity_ms": 0.1349,
    "generation_score": 56.1091,
    "impact_score": 69.5879,
    "impervious_pct": 15.06,
    "land_ownership": 1.0,
    "lat": 35.0025,
    "litter_complaint_density": 0.0,
    "lon": -78.3422,
    "navigable_dist_m": null,
    "npdes_points": 1,
    "pixel_col": 405.0,
    "pixel_row": 482.0,
    "population_density": 326.1,
    "position_along": 0.5,
    "protected_area_score": 3.3482,
    "rank": 1,
    "road_access_m": 211.1,
    "road_access_score": 0.8,
    "road_density_km_km2": 7.721,
    "robustness_pct": 98.5,
    "runoff_coeff_C": 0.1855,
    "seasonal_cv": 0.4168,
    "segment_id": 9,
    "segment_length_m": 1743.9588,
    "stream_order": 3,
    "superfund_score": 0.0,
    "tourism_amenity_density": 3.4218,
    "tri_facility_density": 0.0,
    "usgs_mean_q_cfs": 13.094,
    "velocity_feasibility": 0.7,
    "water_intake_score": 0.0297
   },
   "type": "Feature"
  },
  {
   "geometry": {
    "coordinates": [
     -78.344253,
     35.007432
    ],
    "type": "Point"
   },
   "properties": {
    "accumulation": 178030.0,
    "bank_slope_deg": 6.78,
    "bank_slope_score": 1.0,
    "bank_slope_source": "nc-dps-lidar-dem03-cross-section",
    "beach_dist_km": 102.15,
    "bridge_proximity_bonus": 0.0,
    "catchment_area_km2": 17.7918,
    "channel_width_m": 6.31,
    "channel_width_score": 1.0,
    "composite_score": 59.7067,
    "cso_density": 0.0,
    "ej_index": 0.6523,
    "elevation_m": 30.6081,
    "estuary_dist_km": 208.95,
    "feasibility_score": 58.39,
    "flood_q10_cfs": 859.72,
    "flow_score": 63.1348,
    "flow_velocity_ms": 0.1307,
    "generation_score": 51.6424,
    "impact_score": 65.5725,
    "impervious_pct": 15.06,
    "land_ownership": 0.5,
    "lat": 35.0074,
    "litter_complaint_density": 0.0,
    "lon": -78.3443,
    "navigable_dist_m": null,
    "npdes_points": 1,
    "pixel_col": 386.0,
    "pixel_row": 431.0,
    "population_density": 217.0,
    "position_along": 0.5,
    "protected_area_score": 3.3248,
    "rank": 2,
    "road_access_m": 248.4,
    "road_access_score": 0.8,
    "road_density_km_km2": 5.493,
    "robustness_pct": 93.5,
    "runoff_coeff_C": 0.1855,
    "seasonal_cv": 0.4168,
    "segment_id": 7,
    "segment_length_m": 1210.8676,
    "stream_order": 3,
    "superfund_score": 0.0,
    "tourism_amenity_density": 3.1035,
    "tri_facility_density": 0.1686,
    "usgs_mean_q_cfs": 13.094,
    "velocity_feasibility": 0.7,
    "water_intake_score": 0.0305
   },
   "type": "Feature"
  },
  {
   "geometry": {
    "coordinates": [
     -78.35118,
     35.005421
    ],
    "type": "Point"
   },
   "properties": {
    "accumulation": 215294.0,
    "bank_slope_deg": 2.34,
    "bank_slope_score": 1.0,
    "bank_slope_source": "nc-dps-lidar-dem03-cross-section",
    "beach_dist_km": 102.28,
    "bridge_proximity_bonus": 0.0,
    "catchment_area_km2": 21.5158,
    "channel_width_m": 6.76,
    "channel_width_score": 1.0,
    "composite_score": 57.8939,
    "cso_density": 0.0,
    "ej_index": 0.6398,
    "elevation_m": 29.7252,
    "estuary_dist_km": 209.59,
    "feasibility_score": 58.39,
    "flood_q10_cfs": 963.64,
    "flow_score": 67.2044,
    "flow_velocity_ms": 0.1603,
    "generation_score": 47.06,
    "impact_score": 60.7211,
    "impervious_pct": 15.06,
    "land_ownership": 0.5,
    "lat": 35.0054,
    "litter_complaint_density": 0.0,
    "lon": -78.3512,
    "navigable_dist_m": null,
    "npdes_points": 1,
    "pixel_col": 322.0,
    "pixel_row": 453.0,
    "population_density": 167.2,
    "position_along": 0.5,
    "protected_area_score": 3.2915,
    "rank": 3,
    "road_access_m": 240.0,
    "road_access_score": 0.8,
    "road_density_km_km2": 4.366,
    "robustness_pct": 77.5,
    "runoff_coeff_C": 0.1855,
    "seasonal_cv": 0.4168,
    "segment_id": 10,
    "segment_length_m": 365.4484,
    "stream_order": 3,
    "superfund_score": 0.0,
    "tourism_amenity_density": 3.5014,
    "tri_facility_density": 0.1394,
    "usgs_mean_q_cfs": 13.094,
    "velocity_feasibility": 0.7,
    "water_intake_score": 0.0247
   },
   "type": "Feature"
  },
  {
   "geometry": {
    "coordinates": [
     -78.337481,
     35.01176
    ],
    "type": "Point"
   },
   "properties": {
    "accumulation": 142086.0,
    "bank_slope_deg": 13.21,
    "bank_slope_score": 1.0,
    "bank_slope_source": "nc-dps-lidar-dem03-cross-section",
    "beach_dist_km": 102.27,
    "bridge_proximity_bonus": 0.0,
    "catchment_area_km2": 14.1997,
    "channel_width_m": 5.82,
    "channel_width_score": 1.0,
    "composite_score": 57.4485,
    "cso_density": 0.0,
    "ej_index": 0.6549,
    "elevation_m": 33.4116,
    "estuary_dist_km": 208.32,
    "feasibility_score": 66.3265,
    "flood_q10_cfs": 728.49,
    "flow_score": 52.1432,
    "flow_velocity_ms": 0.2293,
    "generation_score": 55.3603,
    "impact_score": 59.5189,
    "impervious_pct": 13.76,
    "land_ownership": 0.5,
    "lat": 35.0118,
    "litter_complaint_density": 0.0,
    "lon": -78.3375,
    "navigable_dist_m": null,
    "npdes_points": 1,
    "pixel_col": 447.0,
    "pixel_row": 382.0,
    "population_density": 265.0,
    "position_along": 0.5,
    "protected_area_score": 3.2147,
    "rank": 4,
    "road_access_m": 119.1,
    "road_access_score": 1.0,
    "road_density_km_km2": 6.103,
    "robustness_pct": 96.0,
    "runoff_coeff_C": 0.1738,
    "seasonal_cv": 0.4208,
    "segment_id": 6,
    "segment_length_m": 494.1085,
    "stream_order": 3,
    "superfund_score": 0.0,
    "tourism_amenity_density": 3.0239,
    "tri_facility_density": 0.2817,
    "usgs_mean_q_cfs": 6.982,
    "velocity_feasibility": 0.7,
    "water_intake_score": 0.0234
   },
   "type": "Feature"
  },
  {
   "geometry": {
    "coordinates": [
     -78.330878,
     35.008374
    ],
    "type": "Point"
   },
   "properties": {
    "accumulation": 23828.0,
    "bank_slope_deg": 3.71,
    "bank_slope_score": 1.0,
    "bank_slope_source": "nc-dps-lidar-dem03-cross-section",
    "beach_dist_km": 101.64,
    "bridge_proximity_bonus": 0.0,
    "catchment_area_km2": 2.3813,
    "channel_width_m": 3.04,
    "channel_width_score": 1.0,
    "composite_score": 56.49,
    "cso_density": 0.0,
    "ej_index": 0.7858,
    "elevation_m": 36.9047,
    "estuary_dist_km": 207.73,
    "feasibility_score": 66.3265,
    "flood_q10_cfs": 249.36,
    "flow_score": 38.3561,
    "flow_velocity_ms": 0.1828,
    "generation_score": 54.6637,
    "impact_score": 68.5097,
    "impervious_pct": 13.76,
    "land_ownership": 0.5,
    "lat": 35.0084,
    "litter_complaint_density": 0.0,
    "lon": -78.3309,
    "navigable_dist_m": null,
    "npdes_points": 0,
    "pixel_col": 507.0,
    "pixel_row": 414.0,
    "population_density": 445.5,
    "position_along": 0.5,
    "protected_area_score": 3.3377,
    "rank": 5,
    "road_access_m": 78.8,
    "road_access_score": 1.0,
    "road_density_km_km2": 9.507,
    "robustness_pct": 45.5,
    "runoff_coeff_C": 0.1738,
    "seasonal_cv": 0.4208,
    "segment_id": 5,
    "segment_length_m": 1104.7488,
    "stream_order": 3,
    "superfund_score": 0.0,
    "tourism_amenity_density": 3.0239,
    "tri_facility_density": 0.0,
    "usgs_mean_q_cfs": 6.982,
    "velocity_feasibility": 0.7,
    "water_intake_score": 0.0224
   },
   "type": "Feature"
  },
  {
   "geometry": {
    "coordinates": [
     -78.326651,
     35.013214
    ],
    "type": "Point"
   },
   "properties": {
    "accumulation": 81361.0,
    "bank_slope_deg": 11.32,
    "bank_slope_score": 1.0,
    "bank_slope_source": "nc-dps-lidar-dem03-cross-section",
    "beach_dist_km": 101.93,
    "bridge_proximity_bonus": 0.0,
    "catchment_area_km2": 8.131,
    "channel_width_m": 4.75,
    "channel_width_score": 1.0,
    "composite_score": 55.9086,
    "cso_density": 0.0,
    "ej_index": 0.6633,
    "elevation_m": 37.7206,
    "estuary_dist_km": 207.33,
    "feasibility_score": 66.3265,
    "flood_q10_cfs": 521.25,
    "flow_score": 45.1266,
    "flow_velocity_ms": 0.1918,
    "generation_score": 60.8073,
    "impact_score": 54.786,
    "impervious_pct": 13.76,
    "land_ownership": 0.5,
    "lat": 35.0132,
    "litter_complaint_density": 0.0,
    "lon": -78.3267,
    "navigable_dist_m": null,
    "npdes_points": 0,
    "pixel_col": 544.0,
    "pixel_row": 363.0,
    "population_density": 380.1,
    "position_along": 0.75,
    "protected_area_score": 3.1937,
    "rank": 6,
    "road_access_m": 82.4,
    "road_access_score": 1.0,
    "road_density_km_km2": 8.114,
    "robustness_pct": 39.0,
    "runoff_coeff_C": 0.1738,
    "seasonal_cv": 0.4208,
    "segment_id": 4,
    "segment_length_m": 3863.3628,
    "stream_order": 3,
    "superfund_score": 0.0,
    "tourism_amenity_density": 0.9549,
    "tri_facility_density": 0.4919,
    "usgs_mean_q_cfs": 6.982,
    "velocity_feasibility": 0.7,
    "water_intake_score": 0.0228
   },
   "type": "Feature"
  },
  {
   "geometry": {
    "coordinates": [
     -78.362203,
     35.006194
    ],
    "type": "Point"
   },
   "properties": {
    "accumulation": 255323.0,
    "bank_slope_deg": 2.91,
    "bank_slope_score": 1.0,
    "bank_slope_source": "nc-dps-lidar-dem03-cross-section",
    "beach_dist_km": 102.86,
    "bridge_proximity_bonus": 0.0,
    "catchment_area_km2": 25.5162,
    "channel_width_m": 7.19,
    "channel_width_score": 1.0,
    "composite_score": 54.808,
    "cso_density": 0.0,
    "ej_index": 0.5825,
    "elevation_m": 28.4675,
    "estuary_dist_km": 210.59,
    "feasibility_score": 58.39,
    "flood_q10_cfs": 1052.73,
    "flow_score": 69.2678,
    "flow_velocity_ms": 0.0804,
    "generation_score": 39.5983,
    "impact_score": 56.1767,
    "impervious_pct": 14.46,
    "land_ownership": 0.5,
    "lat": 35.0062,
    "litter_complaint_density": 0.0,
    "lon": -78.3622,
    "navigable_dist_m": null,
    "npdes_points": 1,
    "pixel_col": 221.0,
    "pixel_row": 450.0,
    "population_density": 107.6,
    "position_along": 0.5,
    "protected_area_score": 3.4114,
    "rank": 7,
    "road_access_m": 473.7,
    "road_access_score": 0.8,
    "road_density_km_km2": 2.652,
    "robustness_pct": 33.0,
    "runoff_coeff_C": 0.1801,
    "seasonal_cv": 0.4167,
    "segment_id": 11,
    "segment_length_m": 2550.9839,
    "stream_order": 3,
    "superfund_score": 0.0,
    "tourism_amenity_density": 2.2282,
    "tri_facility_density": 0.0784,
    "usgs_mean_q_cfs": 13.67,
    "velocity_feasibility": 0.7,
    "water_intake_score": 0.0269
   },
   "type": "Feature"
  },
  {
   "geometry": {
    "coordinates": [
     -78.338935,
     35.014071
    ],
    "type": "Point"
   },
   "properties": {
    "accumulation": 29585.0,
    "bank_slope_deg": 14.19,
    "bank_slope_score": 1.0,
    "bank_slope_source": "nc-dps-lidar-dem03-cross-section",
    "beach_dist_km": 102.55,
    "bridge_proximity_bonus": 0.0,
    "catchment_area_km2": 2.9566,
    "channel_width_m": 3.29,
    "channel_width_score": 1.0,
    "composite_score": 53.0978,
    "cso_density": 0.0,
    "ej_index": 0.6567,
    "elevation_m": 33.8248,
    "estuary_dist_km": 208.44,
    "feasibility_score": 66.3265,
    "flood_q10_cfs": 299.78,
    "flow_score": 29.3419,
    "flow_velocity_ms": 0.1507,
    "generation_score": 64.7697,
    "impact_score": 54.6082,
    "impervious_pct": 16.09,
    "land_ownership": 0.5,
    "lat": 35.0141,
    "litter_complaint_density": 0.0,
    "lon": -78.3389,
    "navigable_dist_m": null,
    "npdes_points": 0,
    "pixel_col": 435.0,
    "pixel_row": 357.0,
    "population_density": 181.1,
    "position_along": 0.5,
    "protected_area_score": 3.1953,
    "rank": 8,
    "road_access_m": 165.2,
    "road_access_score": 1.0,
    "road_density_km_km2": 7.031,
    "robustness_pct": 13.5,
    "runoff_coeff_C": 0.1948,
    "seasonal_cv": 0.4702,
    "segment_id": 3,
    "segment_length_m": 933.2595,
    "stream_order": 3,
    "superfund_score": 0.0,
    "tourism_amenity_density": 1.5915,
    "tri_facility_density": 1.0147,
    "usgs_mean_q_cfs": 1.463,
    "velocity_feasibility": 0.7,
    "water_intake_score": 0.0239
   },
   "type": "Feature"
  },
  {
   "geometry": {
    "coordinates": [
     -78.325476,
     34.991648
    ],
    "type": "Point"
   },
   "properties": {
    "accumulation": 21956.0,
    "bank_slope_deg": 8.71,
    "bank_slope_score": 1.0,
    "bank_slope_source": "nc-dps-lidar-dem03-cross-section",
    "beach_dist_km": 99.78,
    "bridge_proximity_bonus": 0.0,
    "catchment_area_km2": 2.1942,
    "channel_width_m": 2.95,
    "channel_width_score": 1.0,
    "composite_score": 46.5647,
    "cso_density": 0.0,
    "ej_index": 0.7573,
    "elevation_m": 39.1615,
    "estuary_dist_km": 207.31,
    "feasibility_score": 78.5714,
    "flood_q10_cfs": 172.39,
    "flow_score": 26.0,
    "flow_velocity_ms": 0.5,
    "generation_score": 35.8974,
    "impact_score": 58.3659,
    "impervious_pct": null,
    "land_ownership": 0.5,
    "lat": 34.9916,
    "litter_complaint_density": 0.0,
    "lon": -78.3255,
    "navigable_dist_m": null,
    "npdes_points": 0,
    "pixel_col": 561.0,
    "pixel_row": 598.0,
    "population_density": 474.4,
    "position_along": 0.5,
    "protected_area_score": 3.3618,
    "rank": 9,
    "road_access_m": 116.5,
    "road_access_score": 1.0,
    "road_density_km_km2": 10.917,
    "robustness_pct": 0.5,
    "runoff_coeff_C": null,
    "seasonal_cv": null,
    "segment_id": 13,
    "segment_length_m": 495.8237,
    "stream_order": 1,
    "superfund_score": 0.0,
    "tourism_amenity_density": 2.1486,
    "tri_facility_density": 0.0,
    "usgs_mean_q_cfs": null,
    "velocity_feasibility": 1.0,
    "water_intake_score": 0.0068
   },
   "type": "Feature"
  },
  {
   "geometry": {
    "coordinates": [
     -78.375414,
     34.997117
    ],
    "type": "Point"
   },
   "properties": {
    "accumulation": 354542.0,
    "bank_slope_deg": 1.15,
    "bank_slope_score": 1.0,
    "bank_slope_source": "nc-dps-lidar-dem03-cross-section",
    "beach_dist_km": 102.62,
    "bridge_proximity_bonus": 0.0,
    "catchment_area_km2": 35.4319,
    "channel_width_m": 8.11,
    "channel_width_score": 1.0,
    "composite_score": 45.3237,
    "cso_density": 0.0,
    "ej_index": 0.5552,
    "elevation_m": 26.503,
    "estuary_dist_km": 211.83,
    "feasibility_score": 55.5556,
    "flood_q10_cfs": 1269.34,
    "flow_score": 51.3317,
    "flow_velocity_ms": 0.0187,
    "generation_score": 32.7569,
    "impact_score": 47.7678,
    "impervious_pct": 14.03,
    "land_ownership": 1.0,
    "lat": 34.9971,
    "litter_complaint_density": 0.0,
    "lon": -78.3754,
    "navigable_dist_m": null,
    "npdes_points": 1,
    "pixel_col": 104.0,
    "pixel_row": 553.0,
    "population_density": 55.9,
    "position_along": 0.25,
    "protected_area_score": 3.3417,
    "rank": 10,
    "road_access_m": 617.8,
    "road_access_score": 0.6,
    "road_density_km_km2": 1.222,
    "robustness_pct": 0.0,
    "runoff_coeff_C": 0.1763,
    "seasonal_cv": 0.5936,
    "segment_id": 12,
    "segment_length_m": 3541.2103,
    "stream_order": 3,
    "superfund_score": 0.0,
    "tourism_amenity_density": 0.3979,
    "tri_facility_density": 0.0,
    "usgs_mean_q_cfs": 0.219,
    "velocity_feasibility": 0.3,
    "water_intake_score": 0.0293
   },
   "type": "Feature"
  },
  {
   "geometry": {
    "coordinates": [
     -78.35093,
     35.002284
    ],
    "type": "Point"
   },
   "properties": {
    "accumulation": 22166.0,
    "bank_slope_deg": 5.03,
    "bank_slope_score": 1.0,
    "bank_slope_source": "nc-dps-lidar-dem03-cross-section",
    "beach_dist_km": 101.96,
    "bridge_proximity_bonus": 0.0,
    "catchment_area_km2": 2.2152,
    "channel_width_m": 2.96,
    "channel_width_score": 1.0,
    "composite_score": 43.6214,
    "cso_density": 0.0,
    "ej_index": 0.5714,
    "elevation_m": 32.5652,
    "estuary_dist_km": 209.58,
    "feasibility_score": 78.5714,
    "flood_q10_cfs": 173.38,
    "flow_score": 40.0237,
    "flow_velocity_ms": 0.5,
    "generation_score": 13.1574,
    "impact_score": 59.6085,
    "impervious_pct": null,
    "land_ownership": 0.5,
    "lat": 35.0023,
    "litter_complaint_density": 0.0,
    "lon": -78.3509,
    "navigable_dist_m": null,
    "npdes_points": 1,
    "pixel_col": 328.0,
    "pixel_row": 486.0,
    "population_density": 95.3,
    "position_along": 0.5,
    "protected_area_score": 3.3434,
    "rank": 11,
    "road_access_m": 187.0,
    "road_access_score": 1.0,
    "road_density_km_km2": 1.823,
    "robustness_pct": 0.0,
    "runoff_coeff_C": null,
    "seasonal_cv": null,
    "segment_id": 8,
    "segment_length_m": 750.8905,
    "stream_order": 3,
    "superfund_score": 0.0,
    "tourism_amenity_density": 3.581,
    "tri_facility_density": 0.0,
    "usgs_mean_q_cfs": null,
    "velocity_feasibility": 1.0,
    "water_intake_score": 0.0245
   },
   "type": "Feature"
  },
  {
   "geometry": {
    "coordinates": [
     -78.376667,
     34.986563
    ],
    "type": "Point"
   },
   "properties": {
    "accumulation": 363089.0,
    "bank_slope_deg": 1.65,
    "bank_slope_score": 1.0,
    "bank_slope_source": "nc-dps-lidar-dem03-cross-section",
    "beach_dist_km": 101.68,
    "bridge_proximity_bonus": 0.0,
    "catchment_area_km2": 36.286,
    "channel_width_m": 8.18,
    "channel_width_score": 1.0,
    "composite_score": 43.5903,
    "cso_density": 0.0,
    "ej_index": 0.5895,
    "elevation_m": 25.8678,
    "estuary_dist_km": 211.99,
    "feasibility_score": 70.6349,
    "flood_q10_cfs": 929.15,
    "flow_score": 67.6583,
    "flow_velocity_ms": 0.5,
    "generation_score": 2.2567,
    "impact_score": 51.3448,
    "impervious_pct": null,
    "land_ownership": 0.5,
    "lat": 34.9866,
    "litter_complaint_density": 0.0,
    "lon": -78.3767,
    "navigable_dist_m": null,
    "npdes_points": 0,
    "pixel_col": 98.0,
    "pixel_row": 671.0,
    "population_density": 49.5,
    "position_along": 0.75,
    "protected_area_score": 3.399,
    "rank": 12,
    "road_access_m": 385.8,
    "road_access_score": 0.8,
    "road_density_km_km2": 1.123,
    "robustness_pct": 3.0,
    "runoff_coeff_C": null,
    "seasonal_cv": null,
    "segment_id": 12,
    "segment_length_m": 3541.2103,
    "stream_order": 3,
    "superfund_score": 0.0,
    "tourism_amenity_density": 0.4775,
    "tri_facility_density": 0.0,
    "usgs_mean_q_cfs": null,
    "velocity_feasibility": 1.0,
    "water_intake_score": 0.0291
   },
   "type": "Feature"
  },
  {
   "geometry": {
    "coordinates": [
     -78.278291,
     34.968993
    ],
    "type": "Point"
   },
   "properties": {
    "accumulation": 141062.0,
    "bank_slope_deg": 5.92,
    "bank_slope_score": 1.0,
    "bank_slope_source": "nc-dps-lidar-dem03-cross-section",
    "beach_dist_km": 95.5,
    "bridge_proximity_bonus": 0.0,
    "catchment_area_km2": 14.0973,
    "channel_width_m": 5.8,
    "channel_width_score": 1.0,
    "composite_score": 39.8688,
    "cso_density": 0.0,
    "ej_index": 0.4917,
    "elevation_m": 30.6848,
    "estuary_dist_km": 203.14,
    "feasibility_score": 50.4535,
    "flood_q10_cfs": 619.09,
    "flow_score": 51.93,
    "flow_velocity_ms": 0.145,
    "generation_score": 27.6349,
    "impact_score": 36.7594,
    "impervious_pct": 6.95,
    "land_ownership": 0.5,
    "lat": 34.969,
    "litter_complaint_density": 0.0,
    "lon": -78.2783,
    "navigable_dist_m": null,
    "npdes_points": 2,
    "pixel_col": 1003.0,
    "pixel_row": 842.0,
    "population_density": 40.5,
    "position_along": 0.5,
    "protected_area_score": 2.7636,
    "rank": 13,
    "road_access_m": 830.7,
    "road_access_score": 0.6,
    "road_density_km_km2": 0.601,
    "robustness_pct": 0.0,
    "runoff_coeff_C": 0.1125,
    "seasonal_cv": 0.4211,
    "segment_id": 17,
    "segment_length_m": 203.0731,
    "stream_order": 3,
    "superfund_score": 0.0,
    "tourism_amenity_density": 0.2387,
    "tri_facility_density": 0.0,
    "usgs_mean_q_cfs": 10.466,
    "velocity_feasibility": 0.7,
    "water_intake_score": 0.0
   },
   "type": "Feature"
  },
  {
   "geometry": {
    "coordinates": [
     -78.310207,
     35.019969
    ],
    "type": "Point"
   },
   "properties": {
    "accumulation": 49514.0,
    "bank_slope_deg": 1.55,
    "bank_slope_score": 1.0,
    "bank_slope_source": "nc-dps-lidar-dem03-cross-section",
    "beach_dist_km": 101.87,
    "bridge_proximity_bonus": 0.0,
    "catchment_area_km2": 4.9483,
    "channel_width_m": 3.97,
    "channel_width_score": 1.0,
    "composite_score": 39.8668,
    "cso_density": 0.0,
    "ej_index": 0.4937,
    "elevation_m": 39.1948,
    "estuary_dist_km": 205.81,
    "feasibility_score": 66.3265,
    "flood_q10_cfs": 318.57,
    "flow_score": 30.7641,
    "flow_velocity_ms": 0.1509,
    "generation_score": 29.3747,
    "impact_score": 44.7148,
    "impervious_pct": 5.41,
    "land_ownership": 0.5,
    "lat": 35.02,
    "litter_complaint_density": 0.0,
    "lon": -78.3102,
    "navigable_dist_m": null,
    "npdes_points": 0,
    "pixel_col": 692.0,
    "pixel_row": 280.0,
    "population_density": 265.5,
    "position_along": 0.25,
    "protected_area_score": 3.2227,
    "rank": 14,
    "road_access_m": 198.1,
    "road_access_score": 1.0,
    "road_density_km_km2": 3.376,
    "robustness_pct": 0.0,
    "runoff_coeff_C": 0.0987,
    "seasonal_cv": 0.4399,
    "segment_id": 4,
    "segment_length_m": 3863.3628,
    "stream_order": 3,
    "superfund_score": 0.0,
    "tourism_amenity_density": 0.0796,
    "tri_facility_density": 0.2021,
    "usgs_mean_q_cfs": 3.063,
    "velocity_feasibility": 0.7,
    "water_intake_score": 0.0167
   },
   "type": "Feature"
  },
  {
   "geometry": {
    "coordinates": [
     -78.284208,
     34.973292
    ],
    "type": "Point"
   },
   "properties": {
    "accumulation": 48161.0,
    "bank_slope_deg": 0.01,
    "bank_slope_score": 1.0,
    "bank_slope_source": "nc-dps-lidar-dem03-cross-section",
    "beach_dist_km": 96.18,
    "bridge_proximity_bonus": 0.0,
    "catchment_area_km2": 4.8131,
    "channel_width_m": 3.93,
    "channel_width_score": 1.0,
    "composite_score": 38.5931,
    "cso_density": 0.0,
    "ej_index": 0.4763,
    "elevation_m": 33.6,
    "estuary_dist_km": 203.65,
    "feasibility_score": 50.4535,
    "flood_q10_cfs": 382.51,
    "flow_score": 33.6595,
    "flow_velocity_ms": 0.0537,
    "generation_score": 39.1776,
    "impact_score": 36.1898,
    "impervious_pct": 13.99,
    "land_ownership": 0.5,
    "lat": 34.9733,
    "litter_complaint_density": 0.0,
    "lon": -78.2842,
    "navigable_dist_m": null,
    "npdes_points": 2,
    "pixel_col": 946.0,
    "pixel_row": 796.0,
    "population_density": 40.9,
    "position_along": 0.75,
    "protected_area_score": 2.8088,
    "rank": 15,
    "road_access_m": 729.6,
    "road_access_score": 0.6,
    "road_density_km_km2": 0.859,
    "robustness_pct": 0.0,
    "runoff_coeff_C": 0.1759,
    "seasonal_cv": 0.4359,
    "segment_id": 14,
    "segment_length_m": 3011.6714,
    "stream_order": 3,
    "superfund_score": 0.0,
    "tourism_amenity_density": 0.4775,
    "tri_facility_density": 0.0,
    "usgs_mean_q_cfs": 4.273,
    "velocity_feasibility": 0.7,
    "water_intake_score": 0.0
   },
   "type": "Feature"
  },
  {
   "geometry": {
    "coordinates": [
     -78.358954,
     34.980921
    ],
    "type": "Point"
   },
   "properties": {
    "accumulation": 53240.0,
    "bank_slope_deg": 1.67,
    "bank_slope_score": 1.0,
    "bank_slope_source": "nc-dps-lidar-dem03-cross-section",
    "beach_dist_km": 100.3,
    "bridge_proximity_bonus": 0.0,
    "catchment_area_km2": 5.3206,
    "channel_width_m": 4.07,
    "channel_width_score": 1.0,
    "composite_score": 36.4242,
    "cso_density": 0.0,
    "ej_index": 0.7097,
    "elevation_m": 32.0771,
    "estuary_dist_km": 210.41,
    "feasibility_score": 71.8821,
    "flood_q10_cfs": 320.98,
    "flow_score": 16.6309,
    "flow_velocity_ms": 0.1513,
    "generation_score": 10.331,
    "impact_score": 61.2829,
    "impervious_pct": 3.86,
    "land_ownership": 1.0,
    "lat": 34.9809,
    "litter_complaint_density": 0.0,
    "lon": -78.359,
    "navigable_dist_m": null,
    "npdes_points": 0,
    "pixel_col": 260.0,
    "pixel_row": 729.0,
    "population_density": 55.8,
    "position_along": 0.5,
    "protected_area_score": 3.4715,
    "rank": 16,
    "road_access_m": 639.0,
    "road_access_score": 0.6,
    "road_density_km_km2": 2.481,
    "robustness_pct": 0.0,
    "runoff_coeff_C": 0.0847,
    "seasonal_cv": 0.4435,
    "segment_id": 15,
    "segment_length_m": 4983.4265,
    "stream_order": 1,
    "superfund_score": 0.0,
    "tourism_amenity_density": 1.0345,
    "tri_facility_density": 0.0,
    "usgs_mean_q_cfs": 3.138,
    "velocity_feasibility": 0.7,
    "water_intake_score": 0.0253
   },
   "type": "Feature"
  },
  {
   "geometry": {
    "coordinates": [
     -78.29115,
     34.98364
    ],
    "type": "Point"
   },
   "properties": {
    "accumulation": 26434.0,
    "bank_slope_deg": 4.62,
    "bank_slope_score": 1.0,
    "bank_slope_source": "nc-dps-lidar-dem03-cross-section",
    "beach_dist_km": 97.49,
    "bridge_proximity_bonus": 0.0,
    "catchment_area_km2": 2.6417,
    "channel_width_m": 3.16,
    "channel_width_score": 1.0,
    "composite_score": 35.5292,
    "cso_density": 0.0,
    "ej_index": 0.2978,
    "elevation_m": 36.449,
    "estuary_dist_km": 204.22,
    "feasibility_score": 50.4535,
    "flood_q10_cfs": 272.02,
    "flow_score": 32.1008,
    "flow_velocity_ms": 0.1104,
    "generation_score": 33.0599,
    "impact_score": 33.3933,
    "impervious_pct": 14.82,
    "land_ownership": 0.5,
    "lat": 34.9836,
    "litter_complaint_density": 0.0,
    "lon": -78.2912,
    "navigable_dist_m": null,
    "npdes_points": 1,
    "pixel_col": 881.0,
    "pixel_row": 682.0,
    "population_density": 46.5,
    "position_along": 0.25,
    "protected_area_score": 2.9068,
    "rank": 17,
    "road_access_m": 695.7,
    "road_access_score": 0.6,
    "road_density_km_km2": 0.825,
    "robustness_pct": 0.0,
    "runoff_coeff_C": 0.1834,
    "seasonal_cv": 0.4376,
    "segment_id": 14,
    "segment_length_m": 3011.6714,
    "stream_order": 3,
    "superfund_score": 0.0,
    "tourism_amenity_density": 0.557,
    "tri_facility_density": 0.0,
    "usgs_mean_q_cfs": 4.007,
    "velocity_feasibility": 0.7,
    "water_intake_score": 0.0072
   },
   "type": "Feature"
  },
  {
   "geometry": {
    "coordinates": [
     -78.30084,
     34.965712
    ],
    "type": "Point"
   },
   "properties": {
    "accumulation": 48442.0,
    "bank_slope_deg": 1.6,
    "bank_slope_score": 1.0,
    "bank_slope_source": "nc-dps-lidar-dem03-cross-section",
    "beach_dist_km": 96.17,
    "bridge_proximity_bonus": 0.0,
    "catchment_area_km2": 4.8412,
    "channel_width_m": 3.94,
    "channel_width_score": 1.0,
    "composite_score": 34.8598,
    "cso_density": 0.0,
    "ej_index": 0.668,
    "elevation_m": 36.5617,
    "estuary_dist_km": 205.21,
    "feasibility_score": 58.39,
    "flood_q10_cfs": 301.6,
    "flow_score": 27.5577,
    "flow_velocity_ms": 0.0857,
    "generation_score": 17.324,
    "impact_score": 46.7156,
    "impervious_pct": 3.62,
    "land_ownership": 0.5,
    "lat": 34.9657,
    "litter_complaint_density": 0.0,
    "lon": -78.3008,
    "navigable_dist_m": null,
    "npdes_points": 1,
    "pixel_col": 798.0,
    "pixel_row": 884.0,
    "population_density": 47.6,
    "position_along": 0.25,
    "protected_area_score": 3.0487,
    "rank": 18,
    "road_access_m": 345.3,
    "road_access_score": 0.8,
    "road_density_km_km2": 2.575,
    "robustness_pct": 0.0,
    "runoff_coeff_C": 0.0826,
    "seasonal_cv": 0.4528,
    "segment_id": 16,
    "segment_length_m": 3502.2276,
    "stream_order": 3,
    "superfund_score": 0.0,
    "tourism_amenity_density": 0.557,
    "tri_facility_density": 0.0,
    "usgs_mean_q_cfs": 2.665,
    "velocity_feasibility": 0.7,
    "water_intake_score": 0.0
   },
   "type": "Feature"
  },
  {
   "geometry": {
    "coordinates": [
     -78.373674,
     35.006807
    ],
    "type": "Point"
   },
   "properties": {
    "accumulation": 70884.0,
    "bank_slope_deg": 1.36,
    "bank_slope_score": 1.0,
    "bank_slope_source": "nc-dps-lidar-dem03-cross-section",
    "beach_dist_km": 103.46,
    "bridge_proximity_bonus": 0.0,
    "catchment_area_km2": 7.0839,
    "channel_width_m": 4.52,
    "channel_width_score": 1.0,
    "composite_score": 34.5695,
    "cso_density": 0.0,
    "ej_index": 0.5002,
    "elevation_m": 27.3186,
    "estuary_dist_km": 211.63,
    "feasibility_score": 62.6984,
    "flood_q10_cfs": 348.44,
    "flow_score": 44.8286,
    "flow_velocity_ms": 0.5,
    "generation_score": 2.7795,
    "impact_score": 43.746,
    "impervious_pct": null,
    "land_ownership": 0.5,
    "lat": 35.0068,
    "litter_complaint_density": 0.0,
    "lon": -78.3737,
    "navigable_dist_m": null,
    "npdes_points": 0,
    "pixel_col": 119.0,
    "pixel_row": 446.0,
    "population_density": 67.4,
    "position_along": 0.8333,
    "protected_area_score": 3.2883,
    "rank": 19,
    "road_access_m": 977.3,
    "road_access_score": 0.6,
    "road_density_km_km2": 0.774,
    "robustness_pct": 0.0,
    "runoff_coeff_C": null,
    "seasonal_cv": null,
    "segment_id": 2,
    "segment_length_m": 4827.2015,
    "stream_order": 3,
    "superfund_score": 0.0,
    "tourism_amenity_density": 0.3979,
    "tri_facility_density": 0.0,
    "usgs_mean_q_cfs": null,
    "velocity_feasibility": 1.0,
    "water_intake_score": 0.0293
   },
   "type": "Feature"
  },
  {
   "geometry": {
    "coordinates": [
     -78.372842,
     34.975588
    ],
    "type": "Point"
   },
   "properties": {
    "accumulation": 63277.0,
    "bank_slope_deg": 1.59,
    "bank_slope_score": 1.0,
    "bank_slope_source": "nc-dps-lidar-dem03-cross-section",
    "beach_dist_km": 100.47,
    "bridge_proximity_bonus": 0.0,
    "catchment_area_km2": 6.3237,
    "channel_width_m": 4.34,
    "channel_width_score": 1.0,
    "composite_score": 33.9926,
    "cso_density": 0.0,
    "ej_index": 0.6774,
    "elevation_m": 26.0645,
    "estuary_dist_km": 211.7,
    "feasibility_score": 71.8821,
    "flood_q10_cfs": 356.05,
    "flow_score": 17.1704,
    "flow_velocity_ms": 0.1345,
    "generation_score": 6.9578,
    "impact_score": 56.1013,
    "impervious_pct": 3.86,
    "land_ownership": 1.0,
    "lat": 34.9756,
    "litter_complaint_density": 0.0,
    "lon": -78.3728,
    "navigable_dist_m": null,
    "npdes_points": 0,
    "pixel_col": 133.0,
    "pixel_row": 792.0,
    "population_density": 37.4,
    "position_along": 0.8333,
    "protected_area_score": 3.4695,
    "rank": 20,
    "road_access_m": 658.6,
    "road_access_score": 0.6,
    "road_density_km_km2": 0.425,
    "robustness_pct": 0.0,
    "runoff_coeff_C": 0.0847,
    "seasonal_cv": 0.4435,
    "segment_id": 15,
    "segment_length_m": 4983.4265,
    "stream_order": 1,
    "superfund_score": 0.0,
    "tourism_amenity_density": 0.0,
    "tri_facility_density": 0.0,
    "usgs_mean_q_cfs": 3.138,
    "velocity_feasibility": 0.7,
    "water_intake_score": 0.0279
   },
   "type": "Feature"
  },
  {
   "geometry": {
    "coordinates": [
     -78.345695,
     34.977863
    ],
    "type": "Point"
   },
   "properties": {
    "accumulation": 29182.0,
    "bank_slope_deg": 15.55,
    "bank_slope_score": 0.5,
    "bank_slope_source": "nc-dps-lidar-dem03-cross-section",
    "beach_dist_km": 99.39,
    "bridge_proximity_bonus": 0.0,
    "catchment_area_km2": 2.9164,
    "channel_width_m": 3.27,
    "channel_width_score": 1.0,
    "composite_score": 33.1105,
    "cso_density": 0.0,
    "ej_index": 0.7339,
    "elevation_m": 39.5576,
    "estuary_dist_km": 209.22,
    "feasibility_score": 44.1043,
    "flood_q10_cfs": 223.72,
    "flow_score": 13.0843,
    "flow_velocity_ms": 0.1101,
    "generation_score": 11.971,
    "impact_score": 65.4414,
    "impervious_pct": 3.86,
    "land_ownership": 0.5,
    "lat": 34.9779,
    "litter_complaint_density": 0.0,
    "lon": -78.3457,
    "navigable_dist_m": null,
    "npdes_points": 0,
    "pixel_col": 383.0,
    "pixel_row": 756.0,
    "population_density": 96.9,
    "position_along": 0.1667,
    "protected_area_score": 3.5267,
    "rank": 21,
    "road_access_m": 252.7,
    "road_access_score": 0.8,
    "road_density_km_km2": 2.054,
    "robustness_pct": 0.0,
    "runoff_coeff_C": 0.0847,
    "seasonal_cv": 0.4435,
    "segment_id": 15,
    "segment_length_m": 4983.4265,
    "stream_order": 1,
    "superfund_score": 0.0,
    "tourism_amenity_density": 2.5465,
    "tri_facility_density": 0.0,
    "usgs_mean_q_cfs": 3.138,
    "velocity_feasibility": 0.7,
    "water_intake_score": 0.0163
   },
   "type": "Feature"
  },
  {
   "geometry": {
    "coordinates": [
     -78.373587,
     35.027776
    ],
    "type": "Point"
   },
   "properties": {
    "accumulation": 23732.0,
    "bank_slope_deg": 1.53,
    "bank_slope_score": 1.0,
    "bank_slope_source": "nc-dps-lidar-dem03-cross-section",
    "beach_dist_km": 105.45,
    "bridge_proximity_bonus": 0.0,
    "catchment_area_km2": 2.3717,
    "channel_width_m": 3.04,
    "channel_width_score": 1.0,
    "composite_score": 32.2747,
    "cso_density": 0.0,
    "ej_index": 0.4711,
    "elevation_m": 28.6139,
    "estuary_dist_km": 211.55,
    "feasibility_score": 72.2222,
    "flood_q10_cfs": 180.64,
    "flow_score": 40.199,
    "flow_velocity_ms": 0.5,
    "generation_score": 1.3651,
    "impact_score": 36.6068,
    "impervious_pct": null,
    "land_ownership": 1.0,
    "lat": 35.0278,
    "litter_complaint_density": 0.0,
    "lon": -78.3736,
    "navigable_dist_m": null,
    "npdes_points": 0,
    "pixel_col": 112.0,
    "pixel_row": 213.0,
    "population_density": 57.7,
    "position_along": 0.1667,
    "protected_area_score": 2.9291,
    "rank": 22,
    "road_access_m": 1066.2,
    "road_access_score": 0.3,
    "road_density_km_km2": 0.0,
    "robustness_pct": 0.0,
    "runoff_coeff_C": null,
    "seasonal_cv": null,
    "segment_id": 2,
    "segment_length_m": 4827.2015,
    "stream_order": 3,
    "superfund_score": 0.0,
    "tourism_amenity_density": 0.0,
    "tri_facility_density": 0.0,
    "usgs_mean_q_cfs": null,
    "velocity_feasibility": 1.0,
    "water_intake_score": 0.0376
   },
   "type": "Feature"
  },
  {
   "geometry": {
    "coordinates": [
     -78.286455,
     34.96576
    ],
    "type": "Point"
   },
   "properties": {
    "accumulation": 76505.0,
    "bank_slope_deg": 7.11,
    "bank_slope_score": 1.0,
    "bank_slope_source": "nc-dps-lidar-dem03-cross-section",
    "beach_dist_km": 95.54,
    "bridge_proximity_bonus": 0.0,
    "catchment_area_km2": 7.6457,
    "channel_width_m": 4.65,
    "channel_width_score": 1.0,
    "composite_score": 32.1959,
    "cso_density": 0.0,
    "ej_index": 0.5632,
    "elevation_m": 32.4249,
    "estuary_dist_km": 203.9,
    "feasibility_score": 50.4535,
    "flood_q10_cfs": 387.87,
    "flow_score": 34.5045,
    "flow_velocity_ms": 0.0854,
    "generation_score": 13.6061,
    "impact_score": 39.7332,
    "impervious_pct": 2.64,
    "land_ownership": 0.5,
    "lat": 34.9658,
    "litter_complaint_density": 0.0,
    "lon": -78.2865,
    "navigable_dist_m": null,
    "npdes_points": 1,
    "pixel_col": 929.0,
    "pixel_row": 877.0,
    "population_density": 38.2,
    "position_along": 0.75,
    "protected_area_score": 2.7954,
    "rank": 23,
    "road_access_m": 848.5,
    "road_access_score": 0.6,
    "road_density_km_km2": 1.156,
    "robustness_pct": 0.0,
    "runoff_coeff_C": 0.0738,
    "seasonal_cv": 0.432,
    "segment_id": 16,
    "segment_length_m": 3502.2276,
    "stream_order": 3,
    "superfund_score": 0.0,
    "tourism_amenity_density": 0.4775,
    "tri_facility_density": 0.0,
    "usgs_mean_q_cfs": 5.332,
    "velocity_feasibility": 0.7,
    "water_intake_score": 0.0
   },
   "type": "Feature"
  },
  {
   "geometry": {
    "coordinates": [
     -78.379566,
     34.96837
    ],
    "type": "Point"
   },
   "properties": {
    "accumulation": 38447.0,
    "bank_slope_deg": 0.63,
    "bank_slope_score": 1.0,
    "bank_slope_source": "nc-dps-lidar-dem03-cross-section",
    "beach_dist_km": 100.12,
    "bridge_proximity_bonus": 0.0,
    "catchment_area_km2": 3.8423,
    "channel_width_m": 3.62,
    "channel_width_score": 1.0,
    "composite_score": 31.702,
    "cso_density": 0.0,
    "ej_index": 0.6467,
    "elevation_m": 24.7986,
    "estuary_dist_km": 212.36,
    "feasibility_score": 50.7937,
    "flood_q10_cfs": 241.33,
    "flow_score": 27.75,
    "flow_velocity_ms": 0.5,
    "generation_score": 0.0,
    "impact_score": 57.1514,
    "impervious_pct": null,
    "land_ownership": 0.5,
    "lat": 34.9684,
    "litter_complaint_density": 0.0,
    "lon": -78.3796,
    "navigable_dist_m": null,
    "npdes_points": 0,
    "pixel_col": 75.0,
    "pixel_row": 873.0,
    "population_density": 31.5,
    "position_along": 0.5,
    "protected_area_score": 3.5719,
    "rank": 24,
    "road_access_m": 1295.7,
    "road_access_score": 0.3,
    "road_density_km_km2": 0.0,
    "robustness_pct": 0.0,
    "runoff_coeff_C": null,
    "seasonal_cv": null,
    "segment_id": 18,
    "segment_length_m": 2888.1569,
    "stream_order": 1,
    "superfund_score": 0.0,
    "tourism_amenity_density": 0.0,
    "tri_facility_density": 0.0,
    "usgs_mean_q_cfs": null,
    "velocity_feasibility": 1.0,
    "water_intake_score": 0.0291
   },
   "type": "Feature"
  },
  {
   "geometry": {
    "coordinates": [
     -78.379893,
     35.017848
    ],
    "type": "Point"
   },
   "properties": {
    "accumulation": 55666.0,
    "bank_slope_deg": 1.98,
    "bank_slope_score": 1.0,
    "bank_slope_source": "nc-dps-lidar-dem03-cross-section",
    "beach_dist_km": 104.8,
    "bridge_proximity_bonus": 0.0,
    "catchment_area_km2": 5.5631,
    "channel_width_m": 4.14,
    "channel_width_score": 1.0,
    "composite_score": 31.4609,
    "cso_density": 0.0,
    "ej_index": 0.4445,
    "elevation_m": 27.7458,
    "estuary_dist_km": 212.16,
    "feasibility_score": 64.2857,
    "flood_q10_cfs": 301.38,
    "flow_score": 43.425,
    "flow_velocity_ms": 0.5,
    "generation_score": 0.8441,
    "impact_score": 35.6953,
    "impervious_pct": null,
    "land_ownership": 1.0,
    "lat": 35.0178,
    "litter_complaint_density": 0.0,
    "lon": -78.3799,
    "navigable_dist_m": null,
    "npdes_points": 0,
    "pixel_col": 60.0,
    "pixel_row": 325.0,
    "population_density": 47.7,
    "position_along": 0.5,
    "protected_area_score": 3.1305,
    "rank": 25,
    "road_access_m": 2308.7,
    "road_access_score": 0.1,
    "road_density_km_km2": 0.0,
    "robustness_pct": 0.0,
    "runoff_coeff_C": null,
    "seasonal_cv": null,
    "segment_id": 2,
    "segment_length_m": 4827.2015,
    "stream_order": 3,
    "superfund_score": 0.0,
    "tourism_amenity_density": 0.0,
    "tri_facility_density": 0.0,
    "usgs_mean_q_cfs": null,
    "velocity_feasibility": 1.0,
    "water_intake_score": 0.0313
   },
   "type": "Feature"
  },
  {
   "geometry": {
    "coordinates": [
     -78.36704,
     35.041597
    ],
    "type": "Point"
   },
   "properties": {
    "accumulation": 22203.0,
    "bank_slope_deg": 2.41,
    "bank_slope_score": 1.0,
    "bank_slope_source": "nc-dps-lidar-dem03-cross-section",
    "beach_dist_km": 106.48,
    "bridge_proximity_bonus": 0.0,
    "catchment_area_km2": 2.2189,
    "channel_width_m": 2.96,
    "channel_width_score": 1.0,
    "composite_score": 24.0583,
    "cso_density": 0.0,
    "ej_index": 0.526,
    "elevation_m": 29.3993,
    "estuary_dist_km": 210.93,
    "feasibility_score": 50.4535,
    "flood_q10_cfs": 184.72,
    "flow_score": 10.2509,
    "flow_velocity_ms": 0.0751,
    "generation_score": 7.2398,
    "impact_score": 39.1855,
    "impervious_pct": 2.68,
    "land_ownership": 0.5,
    "lat": 35.0416,
    "litter_complaint_density": 0.0,
    "lon": -78.367,
    "navigable_dist_m": null,
    "npdes_points": 0,
    "pixel_col": 170.0,
    "pixel_row": 54.0,
    "population_density": 78.0,
    "position_along": 0.5,
    "protected_area_score": 2.9385,
    "rank": 26,
    "road_access_m": 616.0,
    "road_access_score": 0.6,
    "road_density_km_km2": 0.465,
    "robustness_pct": 0.0,
    "runoff_coeff_C": 0.0741,
    "seasonal_cv": 0.4391,
    "segment_id": 1,
    "segment_length_m": 673.3414,
    "stream_order": 1,
    "superfund_score": 0.0,
    "tourism_amenity_density": 0.0,
    "tri_facility_density": 0.0,
    "usgs_mean_q_cfs": 2.558,
    "velocity_feasibility": 0.7,
    "water_intake_score": 0.0382
   },
   "type": "Feature"
  },
  {
   "geometry": {
    "coordinates": [
     -78.304418,
     35.043679
    ],
    "type": "Point"
   },
   "properties": {
    "accumulation": 27110.0,
    "bank_slope_deg": 2.35,
    "bank_slope_score": 1.0,
    "bank_slope_source": "nc-dps-lidar-dem03-cross-section",
    "beach_dist_km": 103.97,
    "bridge_proximity_bonus": 0.0,
    "catchment_area_km2": 2.7093,
    "channel_width_m": 3.19,
    "channel_width_score": 1.0,
    "composite_score": 23.4528,
    "cso_density": 0.0,
    "ej_index": 0.6708,
    "elevation_m": 37.4244,
    "estuary_dist_km": 205.22,
    "feasibility_score": 38.5488,
    "flood_q10_cfs": 203.27,
    "flow_score": 12.5708,
    "flow_velocity_ms": 0.0951,
    "generation_score": 3.4263,
    "impact_score": 44.9997,
    "impervious_pct": 1.64,
    "land_ownership": 0.5,
    "lat": 35.0437,
    "litter_complaint_density": 0.0,
    "lon": -78.3044,
    "navigable_dist_m": null,
    "npdes_points": 0,
    "pixel_col": 742.0,
    "pixel_row": 18.0,
    "population_density": 47.1,
    "position_along": 0.5,
    "protected_area_score": 2.8802,
    "rank": 27,
    "road_access_m": 1232.0,
    "road_access_score": 0.3,
    "road_density_km_km2": 0.0,
    "robustness_pct": 0.0,
    "runoff_coeff_C": 0.0648,
    "seasonal_cv": 0.4311,
    "segment_id": 0,
    "segment_length_m": 966.3862,
    "stream_order": 1,
    "superfund_score": 0.0,
    "tourism_amenity_density": 0.0,
    "tri_facility_density": 0.0,
    "usgs_mean_q_cfs": 3.515,
    "velocity_feasibility": 0.7,
    "water_intake_score": 0.0204
   },
   "type": "Feature"
  }
 ],
 "note": "GRIME region 'Clinton, NC' \u2014 real-data pipeline (DEM\u2192streams\u2192candidates\u2192stream mask (sites confined to \u00b1150 m of mapped OSM/NHD waterways)\u2192region-appropriate real parameters\u2192shipped scoring, math unchanged). Width curve: Bieger et al. 2015 JAWRA Table 3, Atlantic Plain. Flood: SIR 2014-5030 HR4 (I24H50Y: NOAA Atlas 14). NC Coastal Plain (SIR 2014-5030 HR4; I24H50Y from NOAA Atlas 14 at region center)",
 "provenance": {
  "candidates_pre_gate": 27,
  "constant": [
   "bridge_proximity_bonus",
   "channel_width_score",
   "cso_density",
   "litter_complaint_density",
   "superfund_score"
  ],
  "gated_navigable": 0,
  "hard_gate_removed": 0,
  "n_parameters": 27,
  "parameters": {
   "bank_slope_score": {
    "kind": "real",
    "n_3dep_10m_fallback": 0,
    "n_nc_lidar_3_125ft": 27,
    "n_real": 27,
    "n_sites": 27,
    "source": "NC OneMap / NC DPS DEM03 statewide lidar-derived 3.125-ft (0.953 m) elevations (perpendicular 50 m transect; robust 5 m bank-rise metric); unavailable profiles use the region 10 m 3DEP DEM-gradient fallback",
    "source_mosaics": [
     "Sampson_Ground_3ft"
    ]
   },
   "beach_dist_km": {
    "kind": "real",
    "n_real": 27,
    "n_sites": 27,
    "source": "haversine to region ref: Wrightsville Beach (shipped NC reference)"
   },
   "bridge_proximity_bonus": {
    "kind": "real",
    "n_real": 27,
    "n_sites": 27,
    "source": "FHWA/BTS NBI (NTAD), 50 m proximity"
   },
   "catchment_area_km2": {
    "kind": "real",
    "n_real": 27,
    "n_sites": 27,
    "source": "DEM flow accumulation (pipeline)"
   },
   "channel_width_score": {
    "kind": "real",
    "n_real": 27,
    "n_sites": 27,
    "source": "Bieger 2015 APL width curve on DEM drainage area \u2192 shipped width curve"
   },
   "cso_density": {
    "kind": "real",
    "n_real": 27,
    "n_sites": 27,
    "source": "EPA ECHO open CSO/TCS outfall PF coordinates states=NC, Cauchy proximity"
   },
   "ej_index": {
    "kind": "real",
    "n_real": 27,
    "n_sites": 27,
    "source": "Census ACS C17002+B03002 two-component demographic index, percentile-ranked within region"
   },
   "estuary_dist_km": {
    "kind": "real",
    "n_real": 27,
    "n_sites": 27,
    "source": "haversine to region ref: Pamlico Sound (shipped NC reference)"
   },
   "flood_q10_cfs": {
    "impervious_fallback_reason": "StreamCat imperviousness unavailable; the existing regression-input fallback of 0.0% impervious was used and is disclosed here",
    "kind": "real",
    "n_impervious_fallback": 7,
    "n_real": 27,
    "n_sites": 27,
    "source": "USGS SIR 2014-5030 Table 7 HR4 (NC Coastal Plain; I24H50Y from NOAA Atlas 14 at region center)"
   },
   "flow_velocity_ms": {
    "fallback_reason": "EROM/DEM continuity input unavailable; shipped 0.5 m/s default used",
    "kind": "real",
    "n_fallback": 7,
    "n_real": 20,
    "n_sites": 27,
    "source": "Manning (region DEM/D8) blended with EROM continuity (shipped M4 logic)"
   },
   "impervious_pct": {
    "fallback_reason": "NLDI/StreamCat did not return a snap-compatible catchment value; value remains null and is removed by constant-column handling",
    "kind": "real",
    "n_fallback": 7,
    "n_real": 20,
    "n_sites": 27,
    "source": "EPA StreamCat pctimp2019 (per NHDPlus watershed)"
   },
   "land_ownership": {
    "fallback_reason": "no containing parcel owner returned; shipped unknown ownership 0.5 used",
    "kind": "real",
    "n_fallback": 1,
    "n_real": 26,
    "n_sites": 27,
    "source": "NC OneMap statewide parcels (NC Parcels Transformer) ownname"
   },
   "litter_complaint_density": {
    "kind": "fallback",
    "n_real": 0,
    "n_sites": 27,
    "source": "no public machine-readable litter/illegal-dumping feed for this region"
   },
   "navigable_dist_m": {
    "kind": "real",
    "n_real": 27,
    "n_sites": 27,
    "source": "USACE/BTS NWN (NTAD): no navigable segment within this bbox (+2 km) \u2014 computed absence, gate passes all sites"
   },
   "npdes_points": {
    "kind": "real",
    "n_real": 27,
    "n_sites": 27,
    "source": "EPA ECHO active NPDES outfalls states=NC (types NPD/GPC/NGP; statuses ADC/EFF/EXP), per catchment"
   },
   "population_density": {
    "kind": "real",
    "n_real": 27,
    "n_sites": 27,
    "source": "Census ACS 2022 B01003 block groups (bbox, multi-county), area-weighted"
   },
   "protected_area_score": {
    "kind": "real",
    "n_real": 27,
    "n_sites": 27,
    "source": "USGS PAD-US 4.1 state GDB; states=NC; shipped designation-weighted proximity curve"
   },
   "road_access_score": {
    "kind": "real",
    "n_real": 27,
    "n_sites": 27,
    "source": "OSM drive network nearest-node distance"
   },
   "road_density_km_km2": {
    "kind": "real",
    "n_real": 27,
    "n_sites": 27,
    "source": "OSM drive network (osmnx, cached) clipped per catchment"
   },
   "runoff_coeff_C": {
    "fallback_reason": "source impervious_pct was unavailable; derived value remains null",
    "kind": "real",
    "n_fallback": 7,
    "n_real": 20,
    "n_sites": 27,
    "source": "derived from real impervious_pct (C=0.05+0.009*I)"
   },
   "seasonal_cv": {
    "fallback_reason": "NHDPlus monthly EROM was unavailable or failed the drainage-area snap guard; value remains null",
    "kind": "real",
    "n_fallback": 7,
    "n_real": 20,
    "n_sites": 27,
    "source": "CV of NHDPlus EROM monthly flows per COMID"
   },
   "stream_order": {
    "kind": "real",
    "n_real": 27,
    "n_sites": 27,
    "source": "DEM stream-network confluence heuristic (pipeline)"
   },
   "superfund_score": {
    "kind": "real",
    "n_real": 27,
    "n_sites": 27,
    "source": "EPA DataMap SEMS active sites states=NC (non-archived, georeferenced), shipped 500 m inverse-distance curve"
   },
   "tourism_amenity_density": {
    "kind": "real",
    "n_real": 27,
    "n_sites": 27,
    "source": "OSM leisure/tourism features per 2 km radius"
   },
   "tri_facility_density": {
    "kind": "real",
    "n_real": 27,
    "n_sites": 27,
    "source": "EPA DataMap TRI open facilities states=NC (preferred decimal or packed-DMS recovery), per catchment"
   },
   "usgs_mean_q_cfs": {
    "fallback_reason": "NHDPlus EROM was unavailable or failed the drainage-area snap guard; value remains null",
    "kind": "real",
    "n_fallback": 7,
    "n_real": 20,
    "n_sites": 27,
    "source": "NHDPlus EROM qe_ma per COMID (snap-guarded)"
   },
   "velocity_feasibility": {
    "fallback_reason": "derived from the shipped 0.5 m/s velocity fallback",
    "kind": "real",
    "n_fallback": 7,
    "n_real": 20,
    "n_sites": 27,
    "source": "shipped step curve on the computed velocity"
   },
   "velocity_transport_favorability": {
    "fallback_reason": "EROM/DEM continuity input unavailable; shipped 0.5 m/s default used",
    "kind": "derived",
    "n_fallback": 7,
    "n_real": 20,
    "n_sites": 27,
    "source": "scored form of flow_velocity_ms inside the Flow family \u2014 peaked Gaussian exp(-((v-0.9)/0.6)^2), model.json curves.velocity_transport_favorability; construct: transport/delivery favorability, deliberately distinct from velocity_feasibility (device operability)"
   },
   "water_intake_score": {
    "kind": "real",
    "n_real": 27,
    "n_sites": 27,
    "source": "NC OneMap / NC DEQ SWAP public water supply sources (source_typ='Surface Water'), shipped exp(-d/10km) curve"
   }
  },
  "stream_mask": {
   "buffer_m": 150.0,
   "pre_mask": 27,
   "removed": 0,
   "sources": [
    "osm-overpass (all waterway ways)",
    "usgs-nhdplus flowlines"
   ]
  },
  "varying": [
   "bank_slope_score",
   "beach_dist_km",
   "catchment_area_km2",
   "ej_index",
   "estuary_dist_km",
   "flood_q10_cfs",
   "flow_velocity_ms",
   "impervious_pct",
   "land_ownership",
   "npdes_points",
   "population_density",
   "protected_area_score",
   "road_access_score",
   "road_density_km_km2",
   "runoff_coeff_C",
   "seasonal_cv",
   "stream_order",
   "tourism_amenity_density",
   "tri_facility_density",
   "usgs_mean_q_cfs",
   "velocity_feasibility",
   "water_intake_score"
  ]
 },
 "region": {
  "bbox": [
   -78.3855,
   34.9562,
   -78.2775,
   35.0447
  ],
  "beach_ref": {
   "label": "Wrightsville Beach (shipped NC reference)",
   "lat": 34.21,
   "lon": -77.79
  },
  "center": [
   -78.33154,
   35.00043
  ],
  "estuary_ref": {
   "label": "Pamlico Sound (shipped NC reference)",
   "lat": 35.05,
   "lon": -76.05
  },
  "flood_method": "sir2014_hr4",
  "name": "Clinton, NC",
  "notes": "NC Coastal Plain (SIR 2014-5030 HR4; I24H50Y from NOAA Atlas 14 at region center)",
  "slug": "clinton",
  "state": "NC",
  "utm_epsg": 32617,
  "width_curve": {
   "a": 2.22,
   "b": 0.363,
   "code": "APL",
   "source": "Bieger et al. 2015 JAWRA Table 3, Atlantic Plain"
  }
 },
 "type": "FeatureCollection"
}
