{
 "features": [
  {
   "geometry": {
    "coordinates": [
     -82.914653,
     35.534309
    ],
    "type": "Point"
   },
   "properties": {
    "accumulation": 25553.0,
    "bank_slope_deg": 29.13,
    "bank_slope_score": 0.5,
    "bank_slope_source": "nc-dps-lidar-dem03-cross-section",
    "beach_dist_km": 490.08,
    "bridge_proximity_bonus": 0.0,
    "catchment_area_km2": 2.55,
    "channel_width_m": 4.6,
    "channel_width_score": 1.0,
    "composite_score": 59.9947,
    "cso_density": 0.0,
    "ej_index": 0.6578,
    "elevation_m": 767.6318,
    "estuary_dist_km": 625.23,
    "feasibility_score": 33.3333,
    "flood_q10_cfs": null,
    "flow_score": 38.8889,
    "flow_velocity_ms": 0.1561,
    "generation_score": 85.64,
    "impact_score": 65.2683,
    "impervious_pct": 4.36,
    "land_ownership": 0.5,
    "lat": 35.5343,
    "litter_complaint_density": 0.0,
    "lon": -82.9147,
    "navigable_dist_m": null,
    "npdes_points": 1,
    "pixel_col": 171.0,
    "pixel_row": 187.0,
    "population_density": 250.8,
    "position_along": 0.5,
    "protected_area_score": 13.7477,
    "rank": 1,
    "road_access_m": 48.7,
    "road_access_score": 1.0,
    "road_density_km_km2": 11.279,
    "robustness_pct": 100.0,
    "runoff_coeff_C": 0.0892,
    "seasonal_cv": 0.5004,
    "segment_id": 1,
    "segment_length_m": 252.8733,
    "stream_order": 3,
    "superfund_score": 0.0,
    "tourism_amenity_density": 1.1937,
    "tri_facility_density": 0.0,
    "usgs_mean_q_cfs": 2.647,
    "velocity_feasibility": 0.7,
    "water_intake_score": 1.4793
   },
   "type": "Feature"
  },
  {
   "geometry": {
    "coordinates": [
     -82.903996,
     35.534498
    ],
    "type": "Point"
   },
   "properties": {
    "accumulation": 46516.0,
    "bank_slope_deg": 32.49,
    "bank_slope_score": 0.2,
    "bank_slope_source": "nc-dps-lidar-dem03-cross-section",
    "beach_dist_km": 489.16,
    "bridge_proximity_bonus": 0.0,
    "catchment_area_km2": 4.6419,
    "channel_width_m": 5.9,
    "channel_width_score": 1.0,
    "composite_score": 46.775,
    "cso_density": 0.0,
    "ej_index": 0.573,
    "elevation_m": 766.5156,
    "estuary_dist_km": 624.26,
    "feasibility_score": 66.6667,
    "flood_q10_cfs": null,
    "flow_score": 40.9607,
    "flow_velocity_ms": 0.5,
    "generation_score": 7.4163,
    "impact_score": 81.0332,
    "impervious_pct": null,
    "land_ownership": 0.5,
    "lat": 35.5345,
    "litter_complaint_density": 0.0,
    "lon": -82.904,
    "navigable_dist_m": null,
    "npdes_points": 1,
    "pixel_col": 265.0,
    "pixel_row": 188.0,
    "population_density": 163.3,
    "position_along": 0.5,
    "protected_area_score": 14.2092,
    "rank": 2,
    "road_access_m": 28.3,
    "road_access_score": 1.0,
    "road_density_km_km2": 6.834,
    "robustness_pct": 100.0,
    "runoff_coeff_C": null,
    "seasonal_cv": null,
    "segment_id": 0,
    "segment_length_m": 2166.6845,
    "stream_order": 3,
    "superfund_score": 0.0,
    "tourism_amenity_density": 1.0345,
    "tri_facility_density": 0.0,
    "usgs_mean_q_cfs": null,
    "velocity_feasibility": 1.0,
    "water_intake_score": 1.5032
   },
   "type": "Feature"
  },
  {
   "geometry": {
    "coordinates": [
     -82.92544,
     35.539431
    ],
    "type": "Point"
   },
   "properties": {
    "accumulation": 133617.0,
    "bank_slope_deg": 16.28,
    "bank_slope_score": 0.5,
    "bank_slope_source": "nc-dps-lidar-dem03-cross-section",
    "beach_dist_km": 491.18,
    "bridge_proximity_bonus": 0.0,
    "catchment_area_km2": 13.3339,
    "channel_width_m": 9.14,
    "channel_width_score": 1.0,
    "composite_score": 41.5278,
    "cso_density": 0.0,
    "ej_index": 0.5443,
    "elevation_m": 763.8397,
    "estuary_dist_km": 626.23,
    "feasibility_score": 100.0,
    "flood_q10_cfs": null,
    "flow_score": 61.1111,
    "flow_velocity_ms": 0.5,
    "generation_score": 37.5,
    "impact_score": 0.0,
    "impervious_pct": null,
    "land_ownership": 0.5,
    "lat": 35.5394,
    "litter_complaint_density": 0.0,
    "lon": -82.9254,
    "navigable_dist_m": null,
    "npdes_points": 1,
    "pixel_col": 72.0,
    "pixel_row": 128.0,
    "population_density": 305.1,
    "position_along": 0.5,
    "protected_area_score": 13.5879,
    "rank": 3,
    "road_access_m": 36.5,
    "road_access_score": 1.0,
    "road_density_km_km2": 4.377,
    "robustness_pct": 100.0,
    "runoff_coeff_C": null,
    "seasonal_cv": null,
    "segment_id": 2,
    "segment_length_m": 2607.0578,
    "stream_order": 3,
    "superfund_score": 0.0,
    "tourism_amenity_density": 0.7958,
    "tri_facility_density": 0.0,
    "usgs_mean_q_cfs": null,
    "velocity_feasibility": 1.0,
    "water_intake_score": 1.435
   },
   "type": "Feature"
  }
 ],
 "note": "GRIME region 'Clyde, NC' \u2014 real-data pipeline (DEM\u2192streams\u2192candidates\u2192stream mask (sites confined to \u00b1150 m of mapped OSM/NHD waterways)\u2192region-appropriate real parameters\u2192shipped scoring, math unchanged). Width curve: Bieger et al. 2015 JAWRA Table 3, Appalachian Highlands. Flood: not applicable here (documented fallback). NC Blue Ridge (outside SIR 2014-5030 urban coverage)",
 "provenance": {
  "candidates_pre_gate": 3,
  "constant": [
   "bridge_proximity_bonus",
   "channel_width_score",
   "cso_density",
   "flood_q10_cfs",
   "land_ownership",
   "litter_complaint_density",
   "npdes_points",
   "road_access_score",
   "stream_order",
   "superfund_score",
   "tri_facility_density"
  ],
  "gated_navigable": 0,
  "hard_gate_removed": 0,
  "n_parameters": 27,
  "parameters": {
   "bank_slope_score": {
    "kind": "real",
    "n_3dep_10m_fallback": 0,
    "n_nc_lidar_3_125ft": 3,
    "n_real": 3,
    "n_sites": 3,
    "source": "NC OneMap / NC DPS DEM03 statewide lidar-derived 3.125-ft (0.953 m) elevations (perpendicular 50 m transect; robust 5 m bank-rise metric); unavailable profiles use the region 10 m 3DEP DEM-gradient fallback",
    "source_mosaics": [
     "Haywood_QL1_2025_03ft_CountywideRaster"
    ]
   },
   "beach_dist_km": {
    "kind": "real",
    "n_real": 3,
    "n_sites": 3,
    "source": "haversine to region ref: Wrightsville Beach (shipped NC reference)"
   },
   "bridge_proximity_bonus": {
    "kind": "real",
    "n_real": 3,
    "n_sites": 3,
    "source": "FHWA/BTS NBI (NTAD), 50 m proximity"
   },
   "catchment_area_km2": {
    "kind": "real",
    "n_real": 3,
    "n_sites": 3,
    "source": "DEM flow accumulation (pipeline)"
   },
   "channel_width_score": {
    "kind": "real",
    "n_real": 3,
    "n_sites": 3,
    "source": "Bieger 2015 AHI width curve on DEM drainage area \u2192 shipped width curve"
   },
   "cso_density": {
    "kind": "real",
    "n_real": 3,
    "n_sites": 3,
    "source": "EPA ECHO open CSO/TCS outfall PF coordinates states=NC, Cauchy proximity"
   },
   "ej_index": {
    "kind": "real",
    "n_real": 3,
    "n_sites": 3,
    "source": "Census ACS C17002+B03002 two-component demographic index, percentile-ranked within region"
   },
   "estuary_dist_km": {
    "kind": "real",
    "n_real": 3,
    "n_sites": 3,
    "source": "haversine to region ref: Pamlico Sound (shipped NC reference)"
   },
   "flood_q10_cfs": {
    "impervious_fallback_reason": "StreamCat imperviousness unavailable; the existing regression-input fallback of 0.0% impervious was used and is disclosed here",
    "kind": "fallback",
    "n_impervious_fallback": 2,
    "n_real": 0,
    "n_sites": 3,
    "source": "flood regression not valid here (NC Blue Ridge (outside SIR 2014-5030 urban coverage)...) \u2014 NaN, dropped by constant-column handling"
   },
   "flow_velocity_ms": {
    "fallback_reason": "EROM/DEM continuity input unavailable; shipped 0.5 m/s default used",
    "kind": "real",
    "n_fallback": 2,
    "n_real": 1,
    "n_sites": 3,
    "source": "Manning (region DEM/D8) blended with EROM continuity (shipped M4 logic)"
   },
   "impervious_pct": {
    "fallback_reason": "NLDI/StreamCat did not return a snap-compatible catchment value; value remains null and is removed by constant-column handling",
    "kind": "real",
    "n_fallback": 2,
    "n_real": 1,
    "n_sites": 3,
    "source": "EPA StreamCat pctimp2019 (per NHDPlus watershed)"
   },
   "land_ownership": {
    "fallback_reason": "no containing parcel owner returned; shipped unknown ownership 0.5 used",
    "kind": "real",
    "n_fallback": 1,
    "n_real": 2,
    "n_sites": 3,
    "source": "NC OneMap statewide parcels (NC Parcels Transformer) ownname"
   },
   "litter_complaint_density": {
    "kind": "fallback",
    "n_real": 0,
    "n_sites": 3,
    "source": "no public machine-readable litter/illegal-dumping feed for this region"
   },
   "navigable_dist_m": {
    "kind": "real",
    "n_real": 3,
    "n_sites": 3,
    "source": "USACE/BTS NWN (NTAD): no navigable segment within this bbox (+2 km) \u2014 computed absence, gate passes all sites"
   },
   "npdes_points": {
    "kind": "real",
    "n_real": 3,
    "n_sites": 3,
    "source": "EPA ECHO active NPDES outfalls states=NC (types NPD/GPC/NGP; statuses ADC/EFF/EXP), per catchment"
   },
   "population_density": {
    "kind": "real",
    "n_real": 3,
    "n_sites": 3,
    "source": "Census ACS 2022 B01003 block groups (bbox, multi-county), area-weighted"
   },
   "protected_area_score": {
    "kind": "real",
    "n_real": 3,
    "n_sites": 3,
    "source": "USGS PAD-US 4.1 state GDB; states=NC; shipped designation-weighted proximity curve"
   },
   "road_access_score": {
    "kind": "real",
    "n_real": 3,
    "n_sites": 3,
    "source": "OSM drive network nearest-node distance"
   },
   "road_density_km_km2": {
    "kind": "real",
    "n_real": 3,
    "n_sites": 3,
    "source": "OSM drive network (osmnx, cached) clipped per catchment"
   },
   "runoff_coeff_C": {
    "fallback_reason": "source impervious_pct was unavailable; derived value remains null",
    "kind": "real",
    "n_fallback": 2,
    "n_real": 1,
    "n_sites": 3,
    "source": "derived from real impervious_pct (C=0.05+0.009*I)"
   },
   "seasonal_cv": {
    "fallback_reason": "NHDPlus monthly EROM was unavailable or failed the drainage-area snap guard; value remains null",
    "kind": "real",
    "n_fallback": 2,
    "n_real": 1,
    "n_sites": 3,
    "source": "CV of NHDPlus EROM monthly flows per COMID"
   },
   "stream_order": {
    "kind": "real",
    "n_real": 3,
    "n_sites": 3,
    "source": "DEM stream-network confluence heuristic (pipeline)"
   },
   "superfund_score": {
    "kind": "real",
    "n_real": 3,
    "n_sites": 3,
    "source": "EPA DataMap SEMS active sites states=NC (non-archived, georeferenced), shipped 500 m inverse-distance curve"
   },
   "tourism_amenity_density": {
    "kind": "real",
    "n_real": 3,
    "n_sites": 3,
    "source": "OSM leisure/tourism features per 2 km radius"
   },
   "tri_facility_density": {
    "kind": "real",
    "n_real": 3,
    "n_sites": 3,
    "source": "EPA DataMap TRI open facilities states=NC (preferred decimal or packed-DMS recovery), per catchment"
   },
   "usgs_mean_q_cfs": {
    "fallback_reason": "NHDPlus EROM was unavailable or failed the drainage-area snap guard; value remains null",
    "kind": "real",
    "n_fallback": 2,
    "n_real": 1,
    "n_sites": 3,
    "source": "NHDPlus EROM qe_ma per COMID (snap-guarded)"
   },
   "velocity_feasibility": {
    "fallback_reason": "derived from the shipped 0.5 m/s velocity fallback",
    "kind": "real",
    "n_fallback": 2,
    "n_real": 1,
    "n_sites": 3,
    "source": "shipped step curve on the computed velocity"
   },
   "velocity_transport_favorability": {
    "fallback_reason": "EROM/DEM continuity input unavailable; shipped 0.5 m/s default used",
    "kind": "derived",
    "n_fallback": 2,
    "n_real": 1,
    "n_sites": 3,
    "source": "scored form of flow_velocity_ms inside the Flow family \u2014 peaked Gaussian exp(-((v-0.9)/0.6)^2), model.json curves.velocity_transport_favorability; construct: transport/delivery favorability, deliberately distinct from velocity_feasibility (device operability)"
   },
   "water_intake_score": {
    "kind": "real",
    "n_real": 3,
    "n_sites": 3,
    "source": "NC OneMap / NC DEQ SWAP public water supply sources (source_typ='Surface Water'), shipped exp(-d/10km) curve"
   }
  },
  "stream_mask": {
   "buffer_m": 150.0,
   "pre_mask": 3,
   "removed": 0,
   "sources": [
    "osm-overpass (all waterway ways)",
    "usgs-nhdplus flowlines"
   ]
  },
  "varying": [
   "bank_slope_score",
   "beach_dist_km",
   "catchment_area_km2",
   "ej_index",
   "estuary_dist_km",
   "flow_velocity_ms",
   "impervious_pct",
   "population_density",
   "protected_area_score",
   "road_density_km_km2",
   "runoff_coeff_C",
   "seasonal_cv",
   "tourism_amenity_density",
   "usgs_mean_q_cfs",
   "velocity_feasibility",
   "water_intake_score"
  ]
 },
 "region": {
  "bbox": [
   -82.933,
   35.5151,
   -82.8887,
   35.5511
  ],
  "beach_ref": {
   "label": "Wrightsville Beach (shipped NC reference)",
   "lat": 34.21,
   "lon": -77.79
  },
  "center": [
   -82.910824,
   35.533082
  ],
  "estuary_ref": {
   "label": "Pamlico Sound (shipped NC reference)",
   "lat": 35.05,
   "lon": -76.05
  },
  "flood_method": "none",
  "name": "Clyde, NC",
  "notes": "NC Blue Ridge (outside SIR 2014-5030 urban coverage)",
  "slug": "clyde",
  "state": "NC",
  "utm_epsg": 32617,
  "width_curve": {
   "a": 3.12,
   "b": 0.415,
   "code": "AHI",
   "source": "Bieger et al. 2015 JAWRA Table 3, Appalachian Highlands"
  }
 },
 "type": "FeatureCollection"
}
