{
 "features": [
  {
   "geometry": {
    "coordinates": [
     -76.908713,
     36.380215
    ],
    "type": "Point"
   },
   "properties": {
    "accumulation": 138947.0,
    "bank_slope_deg": 0.12,
    "bank_slope_score": 1.0,
    "bank_slope_source": "nc-dps-lidar-dem03-cross-section",
    "beach_dist_km": 254.22,
    "bridge_proximity_bonus": 0.0,
    "catchment_area_km2": 13.8529,
    "channel_width_m": 5.76,
    "channel_width_score": 1.0,
    "composite_score": 65.6507,
    "cso_density": 0.0,
    "ej_index": 0.5272,
    "elevation_m": 1.542,
    "estuary_dist_km": 167.0,
    "feasibility_score": 77.7778,
    "flood_q10_cfs": 504.05,
    "flow_score": 75.5613,
    "flow_velocity_ms": 0.068,
    "generation_score": 74.428,
    "impact_score": 42.5511,
    "impervious_pct": 2.32,
    "land_ownership": 0.5,
    "lat": 36.3802,
    "litter_complaint_density": 0.0,
    "lon": -76.9087,
    "navigable_dist_m": 1117.5,
    "npdes_points": 2,
    "pixel_col": 345.0,
    "pixel_row": 57.0,
    "population_density": 23.9,
    "position_along": 0.5,
    "protected_area_score": 20.292,
    "rank": 1,
    "road_access_m": 625.0,
    "road_access_score": 0.6,
    "road_density_km_km2": 0.49,
    "robustness_pct": 100.0,
    "runoff_coeff_C": 0.0709,
    "seasonal_cv": 0.4308,
    "segment_id": 5,
    "segment_length_m": 1202.8678,
    "stream_order": 3,
    "superfund_score": 0.021,
    "tourism_amenity_density": 0.2387,
    "tri_facility_density": 0.0,
    "usgs_mean_q_cfs": 9.167,
    "velocity_feasibility": 0.7,
    "water_intake_score": 0.0
   },
   "type": "Feature"
  },
  {
   "geometry": {
    "coordinates": [
     -76.908396,
     36.366321
    ],
    "type": "Point"
   },
   "properties": {
    "accumulation": 20662.0,
    "bank_slope_deg": 6.55,
    "bank_slope_score": 1.0,
    "bank_slope_source": "nc-dps-lidar-dem03-cross-section",
    "beach_dist_km": 252.77,
    "bridge_proximity_bonus": 0.0,
    "catchment_area_km2": 2.06,
    "channel_width_m": 2.89,
    "channel_width_score": 1.0,
    "composite_score": 60.4708,
    "cso_density": 0.0,
    "ej_index": 0.5833,
    "elevation_m": 3.8707,
    "estuary_dist_km": 165.62,
    "feasibility_score": 100.0,
    "flood_q10_cfs": 165.49,
    "flow_score": 43.7973,
    "flow_velocity_ms": 0.1052,
    "generation_score": 66.926,
    "impact_score": 48.1456,
    "impervious_pct": 3.63,
    "land_ownership": 0.5,
    "lat": 36.3663,
    "litter_complaint_density": 0.0,
    "lon": -76.9084,
    "navigable_dist_m": 2617.9,
    "npdes_points": 0,
    "pixel_col": 343.0,
    "pixel_row": 212.0,
    "population_density": 19.0,
    "position_along": 0.5,
    "protected_area_score": 18.1412,
    "rank": 2,
    "road_access_m": 355.3,
    "road_access_score": 0.8,
    "road_density_km_km2": 0.797,
    "robustness_pct": 100.0,
    "runoff_coeff_C": 0.0827,
    "seasonal_cv": 0.4063,
    "segment_id": 3,
    "segment_length_m": 266.8771,
    "stream_order": 3,
    "superfund_score": 0.0213,
    "tourism_amenity_density": 0.0796,
    "tri_facility_density": 0.0,
    "usgs_mean_q_cfs": 2.595,
    "velocity_feasibility": 0.7,
    "water_intake_score": 0.0
   },
   "type": "Feature"
  },
  {
   "geometry": {
    "coordinates": [
     -76.912376,
     36.37072
    ],
    "type": "Point"
   },
   "properties": {
    "accumulation": 46859.0,
    "bank_slope_deg": 15.0,
    "bank_slope_score": 1.0,
    "bank_slope_source": "nc-dps-lidar-dem03-cross-section",
    "beach_dist_km": 253.12,
    "bridge_proximity_bonus": 0.0,
    "catchment_area_km2": 4.6718,
    "channel_width_m": 3.88,
    "channel_width_score": 1.0,
    "composite_score": 60.0364,
    "cso_density": 0.0,
    "ej_index": 0.5941,
    "elevation_m": 1.9308,
    "estuary_dist_km": 166.22,
    "feasibility_score": 77.7778,
    "flood_q10_cfs": 270.57,
    "flow_score": 49.0934,
    "flow_velocity_ms": 0.0939,
    "generation_score": 74.1335,
    "impact_score": 46.1878,
    "impervious_pct": 3.63,
    "land_ownership": 0.5,
    "lat": 36.3707,
    "litter_complaint_density": 0.0,
    "lon": -76.9124,
    "navigable_dist_m": 2221.1,
    "npdes_points": 1,
    "pixel_col": 309.0,
    "pixel_row": 162.0,
    "population_density": 22.6,
    "position_along": 0.5,
    "protected_area_score": 18.0657,
    "rank": 3,
    "road_access_m": 856.6,
    "road_access_score": 0.6,
    "road_density_km_km2": 0.353,
    "robustness_pct": 100.0,
    "runoff_coeff_C": 0.0827,
    "seasonal_cv": 0.4063,
    "segment_id": 4,
    "segment_length_m": 1312.7023,
    "stream_order": 3,
    "superfund_score": 0.0183,
    "tourism_amenity_density": 0.0796,
    "tri_facility_density": 0.0,
    "usgs_mean_q_cfs": 2.595,
    "velocity_feasibility": 0.7,
    "water_intake_score": 0.0
   },
   "type": "Feature"
  },
  {
   "geometry": {
    "coordinates": [
     -76.907404,
     36.366716
    ],
    "type": "Point"
   },
   "properties": {
    "accumulation": 20659.0,
    "bank_slope_deg": 4.32,
    "bank_slope_score": 1.0,
    "bank_slope_source": "nc-dps-lidar-dem03-cross-section",
    "beach_dist_km": 252.84,
    "bridge_proximity_bonus": 0.0,
    "catchment_area_km2": 2.0597,
    "channel_width_m": 2.89,
    "channel_width_score": 1.0,
    "composite_score": 57.8526,
    "cso_density": 0.0,
    "ej_index": 0.5833,
    "elevation_m": 3.7725,
    "estuary_dist_km": 165.62,
    "feasibility_score": 100.0,
    "flood_q10_cfs": 165.47,
    "flow_score": 31.1214,
    "flow_velocity_ms": 0.0523,
    "generation_score": 67.6271,
    "impact_score": 49.2804,
    "impervious_pct": 3.63,
    "land_ownership": 0.5,
    "lat": 36.3667,
    "litter_complaint_density": 0.0,
    "lon": -76.9074,
    "navigable_dist_m": 2563.1,
    "npdes_points": 0,
    "pixel_col": 350.0,
    "pixel_row": 207.0,
    "population_density": 19.0,
    "position_along": 0.5,
    "protected_area_score": 18.2399,
    "rank": 4,
    "road_access_m": 267.9,
    "road_access_score": 0.8,
    "road_density_km_km2": 0.832,
    "robustness_pct": 100.0,
    "runoff_coeff_C": 0.0827,
    "seasonal_cv": 0.4063,
    "segment_id": 2,
    "segment_length_m": 196.9824,
    "stream_order": 3,
    "superfund_score": 0.0226,
    "tourism_amenity_density": 0.0796,
    "tri_facility_density": 0.0,
    "usgs_mean_q_cfs": 2.595,
    "velocity_feasibility": 0.7,
    "water_intake_score": 0.0
   },
   "type": "Feature"
  },
  {
   "geometry": {
    "coordinates": [
     -76.922778,
     36.373489
    ],
    "type": "Point"
   },
   "properties": {
    "accumulation": 59200.0,
    "bank_slope_deg": 4.38,
    "bank_slope_score": 1.0,
    "bank_slope_source": "nc-dps-lidar-dem03-cross-section",
    "beach_dist_km": 253.11,
    "bridge_proximity_bonus": 0.0,
    "catchment_area_km2": 5.9022,
    "channel_width_m": 4.23,
    "channel_width_score": 1.0,
    "composite_score": 55.0384,
    "cso_density": 0.0,
    "ej_index": 0.6056,
    "elevation_m": 2.9284,
    "estuary_dist_km": 166.93,
    "feasibility_score": 44.4444,
    "flood_q10_cfs": 298.99,
    "flow_score": 57.8611,
    "flow_velocity_ms": 0.1152,
    "generation_score": 72.5642,
    "impact_score": 40.4574,
    "impervious_pct": 1.89,
    "land_ownership": 0.5,
    "lat": 36.3735,
    "litter_complaint_density": 0.0,
    "lon": -76.9228,
    "navigable_dist_m": 2311.7,
    "npdes_points": 2,
    "pixel_col": 217.0,
    "pixel_row": 132.0,
    "population_density": 26.3,
    "position_along": 0.5,
    "protected_area_score": 17.5166,
    "rank": 5,
    "road_access_m": 1538.9,
    "road_access_score": 0.3,
    "road_density_km_km2": 0.434,
    "robustness_pct": 99.5,
    "runoff_coeff_C": 0.067,
    "seasonal_cv": 0.4208,
    "segment_id": 1,
    "segment_length_m": 2929.2108,
    "stream_order": 3,
    "superfund_score": 0.0117,
    "tourism_amenity_density": 0.0796,
    "tri_facility_density": 0.0,
    "usgs_mean_q_cfs": 5.474,
    "velocity_feasibility": 0.7,
    "water_intake_score": 0.0
   },
   "type": "Feature"
  },
  {
   "geometry": {
    "coordinates": [
     -76.919873,
     36.335176
    ],
    "type": "Point"
   },
   "properties": {
    "accumulation": 37501.0,
    "bank_slope_deg": 1.68,
    "bank_slope_score": 1.0,
    "bank_slope_source": "nc-dps-lidar-dem03-cross-section",
    "beach_dist_km": 249.16,
    "bridge_proximity_bonus": 0.0,
    "catchment_area_km2": 3.7388,
    "channel_width_m": 3.58,
    "channel_width_score": 1.0,
    "composite_score": 32.6596,
    "cso_density": 0.0,
    "ej_index": 0.584,
    "elevation_m": 6.1791,
    "estuary_dist_km": 163.07,
    "feasibility_score": 33.3333,
    "flood_q10_cfs": 220.85,
    "flow_score": 18.1763,
    "flow_velocity_ms": 0.0492,
    "generation_score": 33.5526,
    "impact_score": 43.4992,
    "impervious_pct": 0.65,
    "land_ownership": 0.5,
    "lat": 36.3352,
    "litter_complaint_density": 0.0,
    "lon": -76.9199,
    "navigable_dist_m": 6207.6,
    "npdes_points": 0,
    "pixel_col": 232.0,
    "pixel_row": 560.0,
    "population_density": 19.0,
    "position_along": 0.5,
    "protected_area_score": 16.2732,
    "rank": 6,
    "road_access_m": 711.2,
    "road_access_score": 0.6,
    "road_density_km_km2": 0.795,
    "robustness_pct": 0.0,
    "runoff_coeff_C": 0.0559,
    "seasonal_cv": 0.413,
    "segment_id": 6,
    "segment_length_m": 1949.4383,
    "stream_order": 1,
    "superfund_score": 0.0068,
    "tourism_amenity_density": 0.0,
    "tri_facility_density": 0.0,
    "usgs_mean_q_cfs": 4.293,
    "velocity_feasibility": 0.3,
    "water_intake_score": 0.0
   },
   "type": "Feature"
  },
  {
   "geometry": {
    "coordinates": [
     -76.878687,
     36.330007
    ],
    "type": "Point"
   },
   "properties": {
    "accumulation": 20643.0,
    "bank_slope_deg": 0.72,
    "bank_slope_score": 1.0,
    "bank_slope_source": "nc-dps-lidar-dem03-cross-section",
    "beach_dist_km": 249.83,
    "bridge_proximity_bonus": 0.0,
    "catchment_area_km2": 2.0581,
    "channel_width_m": 2.88,
    "channel_width_score": 1.0,
    "composite_score": 28.4782,
    "cso_density": 0.0,
    "ej_index": 0.5452,
    "elevation_m": 2.1792,
    "estuary_dist_km": 160.81,
    "feasibility_score": 77.7778,
    "flood_q10_cfs": 154.36,
    "flow_score": 14.5318,
    "flow_velocity_ms": 0.0692,
    "generation_score": 0.1119,
    "impact_score": 43.8168,
    "impervious_pct": 0.66,
    "land_ownership": 0.5,
    "lat": 36.33,
    "litter_complaint_density": 0.0,
    "lon": -76.8787,
    "navigable_dist_m": 5613.0,
    "npdes_points": 0,
    "pixel_col": 602.0,
    "pixel_row": 624.0,
    "population_density": 8.6,
    "position_along": 0.5,
    "protected_area_score": 17.2176,
    "rank": 7,
    "road_access_m": 892.6,
    "road_access_score": 0.6,
    "road_density_km_km2": 0.0,
    "robustness_pct": 0.5,
    "runoff_coeff_C": 0.0559,
    "seasonal_cv": 0.4067,
    "segment_id": 7,
    "segment_length_m": 760.6914,
    "stream_order": 1,
    "superfund_score": 0.0105,
    "tourism_amenity_density": 0.0,
    "tri_facility_density": 0.0,
    "usgs_mean_q_cfs": 2.659,
    "velocity_feasibility": 0.7,
    "water_intake_score": 0.0
   },
   "type": "Feature"
  }
 ],
 "note": "GRIME region 'Cofield, NC' \u2014 real-data pipeline (DEM\u2192streams\u2192candidates\u2192stream mask (sites confined to \u00b1150 m of mapped OSM/NHD waterways)\u2192region-appropriate real parameters\u2192shipped scoring, math unchanged). Width curve: Bieger et al. 2015 JAWRA Table 3, Atlantic Plain. Flood: SIR 2014-5030 HR4 (I24H50Y: NOAA Atlas 14). NC Coastal Plain (SIR 2014-5030 HR4; I24H50Y from NOAA Atlas 14 at region center)",
 "provenance": {
  "candidates_pre_gate": 8,
  "constant": [
   "bank_slope_score",
   "bridge_proximity_bonus",
   "channel_width_score",
   "cso_density",
   "land_ownership",
   "litter_complaint_density",
   "tri_facility_density",
   "water_intake_score"
  ],
  "gated_navigable": 1,
  "hard_gate_removed": 1,
  "n_parameters": 27,
  "parameters": {
   "bank_slope_score": {
    "kind": "real",
    "n_3dep_10m_fallback": 0,
    "n_nc_lidar_3_125ft": 8,
    "n_real": 8,
    "n_sites": 8,
    "source": "NC OneMap / NC DPS DEM03 statewide lidar-derived 3.125-ft (0.953 m) elevations (perpendicular 50 m transect; robust 5 m bank-rise metric); unavailable profiles use the region 10 m 3DEP DEM-gradient fallback",
    "source_mosaics": [
     "Hertford_Ground_3ft"
    ]
   },
   "beach_dist_km": {
    "kind": "real",
    "n_real": 8,
    "n_sites": 8,
    "source": "haversine to region ref: Wrightsville Beach (shipped NC reference)"
   },
   "bridge_proximity_bonus": {
    "kind": "real",
    "n_real": 8,
    "n_sites": 8,
    "source": "FHWA/BTS NBI (NTAD), 50 m proximity"
   },
   "catchment_area_km2": {
    "kind": "real",
    "n_real": 8,
    "n_sites": 8,
    "source": "DEM flow accumulation (pipeline)"
   },
   "channel_width_score": {
    "kind": "real",
    "n_real": 8,
    "n_sites": 8,
    "source": "Bieger 2015 APL width curve on DEM drainage area \u2192 shipped width curve"
   },
   "cso_density": {
    "kind": "real",
    "n_real": 8,
    "n_sites": 8,
    "source": "EPA ECHO open CSO/TCS outfall PF coordinates states=NC, Cauchy proximity"
   },
   "ej_index": {
    "kind": "real",
    "n_real": 8,
    "n_sites": 8,
    "source": "Census ACS C17002+B03002 two-component demographic index, percentile-ranked within region"
   },
   "estuary_dist_km": {
    "kind": "real",
    "n_real": 8,
    "n_sites": 8,
    "source": "haversine to region ref: Pamlico Sound (shipped NC reference)"
   },
   "flood_q10_cfs": {
    "impervious_fallback_reason": "StreamCat imperviousness unavailable; the existing regression-input fallback of 0.0% impervious was used and is disclosed here",
    "kind": "real",
    "n_impervious_fallback": 1,
    "n_real": 8,
    "n_sites": 8,
    "source": "USGS SIR 2014-5030 Table 7 HR4 (NC Coastal Plain; I24H50Y from NOAA Atlas 14 at region center)"
   },
   "flow_velocity_ms": {
    "fallback_reason": "EROM/DEM continuity input unavailable; shipped 0.5 m/s default used",
    "kind": "real",
    "n_fallback": 1,
    "n_real": 7,
    "n_sites": 8,
    "source": "Manning (region DEM/D8) blended with EROM continuity (shipped M4 logic)"
   },
   "impervious_pct": {
    "fallback_reason": "NLDI/StreamCat did not return a snap-compatible catchment value; value remains null and is removed by constant-column handling",
    "kind": "real",
    "n_fallback": 1,
    "n_real": 7,
    "n_sites": 8,
    "source": "EPA StreamCat pctimp2019 (per NHDPlus watershed)"
   },
   "land_ownership": {
    "fallback_reason": "no containing parcel owner returned; shipped unknown ownership 0.5 used",
    "kind": "real",
    "n_fallback": 1,
    "n_real": 7,
    "n_sites": 8,
    "source": "NC OneMap statewide parcels (NC Parcels Transformer) ownname"
   },
   "litter_complaint_density": {
    "kind": "fallback",
    "n_real": 0,
    "n_sites": 8,
    "source": "no public machine-readable litter/illegal-dumping feed for this region"
   },
   "navigable_dist_m": {
    "kind": "real",
    "n_real": 8,
    "n_sites": 8,
    "source": "USACE/BTS National Waterway Network lines (NTAD, retrieved 2026-07-10), distance to nearest navigable segment"
   },
   "npdes_points": {
    "kind": "real",
    "n_real": 8,
    "n_sites": 8,
    "source": "EPA ECHO active NPDES outfalls states=NC (types NPD/GPC/NGP; statuses ADC/EFF/EXP), per catchment"
   },
   "population_density": {
    "kind": "real",
    "n_real": 8,
    "n_sites": 8,
    "source": "Census ACS 2022 B01003 block groups (bbox, multi-county), area-weighted"
   },
   "protected_area_score": {
    "kind": "real",
    "n_real": 8,
    "n_sites": 8,
    "source": "USGS PAD-US 4.1 state GDB; states=NC; shipped designation-weighted proximity curve"
   },
   "road_access_score": {
    "kind": "real",
    "n_real": 8,
    "n_sites": 8,
    "source": "OSM drive network nearest-node distance"
   },
   "road_density_km_km2": {
    "kind": "real",
    "n_real": 8,
    "n_sites": 8,
    "source": "OSM drive network (osmnx, cached) clipped per catchment"
   },
   "runoff_coeff_C": {
    "fallback_reason": "source impervious_pct was unavailable; derived value remains null",
    "kind": "real",
    "n_fallback": 1,
    "n_real": 7,
    "n_sites": 8,
    "source": "derived from real impervious_pct (C=0.05+0.009*I)"
   },
   "seasonal_cv": {
    "fallback_reason": "NHDPlus monthly EROM was unavailable or failed the drainage-area snap guard; value remains null",
    "kind": "real",
    "n_fallback": 1,
    "n_real": 7,
    "n_sites": 8,
    "source": "CV of NHDPlus EROM monthly flows per COMID"
   },
   "stream_order": {
    "kind": "real",
    "n_real": 8,
    "n_sites": 8,
    "source": "DEM stream-network confluence heuristic (pipeline)"
   },
   "superfund_score": {
    "kind": "real",
    "n_real": 8,
    "n_sites": 8,
    "source": "EPA DataMap SEMS active sites states=NC (non-archived, georeferenced), shipped 500 m inverse-distance curve"
   },
   "tourism_amenity_density": {
    "kind": "real",
    "n_real": 8,
    "n_sites": 8,
    "source": "OSM leisure/tourism features per 2 km radius"
   },
   "tri_facility_density": {
    "kind": "real",
    "n_real": 8,
    "n_sites": 8,
    "source": "EPA DataMap TRI open facilities states=NC (preferred decimal or packed-DMS recovery), per catchment"
   },
   "usgs_mean_q_cfs": {
    "fallback_reason": "NHDPlus EROM was unavailable or failed the drainage-area snap guard; value remains null",
    "kind": "real",
    "n_fallback": 1,
    "n_real": 7,
    "n_sites": 8,
    "source": "NHDPlus EROM qe_ma per COMID (snap-guarded)"
   },
   "velocity_feasibility": {
    "fallback_reason": "derived from the shipped 0.5 m/s velocity fallback",
    "kind": "real",
    "n_fallback": 1,
    "n_real": 7,
    "n_sites": 8,
    "source": "shipped step curve on the computed velocity"
   },
   "velocity_transport_favorability": {
    "fallback_reason": "EROM/DEM continuity input unavailable; shipped 0.5 m/s default used",
    "kind": "derived",
    "n_fallback": 1,
    "n_real": 7,
    "n_sites": 8,
    "source": "scored form of flow_velocity_ms inside the Flow family \u2014 peaked Gaussian exp(-((v-0.9)/0.6)^2), model.json curves.velocity_transport_favorability; construct: transport/delivery favorability, deliberately distinct from velocity_feasibility (device operability)"
   },
   "water_intake_score": {
    "kind": "real",
    "n_real": 8,
    "n_sites": 8,
    "source": "NC OneMap / NC DEQ SWAP public water supply sources (source_typ='Surface Water'), shipped exp(-d/10km) curve"
   }
  },
  "stream_mask": {
   "buffer_m": 150.0,
   "pre_mask": 8,
   "removed": 0,
   "sources": [
    "osm-overpass (all waterway ways)",
    "usgs-nhdplus flowlines"
   ]
  },
  "varying": [
   "beach_dist_km",
   "catchment_area_km2",
   "ej_index",
   "estuary_dist_km",
   "flood_q10_cfs",
   "flow_velocity_ms",
   "impervious_pct",
   "npdes_points",
   "population_density",
   "protected_area_score",
   "road_access_score",
   "road_density_km_km2",
   "runoff_coeff_C",
   "seasonal_cv",
   "stream_order",
   "superfund_score",
   "tourism_amenity_density",
   "usgs_mean_q_cfs",
   "velocity_feasibility"
  ]
 },
 "region": {
  "bbox": [
   -76.9456,
   36.3284,
   -76.8754,
   36.385
  ],
  "beach_ref": {
   "label": "Wrightsville Beach (shipped NC reference)",
   "lat": 34.21,
   "lon": -77.79
  },
  "center": [
   -76.910517,
   36.356689
  ],
  "estuary_ref": {
   "label": "Pamlico Sound (shipped NC reference)",
   "lat": 35.05,
   "lon": -76.05
  },
  "flood_method": "sir2014_hr4",
  "name": "Cofield, NC",
  "notes": "NC Coastal Plain (SIR 2014-5030 HR4; I24H50Y from NOAA Atlas 14 at region center)",
  "slug": "cofield",
  "state": "NC",
  "utm_epsg": 32618,
  "width_curve": {
   "a": 2.22,
   "b": 0.363,
   "code": "APL",
   "source": "Bieger et al. 2015 JAWRA Table 3, Atlantic Plain"
  }
 },
 "type": "FeatureCollection"
}
