{
 "features": [
  {
   "geometry": {
    "coordinates": [
     -77.007626,
     36.47307
    ],
    "type": "Point"
   },
   "properties": {
    "accumulation": 111203.0,
    "bank_slope_deg": 1.08,
    "bank_slope_score": 1.0,
    "bank_slope_source": "nc-dps-lidar-dem03-cross-section",
    "beach_dist_km": 261.45,
    "bridge_proximity_bonus": 0.0,
    "catchment_area_km2": 11.0993,
    "channel_width_m": 5.32,
    "channel_width_score": 1.0,
    "composite_score": 74.655,
    "cso_density": 0.0,
    "ej_index": 0.725,
    "elevation_m": 2.1969,
    "estuary_dist_km": 180.29,
    "feasibility_score": 30.9524,
    "flood_q10_cfs": 420.26,
    "flow_score": 68.4557,
    "flow_velocity_ms": 0.0972,
    "generation_score": 95.6922,
    "impact_score": 80.6353,
    "impervious_pct": 0.95,
    "land_ownership": 0.5,
    "lat": 36.4731,
    "litter_complaint_density": 0.0,
    "lon": -77.0076,
    "navigable_dist_m": 701.8,
    "npdes_points": 0,
    "pixel_col": 242.0,
    "pixel_row": 600.0,
    "population_density": 7.4,
    "position_along": 0.5,
    "protected_area_score": 13.9605,
    "rank": 1,
    "road_access_m": 1150.6,
    "road_access_score": 0.3,
    "road_density_km_km2": 0.694,
    "robustness_pct": 100.0,
    "runoff_coeff_C": 0.0586,
    "seasonal_cv": 0.4171,
    "segment_id": 11,
    "segment_length_m": 1923.9895,
    "stream_order": 3,
    "superfund_score": 0.0,
    "tourism_amenity_density": 0.0,
    "tri_facility_density": 0.0,
    "usgs_mean_q_cfs": 7.983,
    "velocity_feasibility": 0.7,
    "water_intake_score": 0.0
   },
   "type": "Feature"
  },
  {
   "geometry": {
    "coordinates": [
     -77.000141,
     36.479456
    ],
    "type": "Point"
   },
   "properties": {
    "accumulation": 87374.0,
    "bank_slope_deg": 1.66,
    "bank_slope_score": 1.0,
    "bank_slope_source": "nc-dps-lidar-dem03-cross-section",
    "beach_dist_km": 262.32,
    "bridge_proximity_bonus": 0.0,
    "catchment_area_km2": 8.7209,
    "channel_width_m": 4.87,
    "channel_width_score": 1.0,
    "composite_score": 72.215,
    "cso_density": 0.0,
    "ej_index": 0.725,
    "elevation_m": 3.7543,
    "estuary_dist_km": 180.59,
    "feasibility_score": 48.8095,
    "flood_q10_cfs": 363.61,
    "flow_score": 61.9716,
    "flow_velocity_ms": 0.1444,
    "generation_score": 94.3538,
    "impact_score": 70.315,
    "impervious_pct": 0.95,
    "land_ownership": 0.5,
    "lat": 36.4795,
    "litter_complaint_density": 0.0,
    "lon": -77.0001,
    "navigable_dist_m": 1512.8,
    "npdes_points": 0,
    "pixel_col": 311.0,
    "pixel_row": 531.0,
    "population_density": 7.4,
    "position_along": 0.5,
    "protected_area_score": 13.4741,
    "rank": 2,
    "road_access_m": 870.9,
    "road_access_score": 0.6,
    "road_density_km_km2": 0.662,
    "robustness_pct": 100.0,
    "runoff_coeff_C": 0.0586,
    "seasonal_cv": 0.4171,
    "segment_id": 10,
    "segment_length_m": 564.7355,
    "stream_order": 3,
    "superfund_score": 0.0,
    "tourism_amenity_density": 0.0,
    "tri_facility_density": 0.0,
    "usgs_mean_q_cfs": 7.983,
    "velocity_feasibility": 0.7,
    "water_intake_score": 0.0
   },
   "type": "Feature"
  },
  {
   "geometry": {
    "coordinates": [
     -77.001342,
     36.479832
    ],
    "type": "Point"
   },
   "properties": {
    "accumulation": 20646.0,
    "bank_slope_deg": 0.81,
    "bank_slope_score": 1.0,
    "bank_slope_source": "nc-dps-lidar-dem03-cross-section",
    "beach_dist_km": 262.33,
    "bridge_proximity_bonus": 0.0,
    "catchment_area_km2": 2.0607,
    "channel_width_m": 2.89,
    "channel_width_score": 1.0,
    "composite_score": 67.0666,
    "cso_density": 0.0,
    "ej_index": 0.725,
    "elevation_m": 3.6493,
    "estuary_dist_km": 180.68,
    "feasibility_score": 48.8095,
    "flood_q10_cfs": 152.92,
    "flow_score": 36.3924,
    "flow_velocity_ms": 0.0888,
    "generation_score": 100.0,
    "impact_score": 68.8235,
    "impervious_pct": 0.95,
    "land_ownership": 0.5,
    "lat": 36.4798,
    "litter_complaint_density": 0.0,
    "lon": -77.0013,
    "navigable_dist_m": 1522.8,
    "npdes_points": 0,
    "pixel_col": 300.0,
    "pixel_row": 527.0,
    "population_density": 7.4,
    "position_along": 0.5,
    "protected_area_score": 13.39,
    "rank": 3,
    "road_access_m": 983.9,
    "road_access_score": 0.6,
    "road_density_km_km2": 0.797,
    "robustness_pct": 99.5,
    "runoff_coeff_C": 0.0586,
    "seasonal_cv": 0.4171,
    "segment_id": 8,
    "segment_length_m": 339.385,
    "stream_order": 3,
    "superfund_score": 0.0,
    "tourism_amenity_density": 0.0,
    "tri_facility_density": 0.0,
    "usgs_mean_q_cfs": 7.983,
    "velocity_feasibility": 0.7,
    "water_intake_score": 0.0
   },
   "type": "Feature"
  },
  {
   "geometry": {
    "coordinates": [
     -77.032233,
     36.488311
    ],
    "type": "Point"
   },
   "properties": {
    "accumulation": 35495.0,
    "bank_slope_deg": 1.83,
    "bank_slope_score": 1.0,
    "bank_slope_source": "nc-dps-lidar-dem03-cross-section",
    "beach_dist_km": 262.49,
    "bridge_proximity_bonus": 0.0,
    "catchment_area_km2": 3.5428,
    "channel_width_m": 3.51,
    "channel_width_score": 1.0,
    "composite_score": 54.1766,
    "cso_density": 0.0,
    "ej_index": 0.725,
    "elevation_m": 8.3054,
    "estuary_dist_km": 182.84,
    "feasibility_score": 60.7143,
    "flood_q10_cfs": 210.54,
    "flow_score": 19.0067,
    "flow_velocity_ms": 0.1123,
    "generation_score": 82.6978,
    "impact_score": 51.6949,
    "impervious_pct": 0.71,
    "land_ownership": 0.5,
    "lat": 36.4883,
    "litter_complaint_density": 0.0,
    "lon": -77.0322,
    "navigable_dist_m": 3128.8,
    "npdes_points": 0,
    "pixel_col": 25.0,
    "pixel_row": 425.0,
    "population_density": 7.4,
    "position_along": 0.5,
    "protected_area_score": 13.1883,
    "rank": 4,
    "road_access_m": 281.1,
    "road_access_score": 0.8,
    "road_density_km_km2": 0.786,
    "robustness_pct": 74.0,
    "runoff_coeff_C": 0.0564,
    "seasonal_cv": 0.4107,
    "segment_id": 3,
    "segment_length_m": 1887.4554,
    "stream_order": 1,
    "superfund_score": 0.0,
    "tourism_amenity_density": 0.0,
    "tri_facility_density": 0.0,
    "usgs_mean_q_cfs": 2.838,
    "velocity_feasibility": 0.7,
    "water_intake_score": 0.0
   },
   "type": "Feature"
  },
  {
   "geometry": {
    "coordinates": [
     -76.993431,
     36.479122
    ],
    "type": "Point"
   },
   "properties": {
    "accumulation": 22554.0,
    "bank_slope_deg": 4.83,
    "bank_slope_score": 1.0,
    "bank_slope_source": "nc-dps-lidar-dem03-cross-section",
    "beach_dist_km": 262.45,
    "bridge_proximity_bonus": 0.0,
    "catchment_area_km2": 2.2511,
    "channel_width_m": 2.98,
    "channel_width_score": 1.0,
    "composite_score": 51.9858,
    "cso_density": 0.0,
    "ej_index": 0.725,
    "elevation_m": 4.7722,
    "estuary_dist_km": 180.27,
    "feasibility_score": 75.0,
    "flood_q10_cfs": 157.73,
    "flow_score": 40.7591,
    "flow_velocity_ms": 0.5,
    "generation_score": 30.8657,
    "impact_score": 70.9543,
    "impervious_pct": null,
    "land_ownership": 0.5,
    "lat": 36.4791,
    "litter_complaint_density": 0.0,
    "lon": -76.9934,
    "navigable_dist_m": 1730.3,
    "npdes_points": 0,
    "pixel_col": 371.0,
    "pixel_row": 536.0,
    "population_density": 7.4,
    "position_along": 0.5,
    "protected_area_score": 13.3755,
    "rank": 5,
    "road_access_m": 462.4,
    "road_access_score": 0.8,
    "road_density_km_km2": 0.738,
    "robustness_pct": 54.5,
    "runoff_coeff_C": null,
    "seasonal_cv": null,
    "segment_id": 9,
    "segment_length_m": 1052.2648,
    "stream_order": 3,
    "superfund_score": 0.0,
    "tourism_amenity_density": 0.0,
    "tri_facility_density": 0.0,
    "usgs_mean_q_cfs": null,
    "velocity_feasibility": 1.0,
    "water_intake_score": 0.0
   },
   "type": "Feature"
  },
  {
   "geometry": {
    "coordinates": [
     -76.99359,
     36.487552
    ],
    "type": "Point"
   },
   "properties": {
    "accumulation": 20368.0,
    "bank_slope_deg": 2.51,
    "bank_slope_score": 1.0,
    "bank_slope_source": "nc-dps-lidar-dem03-cross-section",
    "beach_dist_km": 263.35,
    "bridge_proximity_bonus": 0.0,
    "catchment_area_km2": 2.033,
    "channel_width_m": 2.87,
    "channel_width_score": 1.0,
    "composite_score": 50.0056,
    "cso_density": 0.0,
    "ej_index": 0.725,
    "elevation_m": 5.5144,
    "estuary_dist_km": 181.1,
    "feasibility_score": 55.9524,
    "flood_q10_cfs": 151.47,
    "flow_score": 24.3116,
    "flow_velocity_ms": 0.1048,
    "generation_score": 62.4561,
    "impact_score": 55.9934,
    "impervious_pct": 0.89,
    "land_ownership": 1.0,
    "lat": 36.4876,
    "litter_complaint_density": 0.0,
    "lon": -76.9936,
    "navigable_dist_m": 2558.6,
    "npdes_points": 0,
    "pixel_col": 372.0,
    "pixel_row": 443.0,
    "population_density": 7.4,
    "position_along": 0.5,
    "protected_area_score": 12.7927,
    "rank": 6,
    "road_access_m": 1387.9,
    "road_access_score": 0.3,
    "road_density_km_km2": 0.0,
    "robustness_pct": 5.0,
    "runoff_coeff_C": 0.058,
    "seasonal_cv": 0.419,
    "segment_id": 5,
    "segment_length_m": 186.3924,
    "stream_order": 3,
    "superfund_score": 0.0,
    "tourism_amenity_density": 0.0,
    "tri_facility_density": 0.0,
    "usgs_mean_q_cfs": 1.576,
    "velocity_feasibility": 0.7,
    "water_intake_score": 0.0
   },
   "type": "Feature"
  },
  {
   "geometry": {
    "coordinates": [
     -77.002553,
     36.509436
    ],
    "type": "Point"
   },
   "properties": {
    "accumulation": 36939.0,
    "bank_slope_deg": 3.81,
    "bank_slope_score": 1.0,
    "bank_slope_source": "nc-dps-lidar-dem03-cross-section",
    "beach_dist_km": 265.47,
    "bridge_proximity_bonus": 0.0,
    "catchment_area_km2": 3.6869,
    "channel_width_m": 3.56,
    "channel_width_score": 1.0,
    "composite_score": 48.7147,
    "cso_density": 0.0,
    "ej_index": 0.725,
    "elevation_m": 12.8442,
    "estuary_dist_km": 183.63,
    "feasibility_score": 48.8095,
    "flood_q10_cfs": 215.69,
    "flow_score": 31.21,
    "flow_velocity_ms": 0.1155,
    "generation_score": 76.1223,
    "impact_score": 35.8469,
    "impervious_pct": 0.72,
    "land_ownership": 0.5,
    "lat": 36.5094,
    "litter_complaint_density": 0.0,
    "lon": -77.0026,
    "navigable_dist_m": 4758.0,
    "npdes_points": 0,
    "pixel_col": 300.0,
    "pixel_row": 196.0,
    "population_density": 7.4,
    "position_along": 0.5,
    "protected_area_score": 11.3916,
    "rank": 7,
    "road_access_m": 661.2,
    "road_access_score": 0.6,
    "road_density_km_km2": 0.612,
    "robustness_pct": 27.0,
    "runoff_coeff_C": 0.0565,
    "seasonal_cv": 0.4226,
    "segment_id": 1,
    "segment_length_m": 2304.7567,
    "stream_order": 3,
    "superfund_score": 0.0,
    "tourism_amenity_density": 0.3183,
    "tri_facility_density": 0.0,
    "usgs_mean_q_cfs": 1.706,
    "velocity_feasibility": 0.7,
    "water_intake_score": 0.0
   },
   "type": "Feature"
  },
  {
   "geometry": {
    "coordinates": [
     -76.987045,
     36.51522
    ],
    "type": "Point"
   },
   "properties": {
    "accumulation": 77071.0,
    "bank_slope_deg": 1.81,
    "bank_slope_score": 1.0,
    "bank_slope_source": "nc-dps-lidar-dem03-cross-section",
    "beach_dist_km": 266.47,
    "bridge_proximity_bonus": 0.0,
    "catchment_area_km2": 7.6926,
    "channel_width_m": 4.66,
    "channel_width_score": 1.0,
    "composite_score": 44.743,
    "cso_density": 0.0,
    "ej_index": 0.725,
    "elevation_m": 9.1996,
    "estuary_dist_km": 183.54,
    "feasibility_score": 60.7143,
    "flood_q10_cfs": 333.64,
    "flow_score": 59.3993,
    "flow_velocity_ms": 0.0614,
    "generation_score": 57.5144,
    "impact_score": 11.7725,
    "impervious_pct": 0.49,
    "land_ownership": 0.5,
    "lat": 36.5152,
    "litter_complaint_density": 0.0,
    "lon": -76.987,
    "navigable_dist_m": 5650.8,
    "npdes_points": 0,
    "pixel_col": 440.0,
    "pixel_row": 134.0,
    "population_density": 7.4,
    "position_along": 0.25,
    "protected_area_score": 11.239,
    "rank": 8,
    "road_access_m": 319.4,
    "road_access_score": 0.8,
    "road_density_km_km2": 0.553,
    "robustness_pct": 16.0,
    "runoff_coeff_C": 0.0544,
    "seasonal_cv": 0.4191,
    "segment_id": 2,
    "segment_length_m": 3332.608,
    "stream_order": 3,
    "superfund_score": 0.0,
    "tourism_amenity_density": 0.0,
    "tri_facility_density": 0.0,
    "usgs_mean_q_cfs": 9.811,
    "velocity_feasibility": 0.7,
    "water_intake_score": 0.0
   },
   "type": "Feature"
  },
  {
   "geometry": {
    "coordinates": [
     -76.997191,
     36.484192
    ],
    "type": "Point"
   },
   "properties": {
    "accumulation": 57607.0,
    "bank_slope_deg": 3.32,
    "bank_slope_score": 1.0,
    "bank_slope_source": "nc-dps-lidar-dem03-cross-section",
    "beach_dist_km": 262.9,
    "bridge_proximity_bonus": 0.0,
    "catchment_area_km2": 5.7498,
    "channel_width_m": 4.19,
    "channel_width_score": 1.0,
    "composite_score": 43.8386,
    "cso_density": 0.0,
    "ej_index": 0.725,
    "elevation_m": 4.6899,
    "estuary_dist_km": 180.93,
    "feasibility_score": 45.2381,
    "flood_q10_cfs": 276.97,
    "flow_score": 53.9159,
    "flow_velocity_ms": 0.5,
    "generation_score": 18.5278,
    "impact_score": 60.0519,
    "impervious_pct": null,
    "land_ownership": 0.5,
    "lat": 36.4842,
    "litter_complaint_density": 0.0,
    "lon": -76.9972,
    "navigable_dist_m": 2096.1,
    "npdes_points": 0,
    "pixel_col": 338.0,
    "pixel_row": 480.0,
    "population_density": 7.4,
    "position_along": 0.5,
    "protected_area_score": 12.9078,
    "rank": 9,
    "road_access_m": 1108.3,
    "road_access_score": 0.3,
    "road_density_km_km2": 0.443,
    "robustness_pct": 13.0,
    "runoff_coeff_C": null,
    "seasonal_cv": null,
    "segment_id": 7,
    "segment_length_m": 1096.3652,
    "stream_order": 3,
    "superfund_score": 0.0,
    "tourism_amenity_density": 0.0,
    "tri_facility_density": 0.0,
    "usgs_mean_q_cfs": null,
    "velocity_feasibility": 1.0,
    "water_intake_score": 0.0
   },
   "type": "Feature"
  },
  {
   "geometry": {
    "coordinates": [
     -76.976256,
     36.521077
    ],
    "type": "Point"
   },
   "properties": {
    "accumulation": 97014.0,
    "bank_slope_deg": 3.1,
    "bank_slope_score": 1.0,
    "bank_slope_source": "nc-dps-lidar-dem03-cross-section",
    "beach_dist_km": 267.36,
    "bridge_proximity_bonus": 0.0,
    "catchment_area_km2": 9.6831,
    "channel_width_m": 5.06,
    "channel_width_score": 1.0,
    "composite_score": 41.8468,
    "cso_density": 0.0,
    "ej_index": 0.725,
    "elevation_m": 7.3549,
    "estuary_dist_km": 183.68,
    "feasibility_score": 48.8095,
    "flood_q10_cfs": 383.34,
    "flow_score": 69.2855,
    "flow_velocity_ms": 0.0648,
    "generation_score": 52.0914,
    "impact_score": 5.2553,
    "impervious_pct": 0.52,
    "land_ownership": 0.5,
    "lat": 36.5211,
    "litter_complaint_density": 0.0,
    "lon": -76.9763,
    "navigable_dist_m": 5684.6,
    "npdes_points": 0,
    "pixel_col": 538.0,
    "pixel_row": 70.0,
    "population_density": 7.4,
    "position_along": 0.75,
    "protected_area_score": 11.0307,
    "rank": 10,
    "road_access_m": 617.7,
    "road_access_score": 0.6,
    "road_density_km_km2": 0.373,
    "robustness_pct": 11.0,
    "runoff_coeff_C": 0.0547,
    "seasonal_cv": 0.4211,
    "segment_id": 2,
    "segment_length_m": 3332.608,
    "stream_order": 3,
    "superfund_score": 0.0,
    "tourism_amenity_density": 0.0,
    "tri_facility_density": 0.0,
    "usgs_mean_q_cfs": 11.537,
    "velocity_feasibility": 0.7,
    "water_intake_score": 0.0
   },
   "type": "Feature"
  },
  {
   "geometry": {
    "coordinates": [
     -76.990608,
     36.485851
    ],
    "type": "Point"
   },
   "properties": {
    "accumulation": 21676.0,
    "bank_slope_deg": 2.6,
    "bank_slope_score": 1.0,
    "bank_slope_source": "nc-dps-lidar-dem03-cross-section",
    "beach_dist_km": 263.24,
    "bridge_proximity_bonus": 0.0,
    "catchment_area_km2": 2.1635,
    "channel_width_m": 2.94,
    "channel_width_score": 1.0,
    "composite_score": 29.1318,
    "cso_density": 0.0,
    "ej_index": 0.725,
    "elevation_m": 5.6394,
    "estuary_dist_km": 180.81,
    "feasibility_score": 30.9524,
    "flood_q10_cfs": 154.05,
    "flow_score": 26.2279,
    "flow_velocity_ms": 0.0887,
    "generation_score": 0.7018,
    "impact_score": 59.0713,
    "impervious_pct": 0.01,
    "land_ownership": 0.5,
    "lat": 36.4859,
    "litter_complaint_density": 0.0,
    "lon": -76.9906,
    "navigable_dist_m": 2504.0,
    "npdes_points": 0,
    "pixel_col": 400.0,
    "pixel_row": 462.0,
    "population_density": 7.4,
    "position_along": 0.5,
    "protected_area_score": 12.8626,
    "rank": 11,
    "road_access_m": 1199.3,
    "road_access_score": 0.3,
    "road_density_km_km2": 0.0,
    "robustness_pct": 0.0,
    "runoff_coeff_C": 0.0501,
    "seasonal_cv": 0.4099,
    "segment_id": 6,
    "segment_length_m": 824.196,
    "stream_order": 3,
    "superfund_score": 0.0,
    "tourism_amenity_density": 0.0,
    "tri_facility_density": 0.0,
    "usgs_mean_q_cfs": 2.883,
    "velocity_feasibility": 0.7,
    "water_intake_score": 0.0
   },
   "type": "Feature"
  },
  {
   "geometry": {
    "coordinates": [
     -76.999301,
     36.517565
    ],
    "type": "Point"
   },
   "properties": {
    "accumulation": 25265.0,
    "bank_slope_deg": 0.96,
    "bank_slope_score": 1.0,
    "bank_slope_source": "nc-dps-lidar-dem03-cross-section",
    "beach_dist_km": 266.42,
    "bridge_proximity_bonus": 0.0,
    "catchment_area_km2": 2.5217,
    "channel_width_m": 3.11,
    "channel_width_score": 1.0,
    "composite_score": 24.8112,
    "cso_density": 0.0,
    "ej_index": 0.725,
    "elevation_m": 11.0743,
    "estuary_dist_km": 184.29,
    "feasibility_score": 30.9524,
    "flood_q10_cfs": 170.43,
    "flow_score": 36.8136,
    "flow_velocity_ms": 0.0903,
    "generation_score": 28.0702,
    "impact_score": 8.4796,
    "impervious_pct": 0.4,
    "land_ownership": 0.5,
    "lat": 36.5176,
    "litter_complaint_density": 0.0,
    "lon": -76.9993,
    "navigable_dist_m": 5682.9,
    "npdes_points": 0,
    "pixel_col": 331.0,
    "pixel_row": 108.0,
    "population_density": 7.4,
    "position_along": 0.5,
    "protected_area_score": 10.9149,
    "rank": 12,
    "road_access_m": 1107.8,
    "road_access_score": 0.3,
    "road_density_km_km2": 0.0,
    "robustness_pct": 0.0,
    "runoff_coeff_C": 0.0536,
    "seasonal_cv": 0.4162,
    "segment_id": 0,
    "segment_length_m": 1091.9329,
    "stream_order": 3,
    "superfund_score": 0.0,
    "tourism_amenity_density": 0.0796,
    "tri_facility_density": 0.0,
    "usgs_mean_q_cfs": 7.485,
    "velocity_feasibility": 0.7,
    "water_intake_score": 0.0
   },
   "type": "Feature"
  },
  {
   "geometry": {
    "coordinates": [
     -76.980342,
     36.494378
    ],
    "type": "Point"
   },
   "properties": {
    "accumulation": 23441.0,
    "bank_slope_deg": 2.5,
    "bank_slope_score": 1.0,
    "bank_slope_source": "nc-dps-lidar-dem03-cross-section",
    "beach_dist_km": 264.41,
    "bridge_proximity_bonus": 0.0,
    "catchment_area_km2": 2.3397,
    "channel_width_m": 3.02,
    "channel_width_score": 1.0,
    "composite_score": 16.981,
    "cso_density": 0.0,
    "ej_index": 0.725,
    "elevation_m": 7.4003,
    "estuary_dist_km": 181.21,
    "feasibility_score": 0.0,
    "flood_q10_cfs": 161.46,
    "flow_score": 12.0571,
    "flow_velocity_ms": 0.0459,
    "generation_score": 0.7018,
    "impact_score": 45.8541,
    "impervious_pct": 0.01,
    "land_ownership": 0.5,
    "lat": 36.4944,
    "litter_complaint_density": 0.0,
    "lon": -76.9803,
    "navigable_dist_m": 3716.8,
    "npdes_points": 0,
    "pixel_col": 493.0,
    "pixel_row": 370.0,
    "population_density": 7.4,
    "position_along": 0.5,
    "protected_area_score": 12.2717,
    "rank": 13,
    "road_access_m": 2000.6,
    "road_access_score": 0.1,
    "road_density_km_km2": 0.0,
    "robustness_pct": 0.0,
    "runoff_coeff_C": 0.0501,
    "seasonal_cv": 0.4099,
    "segment_id": 4,
    "segment_length_m": 192.9548,
    "stream_order": 1,
    "superfund_score": 0.0,
    "tourism_amenity_density": 0.0,
    "tri_facility_density": 0.0,
    "usgs_mean_q_cfs": 2.883,
    "velocity_feasibility": 0.3,
    "water_intake_score": 0.0
   },
   "type": "Feature"
  }
 ],
 "note": "GRIME region 'Como, NC' \u2014 real-data pipeline (DEM\u2192streams\u2192candidates\u2192stream mask (sites confined to \u00b1150 m of mapped OSM/NHD waterways)\u2192region-appropriate real parameters\u2192shipped scoring, math unchanged). Width curve: Bieger et al. 2015 JAWRA Table 3, Atlantic Plain. Flood: SIR 2014-5030 HR4 (I24H50Y: NOAA Atlas 14). NC Coastal Plain (SIR 2014-5030 HR4; I24H50Y from NOAA Atlas 14 at region center)",
 "provenance": {
  "candidates_pre_gate": 13,
  "constant": [
   "bank_slope_score",
   "bridge_proximity_bonus",
   "channel_width_score",
   "cso_density",
   "ej_index",
   "litter_complaint_density",
   "npdes_points",
   "population_density",
   "superfund_score",
   "tri_facility_density",
   "water_intake_score"
  ],
  "gated_navigable": 0,
  "hard_gate_removed": 0,
  "n_parameters": 27,
  "parameters": {
   "bank_slope_score": {
    "kind": "real",
    "n_3dep_10m_fallback": 0,
    "n_nc_lidar_3_125ft": 13,
    "n_real": 13,
    "n_sites": 13,
    "source": "NC OneMap / NC DPS DEM03 statewide lidar-derived 3.125-ft (0.953 m) elevations (perpendicular 50 m transect; robust 5 m bank-rise metric); unavailable profiles use the region 10 m 3DEP DEM-gradient fallback",
    "source_mosaics": [
     "Hertford_Ground_3ft"
    ]
   },
   "beach_dist_km": {
    "kind": "real",
    "n_real": 13,
    "n_sites": 13,
    "source": "haversine to region ref: Wrightsville Beach (shipped NC reference)"
   },
   "bridge_proximity_bonus": {
    "kind": "real",
    "n_real": 13,
    "n_sites": 13,
    "source": "FHWA/BTS NBI (NTAD), 50 m proximity"
   },
   "catchment_area_km2": {
    "kind": "real",
    "n_real": 13,
    "n_sites": 13,
    "source": "DEM flow accumulation (pipeline)"
   },
   "channel_width_score": {
    "kind": "real",
    "n_real": 13,
    "n_sites": 13,
    "source": "Bieger 2015 APL width curve on DEM drainage area \u2192 shipped width curve"
   },
   "cso_density": {
    "kind": "real",
    "n_real": 13,
    "n_sites": 13,
    "source": "EPA ECHO open CSO/TCS outfall PF coordinates states=NC, Cauchy proximity"
   },
   "ej_index": {
    "kind": "real",
    "n_real": 13,
    "n_sites": 13,
    "source": "Census ACS C17002+B03002 two-component demographic index, percentile-ranked within region"
   },
   "estuary_dist_km": {
    "kind": "real",
    "n_real": 13,
    "n_sites": 13,
    "source": "haversine to region ref: Pamlico Sound (shipped NC reference)"
   },
   "flood_q10_cfs": {
    "impervious_fallback_reason": "StreamCat imperviousness unavailable; the existing regression-input fallback of 0.0% impervious was used and is disclosed here",
    "kind": "real",
    "n_impervious_fallback": 2,
    "n_real": 13,
    "n_sites": 13,
    "source": "USGS SIR 2014-5030 Table 7 HR4 (NC Coastal Plain; I24H50Y from NOAA Atlas 14 at region center)"
   },
   "flow_velocity_ms": {
    "fallback_reason": "EROM/DEM continuity input unavailable; shipped 0.5 m/s default used",
    "kind": "real",
    "n_fallback": 2,
    "n_real": 11,
    "n_sites": 13,
    "source": "Manning (region DEM/D8) blended with EROM continuity (shipped M4 logic)"
   },
   "impervious_pct": {
    "fallback_reason": "NLDI/StreamCat did not return a snap-compatible catchment value; value remains null and is removed by constant-column handling",
    "kind": "real",
    "n_fallback": 2,
    "n_real": 11,
    "n_sites": 13,
    "source": "EPA StreamCat pctimp2019 (per NHDPlus watershed)"
   },
   "land_ownership": {
    "kind": "real",
    "n_fallback": 0,
    "n_real": 13,
    "n_sites": 13,
    "source": "NC OneMap statewide parcels (NC Parcels Transformer) ownname"
   },
   "litter_complaint_density": {
    "kind": "fallback",
    "n_real": 0,
    "n_sites": 13,
    "source": "no public machine-readable litter/illegal-dumping feed for this region"
   },
   "navigable_dist_m": {
    "kind": "real",
    "n_real": 13,
    "n_sites": 13,
    "source": "USACE/BTS National Waterway Network lines (NTAD, retrieved 2026-07-10), distance to nearest navigable segment"
   },
   "npdes_points": {
    "kind": "real",
    "n_real": 13,
    "n_sites": 13,
    "source": "EPA ECHO active NPDES outfalls states=NC (types NPD/GPC/NGP; statuses ADC/EFF/EXP), per catchment"
   },
   "population_density": {
    "kind": "real",
    "n_real": 13,
    "n_sites": 13,
    "source": "Census ACS 2022 B01003 block groups (bbox, multi-county), area-weighted"
   },
   "protected_area_score": {
    "kind": "real",
    "n_real": 13,
    "n_sites": 13,
    "source": "USGS PAD-US 4.1 state GDB; states=NC; shipped designation-weighted proximity curve"
   },
   "road_access_score": {
    "kind": "real",
    "n_real": 13,
    "n_sites": 13,
    "source": "OSM drive network nearest-node distance"
   },
   "road_density_km_km2": {
    "kind": "real",
    "n_real": 13,
    "n_sites": 13,
    "source": "OSM drive network (osmnx, cached) clipped per catchment"
   },
   "runoff_coeff_C": {
    "fallback_reason": "source impervious_pct was unavailable; derived value remains null",
    "kind": "real",
    "n_fallback": 2,
    "n_real": 11,
    "n_sites": 13,
    "source": "derived from real impervious_pct (C=0.05+0.009*I)"
   },
   "seasonal_cv": {
    "fallback_reason": "NHDPlus monthly EROM was unavailable or failed the drainage-area snap guard; value remains null",
    "kind": "real",
    "n_fallback": 2,
    "n_real": 11,
    "n_sites": 13,
    "source": "CV of NHDPlus EROM monthly flows per COMID"
   },
   "stream_order": {
    "kind": "real",
    "n_real": 13,
    "n_sites": 13,
    "source": "DEM stream-network confluence heuristic (pipeline)"
   },
   "superfund_score": {
    "kind": "real",
    "n_real": 13,
    "n_sites": 13,
    "source": "EPA DataMap SEMS active sites states=NC (non-archived, georeferenced), shipped 500 m inverse-distance curve"
   },
   "tourism_amenity_density": {
    "kind": "real",
    "n_real": 13,
    "n_sites": 13,
    "source": "OSM leisure/tourism features per 2 km radius"
   },
   "tri_facility_density": {
    "kind": "real",
    "n_real": 13,
    "n_sites": 13,
    "source": "EPA DataMap TRI open facilities states=NC (preferred decimal or packed-DMS recovery), per catchment"
   },
   "usgs_mean_q_cfs": {
    "fallback_reason": "NHDPlus EROM was unavailable or failed the drainage-area snap guard; value remains null",
    "kind": "real",
    "n_fallback": 2,
    "n_real": 11,
    "n_sites": 13,
    "source": "NHDPlus EROM qe_ma per COMID (snap-guarded)"
   },
   "velocity_feasibility": {
    "fallback_reason": "derived from the shipped 0.5 m/s velocity fallback",
    "kind": "real",
    "n_fallback": 2,
    "n_real": 11,
    "n_sites": 13,
    "source": "shipped step curve on the computed velocity"
   },
   "velocity_transport_favorability": {
    "fallback_reason": "EROM/DEM continuity input unavailable; shipped 0.5 m/s default used",
    "kind": "derived",
    "n_fallback": 2,
    "n_real": 11,
    "n_sites": 13,
    "source": "scored form of flow_velocity_ms inside the Flow family \u2014 peaked Gaussian exp(-((v-0.9)/0.6)^2), model.json curves.velocity_transport_favorability; construct: transport/delivery favorability, deliberately distinct from velocity_feasibility (device operability)"
   },
   "water_intake_score": {
    "kind": "real",
    "n_real": 13,
    "n_sites": 13,
    "source": "NC OneMap / NC DEQ SWAP public water supply sources (source_typ='Surface Water'), shipped exp(-d/10km) curve"
   }
  },
  "stream_mask": {
   "buffer_m": 150.0,
   "pre_mask": 13,
   "removed": 0,
   "sources": [
    "osm-overpass (all waterway ways)",
    "usgs-nhdplus flowlines"
   ]
  },
  "varying": [
   "beach_dist_km",
   "catchment_area_km2",
   "estuary_dist_km",
   "flood_q10_cfs",
   "flow_velocity_ms",
   "impervious_pct",
   "land_ownership",
   "protected_area_score",
   "road_access_score",
   "road_density_km_km2",
   "runoff_coeff_C",
   "seasonal_cv",
   "stream_order",
   "tourism_amenity_density",
   "usgs_mean_q_cfs",
   "velocity_feasibility"
  ]
 },
 "region": {
  "bbox": [
   -77.0348,
   36.47,
   -76.9644,
   36.5266
  ],
  "beach_ref": {
   "label": "Wrightsville Beach (shipped NC reference)",
   "lat": 34.21,
   "lon": -77.79
  },
  "center": [
   -76.999618,
   36.498273
  ],
  "estuary_ref": {
   "label": "Pamlico Sound (shipped NC reference)",
   "lat": 35.05,
   "lon": -76.05
  },
  "flood_method": "sir2014_hr4",
  "name": "Como, NC",
  "notes": "NC Coastal Plain (SIR 2014-5030 HR4; I24H50Y from NOAA Atlas 14 at region center)",
  "slug": "como",
  "state": "NC",
  "utm_epsg": 32618,
  "width_curve": {
   "a": 2.22,
   "b": 0.363,
   "code": "APL",
   "source": "Bieger et al. 2015 JAWRA Table 3, Atlantic Plain"
  }
 },
 "type": "FeatureCollection"
}
