{
 "features": [
  {
   "geometry": {
    "coordinates": [
     -77.450997,
     35.810103
    ],
    "type": "Point"
   },
   "properties": {
    "accumulation": 37821.0,
    "bank_slope_deg": 23.84,
    "bank_slope_score": 0.5,
    "bank_slope_source": "nc-dps-lidar-dem03-cross-section",
    "beach_dist_km": 180.58,
    "bridge_proximity_bonus": 0.0,
    "catchment_area_km2": 3.7723,
    "channel_width_m": 3.59,
    "channel_width_score": 1.0,
    "composite_score": 69.9711,
    "cso_density": 0.0,
    "ej_index": 0.7001,
    "elevation_m": 10.8439,
    "estuary_dist_km": 152.5,
    "feasibility_score": 52.2727,
    "flood_q10_cfs": 230.09,
    "flow_score": 55.583,
    "flow_velocity_ms": 0.0826,
    "generation_score": 82.0789,
    "impact_score": 78.7026,
    "impervious_pct": 1.59,
    "land_ownership": 0.5,
    "lat": 35.8101,
    "litter_complaint_density": 0.0,
    "lon": -77.451,
    "navigable_dist_m": null,
    "npdes_points": 0,
    "pixel_col": 258.0,
    "pixel_row": 295.0,
    "population_density": 22.4,
    "position_along": 0.5,
    "protected_area_score": 14.8261,
    "rank": 1,
    "road_access_m": 360.7,
    "road_access_score": 0.8,
    "road_density_km_km2": 1.986,
    "robustness_pct": 100.0,
    "runoff_coeff_C": 0.0643,
    "seasonal_cv": 0.4551,
    "segment_id": 0,
    "segment_length_m": 2315.65,
    "stream_order": 3,
    "superfund_score": 0.0,
    "tourism_amenity_density": 0.7162,
    "tri_facility_density": 0.0,
    "usgs_mean_q_cfs": 9.645,
    "velocity_feasibility": 0.7,
    "water_intake_score": 0.5033
   },
   "type": "Feature"
  },
  {
   "geometry": {
    "coordinates": [
     -77.464772,
     35.801677
    ],
    "type": "Point"
   },
   "properties": {
    "accumulation": 21575.0,
    "bank_slope_deg": 6.83,
    "bank_slope_score": 1.0,
    "bank_slope_source": "nc-dps-lidar-dem03-cross-section",
    "beach_dist_km": 179.45,
    "bridge_proximity_bonus": 0.0,
    "catchment_area_km2": 2.1519,
    "channel_width_m": 2.93,
    "channel_width_score": 1.0,
    "composite_score": 41.5381,
    "cso_density": 0.0,
    "ej_index": 0.6492,
    "elevation_m": 12.2551,
    "estuary_dist_km": 153.03,
    "feasibility_score": 63.6364,
    "flood_q10_cfs": 168.91,
    "flow_score": 13.3643,
    "flow_velocity_ms": 0.094,
    "generation_score": 41.6667,
    "impact_score": 53.8385,
    "impervious_pct": 2.79,
    "land_ownership": 0.5,
    "lat": 35.8017,
    "litter_complaint_density": 0.0,
    "lon": -77.4648,
    "navigable_dist_m": null,
    "npdes_points": 0,
    "pixel_col": 132.0,
    "pixel_row": 385.0,
    "population_density": 18.3,
    "position_along": 0.5,
    "protected_area_score": 14.1238,
    "rank": 2,
    "road_access_m": 291.0,
    "road_access_score": 0.8,
    "road_density_km_km2": 0.434,
    "robustness_pct": 100.0,
    "runoff_coeff_C": 0.0751,
    "seasonal_cv": 0.3967,
    "segment_id": 3,
    "segment_length_m": 439.1367,
    "stream_order": 1,
    "superfund_score": 0.0,
    "tourism_amenity_density": 0.3183,
    "tri_facility_density": 0.0,
    "usgs_mean_q_cfs": 1.665,
    "velocity_feasibility": 0.7,
    "water_intake_score": 0.5038
   },
   "type": "Feature"
  },
  {
   "geometry": {
    "coordinates": [
     -77.450002,
     35.804679
    ],
    "type": "Point"
   },
   "properties": {
    "accumulation": 20341.0,
    "bank_slope_deg": 32.95,
    "bank_slope_score": 0.2,
    "bank_slope_source": "nc-dps-lidar-dem03-cross-section",
    "beach_dist_km": 180.0,
    "bridge_proximity_bonus": 0.0,
    "catchment_area_km2": 2.0288,
    "channel_width_m": 2.87,
    "channel_width_score": 1.0,
    "composite_score": 36.6999,
    "cso_density": 0.0,
    "ej_index": 0.6153,
    "elevation_m": 10.3806,
    "estuary_dist_km": 152.09,
    "feasibility_score": 36.3636,
    "flood_q10_cfs": 152.8,
    "flow_score": 40.0,
    "flow_velocity_ms": 0.5,
    "generation_score": 19.5008,
    "impact_score": 51.3171,
    "impervious_pct": null,
    "land_ownership": 0.5,
    "lat": 35.8047,
    "litter_complaint_density": 0.0,
    "lon": -77.45,
    "navigable_dist_m": null,
    "npdes_points": 0,
    "pixel_col": 266.0,
    "pixel_row": 355.0,
    "population_density": 20.3,
    "position_along": 0.5,
    "protected_area_score": 14.2954,
    "rank": 3,
    "road_access_m": 947.3,
    "road_access_score": 0.6,
    "road_density_km_km2": 0.524,
    "robustness_pct": 100.0,
    "runoff_coeff_C": null,
    "seasonal_cv": null,
    "segment_id": 1,
    "segment_length_m": 624.4601,
    "stream_order": 3,
    "superfund_score": 0.0,
    "tourism_amenity_density": 0.7162,
    "tri_facility_density": 0.0,
    "usgs_mean_q_cfs": null,
    "velocity_feasibility": 1.0,
    "water_intake_score": 0.4947
   },
   "type": "Feature"
  },
  {
   "geometry": {
    "coordinates": [
     -77.451758,
     35.801236
    ],
    "type": "Point"
   },
   "properties": {
    "accumulation": 63712.0,
    "bank_slope_deg": 21.67,
    "bank_slope_score": 0.5,
    "bank_slope_source": "nc-dps-lidar-dem03-cross-section",
    "beach_dist_km": 179.6,
    "bridge_proximity_bonus": 0.0,
    "catchment_area_km2": 6.3547,
    "channel_width_m": 4.34,
    "channel_width_score": 1.0,
    "composite_score": 34.327,
    "cso_density": 0.0,
    "ej_index": 0.5794,
    "elevation_m": 9.9252,
    "estuary_dist_km": 152.02,
    "feasibility_score": 43.1818,
    "flood_q10_cfs": 303.27,
    "flow_score": 72.0,
    "flow_velocity_ms": 0.5,
    "generation_score": 6.303,
    "impact_score": 26.5294,
    "impervious_pct": null,
    "land_ownership": 0.5,
    "lat": 35.8012,
    "litter_complaint_density": 0.0,
    "lon": -77.4518,
    "navigable_dist_m": null,
    "npdes_points": 0,
    "pixel_col": 249.0,
    "pixel_row": 393.0,
    "population_density": 18.7,
    "position_along": 0.5,
    "protected_area_score": 13.7931,
    "rank": 4,
    "road_access_m": 950.7,
    "road_access_score": 0.6,
    "road_density_km_km2": 0.631,
    "robustness_pct": 100.0,
    "runoff_coeff_C": null,
    "seasonal_cv": null,
    "segment_id": 2,
    "segment_length_m": 271.0702,
    "stream_order": 3,
    "superfund_score": 0.0,
    "tourism_amenity_density": 0.3183,
    "tri_facility_density": 0.0,
    "usgs_mean_q_cfs": null,
    "velocity_feasibility": 1.0,
    "water_intake_score": 0.4921
   },
   "type": "Feature"
  }
 ],
 "note": "GRIME region 'Conetoe, NC' \u2014 real-data pipeline (DEM\u2192streams\u2192candidates\u2192stream mask (sites confined to \u00b1150 m of mapped OSM/NHD waterways)\u2192region-appropriate real parameters\u2192shipped scoring, math unchanged). Width curve: Bieger et al. 2015 JAWRA Table 3, Atlantic Plain. Flood: SIR 2014-5030 HR4 (I24H50Y: NOAA Atlas 14). NC Coastal Plain (SIR 2014-5030 HR4; I24H50Y from NOAA Atlas 14 at region center)",
 "provenance": {
  "candidates_pre_gate": 4,
  "constant": [
   "bridge_proximity_bonus",
   "channel_width_score",
   "cso_density",
   "land_ownership",
   "litter_complaint_density",
   "npdes_points",
   "superfund_score",
   "tri_facility_density"
  ],
  "gated_navigable": 0,
  "hard_gate_removed": 0,
  "n_parameters": 27,
  "parameters": {
   "bank_slope_score": {
    "kind": "real",
    "n_3dep_10m_fallback": 0,
    "n_nc_lidar_3_125ft": 4,
    "n_real": 4,
    "n_sites": 4,
    "source": "NC OneMap / NC DPS DEM03 statewide lidar-derived 3.125-ft (0.953 m) elevations (perpendicular 50 m transect; robust 5 m bank-rise metric); unavailable profiles use the region 10 m 3DEP DEM-gradient fallback",
    "source_mosaics": [
     "Edgecombe_Ground_3ft"
    ]
   },
   "beach_dist_km": {
    "kind": "real",
    "n_real": 4,
    "n_sites": 4,
    "source": "haversine to region ref: Wrightsville Beach (shipped NC reference)"
   },
   "bridge_proximity_bonus": {
    "kind": "real",
    "n_real": 4,
    "n_sites": 4,
    "source": "FHWA/BTS NBI (NTAD), 50 m proximity"
   },
   "catchment_area_km2": {
    "kind": "real",
    "n_real": 4,
    "n_sites": 4,
    "source": "DEM flow accumulation (pipeline)"
   },
   "channel_width_score": {
    "kind": "real",
    "n_real": 4,
    "n_sites": 4,
    "source": "Bieger 2015 APL width curve on DEM drainage area \u2192 shipped width curve"
   },
   "cso_density": {
    "kind": "real",
    "n_real": 4,
    "n_sites": 4,
    "source": "EPA ECHO open CSO/TCS outfall PF coordinates states=NC, Cauchy proximity"
   },
   "ej_index": {
    "kind": "real",
    "n_real": 4,
    "n_sites": 4,
    "source": "Census ACS C17002+B03002 two-component demographic index, percentile-ranked within region"
   },
   "estuary_dist_km": {
    "kind": "real",
    "n_real": 4,
    "n_sites": 4,
    "source": "haversine to region ref: Pamlico Sound (shipped NC reference)"
   },
   "flood_q10_cfs": {
    "impervious_fallback_reason": "StreamCat imperviousness unavailable; the existing regression-input fallback of 0.0% impervious was used and is disclosed here",
    "kind": "real",
    "n_impervious_fallback": 2,
    "n_real": 4,
    "n_sites": 4,
    "source": "USGS SIR 2014-5030 Table 7 HR4 (NC Coastal Plain; I24H50Y from NOAA Atlas 14 at region center)"
   },
   "flow_velocity_ms": {
    "fallback_reason": "EROM/DEM continuity input unavailable; shipped 0.5 m/s default used",
    "kind": "real",
    "n_fallback": 2,
    "n_real": 2,
    "n_sites": 4,
    "source": "Manning (region DEM/D8) blended with EROM continuity (shipped M4 logic)"
   },
   "impervious_pct": {
    "fallback_reason": "NLDI/StreamCat did not return a snap-compatible catchment value; value remains null and is removed by constant-column handling",
    "kind": "real",
    "n_fallback": 2,
    "n_real": 2,
    "n_sites": 4,
    "source": "EPA StreamCat pctimp2019 (per NHDPlus watershed)"
   },
   "land_ownership": {
    "kind": "real",
    "n_fallback": 0,
    "n_real": 4,
    "n_sites": 4,
    "source": "NC OneMap statewide parcels (NC Parcels Transformer) ownname"
   },
   "litter_complaint_density": {
    "kind": "fallback",
    "n_real": 0,
    "n_sites": 4,
    "source": "no public machine-readable litter/illegal-dumping feed for this region"
   },
   "navigable_dist_m": {
    "kind": "real",
    "n_real": 4,
    "n_sites": 4,
    "source": "USACE/BTS NWN (NTAD): no navigable segment within this bbox (+2 km) \u2014 computed absence, gate passes all sites"
   },
   "npdes_points": {
    "kind": "real",
    "n_real": 4,
    "n_sites": 4,
    "source": "EPA ECHO active NPDES outfalls states=NC (types NPD/GPC/NGP; statuses ADC/EFF/EXP), per catchment"
   },
   "population_density": {
    "kind": "real",
    "n_real": 4,
    "n_sites": 4,
    "source": "Census ACS 2022 B01003 block groups (bbox, multi-county), area-weighted"
   },
   "protected_area_score": {
    "kind": "real",
    "n_real": 4,
    "n_sites": 4,
    "source": "USGS PAD-US 4.1 state GDB; states=NC; shipped designation-weighted proximity curve"
   },
   "road_access_score": {
    "kind": "real",
    "n_real": 4,
    "n_sites": 4,
    "source": "OSM drive network nearest-node distance"
   },
   "road_density_km_km2": {
    "kind": "real",
    "n_real": 4,
    "n_sites": 4,
    "source": "OSM drive network (osmnx, cached) clipped per catchment"
   },
   "runoff_coeff_C": {
    "fallback_reason": "source impervious_pct was unavailable; derived value remains null",
    "kind": "real",
    "n_fallback": 2,
    "n_real": 2,
    "n_sites": 4,
    "source": "derived from real impervious_pct (C=0.05+0.009*I)"
   },
   "seasonal_cv": {
    "fallback_reason": "NHDPlus monthly EROM was unavailable or failed the drainage-area snap guard; value remains null",
    "kind": "real",
    "n_fallback": 2,
    "n_real": 2,
    "n_sites": 4,
    "source": "CV of NHDPlus EROM monthly flows per COMID"
   },
   "stream_order": {
    "kind": "real",
    "n_real": 4,
    "n_sites": 4,
    "source": "DEM stream-network confluence heuristic (pipeline)"
   },
   "superfund_score": {
    "kind": "real",
    "n_real": 4,
    "n_sites": 4,
    "source": "EPA DataMap SEMS active sites states=NC (non-archived, georeferenced), shipped 500 m inverse-distance curve"
   },
   "tourism_amenity_density": {
    "kind": "real",
    "n_real": 4,
    "n_sites": 4,
    "source": "OSM leisure/tourism features per 2 km radius"
   },
   "tri_facility_density": {
    "kind": "real",
    "n_real": 4,
    "n_sites": 4,
    "source": "EPA DataMap TRI open facilities states=NC (preferred decimal or packed-DMS recovery), per catchment"
   },
   "usgs_mean_q_cfs": {
    "fallback_reason": "NHDPlus EROM was unavailable or failed the drainage-area snap guard; value remains null",
    "kind": "real",
    "n_fallback": 2,
    "n_real": 2,
    "n_sites": 4,
    "source": "NHDPlus EROM qe_ma per COMID (snap-guarded)"
   },
   "velocity_feasibility": {
    "fallback_reason": "derived from the shipped 0.5 m/s velocity fallback",
    "kind": "real",
    "n_fallback": 2,
    "n_real": 2,
    "n_sites": 4,
    "source": "shipped step curve on the computed velocity"
   },
   "velocity_transport_favorability": {
    "fallback_reason": "EROM/DEM continuity input unavailable; shipped 0.5 m/s default used",
    "kind": "derived",
    "n_fallback": 2,
    "n_real": 2,
    "n_sites": 4,
    "source": "scored form of flow_velocity_ms inside the Flow family \u2014 peaked Gaussian exp(-((v-0.9)/0.6)^2), model.json curves.velocity_transport_favorability; construct: transport/delivery favorability, deliberately distinct from velocity_feasibility (device operability)"
   },
   "water_intake_score": {
    "kind": "real",
    "n_real": 4,
    "n_sites": 4,
    "source": "NC OneMap / NC DEQ SWAP public water supply sources (source_typ='Surface Water'), shipped exp(-d/10km) curve"
   }
  },
  "stream_mask": {
   "buffer_m": 150.0,
   "pre_mask": 4,
   "removed": 0,
   "sources": [
    "osm-overpass (all waterway ways)",
    "usgs-nhdplus flowlines"
   ]
  },
  "varying": [
   "bank_slope_score",
   "beach_dist_km",
   "catchment_area_km2",
   "ej_index",
   "estuary_dist_km",
   "flood_q10_cfs",
   "flow_velocity_ms",
   "impervious_pct",
   "population_density",
   "protected_area_score",
   "road_access_score",
   "road_density_km_km2",
   "runoff_coeff_C",
   "seasonal_cv",
   "stream_order",
   "tourism_amenity_density",
   "usgs_mean_q_cfs",
   "velocity_feasibility",
   "water_intake_score"
  ]
 },
 "region": {
  "bbox": [
   -77.4793,
   35.7998,
   -77.4349,
   35.8359
  ],
  "beach_ref": {
   "label": "Wrightsville Beach (shipped NC reference)",
   "lat": 34.21,
   "lon": -77.79
  },
  "center": [
   -77.457102,
   35.817855
  ],
  "estuary_ref": {
   "label": "Pamlico Sound (shipped NC reference)",
   "lat": 35.05,
   "lon": -76.05
  },
  "flood_method": "sir2014_hr4",
  "name": "Conetoe, NC",
  "notes": "NC Coastal Plain (SIR 2014-5030 HR4; I24H50Y from NOAA Atlas 14 at region center)",
  "slug": "conetoe",
  "state": "NC",
  "utm_epsg": 32618,
  "width_curve": {
   "a": 2.22,
   "b": 0.363,
   "code": "APL",
   "source": "Bieger et al. 2015 JAWRA Table 3, Atlantic Plain"
  }
 },
 "type": "FeatureCollection"
}
