{
 "features": [
  {
   "geometry": {
    "coordinates": [
     -80.195138,
     36.409599
    ],
    "type": "Point"
   },
   "properties": {
    "accumulation": 127507.0,
    "bank_slope_deg": 9.62,
    "bank_slope_score": 1.0,
    "bank_slope_source": "nc-dps-lidar-dem03-cross-section",
    "beach_dist_km": 327.77,
    "bridge_proximity_bonus": 0.0,
    "catchment_area_km2": 12.6916,
    "channel_width_m": 8.96,
    "channel_width_score": 1.0,
    "composite_score": 67.1925,
    "cso_density": 0.0,
    "ej_index": 0.5242,
    "elevation_m": 205.4208,
    "estuary_dist_km": 403.51,
    "feasibility_score": 65.3846,
    "flood_q10_cfs": 1167.23,
    "flow_score": 67.4419,
    "flow_velocity_ms": 0.5,
    "generation_score": 51.866,
    "impact_score": 83.2151,
    "impervious_pct": null,
    "land_ownership": 0.5,
    "lat": 36.4096,
    "litter_complaint_density": 0.0,
    "lon": -80.1951,
    "navigable_dist_m": null,
    "npdes_points": 1,
    "pixel_col": 353.0,
    "pixel_row": 215.0,
    "population_density": 22.4,
    "position_along": 0.5,
    "protected_area_score": 4.6554,
    "rank": 1,
    "road_access_m": 320.5,
    "road_access_score": 0.8,
    "road_density_km_km2": 0.842,
    "robustness_pct": 100.0,
    "runoff_coeff_C": null,
    "seasonal_cv": null,
    "segment_id": 4,
    "segment_length_m": 1268.0035,
    "stream_order": 3,
    "superfund_score": 0.0,
    "tourism_amenity_density": 0.8754,
    "tri_facility_density": 0.0,
    "usgs_mean_q_cfs": null,
    "velocity_feasibility": 1.0,
    "water_intake_score": 0.4884
   },
   "type": "Feature"
  },
  {
   "geometry": {
    "coordinates": [
     -80.200258,
     36.408027
    ],
    "type": "Point"
   },
   "properties": {
    "accumulation": 96305.0,
    "bank_slope_deg": 9.06,
    "bank_slope_score": 1.0,
    "bank_slope_source": "nc-dps-lidar-dem03-cross-section",
    "beach_dist_km": 327.95,
    "bridge_proximity_bonus": 0.2,
    "catchment_area_km2": 9.5858,
    "channel_width_m": 7.97,
    "channel_width_score": 1.0,
    "composite_score": 63.4363,
    "cso_density": 0.0,
    "ej_index": 0.4914,
    "elevation_m": 206.2255,
    "estuary_dist_km": 403.87,
    "feasibility_score": 100.0,
    "flood_q10_cfs": 999.18,
    "flow_score": 58.0091,
    "flow_velocity_ms": 0.5,
    "generation_score": 40.5774,
    "impact_score": 72.5361,
    "impervious_pct": null,
    "land_ownership": 0.5,
    "lat": 36.408,
    "litter_complaint_density": 0.0,
    "lon": -80.2003,
    "navigable_dist_m": null,
    "npdes_points": 1,
    "pixel_col": 306.0,
    "pixel_row": 236.0,
    "population_density": 20.6,
    "position_along": 0.5,
    "protected_area_score": 4.6379,
    "rank": 2,
    "road_access_m": 92.2,
    "road_access_score": 1.0,
    "road_density_km_km2": 1.163,
    "robustness_pct": 100.0,
    "runoff_coeff_C": null,
    "seasonal_cv": null,
    "segment_id": 2,
    "segment_length_m": 176.1586,
    "stream_order": 3,
    "superfund_score": 0.0,
    "tourism_amenity_density": 0.8754,
    "tri_facility_density": 0.0,
    "usgs_mean_q_cfs": null,
    "velocity_feasibility": 1.0,
    "water_intake_score": 0.4808
   },
   "type": "Feature"
  },
  {
   "geometry": {
    "coordinates": [
     -80.200938,
     36.40992
    ],
    "type": "Point"
   },
   "properties": {
    "accumulation": 20855.0,
    "bank_slope_deg": 23.75,
    "bank_slope_score": 0.5,
    "bank_slope_source": "nc-dps-lidar-dem03-cross-section",
    "beach_dist_km": 328.15,
    "bridge_proximity_bonus": 0.0,
    "catchment_area_km2": 2.0758,
    "channel_width_m": 4.22,
    "channel_width_score": 1.0,
    "composite_score": 50.9322,
    "cso_density": 0.0,
    "ej_index": 0.4576,
    "elevation_m": 214.1084,
    "estuary_dist_km": 404.0,
    "feasibility_score": 38.4615,
    "flood_q10_cfs": 340.57,
    "flow_score": 15.4572,
    "flow_velocity_ms": 0.1813,
    "generation_score": 68.0672,
    "impact_score": 69.5949,
    "impervious_pct": 3.12,
    "land_ownership": 0.5,
    "lat": 36.4099,
    "litter_complaint_density": 0.0,
    "lon": -80.2009,
    "navigable_dist_m": null,
    "npdes_points": 1,
    "pixel_col": 301.0,
    "pixel_row": 214.0,
    "population_density": 19.1,
    "position_along": 0.5,
    "protected_area_score": 4.8081,
    "rank": 3,
    "road_access_m": 88.8,
    "road_access_score": 1.0,
    "road_density_km_km2": 1.822,
    "robustness_pct": 98.5,
    "runoff_coeff_C": 0.0781,
    "seasonal_cv": 0.528,
    "segment_id": 1,
    "segment_length_m": 535.738,
    "stream_order": 3,
    "superfund_score": 0.0,
    "tourism_amenity_density": 0.7958,
    "tri_facility_density": 0.0,
    "usgs_mean_q_cfs": 1.435,
    "velocity_feasibility": 0.7,
    "water_intake_score": 0.4769
   },
   "type": "Feature"
  },
  {
   "geometry": {
    "coordinates": [
     -80.198297,
     36.414752
    ],
    "type": "Point"
   },
   "properties": {
    "accumulation": 70661.0,
    "bank_slope_deg": 15.75,
    "bank_slope_score": 0.5,
    "bank_slope_source": "nc-dps-lidar-dem03-cross-section",
    "beach_dist_km": 328.38,
    "bridge_proximity_bonus": 0.0,
    "catchment_area_km2": 7.0333,
    "channel_width_m": 7.01,
    "channel_width_score": 1.0,
    "composite_score": 48.877,
    "cso_density": 0.0,
    "ej_index": 0.4767,
    "elevation_m": 207.3559,
    "estuary_dist_km": 403.97,
    "feasibility_score": 30.7692,
    "flood_q10_cfs": 808.88,
    "flow_score": 49.2291,
    "flow_velocity_ms": 0.5,
    "generation_score": 35.4285,
    "impact_score": 71.0859,
    "impervious_pct": null,
    "land_ownership": 0.5,
    "lat": 36.4148,
    "litter_complaint_density": 0.0,
    "lon": -80.1983,
    "navigable_dist_m": null,
    "npdes_points": 1,
    "pixel_col": 324.0,
    "pixel_row": 161.0,
    "population_density": 20.1,
    "position_along": 0.8333,
    "protected_area_score": 4.8136,
    "rank": 4,
    "road_access_m": 674.5,
    "road_access_score": 0.6,
    "road_density_km_km2": 1.031,
    "robustness_pct": 100.0,
    "runoff_coeff_C": null,
    "seasonal_cv": null,
    "segment_id": 0,
    "segment_length_m": 5110.432,
    "stream_order": 3,
    "superfund_score": 0.0,
    "tourism_amenity_density": 0.7958,
    "tri_facility_density": 0.0,
    "usgs_mean_q_cfs": null,
    "velocity_feasibility": 1.0,
    "water_intake_score": 0.475
   },
   "type": "Feature"
  },
  {
   "geometry": {
    "coordinates": [
     -80.205047,
     36.407163
    ],
    "type": "Point"
   },
   "properties": {
    "accumulation": 24130.0,
    "bank_slope_deg": 9.6,
    "bank_slope_score": 1.0,
    "bank_slope_source": "nc-dps-lidar-dem03-cross-section",
    "beach_dist_km": 328.17,
    "bridge_proximity_bonus": 0.0,
    "catchment_area_km2": 2.4018,
    "channel_width_m": 4.49,
    "channel_width_score": 1.0,
    "composite_score": 47.9567,
    "cso_density": 0.0,
    "ej_index": 0.4318,
    "elevation_m": 211.4926,
    "estuary_dist_km": 404.24,
    "feasibility_score": 53.8462,
    "flood_q10_cfs": 361.65,
    "flow_score": 33.3265,
    "flow_velocity_ms": 0.0934,
    "generation_score": 39.5513,
    "impact_score": 65.6091,
    "impervious_pct": 0.27,
    "land_ownership": 0.5,
    "lat": 36.4072,
    "litter_complaint_density": 0.0,
    "lon": -80.205,
    "navigable_dist_m": null,
    "npdes_points": 1,
    "pixel_col": 265.0,
    "pixel_row": 243.0,
    "population_density": 18.6,
    "position_along": 0.5,
    "protected_area_score": 4.8473,
    "rank": 5,
    "road_access_m": 175.7,
    "road_access_score": 1.0,
    "road_density_km_km2": 2.468,
    "robustness_pct": 100.0,
    "runoff_coeff_C": 0.0524,
    "seasonal_cv": 0.4369,
    "segment_id": 3,
    "segment_length_m": 1104.1209,
    "stream_order": 3,
    "superfund_score": 0.0,
    "tourism_amenity_density": 0.8754,
    "tri_facility_density": 0.0,
    "usgs_mean_q_cfs": 6.564,
    "velocity_feasibility": 0.7,
    "water_intake_score": 0.4734
   },
   "type": "Feature"
  },
  {
   "geometry": {
    "coordinates": [
     -80.207778,
     36.42354
    ],
    "type": "Point"
   },
   "properties": {
    "accumulation": 46822.0,
    "bank_slope_deg": 20.23,
    "bank_slope_score": 0.5,
    "bank_slope_source": "nc-dps-lidar-dem03-cross-section",
    "beach_dist_km": 329.68,
    "bridge_proximity_bonus": 0.0,
    "catchment_area_km2": 4.6605,
    "channel_width_m": 5.91,
    "channel_width_score": 1.0,
    "composite_score": 29.548,
    "cso_density": 0.0,
    "ej_index": 0.3908,
    "elevation_m": 209.0746,
    "estuary_dist_km": 405.11,
    "feasibility_score": 30.7692,
    "flood_q10_cfs": 593.19,
    "flow_score": 40.3033,
    "flow_velocity_ms": 0.5,
    "generation_score": 8.7843,
    "impact_score": 40.7384,
    "impervious_pct": null,
    "land_ownership": 0.5,
    "lat": 36.4235,
    "litter_complaint_density": 0.0,
    "lon": -80.2078,
    "navigable_dist_m": null,
    "npdes_points": 0,
    "pixel_col": 237.0,
    "pixel_row": 64.0,
    "population_density": 19.7,
    "position_along": 0.5,
    "protected_area_score": 4.9889,
    "rank": 6,
    "road_access_m": 610.5,
    "road_access_score": 0.6,
    "road_density_km_km2": 0.648,
    "robustness_pct": 1.5,
    "runoff_coeff_C": null,
    "seasonal_cv": null,
    "segment_id": 0,
    "segment_length_m": 5110.432,
    "stream_order": 3,
    "superfund_score": 0.0,
    "tourism_amenity_density": 0.7958,
    "tri_facility_density": 0.0,
    "usgs_mean_q_cfs": null,
    "velocity_feasibility": 1.0,
    "water_intake_score": 0.439
   },
   "type": "Feature"
  },
  {
   "geometry": {
    "coordinates": [
     -80.220081,
     36.425337
    ],
    "type": "Point"
   },
   "properties": {
    "accumulation": 36924.0,
    "bank_slope_deg": 8.62,
    "bank_slope_score": 1.0,
    "bank_slope_source": "nc-dps-lidar-dem03-cross-section",
    "beach_dist_km": 330.57,
    "bridge_proximity_bonus": 0.0,
    "catchment_area_km2": 3.6753,
    "channel_width_m": 5.35,
    "channel_width_score": 1.0,
    "composite_score": 23.7173,
    "cso_density": 0.0,
    "ej_index": 0.393,
    "elevation_m": 211.2364,
    "estuary_dist_km": 406.21,
    "feasibility_score": 46.1538,
    "flood_q10_cfs": 495.98,
    "flow_score": 36.4466,
    "flow_velocity_ms": 0.5,
    "generation_score": 7.8947,
    "impact_score": 17.714,
    "impervious_pct": null,
    "land_ownership": 0.5,
    "lat": 36.4253,
    "litter_complaint_density": 0.0,
    "lon": -80.2201,
    "navigable_dist_m": null,
    "npdes_points": 0,
    "pixel_col": 128.0,
    "pixel_row": 42.0,
    "population_density": 19.6,
    "position_along": 0.1667,
    "protected_area_score": 5.1398,
    "rank": 7,
    "road_access_m": 691.3,
    "road_access_score": 0.6,
    "road_density_km_km2": 0.637,
    "robustness_pct": 0.0,
    "runoff_coeff_C": null,
    "seasonal_cv": null,
    "segment_id": 0,
    "segment_length_m": 5110.432,
    "stream_order": 3,
    "superfund_score": 0.0,
    "tourism_amenity_density": 0.0,
    "tri_facility_density": 0.0,
    "usgs_mean_q_cfs": null,
    "velocity_feasibility": 1.0,
    "water_intake_score": 0.4125
   },
   "type": "Feature"
  }
 ],
 "note": "GRIME region 'Danbury, NC' \u2014 real-data pipeline (DEM\u2192streams\u2192candidates\u2192stream mask (sites confined to \u00b1150 m of mapped OSM/NHD waterways)\u2192region-appropriate real parameters\u2192shipped scoring, math unchanged). Width curve: Bieger et al. 2015 JAWRA Table 3, Appalachian Highlands. Flood: SIR 2014-5030 HR1. NC Piedmont (DEQ physiography polygon)",
 "provenance": {
  "candidates_pre_gate": 7,
  "constant": [
   "channel_width_score",
   "cso_density",
   "land_ownership",
   "litter_complaint_density",
   "stream_order",
   "superfund_score",
   "tri_facility_density"
  ],
  "gated_navigable": 0,
  "hard_gate_removed": 0,
  "n_parameters": 27,
  "parameters": {
   "bank_slope_score": {
    "kind": "real",
    "n_3dep_10m_fallback": 0,
    "n_nc_lidar_3_125ft": 7,
    "n_real": 7,
    "n_sites": 7,
    "source": "NC OneMap / NC DPS DEM03 statewide lidar-derived 3.125-ft (0.953 m) elevations (perpendicular 50 m transect; robust 5 m bank-rise metric); unavailable profiles use the region 10 m 3DEP DEM-gradient fallback",
    "source_mosaics": [
     "Stokes_Ground_3ft"
    ]
   },
   "beach_dist_km": {
    "kind": "real",
    "n_real": 7,
    "n_sites": 7,
    "source": "haversine to region ref: Wrightsville Beach (shipped NC reference)"
   },
   "bridge_proximity_bonus": {
    "kind": "real",
    "n_real": 7,
    "n_sites": 7,
    "source": "FHWA/BTS NBI (NTAD), 50 m proximity"
   },
   "catchment_area_km2": {
    "kind": "real",
    "n_real": 7,
    "n_sites": 7,
    "source": "DEM flow accumulation (pipeline)"
   },
   "channel_width_score": {
    "kind": "real",
    "n_real": 7,
    "n_sites": 7,
    "source": "Bieger 2015 AHI width curve on DEM drainage area \u2192 shipped width curve"
   },
   "cso_density": {
    "kind": "real",
    "n_real": 7,
    "n_sites": 7,
    "source": "EPA ECHO open CSO/TCS outfall PF coordinates states=NC, Cauchy proximity"
   },
   "ej_index": {
    "kind": "real",
    "n_real": 7,
    "n_sites": 7,
    "source": "Census ACS C17002+B03002 two-component demographic index, percentile-ranked within region"
   },
   "estuary_dist_km": {
    "kind": "real",
    "n_real": 7,
    "n_sites": 7,
    "source": "haversine to region ref: Pamlico Sound (shipped NC reference)"
   },
   "flood_q10_cfs": {
    "impervious_fallback_reason": "StreamCat imperviousness unavailable; the existing regression-input fallback of 0.0% impervious was used and is disclosed here",
    "kind": "real",
    "n_impervious_fallback": 5,
    "n_real": 7,
    "n_sites": 7,
    "source": "USGS SIR 2014-5030 Table 7 HR1 (NC Piedmont)"
   },
   "flow_velocity_ms": {
    "fallback_reason": "EROM/DEM continuity input unavailable; shipped 0.5 m/s default used",
    "kind": "real",
    "n_fallback": 5,
    "n_real": 2,
    "n_sites": 7,
    "source": "Manning (region DEM/D8) blended with EROM continuity (shipped M4 logic)"
   },
   "impervious_pct": {
    "fallback_reason": "NLDI/StreamCat did not return a snap-compatible catchment value; value remains null and is removed by constant-column handling",
    "kind": "real",
    "n_fallback": 5,
    "n_real": 2,
    "n_sites": 7,
    "source": "EPA StreamCat pctimp2019 (per NHDPlus watershed)"
   },
   "land_ownership": {
    "kind": "real",
    "n_fallback": 0,
    "n_real": 7,
    "n_sites": 7,
    "source": "NC OneMap statewide parcels (NC Parcels Transformer) ownname"
   },
   "litter_complaint_density": {
    "kind": "fallback",
    "n_real": 0,
    "n_sites": 7,
    "source": "no public machine-readable litter/illegal-dumping feed for this region"
   },
   "navigable_dist_m": {
    "kind": "real",
    "n_real": 7,
    "n_sites": 7,
    "source": "USACE/BTS NWN (NTAD): no navigable segment within this bbox (+2 km) \u2014 computed absence, gate passes all sites"
   },
   "npdes_points": {
    "kind": "real",
    "n_real": 7,
    "n_sites": 7,
    "source": "EPA ECHO active NPDES outfalls states=NC (types NPD/GPC/NGP; statuses ADC/EFF/EXP), per catchment"
   },
   "population_density": {
    "kind": "real",
    "n_real": 7,
    "n_sites": 7,
    "source": "Census ACS 2022 B01003 block groups (bbox, multi-county), area-weighted"
   },
   "protected_area_score": {
    "kind": "real",
    "n_real": 7,
    "n_sites": 7,
    "source": "USGS PAD-US 4.1 state GDB; states=NC; shipped designation-weighted proximity curve"
   },
   "road_access_score": {
    "kind": "real",
    "n_real": 7,
    "n_sites": 7,
    "source": "OSM drive network nearest-node distance"
   },
   "road_density_km_km2": {
    "kind": "real",
    "n_real": 7,
    "n_sites": 7,
    "source": "OSM drive network (osmnx, cached) clipped per catchment"
   },
   "runoff_coeff_C": {
    "fallback_reason": "source impervious_pct was unavailable; derived value remains null",
    "kind": "real",
    "n_fallback": 5,
    "n_real": 2,
    "n_sites": 7,
    "source": "derived from real impervious_pct (C=0.05+0.009*I)"
   },
   "seasonal_cv": {
    "fallback_reason": "NHDPlus monthly EROM was unavailable or failed the drainage-area snap guard; value remains null",
    "kind": "real",
    "n_fallback": 5,
    "n_real": 2,
    "n_sites": 7,
    "source": "CV of NHDPlus EROM monthly flows per COMID"
   },
   "stream_order": {
    "kind": "real",
    "n_real": 7,
    "n_sites": 7,
    "source": "DEM stream-network confluence heuristic (pipeline)"
   },
   "superfund_score": {
    "kind": "real",
    "n_real": 7,
    "n_sites": 7,
    "source": "EPA DataMap SEMS active sites states=NC (non-archived, georeferenced), shipped 500 m inverse-distance curve"
   },
   "tourism_amenity_density": {
    "kind": "real",
    "n_real": 7,
    "n_sites": 7,
    "source": "OSM leisure/tourism features per 2 km radius"
   },
   "tri_facility_density": {
    "kind": "real",
    "n_real": 7,
    "n_sites": 7,
    "source": "EPA DataMap TRI open facilities states=NC (preferred decimal or packed-DMS recovery), per catchment"
   },
   "usgs_mean_q_cfs": {
    "fallback_reason": "NHDPlus EROM was unavailable or failed the drainage-area snap guard; value remains null",
    "kind": "real",
    "n_fallback": 5,
    "n_real": 2,
    "n_sites": 7,
    "source": "NHDPlus EROM qe_ma per COMID (snap-guarded)"
   },
   "velocity_feasibility": {
    "fallback_reason": "derived from the shipped 0.5 m/s velocity fallback",
    "kind": "real",
    "n_fallback": 5,
    "n_real": 2,
    "n_sites": 7,
    "source": "shipped step curve on the computed velocity"
   },
   "velocity_transport_favorability": {
    "fallback_reason": "EROM/DEM continuity input unavailable; shipped 0.5 m/s default used",
    "kind": "derived",
    "n_fallback": 5,
    "n_real": 2,
    "n_sites": 7,
    "source": "scored form of flow_velocity_ms inside the Flow family \u2014 peaked Gaussian exp(-((v-0.9)/0.6)^2), model.json curves.velocity_transport_favorability; construct: transport/delivery favorability, deliberately distinct from velocity_feasibility (device operability)"
   },
   "water_intake_score": {
    "kind": "real",
    "n_real": 7,
    "n_sites": 7,
    "source": "NC OneMap / NC DEQ SWAP public water supply sources (source_typ='Surface Water'), shipped exp(-d/10km) curve"
   }
  },
  "stream_mask": {
   "buffer_m": 150.0,
   "pre_mask": 7,
   "removed": 0,
   "sources": [
    "osm-overpass (all waterway ways)",
    "usgs-nhdplus flowlines"
   ]
  },
  "varying": [
   "bank_slope_score",
   "beach_dist_km",
   "bridge_proximity_bonus",
   "catchment_area_km2",
   "ej_index",
   "estuary_dist_km",
   "flood_q10_cfs",
   "flow_velocity_ms",
   "impervious_pct",
   "npdes_points",
   "population_density",
   "protected_area_score",
   "road_access_score",
   "road_density_km_km2",
   "runoff_coeff_C",
   "seasonal_cv",
   "tourism_amenity_density",
   "usgs_mean_q_cfs",
   "velocity_feasibility",
   "water_intake_score"
  ]
 },
 "region": {
  "bbox": [
   -80.2341,
   36.393,
   -80.1894,
   36.429
  ],
  "beach_ref": {
   "label": "Wrightsville Beach (shipped NC reference)",
   "lat": 34.21,
   "lon": -77.79
  },
  "center": [
   -80.211747,
   36.41098
  ],
  "estuary_ref": {
   "label": "Pamlico Sound (shipped NC reference)",
   "lat": 35.05,
   "lon": -76.05
  },
  "flood_method": "sir2014_hr1",
  "name": "Danbury, NC",
  "notes": "NC Piedmont (DEQ physiography polygon)",
  "slug": "danbury",
  "state": "NC",
  "utm_epsg": 32617,
  "width_curve": {
   "a": 3.12,
   "b": 0.415,
   "code": "AHI",
   "source": "Bieger et al. 2015 JAWRA Table 3, Appalachian Highlands"
  }
 },
 "type": "FeatureCollection"
}
