{
 "features": [
  {
   "geometry": {
    "coordinates": [
     -80.109656,
     35.648075
    ],
    "type": "Point"
   },
   "properties": {
    "accumulation": 32367.0,
    "bank_slope_deg": 8.6,
    "bank_slope_score": 1.0,
    "bank_slope_source": "nc-dps-lidar-dem03-cross-section",
    "beach_dist_km": 265.11,
    "bridge_proximity_bonus": 0.0,
    "catchment_area_km2": 3.2275,
    "channel_width_m": 5.07,
    "channel_width_score": 1.0,
    "composite_score": 56.9392,
    "cso_density": 0.0,
    "ej_index": 0.5271,
    "elevation_m": 202.3176,
    "estuary_dist_km": 374.12,
    "feasibility_score": 100.0,
    "flood_q10_cfs": 477.97,
    "flow_score": 23.345,
    "flow_velocity_ms": 0.0974,
    "generation_score": 75.0788,
    "impact_score": 45.2644,
    "impervious_pct": 3.48,
    "land_ownership": 0.5,
    "lat": 35.6481,
    "litter_complaint_density": 0.0,
    "lon": -80.1097,
    "navigable_dist_m": null,
    "npdes_points": 0,
    "pixel_col": 262.0,
    "pixel_row": 147.0,
    "population_density": 158.2,
    "position_along": 0.1667,
    "protected_area_score": 3.5856,
    "rank": 1,
    "road_access_m": 230.6,
    "road_access_score": 0.8,
    "road_density_km_km2": 2.594,
    "robustness_pct": 100.0,
    "runoff_coeff_C": 0.0813,
    "seasonal_cv": 0.4129,
    "segment_id": 0,
    "segment_length_m": 5052.9735,
    "stream_order": 1,
    "superfund_score": 0.0,
    "tourism_amenity_density": 0.557,
    "tri_facility_density": 0.3098,
    "usgs_mean_q_cfs": 2.871,
    "velocity_feasibility": 0.7,
    "water_intake_score": 1.4483
   },
   "type": "Feature"
  },
  {
   "geometry": {
    "coordinates": [
     -80.117339,
     35.651463
    ],
    "type": "Point"
   },
   "properties": {
    "accumulation": 55863.0,
    "bank_slope_deg": 4.97,
    "bank_slope_score": 1.0,
    "bank_slope_source": "nc-dps-lidar-dem03-cross-section",
    "beach_dist_km": 265.89,
    "bridge_proximity_bonus": 0.0,
    "catchment_area_km2": 5.5705,
    "channel_width_m": 6.36,
    "channel_width_score": 1.0,
    "composite_score": 47.3234,
    "cso_density": 0.0,
    "ej_index": 0.4302,
    "elevation_m": 194.8291,
    "estuary_dist_km": 374.87,
    "feasibility_score": 100.0,
    "flood_q10_cfs": 715.1,
    "flow_score": 53.2228,
    "flow_velocity_ms": 0.1287,
    "generation_score": 36.3961,
    "impact_score": 26.9964,
    "impervious_pct": 3.0,
    "land_ownership": 0.5,
    "lat": 35.6515,
    "litter_complaint_density": 0.0,
    "lon": -80.1173,
    "navigable_dist_m": null,
    "npdes_points": 0,
    "pixel_col": 192.0,
    "pixel_row": 111.0,
    "population_density": 126.9,
    "position_along": 0.5,
    "protected_area_score": 3.5325,
    "rank": 2,
    "road_access_m": 448.1,
    "road_access_score": 0.8,
    "road_density_km_km2": 2.094,
    "robustness_pct": 100.0,
    "runoff_coeff_C": 0.077,
    "seasonal_cv": 0.4175,
    "segment_id": 0,
    "segment_length_m": 5052.9735,
    "stream_order": 1,
    "superfund_score": 0.0,
    "tourism_amenity_density": 0.3979,
    "tri_facility_density": 0.0,
    "usgs_mean_q_cfs": 4.129,
    "velocity_feasibility": 0.7,
    "water_intake_score": 1.4546
   },
   "type": "Feature"
  },
  {
   "geometry": {
    "coordinates": [
     -80.137494,
     35.626606
    ],
    "type": "Point"
   },
   "properties": {
    "accumulation": 21424.0,
    "bank_slope_deg": 3.5,
    "bank_slope_score": 1.0,
    "bank_slope_source": "nc-dps-lidar-dem03-cross-section",
    "beach_dist_km": 265.74,
    "bridge_proximity_bonus": 0.0,
    "catchment_area_km2": 2.1363,
    "channel_width_m": 4.28,
    "channel_width_score": 1.0,
    "composite_score": 35.861,
    "cso_density": 0.0,
    "ej_index": 0.3217,
    "elevation_m": 191.704,
    "estuary_dist_km": 376.24,
    "feasibility_score": 100.0,
    "flood_q10_cfs": 379.92,
    "flow_score": 19.7215,
    "flow_velocity_ms": 0.0951,
    "generation_score": 26.5148,
    "impact_score": 26.5872,
    "impervious_pct": 8.13,
    "land_ownership": 0.5,
    "lat": 35.6266,
    "litter_complaint_density": 0.0,
    "lon": -80.1375,
    "navigable_dist_m": null,
    "npdes_points": 0,
    "pixel_col": 14.0,
    "pixel_row": 389.0,
    "population_density": 34.7,
    "position_along": 0.5,
    "protected_area_score": 3.3881,
    "rank": 3,
    "road_access_m": 259.8,
    "road_access_score": 0.8,
    "road_density_km_km2": 0.455,
    "robustness_pct": 88.0,
    "runoff_coeff_C": 0.1232,
    "seasonal_cv": 0.4082,
    "segment_id": 2,
    "segment_length_m": 429.0968,
    "stream_order": 1,
    "superfund_score": 0.0,
    "tourism_amenity_density": 0.2387,
    "tri_facility_density": 0.0,
    "usgs_mean_q_cfs": 1.437,
    "velocity_feasibility": 0.7,
    "water_intake_score": 1.5328
   },
   "type": "Feature"
  },
  {
   "geometry": {
    "coordinates": [
     -80.13214,
     35.619388
    ],
    "type": "Point"
   },
   "properties": {
    "accumulation": 31199.0,
    "bank_slope_deg": 9.52,
    "bank_slope_score": 1.0,
    "bank_slope_source": "nc-dps-lidar-dem03-cross-section",
    "beach_dist_km": 264.88,
    "bridge_proximity_bonus": 0.0,
    "catchment_area_km2": 3.1111,
    "channel_width_m": 5.0,
    "channel_width_score": 1.0,
    "composite_score": 34.0852,
    "cso_density": 0.0,
    "ej_index": 0.3217,
    "elevation_m": 195.2268,
    "estuary_dist_km": 375.64,
    "feasibility_score": 0.0,
    "flood_q10_cfs": 513.14,
    "flow_score": 25.8344,
    "flow_velocity_ms": 0.0906,
    "generation_score": 57.5758,
    "impact_score": 34.5131,
    "impervious_pct": 9.12,
    "land_ownership": 0.5,
    "lat": 35.6194,
    "litter_complaint_density": 0.0,
    "lon": -80.1321,
    "navigable_dist_m": null,
    "npdes_points": 0,
    "pixel_col": 61.0,
    "pixel_row": 469.0,
    "population_density": 34.7,
    "position_along": 0.5,
    "protected_area_score": 3.5451,
    "rank": 4,
    "road_access_m": 777.0,
    "road_access_score": 0.6,
    "road_density_km_km2": 0.395,
    "robustness_pct": 94.5,
    "runoff_coeff_C": 0.1321,
    "seasonal_cv": 0.4158,
    "segment_id": 3,
    "segment_length_m": 1838.0523,
    "stream_order": 1,
    "superfund_score": 0.0,
    "tourism_amenity_density": 0.2387,
    "tri_facility_density": 0.3214,
    "usgs_mean_q_cfs": 3.025,
    "velocity_feasibility": 0.7,
    "water_intake_score": 1.5374
   },
   "type": "Feature"
  },
  {
   "geometry": {
    "coordinates": [
     -80.131233,
     35.645081
    ],
    "type": "Point"
   },
   "properties": {
    "accumulation": 85313.0,
    "bank_slope_deg": 9.64,
    "bank_slope_score": 1.0,
    "bank_slope_source": "nc-dps-lidar-dem03-cross-section",
    "beach_dist_km": 266.48,
    "bridge_proximity_bonus": 0.0,
    "catchment_area_km2": 8.5071,
    "channel_width_m": 7.59,
    "channel_width_score": 1.0,
    "composite_score": 29.1006,
    "cso_density": 0.0,
    "ej_index": 0.3145,
    "elevation_m": 187.9587,
    "estuary_dist_km": 375.99,
    "feasibility_score": 0.0,
    "flood_q10_cfs": 961.18,
    "flow_score": 71.8406,
    "flow_velocity_ms": 0.1097,
    "generation_score": 17.6728,
    "impact_score": 19.462,
    "impervious_pct": 1.98,
    "land_ownership": 0.5,
    "lat": 35.6451,
    "litter_complaint_density": 0.0,
    "lon": -80.1312,
    "navigable_dist_m": null,
    "npdes_points": 0,
    "pixel_col": 67.0,
    "pixel_row": 182.0,
    "population_density": 57.1,
    "position_along": 0.8333,
    "protected_area_score": 3.314,
    "rank": 5,
    "road_access_m": 627.4,
    "road_access_score": 0.6,
    "road_density_km_km2": 2.242,
    "robustness_pct": 74.5,
    "runoff_coeff_C": 0.0678,
    "seasonal_cv": 0.459,
    "segment_id": 0,
    "segment_length_m": 5052.9735,
    "stream_order": 1,
    "superfund_score": 0.0,
    "tourism_amenity_density": 0.557,
    "tri_facility_density": 0.0,
    "usgs_mean_q_cfs": 21.392,
    "velocity_feasibility": 0.7,
    "water_intake_score": 1.4772
   },
   "type": "Feature"
  },
  {
   "geometry": {
    "coordinates": [
     -80.085659,
     35.631584
    ],
    "type": "Point"
   },
   "properties": {
    "accumulation": 25210.0,
    "bank_slope_deg": 9.58,
    "bank_slope_score": 1.0,
    "bank_slope_source": "nc-dps-lidar-dem03-cross-section",
    "beach_dist_km": 262.27,
    "bridge_proximity_bonus": 0.0,
    "catchment_area_km2": 2.5139,
    "channel_width_m": 4.57,
    "channel_width_score": 1.0,
    "composite_score": 25.6923,
    "cso_density": 0.0,
    "ej_index": 0.3783,
    "elevation_m": 194.3031,
    "estuary_dist_km": 371.69,
    "feasibility_score": 0.0,
    "flood_q10_cfs": 396.13,
    "flow_score": 26.1533,
    "flow_velocity_ms": 0.1134,
    "generation_score": 9.5243,
    "impact_score": 54.3223,
    "impervious_pct": 3.51,
    "land_ownership": 0.5,
    "lat": 35.6316,
    "litter_complaint_density": 0.0,
    "lon": -80.0857,
    "navigable_dist_m": null,
    "npdes_points": 0,
    "pixel_col": 485.0,
    "pixel_row": 328.0,
    "population_density": 36.1,
    "position_along": 0.5,
    "protected_area_score": 4.6656,
    "rank": 6,
    "road_access_m": 693.1,
    "road_access_score": 0.6,
    "road_density_km_km2": 0.79,
    "robustness_pct": 43.0,
    "runoff_coeff_C": 0.0816,
    "seasonal_cv": 0.4122,
    "segment_id": 1,
    "segment_length_m": 1405.1131,
    "stream_order": 1,
    "superfund_score": 0.0,
    "tourism_amenity_density": 0.3183,
    "tri_facility_density": 0.0,
    "usgs_mean_q_cfs": 2.515,
    "velocity_feasibility": 0.7,
    "water_intake_score": 1.4486
   },
   "type": "Feature"
  }
 ],
 "note": "GRIME region 'Denton, NC' \u2014 real-data pipeline (DEM\u2192streams\u2192candidates\u2192stream mask (sites confined to \u00b1150 m of mapped OSM/NHD waterways)\u2192region-appropriate real parameters\u2192shipped scoring, math unchanged). Width curve: Bieger et al. 2015 JAWRA Table 3, Appalachian Highlands. Flood: SIR 2014-5030 HR1. NC Piedmont (DEQ physiography polygon)",
 "provenance": {
  "candidates_pre_gate": 6,
  "constant": [
   "bank_slope_score",
   "bridge_proximity_bonus",
   "channel_width_score",
   "cso_density",
   "land_ownership",
   "litter_complaint_density",
   "npdes_points",
   "stream_order",
   "superfund_score",
   "velocity_feasibility"
  ],
  "gated_navigable": 0,
  "hard_gate_removed": 0,
  "n_parameters": 27,
  "parameters": {
   "bank_slope_score": {
    "kind": "real",
    "n_3dep_10m_fallback": 0,
    "n_nc_lidar_3_125ft": 6,
    "n_real": 6,
    "n_sites": 6,
    "source": "NC OneMap / NC DPS DEM03 statewide lidar-derived 3.125-ft (0.953 m) elevations (perpendicular 50 m transect; robust 5 m bank-rise metric); unavailable profiles use the region 10 m 3DEP DEM-gradient fallback",
    "source_mosaics": [
     "Davidson_Ground_3ft"
    ]
   },
   "beach_dist_km": {
    "kind": "real",
    "n_real": 6,
    "n_sites": 6,
    "source": "haversine to region ref: Wrightsville Beach (shipped NC reference)"
   },
   "bridge_proximity_bonus": {
    "kind": "real",
    "n_real": 6,
    "n_sites": 6,
    "source": "FHWA/BTS NBI (NTAD), 50 m proximity"
   },
   "catchment_area_km2": {
    "kind": "real",
    "n_real": 6,
    "n_sites": 6,
    "source": "DEM flow accumulation (pipeline)"
   },
   "channel_width_score": {
    "kind": "real",
    "n_real": 6,
    "n_sites": 6,
    "source": "Bieger 2015 AHI width curve on DEM drainage area \u2192 shipped width curve"
   },
   "cso_density": {
    "kind": "real",
    "n_real": 6,
    "n_sites": 6,
    "source": "EPA ECHO open CSO/TCS outfall PF coordinates states=NC, Cauchy proximity"
   },
   "ej_index": {
    "kind": "real",
    "n_real": 6,
    "n_sites": 6,
    "source": "Census ACS C17002+B03002 two-component demographic index, percentile-ranked within region"
   },
   "estuary_dist_km": {
    "kind": "real",
    "n_real": 6,
    "n_sites": 6,
    "source": "haversine to region ref: Pamlico Sound (shipped NC reference)"
   },
   "flood_q10_cfs": {
    "kind": "real",
    "n_real": 6,
    "n_sites": 6,
    "source": "USGS SIR 2014-5030 Table 7 HR1 (NC Piedmont)"
   },
   "flow_velocity_ms": {
    "kind": "real",
    "n_fallback": 0,
    "n_real": 6,
    "n_sites": 6,
    "source": "Manning (region DEM/D8) blended with EROM continuity (shipped M4 logic)"
   },
   "impervious_pct": {
    "kind": "real",
    "n_real": 6,
    "n_sites": 6,
    "source": "EPA StreamCat pctimp2019 (per NHDPlus watershed)"
   },
   "land_ownership": {
    "kind": "real",
    "n_fallback": 0,
    "n_real": 6,
    "n_sites": 6,
    "source": "NC OneMap statewide parcels (NC Parcels Transformer) ownname"
   },
   "litter_complaint_density": {
    "kind": "fallback",
    "n_real": 0,
    "n_sites": 6,
    "source": "no public machine-readable litter/illegal-dumping feed for this region"
   },
   "navigable_dist_m": {
    "kind": "real",
    "n_real": 6,
    "n_sites": 6,
    "source": "USACE/BTS NWN (NTAD): no navigable segment within this bbox (+2 km) \u2014 computed absence, gate passes all sites"
   },
   "npdes_points": {
    "kind": "real",
    "n_real": 6,
    "n_sites": 6,
    "source": "EPA ECHO active NPDES outfalls states=NC (types NPD/GPC/NGP; statuses ADC/EFF/EXP), per catchment"
   },
   "population_density": {
    "kind": "real",
    "n_real": 6,
    "n_sites": 6,
    "source": "Census ACS 2022 B01003 block groups (bbox, multi-county), area-weighted"
   },
   "protected_area_score": {
    "kind": "real",
    "n_real": 6,
    "n_sites": 6,
    "source": "USGS PAD-US 4.1 state GDB; states=NC; shipped designation-weighted proximity curve"
   },
   "road_access_score": {
    "kind": "real",
    "n_real": 6,
    "n_sites": 6,
    "source": "OSM drive network nearest-node distance"
   },
   "road_density_km_km2": {
    "kind": "real",
    "n_real": 6,
    "n_sites": 6,
    "source": "OSM drive network (osmnx, cached) clipped per catchment"
   },
   "runoff_coeff_C": {
    "kind": "real",
    "n_real": 6,
    "n_sites": 6,
    "source": "derived from real impervious_pct (C=0.05+0.009*I)"
   },
   "seasonal_cv": {
    "kind": "real",
    "n_real": 6,
    "n_sites": 6,
    "source": "CV of NHDPlus EROM monthly flows per COMID"
   },
   "stream_order": {
    "kind": "real",
    "n_real": 6,
    "n_sites": 6,
    "source": "DEM stream-network confluence heuristic (pipeline)"
   },
   "superfund_score": {
    "kind": "real",
    "n_real": 6,
    "n_sites": 6,
    "source": "EPA DataMap SEMS active sites states=NC (non-archived, georeferenced), shipped 500 m inverse-distance curve"
   },
   "tourism_amenity_density": {
    "kind": "real",
    "n_real": 6,
    "n_sites": 6,
    "source": "OSM leisure/tourism features per 2 km radius"
   },
   "tri_facility_density": {
    "kind": "real",
    "n_real": 6,
    "n_sites": 6,
    "source": "EPA DataMap TRI open facilities states=NC (preferred decimal or packed-DMS recovery), per catchment"
   },
   "usgs_mean_q_cfs": {
    "kind": "real",
    "n_real": 6,
    "n_sites": 6,
    "source": "NHDPlus EROM qe_ma per COMID (snap-guarded)"
   },
   "velocity_feasibility": {
    "kind": "real",
    "n_fallback": 0,
    "n_real": 6,
    "n_sites": 6,
    "source": "shipped step curve on the computed velocity"
   },
   "velocity_transport_favorability": {
    "kind": "derived",
    "n_real": 6,
    "n_sites": 6,
    "source": "scored form of flow_velocity_ms inside the Flow family \u2014 peaked Gaussian exp(-((v-0.9)/0.6)^2), model.json curves.velocity_transport_favorability; construct: transport/delivery favorability, deliberately distinct from velocity_feasibility (device operability)"
   },
   "water_intake_score": {
    "kind": "real",
    "n_real": 6,
    "n_sites": 6,
    "source": "NC OneMap / NC DEQ SWAP public water supply sources (source_typ='Surface Water'), shipped exp(-d/10km) curve"
   }
  },
  "stream_mask": {
   "buffer_m": 150.0,
   "pre_mask": 6,
   "removed": 0,
   "sources": [
    "osm-overpass (all waterway ways)",
    "usgs-nhdplus flowlines"
   ]
  },
  "varying": [
   "beach_dist_km",
   "catchment_area_km2",
   "ej_index",
   "estuary_dist_km",
   "flood_q10_cfs",
   "flow_velocity_ms",
   "impervious_pct",
   "population_density",
   "protected_area_score",
   "road_access_score",
   "road_density_km_km2",
   "runoff_coeff_C",
   "seasonal_cv",
   "tourism_amenity_density",
   "tri_facility_density",
   "usgs_mean_q_cfs",
   "water_intake_score"
  ]
 },
 "region": {
  "bbox": [
   -80.1387,
   35.6149,
   -80.0817,
   35.6611
  ],
  "beach_ref": {
   "label": "Wrightsville Beach (shipped NC reference)",
   "lat": 34.21,
   "lon": -77.79
  },
  "center": [
   -80.110205,
   35.637992
  ],
  "estuary_ref": {
   "label": "Pamlico Sound (shipped NC reference)",
   "lat": 35.05,
   "lon": -76.05
  },
  "flood_method": "sir2014_hr1",
  "name": "Denton, NC",
  "notes": "NC Piedmont (DEQ physiography polygon)",
  "slug": "denton",
  "state": "NC",
  "utm_epsg": 32617,
  "width_curve": {
   "a": 3.12,
   "b": 0.415,
   "code": "AHI",
   "source": "Bieger et al. 2015 JAWRA Table 3, Appalachian Highlands"
  }
 },
 "type": "FeatureCollection"
}
