{
 "features": [
  {
   "geometry": {
    "coordinates": [
     -81.513639,
     35.192063
    ],
    "type": "Point"
   },
   "properties": {
    "accumulation": 23083.0,
    "bank_slope_deg": 24.99,
    "bank_slope_score": 0.5,
    "bank_slope_source": "nc-dps-lidar-dem03-cross-section",
    "beach_dist_km": 357.46,
    "bridge_proximity_bonus": 0.0,
    "catchment_area_km2": 2.301,
    "channel_width_m": 4.41,
    "channel_width_score": 1.0,
    "composite_score": 53.4235,
    "cso_density": 0.0,
    "ej_index": 0.4072,
    "elevation_m": 186.4243,
    "estuary_dist_km": 497.11,
    "feasibility_score": 30.7692,
    "flood_q10_cfs": 348.5,
    "flow_score": 30.2326,
    "flow_velocity_ms": 0.5,
    "generation_score": 37.5,
    "impact_score": 100.0,
    "impervious_pct": null,
    "land_ownership": 0.5,
    "lat": 35.1921,
    "litter_complaint_density": 0.0,
    "lon": -81.5136,
    "navigable_dist_m": null,
    "npdes_points": 0,
    "pixel_col": 390.0,
    "pixel_row": 241.0,
    "population_density": 90.6,
    "position_along": 0.5,
    "protected_area_score": 2.3473,
    "rank": 1,
    "road_access_m": 632.7,
    "road_access_score": 0.6,
    "road_density_km_km2": 0.098,
    "robustness_pct": 100.0,
    "runoff_coeff_C": null,
    "seasonal_cv": null,
    "segment_id": 1,
    "segment_length_m": 584.3379,
    "stream_order": 1,
    "superfund_score": 0.0453,
    "tourism_amenity_density": 0.0796,
    "tri_facility_density": 0.0,
    "usgs_mean_q_cfs": null,
    "velocity_feasibility": 1.0,
    "water_intake_score": 1.0924
   },
   "type": "Feature"
  },
  {
   "geometry": {
    "coordinates": [
     -81.548813,
     35.192997
    ],
    "type": "Point"
   },
   "properties": {
    "accumulation": 35930.0,
    "bank_slope_deg": 4.14,
    "bank_slope_score": 1.0,
    "bank_slope_source": "nc-dps-lidar-dem03-cross-section",
    "beach_dist_km": 360.56,
    "bridge_proximity_bonus": 0.2,
    "catchment_area_km2": 3.5816,
    "channel_width_m": 5.3,
    "channel_width_score": 1.0,
    "composite_score": 46.5765,
    "cso_density": 0.0,
    "ej_index": 0.3247,
    "elevation_m": 220.3103,
    "estuary_dist_km": 500.31,
    "feasibility_score": 69.2308,
    "flood_q10_cfs": 512.01,
    "flow_score": 69.7674,
    "flow_velocity_ms": 0.1199,
    "generation_score": 62.5,
    "impact_score": 0.0,
    "impervious_pct": 2.93,
    "land_ownership": 0.5,
    "lat": 35.193,
    "litter_complaint_density": 0.0,
    "lon": -81.5488,
    "navigable_dist_m": null,
    "npdes_points": 0,
    "pixel_col": 65.0,
    "pixel_row": 228.0,
    "population_density": 84.0,
    "position_along": 0.5,
    "protected_area_score": 2.116,
    "rank": 2,
    "road_access_m": 322.8,
    "road_access_score": 0.8,
    "road_density_km_km2": 2.08,
    "robustness_pct": 100.0,
    "runoff_coeff_C": 0.0764,
    "seasonal_cv": 0.4338,
    "segment_id": 0,
    "segment_length_m": 1687.2606,
    "stream_order": 1,
    "superfund_score": 0.0366,
    "tourism_amenity_density": 0.0796,
    "tri_facility_density": 0.0,
    "usgs_mean_q_cfs": 9.07,
    "velocity_feasibility": 0.7,
    "water_intake_score": 1.0063
   },
   "type": "Feature"
  }
 ],
 "note": "GRIME region 'Earl, NC' \u2014 real-data pipeline (DEM\u2192streams\u2192candidates\u2192stream mask (sites confined to \u00b1150 m of mapped OSM/NHD waterways)\u2192region-appropriate real parameters\u2192shipped scoring, math unchanged). Width curve: Bieger et al. 2015 JAWRA Table 3, Appalachian Highlands. Flood: SIR 2014-5030 HR1. NC Piedmont (DEQ physiography polygon)",
 "provenance": {
  "candidates_pre_gate": 2,
  "constant": [
   "channel_width_score",
   "cso_density",
   "land_ownership",
   "litter_complaint_density",
   "npdes_points",
   "stream_order",
   "tourism_amenity_density",
   "tri_facility_density"
  ],
  "gated_navigable": 0,
  "hard_gate_removed": 0,
  "n_parameters": 27,
  "parameters": {
   "bank_slope_score": {
    "kind": "real",
    "n_3dep_10m_fallback": 0,
    "n_nc_lidar_3_125ft": 2,
    "n_real": 2,
    "n_sites": 2,
    "source": "NC OneMap / NC DPS DEM03 statewide lidar-derived 3.125-ft (0.953 m) elevations (perpendicular 50 m transect; robust 5 m bank-rise metric); unavailable profiles use the region 10 m 3DEP DEM-gradient fallback",
    "source_mosaics": [
     "Cleveland_Ground_3ft"
    ]
   },
   "beach_dist_km": {
    "kind": "real",
    "n_real": 2,
    "n_sites": 2,
    "source": "haversine to region ref: Wrightsville Beach (shipped NC reference)"
   },
   "bridge_proximity_bonus": {
    "kind": "real",
    "n_real": 2,
    "n_sites": 2,
    "source": "FHWA/BTS NBI (NTAD), 50 m proximity"
   },
   "catchment_area_km2": {
    "kind": "real",
    "n_real": 2,
    "n_sites": 2,
    "source": "DEM flow accumulation (pipeline)"
   },
   "channel_width_score": {
    "kind": "real",
    "n_real": 2,
    "n_sites": 2,
    "source": "Bieger 2015 AHI width curve on DEM drainage area \u2192 shipped width curve"
   },
   "cso_density": {
    "kind": "real",
    "n_real": 2,
    "n_sites": 2,
    "source": "EPA ECHO open CSO/TCS outfall PF coordinates states=NC, Cauchy proximity"
   },
   "ej_index": {
    "kind": "real",
    "n_real": 2,
    "n_sites": 2,
    "source": "Census ACS C17002+B03002 two-component demographic index, percentile-ranked within region"
   },
   "estuary_dist_km": {
    "kind": "real",
    "n_real": 2,
    "n_sites": 2,
    "source": "haversine to region ref: Pamlico Sound (shipped NC reference)"
   },
   "flood_q10_cfs": {
    "impervious_fallback_reason": "StreamCat imperviousness unavailable; the existing regression-input fallback of 0.0% impervious was used and is disclosed here",
    "kind": "real",
    "n_impervious_fallback": 1,
    "n_real": 2,
    "n_sites": 2,
    "source": "USGS SIR 2014-5030 Table 7 HR1 (NC Piedmont)"
   },
   "flow_velocity_ms": {
    "fallback_reason": "EROM/DEM continuity input unavailable; shipped 0.5 m/s default used",
    "kind": "real",
    "n_fallback": 1,
    "n_real": 1,
    "n_sites": 2,
    "source": "Manning (region DEM/D8) blended with EROM continuity (shipped M4 logic)"
   },
   "impervious_pct": {
    "fallback_reason": "NLDI/StreamCat did not return a snap-compatible catchment value; value remains null and is removed by constant-column handling",
    "kind": "real",
    "n_fallback": 1,
    "n_real": 1,
    "n_sites": 2,
    "source": "EPA StreamCat pctimp2019 (per NHDPlus watershed)"
   },
   "land_ownership": {
    "kind": "real",
    "n_fallback": 0,
    "n_real": 2,
    "n_sites": 2,
    "source": "NC OneMap statewide parcels (NC Parcels Transformer) ownname"
   },
   "litter_complaint_density": {
    "kind": "fallback",
    "n_real": 0,
    "n_sites": 2,
    "source": "no public machine-readable litter/illegal-dumping feed for this region"
   },
   "navigable_dist_m": {
    "kind": "real",
    "n_real": 2,
    "n_sites": 2,
    "source": "USACE/BTS NWN (NTAD): no navigable segment within this bbox (+2 km) \u2014 computed absence, gate passes all sites"
   },
   "npdes_points": {
    "kind": "real",
    "n_real": 2,
    "n_sites": 2,
    "source": "EPA ECHO active NPDES outfalls states=NC (types NPD/GPC/NGP; statuses ADC/EFF/EXP), per catchment"
   },
   "population_density": {
    "kind": "real",
    "n_real": 2,
    "n_sites": 2,
    "source": "Census ACS 2022 B01003 block groups (bbox, multi-county), area-weighted"
   },
   "protected_area_score": {
    "kind": "real",
    "n_real": 2,
    "n_sites": 2,
    "source": "USGS PAD-US 4.1 state GDB; states=NC; shipped designation-weighted proximity curve"
   },
   "road_access_score": {
    "kind": "real",
    "n_real": 2,
    "n_sites": 2,
    "source": "OSM drive network nearest-node distance"
   },
   "road_density_km_km2": {
    "kind": "real",
    "n_real": 2,
    "n_sites": 2,
    "source": "OSM drive network (osmnx, cached) clipped per catchment"
   },
   "runoff_coeff_C": {
    "fallback_reason": "source impervious_pct was unavailable; derived value remains null",
    "kind": "real",
    "n_fallback": 1,
    "n_real": 1,
    "n_sites": 2,
    "source": "derived from real impervious_pct (C=0.05+0.009*I)"
   },
   "seasonal_cv": {
    "fallback_reason": "NHDPlus monthly EROM was unavailable or failed the drainage-area snap guard; value remains null",
    "kind": "real",
    "n_fallback": 1,
    "n_real": 1,
    "n_sites": 2,
    "source": "CV of NHDPlus EROM monthly flows per COMID"
   },
   "stream_order": {
    "kind": "real",
    "n_real": 2,
    "n_sites": 2,
    "source": "DEM stream-network confluence heuristic (pipeline)"
   },
   "superfund_score": {
    "kind": "real",
    "n_real": 2,
    "n_sites": 2,
    "source": "EPA DataMap SEMS active sites states=NC (non-archived, georeferenced), shipped 500 m inverse-distance curve"
   },
   "tourism_amenity_density": {
    "kind": "real",
    "n_real": 2,
    "n_sites": 2,
    "source": "OSM leisure/tourism features per 2 km radius"
   },
   "tri_facility_density": {
    "kind": "real",
    "n_real": 2,
    "n_sites": 2,
    "source": "EPA DataMap TRI open facilities states=NC (preferred decimal or packed-DMS recovery), per catchment"
   },
   "usgs_mean_q_cfs": {
    "fallback_reason": "NHDPlus EROM was unavailable or failed the drainage-area snap guard; value remains null",
    "kind": "real",
    "n_fallback": 1,
    "n_real": 1,
    "n_sites": 2,
    "source": "NHDPlus EROM qe_ma per COMID (snap-guarded)"
   },
   "velocity_feasibility": {
    "fallback_reason": "derived from the shipped 0.5 m/s velocity fallback",
    "kind": "real",
    "n_fallback": 1,
    "n_real": 1,
    "n_sites": 2,
    "source": "shipped step curve on the computed velocity"
   },
   "velocity_transport_favorability": {
    "fallback_reason": "EROM/DEM continuity input unavailable; shipped 0.5 m/s default used",
    "kind": "derived",
    "n_fallback": 1,
    "n_real": 1,
    "n_sites": 2,
    "source": "scored form of flow_velocity_ms inside the Flow family \u2014 peaked Gaussian exp(-((v-0.9)/0.6)^2), model.json curves.velocity_transport_favorability; construct: transport/delivery favorability, deliberately distinct from velocity_feasibility (device operability)"
   },
   "water_intake_score": {
    "kind": "real",
    "n_real": 2,
    "n_sites": 2,
    "source": "NC OneMap / NC DEQ SWAP public water supply sources (source_typ='Surface Water'), shipped exp(-d/10km) curve"
   }
  },
  "stream_mask": {
   "buffer_m": 150.0,
   "pre_mask": 2,
   "removed": 0,
   "sources": [
    "osm-overpass (all waterway ways)",
    "usgs-nhdplus flowlines"
   ]
  },
  "varying": [
   "bank_slope_score",
   "beach_dist_km",
   "bridge_proximity_bonus",
   "catchment_area_km2",
   "ej_index",
   "estuary_dist_km",
   "flood_q10_cfs",
   "flow_velocity_ms",
   "impervious_pct",
   "population_density",
   "protected_area_score",
   "road_access_score",
   "road_density_km_km2",
   "runoff_coeff_C",
   "seasonal_cv",
   "superfund_score",
   "usgs_mean_q_cfs",
   "velocity_feasibility",
   "water_intake_score"
  ]
 },
 "region": {
  "bbox": [
   -81.5561,
   35.1774,
   -81.512,
   35.2134
  ],
  "beach_ref": {
   "label": "Wrightsville Beach (shipped NC reference)",
   "lat": 34.21,
   "lon": -77.79
  },
  "center": [
   -81.53401,
   35.195424
  ],
  "estuary_ref": {
   "label": "Pamlico Sound (shipped NC reference)",
   "lat": 35.05,
   "lon": -76.05
  },
  "flood_method": "sir2014_hr1",
  "name": "Earl, NC",
  "notes": "NC Piedmont (DEQ physiography polygon)",
  "slug": "earl",
  "state": "NC",
  "utm_epsg": 32617,
  "width_curve": {
   "a": 3.12,
   "b": 0.415,
   "code": "AHI",
   "source": "Bieger et al. 2015 JAWRA Table 3, Appalachian Highlands"
  }
 },
 "type": "FeatureCollection"
}
