{
 "features": [
  {
   "geometry": {
    "coordinates": [
     -76.243437,
     36.307929
    ],
    "type": "Point"
   },
   "properties": {
    "accumulation": 129301.0,
    "bank_slope_deg": 0.33,
    "bank_slope_score": 1.0,
    "beach_dist_km": 272.27,
    "bridge_proximity_bonus": 0.2,
    "catchment_area_km2": 12.9017,
    "channel_width_m": 5.62,
    "channel_width_score": 1.0,
    "composite_score": 69.4283,
    "cso_density": 0.0,
    "ej_index": 0.5056,
    "elevation_m": 0.3584,
    "estuary_dist_km": 140.96,
    "feasibility_score": 61.6883,
    "flood_q10_cfs": 605.05,
    "flow_score": 70.7577,
    "flow_velocity_ms": 0.0786,
    "generation_score": 85.118,
    "impact_score": 56.5009,
    "impervious_pct": 9.9,
    "land_ownership": 0.5,
    "lat": 36.3079,
    "litter_complaint_density": 0.0,
    "lon": -76.2434,
    "navigable_dist_m": 2474.1,
    "npdes_points": 3,
    "pixel_col": 575.0,
    "pixel_row": 462.0,
    "population_density": 452.1,
    "position_along": 0.5,
    "protected_area_score": 4.7679,
    "rank": 1,
    "road_access_m": 272.0,
    "road_access_score": 0.8,
    "road_density_km_km2": 6.324,
    "robustness_pct": 100.0,
    "runoff_coeff_C": 0.1391,
    "seasonal_cv": 0.4182,
    "segment_id": 8,
    "segment_length_m": 776.5479,
    "stream_order": 3,
    "superfund_score": 0.1126,
    "tourism_amenity_density": 2.3077,
    "tri_facility_density": 0.0,
    "usgs_mean_q_cfs": 10.749,
    "velocity_feasibility": 0.7,
    "water_intake_score": 0.0
   },
   "type": "Feature"
  },
  {
   "geometry": {
    "coordinates": [
     -76.248316,
     36.29658
    ],
    "type": "Point"
   },
   "properties": {
    "accumulation": 90829.0,
    "bank_slope_deg": 0.09,
    "bank_slope_score": 1.0,
    "beach_dist_km": 270.97,
    "bridge_proximity_bonus": 0.2,
    "catchment_area_km2": 9.063,
    "channel_width_m": 4.94,
    "channel_width_score": 1.0,
    "composite_score": 68.1362,
    "cso_density": 0.0,
    "ej_index": 0.4604,
    "elevation_m": 0.6335,
    "estuary_dist_km": 139.77,
    "feasibility_score": 84.4156,
    "flood_q10_cfs": 489.45,
    "flow_score": 60.3856,
    "flow_velocity_ms": 0.0601,
    "generation_score": 77.0518,
    "impact_score": 57.5396,
    "impervious_pct": 9.9,
    "land_ownership": 0.5,
    "lat": 36.2966,
    "litter_complaint_density": 0.0,
    "lon": -76.2483,
    "navigable_dist_m": 2796.8,
    "npdes_points": 2,
    "pixel_col": 530.0,
    "pixel_row": 587.0,
    "population_density": 397.7,
    "position_along": 0.5,
    "protected_area_score": 4.6618,
    "rank": 2,
    "road_access_m": 113.7,
    "road_access_score": 1.0,
    "road_density_km_km2": 6.934,
    "robustness_pct": 100.0,
    "runoff_coeff_C": 0.1391,
    "seasonal_cv": 0.4182,
    "segment_id": 7,
    "segment_length_m": 2354.7633,
    "stream_order": 3,
    "superfund_score": 0.0718,
    "tourism_amenity_density": 4.2972,
    "tri_facility_density": 0.0,
    "usgs_mean_q_cfs": 10.749,
    "velocity_feasibility": 0.7,
    "water_intake_score": 0.0
   },
   "type": "Feature"
  },
  {
   "geometry": {
    "coordinates": [
     -76.219395,
     36.28083
    ],
    "type": "Point"
   },
   "properties": {
    "accumulation": 25321.0,
    "bank_slope_deg": 1.61,
    "bank_slope_score": 1.0,
    "beach_dist_km": 270.85,
    "bridge_proximity_bonus": 0.0,
    "catchment_area_km2": 2.5265,
    "channel_width_m": 3.11,
    "channel_width_score": 1.0,
    "composite_score": 67.6026,
    "cso_density": 0.0,
    "ej_index": 0.6765,
    "elevation_m": 0.969,
    "estuary_dist_km": 137.71,
    "feasibility_score": 66.2338,
    "flood_q10_cfs": 228.06,
    "flow_score": 20.3974,
    "flow_velocity_ms": 0.1178,
    "generation_score": 100.0,
    "impact_score": 75.2271,
    "impervious_pct": 10.04,
    "land_ownership": 0.5,
    "lat": 36.2808,
    "litter_complaint_density": 0.0,
    "lon": -76.2194,
    "navigable_dist_m": 1919.4,
    "npdes_points": 3,
    "pixel_col": 786.0,
    "pixel_row": 765.0,
    "population_density": 653.6,
    "position_along": 0.5,
    "protected_area_score": 4.6657,
    "rank": 3,
    "road_access_m": 55.0,
    "road_access_score": 1.0,
    "road_density_km_km2": 8.557,
    "robustness_pct": 100.0,
    "runoff_coeff_C": 0.1404,
    "seasonal_cv": 0.4152,
    "segment_id": 9,
    "segment_length_m": 198.7765,
    "stream_order": 1,
    "superfund_score": 0.0672,
    "tourism_amenity_density": 4.9338,
    "tri_facility_density": 0.0,
    "usgs_mean_q_cfs": 5.659,
    "velocity_feasibility": 0.7,
    "water_intake_score": 0.0
   },
   "type": "Feature"
  },
  {
   "geometry": {
    "coordinates": [
     -76.258533,
     36.290555
    ],
    "type": "Point"
   },
   "properties": {
    "accumulation": 40550.0,
    "bank_slope_deg": 0.16,
    "bank_slope_score": 1.0,
    "beach_dist_km": 269.92,
    "bridge_proximity_bonus": 0.0,
    "catchment_area_km2": 4.0461,
    "channel_width_m": 3.69,
    "channel_width_score": 1.0,
    "composite_score": 46.1546,
    "cso_density": 0.0,
    "ej_index": 0.3889,
    "elevation_m": 0.6861,
    "estuary_dist_km": 139.22,
    "feasibility_score": 45.4545,
    "flood_q10_cfs": 301.6,
    "flow_score": 40.7786,
    "flow_velocity_ms": 0.0492,
    "generation_score": 52.3559,
    "impact_score": 44.7831,
    "impervious_pct": 9.9,
    "land_ownership": 0.5,
    "lat": 36.2906,
    "litter_complaint_density": 0.0,
    "lon": -76.2585,
    "navigable_dist_m": 3801.6,
    "npdes_points": 0,
    "pixel_col": 437.0,
    "pixel_row": 655.0,
    "population_density": 216.9,
    "position_along": 0.5,
    "protected_area_score": 4.413,
    "rank": 4,
    "road_access_m": 166.6,
    "road_access_score": 1.0,
    "road_density_km_km2": 5.696,
    "robustness_pct": 100.0,
    "runoff_coeff_C": 0.1391,
    "seasonal_cv": 0.4179,
    "segment_id": 5,
    "segment_length_m": 144.6938,
    "stream_order": 3,
    "superfund_score": 0.0354,
    "tourism_amenity_density": 2.7852,
    "tri_facility_density": 0.0,
    "usgs_mean_q_cfs": 7.601,
    "velocity_feasibility": 0.3,
    "water_intake_score": 0.0
   },
   "type": "Feature"
  },
  {
   "geometry": {
    "coordinates": [
     -76.261495,
     36.286543
    ],
    "type": "Point"
   },
   "properties": {
    "accumulation": 39116.0,
    "bank_slope_deg": 1.27,
    "bank_slope_score": 1.0,
    "beach_dist_km": 269.4,
    "bridge_proximity_bonus": 0.0,
    "catchment_area_km2": 3.903,
    "channel_width_m": 3.64,
    "channel_width_score": 1.0,
    "composite_score": 43.6702,
    "cso_density": 0.0,
    "ej_index": 0.4129,
    "elevation_m": 0.8458,
    "estuary_dist_km": 138.82,
    "feasibility_score": 43.5065,
    "flood_q10_cfs": 295.01,
    "flow_score": 37.2261,
    "flow_velocity_ms": 0.0753,
    "generation_score": 50.4043,
    "impact_score": 42.388,
    "impervious_pct": 9.88,
    "land_ownership": 0.5,
    "lat": 36.2865,
    "litter_complaint_density": 0.0,
    "lon": -76.2615,
    "navigable_dist_m": 4175.5,
    "npdes_points": 0,
    "pixel_col": 409.0,
    "pixel_row": 696.0,
    "population_density": 222.2,
    "position_along": 0.5,
    "protected_area_score": 4.139,
    "rank": 5,
    "road_access_m": 218.0,
    "road_access_score": 0.8,
    "road_density_km_km2": 4.653,
    "robustness_pct": 99.0,
    "runoff_coeff_C": 0.1389,
    "seasonal_cv": 0.4191,
    "segment_id": 6,
    "segment_length_m": 1246.1538,
    "stream_order": 3,
    "superfund_score": 0.0283,
    "tourism_amenity_density": 2.5465,
    "tri_facility_density": 0.0,
    "usgs_mean_q_cfs": 5.413,
    "velocity_feasibility": 0.7,
    "water_intake_score": 0.0
   },
   "type": "Feature"
  },
  {
   "geometry": {
    "coordinates": [
     -76.247224,
     36.304785
    ],
    "type": "Point"
   },
   "properties": {
    "accumulation": 20351.0,
    "bank_slope_deg": 0.02,
    "bank_slope_score": 1.0,
    "beach_dist_km": 271.8,
    "bridge_proximity_bonus": 0.0,
    "catchment_area_km2": 2.0306,
    "channel_width_m": 2.87,
    "channel_width_score": 1.0,
    "composite_score": 34.3311,
    "cso_density": 0.0,
    "ej_index": 0.3265,
    "elevation_m": 0.3718,
    "estuary_dist_km": 140.66,
    "feasibility_score": 36.3636,
    "flood_q10_cfs": 158.37,
    "flow_score": 40.0,
    "flow_velocity_ms": 0.5,
    "generation_score": 18.0621,
    "impact_score": 44.8597,
    "impervious_pct": null,
    "land_ownership": 0.5,
    "lat": 36.3048,
    "litter_complaint_density": 0.0,
    "lon": -76.2472,
    "navigable_dist_m": 2723.2,
    "npdes_points": 0,
    "pixel_col": 541.0,
    "pixel_row": 496.0,
    "population_density": 228.3,
    "position_along": 0.5,
    "protected_area_score": 4.761,
    "rank": 6,
    "road_access_m": 511.6,
    "road_access_score": 0.6,
    "road_density_km_km2": 4.732,
    "robustness_pct": 0.0,
    "runoff_coeff_C": null,
    "seasonal_cv": null,
    "segment_id": 3,
    "segment_length_m": 197.7726,
    "stream_order": 3,
    "superfund_score": 0.0869,
    "tourism_amenity_density": 2.4669,
    "tri_facility_density": 0.0,
    "usgs_mean_q_cfs": null,
    "velocity_feasibility": 1.0,
    "water_intake_score": 0.0
   },
   "type": "Feature"
  },
  {
   "geometry": {
    "coordinates": [
     -76.202948,
     36.247598
    ],
    "type": "Point"
   },
   "properties": {
    "accumulation": 57609.0,
    "bank_slope_deg": 0.18,
    "bank_slope_score": 1.0,
    "beach_dist_km": 268.53,
    "bridge_proximity_bonus": 0.0,
    "catchment_area_km2": 5.7483,
    "channel_width_m": 4.19,
    "channel_width_score": 1.0,
    "composite_score": 31.871,
    "cso_density": 0.0,
    "ej_index": 0.4937,
    "elevation_m": 0.3952,
    "estuary_dist_km": 133.88,
    "feasibility_score": 20.7792,
    "flood_q10_cfs": 315.7,
    "flow_score": 22.7794,
    "flow_velocity_ms": 0.0696,
    "generation_score": 32.0421,
    "impact_score": 44.822,
    "impervious_pct": 2.8,
    "land_ownership": 0.5,
    "lat": 36.2476,
    "litter_complaint_density": 0.0,
    "lon": -76.2029,
    "navigable_dist_m": 4954.7,
    "npdes_points": 3,
    "pixel_col": 931.0,
    "pixel_row": 1140.0,
    "population_density": 68.8,
    "position_along": 0.5,
    "protected_area_score": 3.9035,
    "rank": 7,
    "road_access_m": 564.9,
    "road_access_score": 0.6,
    "road_density_km_km2": 1.065,
    "robustness_pct": 0.0,
    "runoff_coeff_C": 0.0752,
    "seasonal_cv": 0.4148,
    "segment_id": 12,
    "segment_length_m": 2498.7472,
    "stream_order": 1,
    "superfund_score": 0.0116,
    "tourism_amenity_density": 0.0,
    "tri_facility_density": 0.0,
    "usgs_mean_q_cfs": 4.562,
    "velocity_feasibility": 0.7,
    "water_intake_score": 0.0
   },
   "type": "Feature"
  },
  {
   "geometry": {
    "coordinates": [
     -76.199263,
     36.295121
    ],
    "type": "Point"
   },
   "properties": {
    "accumulation": 22710.0,
    "bank_slope_deg": 0.0,
    "bank_slope_score": 1.0,
    "beach_dist_km": 273.16,
    "bridge_proximity_bonus": 0.0,
    "catchment_area_km2": 2.266,
    "channel_width_m": 2.99,
    "channel_width_score": 1.0,
    "composite_score": 31.6222,
    "cso_density": 0.0,
    "ej_index": 0.3939,
    "elevation_m": -0.2,
    "estuary_dist_km": 139.11,
    "feasibility_score": 36.3636,
    "flood_q10_cfs": 169.15,
    "flow_score": 26.7276,
    "flow_velocity_ms": 0.5,
    "generation_score": 12.3288,
    "impact_score": 52.6238,
    "impervious_pct": null,
    "land_ownership": 0.5,
    "lat": 36.2951,
    "litter_complaint_density": 0.0,
    "lon": -76.1993,
    "navigable_dist_m": 152.7,
    "npdes_points": 0,
    "pixel_col": 970.0,
    "pixel_row": 612.0,
    "population_density": 262.5,
    "position_along": 0.25,
    "protected_area_score": 4.8949,
    "rank": 8,
    "road_access_m": 636.7,
    "road_access_score": 0.6,
    "road_density_km_km2": 1.131,
    "robustness_pct": 1.0,
    "runoff_coeff_C": null,
    "seasonal_cv": null,
    "segment_id": 4,
    "segment_length_m": 3439.967,
    "stream_order": 1,
    "superfund_score": 0.1078,
    "tourism_amenity_density": 2.3077,
    "tri_facility_density": 0.0,
    "usgs_mean_q_cfs": null,
    "velocity_feasibility": 1.0,
    "water_intake_score": 0.0
   },
   "type": "Feature"
  },
  {
   "geometry": {
    "coordinates": [
     -76.182652,
     36.275061
    ],
    "type": "Point"
   },
   "properties": {
    "accumulation": 23882.0,
    "bank_slope_deg": 0.0,
    "bank_slope_score": 1.0,
    "beach_dist_km": 272.08,
    "bridge_proximity_bonus": 0.0,
    "catchment_area_km2": 2.383,
    "channel_width_m": 3.04,
    "channel_width_score": 1.0,
    "composite_score": 30.3673,
    "cso_density": 0.0,
    "ej_index": 0.3026,
    "elevation_m": -0.2,
    "estuary_dist_km": 136.75,
    "feasibility_score": 45.4545,
    "flood_q10_cfs": 218.91,
    "flow_score": 10.7198,
    "flow_velocity_ms": 0.0442,
    "generation_score": 34.4319,
    "impact_score": 35.1321,
    "impervious_pct": 9.79,
    "land_ownership": 0.5,
    "lat": 36.2751,
    "litter_complaint_density": 0.0,
    "lon": -76.1827,
    "navigable_dist_m": 1577.3,
    "npdes_points": 0,
    "pixel_col": 1113.0,
    "pixel_row": 833.0,
    "population_density": 46.9,
    "position_along": 0.5,
    "protected_area_score": 4.3753,
    "rank": 9,
    "road_access_m": 86.7,
    "road_access_score": 1.0,
    "road_density_km_km2": 1.187,
    "robustness_pct": 0.0,
    "runoff_coeff_C": 0.1381,
    "seasonal_cv": 0.4309,
    "segment_id": 10,
    "segment_length_m": 2156.1085,
    "stream_order": 1,
    "superfund_score": 0.0225,
    "tourism_amenity_density": 1.6711,
    "tri_facility_density": 0.0,
    "usgs_mean_q_cfs": 1.382,
    "velocity_feasibility": 0.3,
    "water_intake_score": 0.0
   },
   "type": "Feature"
  },
  {
   "geometry": {
    "coordinates": [
     -76.270787,
     36.33243
    ],
    "type": "Point"
   },
   "properties": {
    "accumulation": 29329.0,
    "bank_slope_deg": 0.14,
    "bank_slope_score": 1.0,
    "beach_dist_km": 273.34,
    "bridge_proximity_bonus": 0.0,
    "catchment_area_km2": 2.9265,
    "channel_width_m": 3.28,
    "channel_width_score": 1.0,
    "composite_score": 27.8702,
    "cso_density": 0.0,
    "ej_index": 0.5853,
    "elevation_m": 0.5085,
    "estuary_dist_km": 143.99,
    "feasibility_score": 59.0909,
    "flood_q10_cfs": 197.23,
    "flow_score": 28.7014,
    "flow_velocity_ms": 0.5,
    "generation_score": 7.8543,
    "impact_score": 31.5831,
    "impervious_pct": null,
    "land_ownership": 0.5,
    "lat": 36.3324,
    "litter_complaint_density": 0.0,
    "lon": -76.2708,
    "navigable_dist_m": 3652.4,
    "npdes_points": 0,
    "pixel_col": 333.0,
    "pixel_row": 189.0,
    "population_density": 159.8,
    "position_along": 0.5,
    "protected_area_score": 4.2428,
    "rank": 10,
    "road_access_m": 234.9,
    "road_access_score": 0.8,
    "road_density_km_km2": 1.391,
    "robustness_pct": 0.0,
    "runoff_coeff_C": null,
    "seasonal_cv": null,
    "segment_id": 1,
    "segment_length_m": 1608.1825,
    "stream_order": 1,
    "superfund_score": 0.0164,
    "tourism_amenity_density": 0.0,
    "tri_facility_density": 0.0,
    "usgs_mean_q_cfs": null,
    "velocity_feasibility": 1.0,
    "water_intake_score": 0.0
   },
   "type": "Feature"
  },
  {
   "geometry": {
    "coordinates": [
     -76.280239,
     36.324503
    ],
    "type": "Point"
   },
   "properties": {
    "accumulation": 45312.0,
    "bank_slope_deg": 0.11,
    "bank_slope_score": 1.0,
    "beach_dist_km": 272.15,
    "bridge_proximity_bonus": 0.0,
    "catchment_area_km2": 4.5213,
    "channel_width_m": 3.84,
    "channel_width_score": 1.0,
    "composite_score": 25.7545,
    "cso_density": 0.0,
    "ej_index": 0.4986,
    "elevation_m": 0.912,
    "estuary_dist_km": 143.24,
    "feasibility_score": 43.5065,
    "flood_q10_cfs": 261.93,
    "flow_score": 32.7507,
    "flow_velocity_ms": 0.0767,
    "generation_score": 9.0912,
    "impact_score": 27.7116,
    "impervious_pct": 0.97,
    "land_ownership": 0.5,
    "lat": 36.3245,
    "litter_complaint_density": 0.0,
    "lon": -76.2802,
    "navigable_dist_m": 4809.5,
    "npdes_points": 0,
    "pixel_col": 247.0,
    "pixel_row": 277.0,
    "population_density": 120.9,
    "position_along": 0.5,
    "protected_area_score": 4.1266,
    "rank": 11,
    "road_access_m": 256.7,
    "road_access_score": 0.8,
    "road_density_km_km2": 1.349,
    "robustness_pct": 0.0,
    "runoff_coeff_C": 0.0587,
    "seasonal_cv": 0.4245,
    "segment_id": 2,
    "segment_length_m": 2899.4339,
    "stream_order": 1,
    "superfund_score": 0.0146,
    "tourism_amenity_density": 0.0,
    "tri_facility_density": 0.0,
    "usgs_mean_q_cfs": 13.32,
    "velocity_feasibility": 0.7,
    "water_intake_score": 0.0
   },
   "type": "Feature"
  },
  {
   "geometry": {
    "coordinates": [
     -76.183345,
     36.288953
    ],
    "type": "Point"
   },
   "properties": {
    "accumulation": 57929.0,
    "bank_slope_deg": 0.0,
    "bank_slope_score": 1.0,
    "beach_dist_km": 273.35,
    "bridge_proximity_bonus": 0.0,
    "catchment_area_km2": 5.7802,
    "channel_width_m": 4.2,
    "channel_width_score": 1.0,
    "composite_score": 24.087,
    "cso_density": 0.0,
    "ej_index": 0.2916,
    "elevation_m": -0.2,
    "estuary_dist_km": 138.29,
    "feasibility_score": 36.3636,
    "flood_q10_cfs": 296.78,
    "flow_score": 36.5466,
    "flow_velocity_ms": 0.5,
    "generation_score": 0.483,
    "impact_score": 31.1697,
    "impervious_pct": null,
    "land_ownership": 0.5,
    "lat": 36.289,
    "litter_complaint_density": 0.0,
    "lon": -76.1833,
    "navigable_dist_m": 261.0,
    "npdes_points": 0,
    "pixel_col": 1113.0,
    "pixel_row": 683.0,
    "population_density": 38.5,
    "position_along": 0.75,
    "protected_area_score": 4.5415,
    "rank": 12,
    "road_access_m": 787.4,
    "road_access_score": 0.6,
    "road_density_km_km2": 0.683,
    "robustness_pct": 0.0,
    "runoff_coeff_C": null,
    "seasonal_cv": null,
    "segment_id": 4,
    "segment_length_m": 3439.967,
    "stream_order": 1,
    "superfund_score": 0.0362,
    "tourism_amenity_density": 0.7162,
    "tri_facility_density": 0.0,
    "usgs_mean_q_cfs": null,
    "velocity_feasibility": 1.0,
    "water_intake_score": 0.0
   },
   "type": "Feature"
  },
  {
   "geometry": {
    "coordinates": [
     -76.269879,
     36.248734
    ],
    "type": "Point"
   },
   "properties": {
    "accumulation": 21614.0,
    "bank_slope_deg": 0.51,
    "bank_slope_score": 1.0,
    "beach_dist_km": 265.42,
    "bridge_proximity_bonus": 0.0,
    "catchment_area_km2": 2.1567,
    "channel_width_m": 2.93,
    "channel_width_score": 1.0,
    "composite_score": 23.7809,
    "cso_density": 0.0,
    "ej_index": 0.3656,
    "elevation_m": 0.8578,
    "estuary_dist_km": 134.77,
    "feasibility_score": 20.7792,
    "flood_q10_cfs": 187.26,
    "flow_score": 11.7628,
    "flow_velocity_ms": 0.0707,
    "generation_score": 23.4978,
    "impact_score": 35.5798,
    "impervious_pct": 5.65,
    "land_ownership": 0.5,
    "lat": 36.2487,
    "litter_complaint_density": 0.0,
    "lon": -76.2699,
    "navigable_dist_m": 7231.4,
    "npdes_points": 0,
    "pixel_col": 328.0,
    "pixel_row": 1119.0,
    "population_density": 64.5,
    "position_along": 0.5,
    "protected_area_score": 3.5402,
    "rank": 13,
    "road_access_m": 545.5,
    "road_access_score": 0.6,
    "road_density_km_km2": 2.137,
    "robustness_pct": 0.0,
    "runoff_coeff_C": 0.1008,
    "seasonal_cv": 0.4227,
    "segment_id": 11,
    "segment_length_m": 845.7612,
    "stream_order": 1,
    "superfund_score": 0.0085,
    "tourism_amenity_density": 0.0796,
    "tri_facility_density": 0.0,
    "usgs_mean_q_cfs": 3.364,
    "velocity_feasibility": 0.7,
    "water_intake_score": 0.0
   },
   "type": "Feature"
  },
  {
   "geometry": {
    "coordinates": [
     -76.285628,
     36.341388
    ],
    "type": "Point"
   },
   "properties": {
    "accumulation": 23048.0,
    "bank_slope_deg": 0.09,
    "bank_slope_score": 1.0,
    "beach_dist_km": 273.52,
    "bridge_proximity_bonus": 0.0,
    "catchment_area_km2": 2.2997,
    "channel_width_m": 3.0,
    "channel_width_score": 1.0,
    "composite_score": 20.973,
    "cso_density": 0.0,
    "ej_index": 0.579,
    "elevation_m": 0.8419,
    "estuary_dist_km": 145.16,
    "feasibility_score": 22.7273,
    "flood_q10_cfs": 185.73,
    "flow_score": 17.3594,
    "flow_velocity_ms": 0.0427,
    "generation_score": 20.2353,
    "impact_score": 23.845,
    "impervious_pct": 3.64,
    "land_ownership": 0.5,
    "lat": 36.3414,
    "litter_complaint_density": 0.0,
    "lon": -76.2856,
    "navigable_dist_m": 3553.7,
    "npdes_points": 0,
    "pixel_col": 201.0,
    "pixel_row": 88.0,
    "population_density": 140.5,
    "position_along": 0.5,
    "protected_area_score": 3.9345,
    "rank": 14,
    "road_access_m": 441.0,
    "road_access_score": 0.8,
    "road_density_km_km2": 1.993,
    "robustness_pct": 0.0,
    "runoff_coeff_C": 0.0828,
    "seasonal_cv": 0.4193,
    "segment_id": 0,
    "segment_length_m": 44.0937,
    "stream_order": 1,
    "superfund_score": 0.0097,
    "tourism_amenity_density": 0.0,
    "tri_facility_density": 0.0,
    "usgs_mean_q_cfs": 7.401,
    "velocity_feasibility": 0.3,
    "water_intake_score": 0.0
   },
   "type": "Feature"
  },
  {
   "geometry": {
    "coordinates": [
     -76.271809,
     36.239909
    ],
    "type": "Point"
   },
   "properties": {
    "accumulation": 21755.0,
    "bank_slope_deg": 0.49,
    "bank_slope_score": 1.0,
    "beach_dist_km": 264.5,
    "bridge_proximity_bonus": 0.0,
    "catchment_area_km2": 2.1707,
    "channel_width_m": 2.94,
    "channel_width_score": 1.0,
    "composite_score": 17.1105,
    "cso_density": 0.0,
    "ej_index": 0.3553,
    "elevation_m": 0.7462,
    "estuary_dist_km": 133.82,
    "feasibility_score": 20.7792,
    "flood_q10_cfs": 168.37,
    "flow_score": 7.4382,
    "flow_velocity_ms": 0.0981,
    "generation_score": 3.2944,
    "impact_score": 37.1525,
    "impervious_pct": 0.91,
    "land_ownership": 0.5,
    "lat": 36.2399,
    "litter_complaint_density": 0.0,
    "lon": -76.2718,
    "navigable_dist_m": 8101.5,
    "npdes_points": 0,
    "pixel_col": 310.0,
    "pixel_row": 1216.0,
    "population_density": 44.1,
    "position_along": 0.5,
    "protected_area_score": 3.5056,
    "rank": 15,
    "road_access_m": 606.1,
    "road_access_score": 0.6,
    "road_density_km_km2": 0.448,
    "robustness_pct": 0.0,
    "runoff_coeff_C": 0.0582,
    "seasonal_cv": 0.432,
    "segment_id": 13,
    "segment_length_m": 225.3159,
    "stream_order": 1,
    "superfund_score": 0.0068,
    "tourism_amenity_density": 0.0,
    "tri_facility_density": 0.0,
    "usgs_mean_q_cfs": 1.952,
    "velocity_feasibility": 0.7,
    "water_intake_score": 0.0
   },
   "type": "Feature"
  }
 ],
 "note": "GRIME region 'Elizabeth City, NC' \u2014 real-data pipeline (DEM\u2192streams\u2192candidates\u2192stream mask (sites confined to \u00b1150 m of mapped OSM/NHD waterways)\u2192region-appropriate real parameters\u2192shipped scoring, math unchanged). Width curve: Bieger et al. 2015 JAWRA Table 3, Atlantic Plain. Flood: SIR 2014-5030 HR4 (I24H50Y: NOAA Atlas 14). NC Coastal Plain (SIR 2014-5030 HR4; I24H50Y from NOAA Atlas 14 at region center)",
 "provenance": {
  "candidates_pre_gate": 15,
  "constant": [
   "bank_slope_score",
   "channel_width_score",
   "cso_density",
   "land_ownership",
   "litter_complaint_density",
   "tri_facility_density",
   "water_intake_score"
  ],
  "gated_navigable": 0,
  "hard_gate_removed": 0,
  "n_parameters": 27,
  "parameters": {
   "bank_slope_score": {
    "kind": "real",
    "n_real": 15,
    "n_sites": 15,
    "source": "region DEM gradient (3x3)"
   },
   "beach_dist_km": {
    "kind": "real",
    "n_real": 15,
    "n_sites": 15,
    "source": "haversine to region ref: Wrightsville Beach (shipped NC reference)"
   },
   "bridge_proximity_bonus": {
    "kind": "real",
    "n_real": 15,
    "n_sites": 15,
    "source": "FHWA/BTS NBI (NTAD), 50 m proximity"
   },
   "catchment_area_km2": {
    "kind": "real",
    "n_real": 15,
    "n_sites": 15,
    "source": "DEM flow accumulation (pipeline)"
   },
   "channel_width_score": {
    "kind": "real",
    "n_real": 15,
    "n_sites": 15,
    "source": "Bieger 2015 APL width curve on DEM drainage area \u2192 shipped width curve"
   },
   "cso_density": {
    "kind": "real",
    "n_real": 15,
    "n_sites": 15,
    "source": "EPA ECHO CSO inventory (national bulk), Cauchy proximity"
   },
   "ej_index": {
    "kind": "real",
    "n_real": 15,
    "n_sites": 15,
    "source": "Census ACS C17002+B03002 two-component demographic index, percentile-ranked within region"
   },
   "estuary_dist_km": {
    "kind": "real",
    "n_real": 15,
    "n_sites": 15,
    "source": "haversine to region ref: Pamlico Sound (shipped NC reference)"
   },
   "flood_q10_cfs": {
    "kind": "real",
    "n_real": 15,
    "n_sites": 15,
    "source": "USGS SIR 2014-5030 Table 7 HR4 (NC Coastal Plain; I24H50Y from NOAA Atlas 14 at region center)"
   },
   "flow_velocity_ms": {
    "kind": "real",
    "n_real": 11,
    "n_sites": 15,
    "source": "Manning (region DEM/D8) blended with EROM continuity (shipped M4 logic)"
   },
   "impervious_pct": {
    "kind": "real",
    "n_real": 11,
    "n_sites": 15,
    "source": "EPA StreamCat pctimp2019 (per NHDPlus watershed)"
   },
   "land_ownership": {
    "kind": "real",
    "n_real": 11,
    "n_sites": 15,
    "source": "NC OneMap statewide parcels (NC Parcels Transformer) ownname"
   },
   "litter_complaint_density": {
    "kind": "fallback",
    "n_real": 0,
    "n_sites": 15,
    "source": "no machine-readable 311/litter source for this region"
   },
   "navigable_dist_m": {
    "kind": "real",
    "n_real": 15,
    "n_sites": 15,
    "source": "USACE/BTS National Waterway Network lines (NTAD, retrieved 2026-07-10), distance to nearest navigable segment"
   },
   "npdes_points": {
    "kind": "real",
    "n_real": 15,
    "n_sites": 15,
    "source": "EPA ECHO NPDES outfalls (national bulk), per catchment"
   },
   "population_density": {
    "kind": "real",
    "n_real": 15,
    "n_sites": 15,
    "source": "Census ACS 2022 B01003 block groups (bbox, multi-county), area-weighted"
   },
   "protected_area_score": {
    "kind": "real",
    "n_real": 15,
    "n_sites": 15,
    "source": "USGS PAD-US 4.1 NC state clip (local GDB, retrieved 2026-07-10), shipped designation-weighted proximity curve"
   },
   "road_access_score": {
    "kind": "real",
    "n_real": 15,
    "n_sites": 15,
    "source": "OSM drive network nearest-node distance"
   },
   "road_density_km_km2": {
    "kind": "real",
    "n_real": 15,
    "n_sites": 15,
    "source": "OSM drive network (osmnx, cached) clipped per catchment"
   },
   "runoff_coeff_C": {
    "kind": "real",
    "n_real": 11,
    "n_sites": 15,
    "source": "derived from real impervious_pct (C=0.05+0.009*I)"
   },
   "seasonal_cv": {
    "kind": "real",
    "n_real": 11,
    "n_sites": 15,
    "source": "CV of NHDPlus EROM monthly flows per COMID"
   },
   "stream_order": {
    "kind": "real",
    "n_real": 15,
    "n_sites": 15,
    "source": "DEM stream-network confluence heuristic (pipeline)"
   },
   "superfund_score": {
    "kind": "real",
    "n_real": 15,
    "n_sites": 15,
    "source": "EPA Envirofacts SEMS state=NC (sign-fixed, georeferenced sites), shipped 500 m inverse-distance curve"
   },
   "tourism_amenity_density": {
    "kind": "real",
    "n_real": 15,
    "n_sites": 15,
    "source": "OSM leisure/tourism features per 2 km radius"
   },
   "tri_facility_density": {
    "kind": "real",
    "n_real": 15,
    "n_sites": 15,
    "source": "EPA Envirofacts TRI state=NC (sign-fixed), per catchment"
   },
   "usgs_mean_q_cfs": {
    "kind": "real",
    "n_real": 11,
    "n_sites": 15,
    "source": "NHDPlus EROM qe_ma per COMID (snap-guarded)"
   },
   "velocity_feasibility": {
    "kind": "real",
    "n_real": 11,
    "n_sites": 15,
    "source": "shipped step curve on the computed velocity"
   },
   "velocity_transport_favorability": {
    "kind": "derived",
    "n_real": 11,
    "n_sites": 15,
    "source": "scored form of flow_velocity_ms inside the Flow family \u2014 peaked Gaussian exp(-((v-0.9)/0.6)^2), model.json curves.velocity_transport_favorability; construct: transport/delivery favorability, deliberately distinct from velocity_feasibility (device operability)"
   },
   "water_intake_score": {
    "kind": "real",
    "n_real": 15,
    "n_sites": 15,
    "source": "NC OneMap / NC DEQ SWAP public water supply sources (source_typ='Surface Water'), shipped exp(-d/10km) curve"
   }
  },
  "stream_mask": {
   "buffer_m": 150.0,
   "pre_mask": 15,
   "removed": 0,
   "sources": [
    "osm-overpass (all waterway ways)",
    "usgs-nhdplus flowlines"
   ]
  },
  "varying": [
   "beach_dist_km",
   "bridge_proximity_bonus",
   "catchment_area_km2",
   "ej_index",
   "estuary_dist_km",
   "flood_q10_cfs",
   "flow_velocity_ms",
   "impervious_pct",
   "npdes_points",
   "population_density",
   "protected_area_score",
   "road_access_score",
   "road_density_km_km2",
   "runoff_coeff_C",
   "seasonal_cv",
   "stream_order",
   "superfund_score",
   "tourism_amenity_density",
   "usgs_mean_q_cfs",
   "velocity_feasibility"
  ]
 },
 "region": {
  "bbox": [
   -76.3061,
   36.2394,
   -76.1702,
   36.349
  ],
  "beach_ref": {
   "label": "Wrightsville Beach (shipped NC reference)",
   "lat": 34.21,
   "lon": -77.79
  },
  "center": [
   -76.238162,
   36.294216
  ],
  "estuary_ref": {
   "label": "Pamlico Sound (shipped NC reference)",
   "lat": 35.05,
   "lon": -76.05
  },
  "flood_method": "sir2014_hr4",
  "name": "Elizabeth City, NC",
  "notes": "NC Coastal Plain (SIR 2014-5030 HR4; I24H50Y from NOAA Atlas 14 at region center)",
  "slug": "elizabeth-city",
  "state": "NC",
  "utm_epsg": 32618,
  "width_curve": {
   "a": 2.22,
   "b": 0.363,
   "code": "APL",
   "source": "Bieger et al. 2015 JAWRA Table 3, Atlantic Plain"
  }
 },
 "type": "FeatureCollection"
}
