{
 "features": [
  {
   "geometry": {
    "coordinates": [
     -80.854422,
     36.243591
    ],
    "type": "Point"
   },
   "properties": {
    "accumulation": 240704.0,
    "bank_slope_deg": 36.64,
    "bank_slope_score": 0.2,
    "bank_slope_source": "nc-dps-lidar-dem03-cross-section",
    "beach_dist_km": 358.59,
    "bridge_proximity_bonus": 0.2,
    "catchment_area_km2": 23.995,
    "channel_width_m": 11.67,
    "channel_width_score": 1.0,
    "composite_score": 65.849,
    "cso_density": 0.0,
    "ej_index": 0.6159,
    "elevation_m": 265.8542,
    "estuary_dist_km": 453.9,
    "feasibility_score": 58.0357,
    "flood_q10_cfs": 1718.89,
    "flow_score": 75.1426,
    "flow_velocity_ms": 0.1266,
    "generation_score": 53.2396,
    "impact_score": 74.6202,
    "impervious_pct": 2.48,
    "land_ownership": 0.5,
    "lat": 36.2436,
    "litter_complaint_density": 0.0,
    "lon": -80.8544,
    "navigable_dist_m": null,
    "npdes_points": 4,
    "pixel_col": 401.0,
    "pixel_row": 685.0,
    "population_density": 196.9,
    "position_along": 0.8333,
    "protected_area_score": 7.0479,
    "rank": 1,
    "road_access_m": 42.8,
    "road_access_score": 1.0,
    "road_density_km_km2": 4.516,
    "robustness_pct": 100.0,
    "runoff_coeff_C": 0.0723,
    "seasonal_cv": 0.3341,
    "segment_id": 7,
    "segment_length_m": 4954.0831,
    "stream_order": 3,
    "superfund_score": 0.0,
    "tourism_amenity_density": 6.6049,
    "tri_facility_density": 0.0417,
    "usgs_mean_q_cfs": 55.331,
    "velocity_feasibility": 0.7,
    "water_intake_score": 2.1925
   },
   "type": "Feature"
  },
  {
   "geometry": {
    "coordinates": [
     -80.863743,
     36.25504
    ],
    "type": "Point"
   },
   "properties": {
    "accumulation": 206329.0,
    "bank_slope_deg": 32.81,
    "bank_slope_score": 0.2,
    "bank_slope_source": "nc-dps-lidar-dem03-cross-section",
    "beach_dist_km": 360.03,
    "bridge_proximity_bonus": 0.0,
    "catchment_area_km2": 20.5683,
    "channel_width_m": 10.94,
    "channel_width_score": 1.0,
    "composite_score": 60.0515,
    "cso_density": 0.0,
    "ej_index": 0.559,
    "elevation_m": 274.1605,
    "estuary_dist_km": 455.05,
    "feasibility_score": 45.5357,
    "flood_q10_cfs": 1571.96,
    "flow_score": 71.8738,
    "flow_velocity_ms": 0.1795,
    "generation_score": 48.3266,
    "impact_score": 69.1825,
    "impervious_pct": 2.19,
    "land_ownership": 0.5,
    "lat": 36.255,
    "litter_complaint_density": 0.0,
    "lon": -80.8637,
    "navigable_dist_m": null,
    "npdes_points": 3,
    "pixel_col": 317.0,
    "pixel_row": 558.0,
    "population_density": 179.0,
    "position_along": 0.5,
    "protected_area_score": 7.2994,
    "rank": 2,
    "road_access_m": 138.6,
    "road_access_score": 1.0,
    "road_density_km_km2": 4.342,
    "robustness_pct": 100.0,
    "runoff_coeff_C": 0.0697,
    "seasonal_cv": 0.3342,
    "segment_id": 7,
    "segment_length_m": 4954.0831,
    "stream_order": 3,
    "superfund_score": 0.0,
    "tourism_amenity_density": 5.9683,
    "tri_facility_density": 0.0486,
    "usgs_mean_q_cfs": 54.573,
    "velocity_feasibility": 0.7,
    "water_intake_score": 2.2031
   },
   "type": "Feature"
  },
  {
   "geometry": {
    "coordinates": [
     -80.870897,
     36.237685
    ],
    "type": "Point"
   },
   "properties": {
    "accumulation": 124653.0,
    "bank_slope_deg": 6.73,
    "bank_slope_score": 1.0,
    "bank_slope_source": "nc-dps-lidar-dem03-cross-section",
    "beach_dist_km": 359.34,
    "bridge_proximity_bonus": 0.0,
    "catchment_area_km2": 12.4263,
    "channel_width_m": 8.88,
    "channel_width_score": 1.0,
    "composite_score": 55.0543,
    "cso_density": 0.0,
    "ej_index": 0.4781,
    "elevation_m": 265.5367,
    "estuary_dist_km": 455.15,
    "feasibility_score": 68.75,
    "flood_q10_cfs": 1153.65,
    "flow_score": 56.6985,
    "flow_velocity_ms": 0.5,
    "generation_score": 47.8365,
    "impact_score": 54.0541,
    "impervious_pct": null,
    "land_ownership": 0.5,
    "lat": 36.2377,
    "litter_complaint_density": 0.0,
    "lon": -80.8709,
    "navigable_dist_m": null,
    "npdes_points": 3,
    "pixel_col": 252.0,
    "pixel_row": 748.0,
    "population_density": 160.7,
    "position_along": 0.5,
    "protected_area_score": 6.4796,
    "rank": 3,
    "road_access_m": 154.6,
    "road_access_score": 1.0,
    "road_density_km_km2": 3.497,
    "robustness_pct": 88.0,
    "runoff_coeff_C": null,
    "seasonal_cv": null,
    "segment_id": 24,
    "segment_length_m": 96.4172,
    "stream_order": 3,
    "superfund_score": 0.0,
    "tourism_amenity_density": 4.0585,
    "tri_facility_density": 0.0805,
    "usgs_mean_q_cfs": null,
    "velocity_feasibility": 1.0,
    "water_intake_score": 2.0873
   },
   "type": "Feature"
  },
  {
   "geometry": {
    "coordinates": [
     -80.870297,
     36.264447
    ],
    "type": "Point"
   },
   "properties": {
    "accumulation": 182650.0,
    "bank_slope_deg": 28.61,
    "bank_slope_score": 0.5,
    "bank_slope_source": "nc-dps-lidar-dem03-cross-section",
    "beach_dist_km": 361.14,
    "bridge_proximity_bonus": 0.0,
    "catchment_area_km2": 18.2078,
    "channel_width_m": 10.4,
    "channel_width_score": 1.0,
    "composite_score": 52.5313,
    "cso_density": 0.0,
    "ej_index": 0.5488,
    "elevation_m": 281.3513,
    "estuary_dist_km": 455.9,
    "feasibility_score": 34.5982,
    "flood_q10_cfs": 1460.21,
    "flow_score": 65.6328,
    "flow_velocity_ms": 0.0965,
    "generation_score": 44.6235,
    "impact_score": 58.4876,
    "impervious_pct": 1.74,
    "land_ownership": 0.5,
    "lat": 36.2644,
    "litter_complaint_density": 0.0,
    "lon": -80.8703,
    "navigable_dist_m": null,
    "npdes_points": 3,
    "pixel_col": 256.0,
    "pixel_row": 453.0,
    "population_density": 143.6,
    "position_along": 0.1667,
    "protected_area_score": 7.4335,
    "rank": 4,
    "road_access_m": 305.0,
    "road_access_score": 0.8,
    "road_density_km_km2": 3.894,
    "robustness_pct": 69.0,
    "runoff_coeff_C": 0.0657,
    "seasonal_cv": 0.3343,
    "segment_id": 7,
    "segment_length_m": 4954.0831,
    "stream_order": 3,
    "superfund_score": 0.0,
    "tourism_amenity_density": 2.1486,
    "tri_facility_density": 0.0549,
    "usgs_mean_q_cfs": 52.482,
    "velocity_feasibility": 0.7,
    "water_intake_score": 2.1614
   },
   "type": "Feature"
  },
  {
   "geometry": {
    "coordinates": [
     -80.834373,
     36.245701
    ],
    "type": "Point"
   },
   "properties": {
    "accumulation": 145467.0,
    "bank_slope_deg": 17.82,
    "bank_slope_score": 0.5,
    "bank_slope_source": "nc-dps-lidar-dem03-cross-section",
    "beach_dist_km": 357.32,
    "bridge_proximity_bonus": 0.0,
    "catchment_area_km2": 14.5011,
    "channel_width_m": 9.47,
    "channel_width_score": 1.0,
    "composite_score": 51.5898,
    "cso_density": 0.0,
    "ej_index": 0.6451,
    "elevation_m": 263.8161,
    "estuary_dist_km": 452.23,
    "feasibility_score": 45.3125,
    "flood_q10_cfs": 1256.67,
    "flow_score": 59.4595,
    "flow_velocity_ms": 0.5,
    "generation_score": 28.9392,
    "impact_score": 70.8208,
    "impervious_pct": null,
    "land_ownership": 0.5,
    "lat": 36.2457,
    "litter_complaint_density": 0.0,
    "lon": -80.8344,
    "navigable_dist_m": null,
    "npdes_points": 1,
    "pixel_col": 581.0,
    "pixel_row": 658.0,
    "population_density": 195.8,
    "position_along": 0.5,
    "protected_area_score": 7.4055,
    "rank": 5,
    "road_access_m": 386.5,
    "road_access_score": 0.8,
    "road_density_km_km2": 5.263,
    "robustness_pct": 70.0,
    "runoff_coeff_C": null,
    "seasonal_cv": null,
    "segment_id": 21,
    "segment_length_m": 120.5215,
    "stream_order": 3,
    "superfund_score": 0.0,
    "tourism_amenity_density": 3.8993,
    "tri_facility_density": 0.0,
    "usgs_mean_q_cfs": null,
    "velocity_feasibility": 1.0,
    "water_intake_score": 1.9881
   },
   "type": "Feature"
  },
  {
   "geometry": {
    "coordinates": [
     -80.83539,
     36.245112
    ],
    "type": "Point"
   },
   "properties": {
    "accumulation": 22870.0,
    "bank_slope_deg": 1.12,
    "bank_slope_score": 1.0,
    "bank_slope_source": "nc-dps-lidar-dem03-cross-section",
    "beach_dist_km": 357.35,
    "bridge_proximity_bonus": 0.0,
    "catchment_area_km2": 2.2798,
    "channel_width_m": 4.39,
    "channel_width_score": 1.0,
    "composite_score": 49.7654,
    "cso_density": 0.0,
    "ej_index": 0.792,
    "elevation_m": 263.8279,
    "estuary_dist_km": 452.3,
    "feasibility_score": 53.125,
    "flood_q10_cfs": 346.08,
    "flow_score": 40.0981,
    "flow_velocity_ms": 0.5,
    "generation_score": 29.3419,
    "impact_score": 76.5651,
    "impervious_pct": null,
    "land_ownership": 0.5,
    "lat": 36.2451,
    "litter_complaint_density": 0.0,
    "lon": -80.8354,
    "navigable_dist_m": null,
    "npdes_points": 0,
    "pixel_col": 572.0,
    "pixel_row": 665.0,
    "population_density": 261.7,
    "position_along": 0.5,
    "protected_area_score": 7.3931,
    "rank": 6,
    "road_access_m": 365.8,
    "road_access_score": 0.8,
    "road_density_km_km2": 4.183,
    "robustness_pct": 28.5,
    "runoff_coeff_C": null,
    "seasonal_cv": null,
    "segment_id": 11,
    "segment_length_m": 116.3859,
    "stream_order": 3,
    "superfund_score": 0.0,
    "tourism_amenity_density": 4.0585,
    "tri_facility_density": 0.0,
    "usgs_mean_q_cfs": null,
    "velocity_feasibility": 1.0,
    "water_intake_score": 1.9981
   },
   "type": "Feature"
  },
  {
   "geometry": {
    "coordinates": [
     -80.834905,
     36.23366
    ],
    "type": "Point"
   },
   "properties": {
    "accumulation": 68126.0,
    "bank_slope_deg": 4.89,
    "bank_slope_score": 1.0,
    "bank_slope_source": "nc-dps-lidar-dem03-cross-section",
    "beach_dist_km": 356.53,
    "bridge_proximity_bonus": 0.0,
    "catchment_area_km2": 6.7913,
    "channel_width_m": 6.91,
    "channel_width_score": 1.0,
    "composite_score": 49.0595,
    "cso_density": 0.0,
    "ej_index": 0.6964,
    "elevation_m": 272.063,
    "estuary_dist_km": 451.92,
    "feasibility_score": 58.0357,
    "flood_q10_cfs": 847.45,
    "flow_score": 32.7143,
    "flow_velocity_ms": 0.1313,
    "generation_score": 38.6164,
    "impact_score": 68.6354,
    "impervious_pct": 4.17,
    "land_ownership": 0.5,
    "lat": 36.2337,
    "litter_complaint_density": 0.0,
    "lon": -80.8349,
    "navigable_dist_m": null,
    "npdes_points": 1,
    "pixel_col": 574.0,
    "pixel_row": 791.0,
    "population_density": 206.7,
    "position_along": 0.5,
    "protected_area_score": 6.7669,
    "rank": 7,
    "road_access_m": 67.2,
    "road_access_score": 1.0,
    "road_density_km_km2": 5.564,
    "robustness_pct": 20.5,
    "runoff_coeff_C": 0.0875,
    "seasonal_cv": 0.3805,
    "segment_id": 18,
    "segment_length_m": 1591.2997,
    "stream_order": 3,
    "superfund_score": 0.0,
    "tourism_amenity_density": 4.2176,
    "tri_facility_density": 0.0,
    "usgs_mean_q_cfs": 7.562,
    "velocity_feasibility": 0.7,
    "water_intake_score": 1.9324
   },
   "type": "Feature"
  },
  {
   "geometry": {
    "coordinates": [
     -80.832389,
     36.242185
    ],
    "type": "Point"
   },
   "properties": {
    "accumulation": 119983.0,
    "bank_slope_deg": 25.86,
    "bank_slope_score": 0.5,
    "bank_slope_source": "nc-dps-lidar-dem03-cross-section",
    "beach_dist_km": 356.94,
    "bridge_proximity_bonus": 0.0,
    "catchment_area_km2": 11.9607,
    "channel_width_m": 8.74,
    "channel_width_score": 1.0,
    "composite_score": 48.3802,
    "cso_density": 0.0,
    "ej_index": 0.646,
    "elevation_m": 265.6771,
    "estuary_dist_km": 451.96,
    "feasibility_score": 34.5982,
    "flood_q10_cfs": 1205.78,
    "flow_score": 41.6282,
    "flow_velocity_ms": 0.0552,
    "generation_score": 38.0406,
    "impact_score": 71.2374,
    "impervious_pct": 4.73,
    "land_ownership": 0.5,
    "lat": 36.2422,
    "litter_complaint_density": 0.0,
    "lon": -80.8324,
    "navigable_dist_m": null,
    "npdes_points": 1,
    "pixel_col": 596.0,
    "pixel_row": 696.0,
    "population_density": 196.6,
    "position_along": 0.5,
    "protected_area_score": 7.2806,
    "rank": 8,
    "road_access_m": 232.5,
    "road_access_score": 0.8,
    "road_density_km_km2": 5.199,
    "robustness_pct": 5.0,
    "runoff_coeff_C": 0.0926,
    "seasonal_cv": 0.3619,
    "segment_id": 20,
    "segment_length_m": 894.2818,
    "stream_order": 3,
    "superfund_score": 0.0,
    "tourism_amenity_density": 4.6951,
    "tri_facility_density": 0.0,
    "usgs_mean_q_cfs": 12.966,
    "velocity_feasibility": 0.7,
    "water_intake_score": 1.9572
   },
   "type": "Feature"
  },
  {
   "geometry": {
    "coordinates": [
     -80.873174,
     36.236384
    ],
    "type": "Point"
   },
   "properties": {
    "accumulation": 96710.0,
    "bank_slope_deg": 18.41,
    "bank_slope_score": 0.5,
    "bank_slope_source": "nc-dps-lidar-dem03-cross-section",
    "beach_dist_km": 359.42,
    "bridge_proximity_bonus": 0.0,
    "catchment_area_km2": 9.6407,
    "channel_width_m": 7.99,
    "channel_width_score": 1.0,
    "composite_score": 46.0882,
    "cso_density": 0.0,
    "ej_index": 0.4513,
    "elevation_m": 265.9504,
    "estuary_dist_km": 455.31,
    "feasibility_score": 45.3125,
    "flood_q10_cfs": 1002.35,
    "flow_score": 52.8591,
    "flow_velocity_ms": 0.5,
    "generation_score": 38.8156,
    "impact_score": 48.1062,
    "impervious_pct": null,
    "land_ownership": 0.5,
    "lat": 36.2364,
    "litter_complaint_density": 0.0,
    "lon": -80.8732,
    "navigable_dist_m": null,
    "npdes_points": 0,
    "pixel_col": 232.0,
    "pixel_row": 763.0,
    "population_density": 152.0,
    "position_along": 0.5,
    "protected_area_score": 6.3343,
    "rank": 9,
    "road_access_m": 290.3,
    "road_access_score": 0.8,
    "road_density_km_km2": 2.542,
    "robustness_pct": 3.0,
    "runoff_coeff_C": null,
    "seasonal_cv": null,
    "segment_id": 23,
    "segment_length_m": 432.1644,
    "stream_order": 3,
    "superfund_score": 0.0,
    "tourism_amenity_density": 2.7056,
    "tri_facility_density": 0.1037,
    "usgs_mean_q_cfs": null,
    "velocity_feasibility": 1.0,
    "water_intake_score": 2.0522
   },
   "type": "Feature"
  },
  {
   "geometry": {
    "coordinates": [
     -80.832753,
     36.252557
    ],
    "type": "Point"
   },
   "properties": {
    "accumulation": 32747.0,
    "bank_slope_deg": 4.94,
    "bank_slope_score": 1.0,
    "bank_slope_source": "nc-dps-lidar-dem03-cross-section",
    "beach_dist_km": 357.68,
    "bridge_proximity_bonus": 0.0,
    "catchment_area_km2": 3.2644,
    "channel_width_m": 5.1,
    "channel_width_score": 1.0,
    "composite_score": 46.0809,
    "cso_density": 0.0,
    "ej_index": 0.7102,
    "elevation_m": 269.2226,
    "estuary_dist_km": 452.3,
    "feasibility_score": 42.4107,
    "flood_q10_cfs": 572.07,
    "flow_score": 12.6567,
    "flow_velocity_ms": 0.1255,
    "generation_score": 50.2344,
    "impact_score": 71.6161,
    "impervious_pct": 13.26,
    "land_ownership": 0.5,
    "lat": 36.2526,
    "litter_complaint_density": 0.0,
    "lon": -80.8328,
    "navigable_dist_m": null,
    "npdes_points": 0,
    "pixel_col": 594.0,
    "pixel_row": 585.0,
    "population_density": 221.9,
    "position_along": 0.5,
    "protected_area_score": 7.5276,
    "rank": 10,
    "road_access_m": 293.0,
    "road_access_score": 0.8,
    "road_density_km_km2": 3.686,
    "robustness_pct": 16.0,
    "runoff_coeff_C": 0.1693,
    "seasonal_cv": 0.4287,
    "segment_id": 10,
    "segment_length_m": 2529.1171,
    "stream_order": 1,
    "superfund_score": 0.0,
    "tourism_amenity_density": 3.2627,
    "tri_facility_density": 0.0,
    "usgs_mean_q_cfs": 2.46,
    "velocity_feasibility": 0.7,
    "water_intake_score": 1.9711
   },
   "type": "Feature"
  },
  {
   "geometry": {
    "coordinates": [
     -80.822587,
     36.247487
    ],
    "type": "Point"
   },
   "properties": {
    "accumulation": 48413.0,
    "bank_slope_deg": 11.71,
    "bank_slope_score": 1.0,
    "bank_slope_source": "nc-dps-lidar-dem03-cross-section",
    "beach_dist_km": 356.62,
    "bridge_proximity_bonus": 0.0,
    "catchment_area_km2": 4.8261,
    "channel_width_m": 6.0,
    "channel_width_score": 1.0,
    "composite_score": 43.7094,
    "cso_density": 0.0,
    "ej_index": 0.5325,
    "elevation_m": 266.361,
    "estuary_dist_km": 451.27,
    "feasibility_score": 42.4107,
    "flood_q10_cfs": 722.19,
    "flow_score": 28.7689,
    "flow_velocity_ms": 0.1184,
    "generation_score": 41.2516,
    "impact_score": 59.2671,
    "impervious_pct": 9.74,
    "land_ownership": 0.5,
    "lat": 36.2475,
    "litter_complaint_density": 0.0,
    "lon": -80.8226,
    "navigable_dist_m": null,
    "npdes_points": 1,
    "pixel_col": 687.0,
    "pixel_row": 638.0,
    "population_density": 165.2,
    "position_along": 0.75,
    "protected_area_score": 7.3011,
    "rank": 11,
    "road_access_m": 455.7,
    "road_access_score": 0.8,
    "road_density_km_km2": 3.369,
    "robustness_pct": 0.0,
    "runoff_coeff_C": 0.1377,
    "seasonal_cv": 0.4145,
    "segment_id": 14,
    "segment_length_m": 3721.7532,
    "stream_order": 3,
    "superfund_score": 0.0,
    "tourism_amenity_density": 0.8754,
    "tri_facility_density": 0.0,
    "usgs_mean_q_cfs": 3.159,
    "velocity_feasibility": 0.7,
    "water_intake_score": 1.867
   },
   "type": "Feature"
  },
  {
   "geometry": {
    "coordinates": [
     -80.821962,
     36.257535
    ],
    "type": "Point"
   },
   "properties": {
    "accumulation": 40945.0,
    "bank_slope_deg": 6.68,
    "bank_slope_score": 1.0,
    "bank_slope_source": "nc-dps-lidar-dem03-cross-section",
    "beach_dist_km": 357.27,
    "bridge_proximity_bonus": 0.0,
    "catchment_area_km2": 4.0817,
    "channel_width_m": 5.59,
    "channel_width_score": 1.0,
    "composite_score": 42.3381,
    "cso_density": 0.0,
    "ej_index": 0.4772,
    "elevation_m": 279.7575,
    "estuary_dist_km": 451.52,
    "feasibility_score": 42.4107,
    "flood_q10_cfs": 674.6,
    "flow_score": 29.153,
    "flow_velocity_ms": 0.1435,
    "generation_score": 38.9514,
    "impact_score": 56.6761,
    "impervious_pct": 13.06,
    "land_ownership": 0.5,
    "lat": 36.2575,
    "litter_complaint_density": 0.0,
    "lon": -80.822,
    "navigable_dist_m": null,
    "npdes_points": 0,
    "pixel_col": 691.0,
    "pixel_row": 529.0,
    "population_density": 113.6,
    "position_along": 0.5,
    "protected_area_score": 7.5208,
    "rank": 12,
    "road_access_m": 201.9,
    "road_access_score": 0.8,
    "road_density_km_km2": 3.4,
    "robustness_pct": 0.0,
    "runoff_coeff_C": 0.1675,
    "seasonal_cv": 0.4195,
    "segment_id": 8,
    "segment_length_m": 2197.2116,
    "stream_order": 3,
    "superfund_score": 0.0,
    "tourism_amenity_density": 0.8754,
    "tri_facility_density": 0.0,
    "usgs_mean_q_cfs": 2.887,
    "velocity_feasibility": 0.7,
    "water_intake_score": 1.8525
   },
   "type": "Feature"
  },
  {
   "geometry": {
    "coordinates": [
     -80.814505,
     36.252302
    ],
    "type": "Point"
   },
   "properties": {
    "accumulation": 112019.0,
    "bank_slope_deg": 14.68,
    "bank_slope_score": 1.0,
    "bank_slope_source": "nc-dps-lidar-dem03-cross-section",
    "beach_dist_km": 356.39,
    "bridge_proximity_bonus": 0.0,
    "catchment_area_km2": 11.1668,
    "channel_width_m": 8.49,
    "channel_width_score": 1.0,
    "composite_score": 40.1327,
    "cso_density": 0.0,
    "ej_index": 0.3798,
    "elevation_m": 262.8701,
    "estuary_dist_km": 450.72,
    "feasibility_score": 53.125,
    "flood_q10_cfs": 1087.35,
    "flow_score": 54.984,
    "flow_velocity_ms": 0.5,
    "generation_score": 10.378,
    "impact_score": 51.0152,
    "impervious_pct": null,
    "land_ownership": 0.5,
    "lat": 36.2523,
    "litter_complaint_density": 0.0,
    "lon": -80.8145,
    "navigable_dist_m": null,
    "npdes_points": 0,
    "pixel_col": 760.0,
    "pixel_row": 584.0,
    "population_density": 93.5,
    "position_along": 0.5,
    "protected_area_score": 7.2133,
    "rank": 13,
    "road_access_m": 252.7,
    "road_access_score": 0.8,
    "road_density_km_km2": 2.664,
    "robustness_pct": 0.0,
    "runoff_coeff_C": null,
    "seasonal_cv": null,
    "segment_id": 15,
    "segment_length_m": 311.6429,
    "stream_order": 3,
    "superfund_score": 0.0,
    "tourism_amenity_density": 0.557,
    "tri_facility_density": 0.0,
    "usgs_mean_q_cfs": null,
    "velocity_feasibility": 1.0,
    "water_intake_score": 1.7899
   },
   "type": "Feature"
  },
  {
   "geometry": {
    "coordinates": [
     -80.839249,
     36.228026
    ],
    "type": "Point"
   },
   "properties": {
    "accumulation": 21676.0,
    "bank_slope_deg": 11.81,
    "bank_slope_score": 1.0,
    "bank_slope_source": "nc-dps-lidar-dem03-cross-section",
    "beach_dist_km": 356.45,
    "bridge_proximity_bonus": 0.0,
    "catchment_area_km2": 2.1608,
    "channel_width_m": 4.3,
    "channel_width_score": 1.0,
    "composite_score": 39.8993,
    "cso_density": 0.0,
    "ej_index": 0.5708,
    "elevation_m": 274.658,
    "estuary_dist_km": 452.13,
    "feasibility_score": 43.75,
    "flood_q10_cfs": 357.54,
    "flow_score": 21.825,
    "flow_velocity_ms": 0.0381,
    "generation_score": 33.0726,
    "impact_score": 59.8627,
    "impervious_pct": 4.17,
    "land_ownership": 0.5,
    "lat": 36.228,
    "litter_complaint_density": 0.0,
    "lon": -80.8392,
    "navigable_dist_m": null,
    "npdes_points": 0,
    "pixel_col": 536.0,
    "pixel_row": 853.0,
    "population_density": 147.8,
    "position_along": 0.5,
    "protected_area_score": 6.4987,
    "rank": 14,
    "road_access_m": 102.5,
    "road_access_score": 1.0,
    "road_density_km_km2": 7.635,
    "robustness_pct": 0.0,
    "runoff_coeff_C": 0.0875,
    "seasonal_cv": 0.3805,
    "segment_id": 16,
    "segment_length_m": 318.4951,
    "stream_order": 3,
    "superfund_score": 0.0,
    "tourism_amenity_density": 3.3423,
    "tri_facility_density": 0.0,
    "usgs_mean_q_cfs": 7.562,
    "velocity_feasibility": 0.3,
    "water_intake_score": 1.9143
   },
   "type": "Feature"
  },
  {
   "geometry": {
    "coordinates": [
     -80.878284,
     36.274719
    ],
    "type": "Point"
   },
   "properties": {
    "accumulation": 116572.0,
    "bank_slope_deg": 24.66,
    "bank_slope_score": 0.5,
    "bank_slope_source": "nc-dps-lidar-dem03-cross-section",
    "beach_dist_km": 362.41,
    "bridge_proximity_bonus": 0.0,
    "catchment_area_km2": 11.6207,
    "channel_width_m": 8.63,
    "channel_width_score": 1.0,
    "composite_score": 38.7419,
    "cso_density": 0.0,
    "ej_index": 0.5798,
    "elevation_m": 292.7358,
    "estuary_dist_km": 456.9,
    "feasibility_score": 53.3482,
    "flood_q10_cfs": 1133.79,
    "flow_score": 56.2253,
    "flow_velocity_ms": 0.1564,
    "generation_score": 11.2591,
    "impact_score": 44.3522,
    "impervious_pct": 1.43,
    "land_ownership": 1.0,
    "lat": 36.2747,
    "litter_complaint_density": 0.0,
    "lon": -80.8783,
    "navigable_dist_m": null,
    "npdes_points": 0,
    "pixel_col": 185.0,
    "pixel_row": 339.0,
    "population_density": 84.3,
    "position_along": 0.5,
    "protected_area_score": 7.4014,
    "rank": 15,
    "road_access_m": 218.3,
    "road_access_score": 0.8,
    "road_density_km_km2": 2.135,
    "robustness_pct": 0.0,
    "runoff_coeff_C": 0.0629,
    "seasonal_cv": 0.3351,
    "segment_id": 3,
    "segment_length_m": 1730.6647,
    "stream_order": 3,
    "superfund_score": 0.0,
    "tourism_amenity_density": 0.3979,
    "tri_facility_density": 0.0,
    "usgs_mean_q_cfs": 47.322,
    "velocity_feasibility": 0.7,
    "water_intake_score": 1.9458
   },
   "type": "Feature"
  },
  {
   "geometry": {
    "coordinates": [
     -80.848192,
     36.227174
    ],
    "type": "Point"
   },
   "properties": {
    "accumulation": 34044.0,
    "bank_slope_deg": 18.63,
    "bank_slope_score": 0.5,
    "bank_slope_source": "nc-dps-lidar-dem03-cross-section",
    "beach_dist_km": 357.02,
    "bridge_proximity_bonus": 0.0,
    "catchment_area_km2": 3.3937,
    "channel_width_m": 5.18,
    "channel_width_score": 1.0,
    "composite_score": 38.3443,
    "cso_density": 0.0,
    "ej_index": 0.601,
    "elevation_m": 278.5005,
    "estuary_dist_km": 452.88,
    "feasibility_score": 50.2232,
    "flood_q10_cfs": 491.04,
    "flow_score": 22.4802,
    "flow_velocity_ms": 0.0952,
    "generation_score": 24.5625,
    "impact_score": 59.4067,
    "impervious_pct": 2.86,
    "land_ownership": 0.5,
    "lat": 36.2272,
    "litter_complaint_density": 0.0,
    "lon": -80.8482,
    "navigable_dist_m": null,
    "npdes_points": 0,
    "pixel_col": 457.0,
    "pixel_row": 864.0,
    "population_density": 135.0,
    "position_along": 0.5,
    "protected_area_score": 6.3357,
    "rank": 16,
    "road_access_m": 110.3,
    "road_access_score": 1.0,
    "road_density_km_km2": 5.132,
    "robustness_pct": 0.0,
    "runoff_coeff_C": 0.0757,
    "seasonal_cv": 0.4181,
    "segment_id": 17,
    "segment_length_m": 2051.8762,
    "stream_order": 3,
    "superfund_score": 0.0,
    "tourism_amenity_density": 3.3423,
    "tri_facility_density": 0.0,
    "usgs_mean_q_cfs": 3.361,
    "velocity_feasibility": 0.7,
    "water_intake_score": 1.9614
   },
   "type": "Feature"
  },
  {
   "geometry": {
    "coordinates": [
     -80.81796,
     36.234331
    ],
    "type": "Point"
   },
   "properties": {
    "accumulation": 34293.0,
    "bank_slope_deg": 4.48,
    "bank_slope_score": 1.0,
    "bank_slope_source": "nc-dps-lidar-dem03-cross-section",
    "beach_dist_km": 355.38,
    "bridge_proximity_bonus": 0.0,
    "catchment_area_km2": 3.4186,
    "channel_width_m": 5.2,
    "channel_width_score": 1.0,
    "composite_score": 38.0395,
    "cso_density": 0.0,
    "ej_index": 0.4278,
    "elevation_m": 279.6382,
    "estuary_dist_km": 450.47,
    "feasibility_score": 43.75,
    "flood_q10_cfs": 556.92,
    "flow_score": 24.257,
    "flow_velocity_ms": 0.0425,
    "generation_score": 33.3781,
    "impact_score": 51.3311,
    "impervious_pct": 9.74,
    "land_ownership": 0.5,
    "lat": 36.2343,
    "litter_complaint_density": 0.0,
    "lon": -80.818,
    "navigable_dist_m": null,
    "npdes_points": 0,
    "pixel_col": 726.0,
    "pixel_row": 783.0,
    "population_density": 133.7,
    "position_along": 0.25,
    "protected_area_score": 6.7378,
    "rank": 17,
    "road_access_m": 196.1,
    "road_access_score": 1.0,
    "road_density_km_km2": 2.834,
    "robustness_pct": 0.0,
    "runoff_coeff_C": 0.1377,
    "seasonal_cv": 0.4145,
    "segment_id": 14,
    "segment_length_m": 3721.7532,
    "stream_order": 3,
    "superfund_score": 0.0,
    "tourism_amenity_density": 0.557,
    "tri_facility_density": 0.0,
    "usgs_mean_q_cfs": 3.159,
    "velocity_feasibility": 0.3,
    "water_intake_score": 1.782
   },
   "type": "Feature"
  },
  {
   "geometry": {
    "coordinates": [
     -80.842729,
     36.281128
    ],
    "type": "Point"
   },
   "properties": {
    "accumulation": 32834.0,
    "bank_slope_deg": 12.38,
    "bank_slope_score": 1.0,
    "bank_slope_source": "nc-dps-lidar-dem03-cross-section",
    "beach_dist_km": 360.37,
    "bridge_proximity_bonus": 0.0,
    "catchment_area_km2": 3.2731,
    "channel_width_m": 5.1,
    "channel_width_score": 1.0,
    "composite_score": 37.0005,
    "cso_density": 0.0,
    "ej_index": 0.4972,
    "elevation_m": 305.3674,
    "estuary_dist_km": 454.03,
    "feasibility_score": 42.4107,
    "flood_q10_cfs": 509.62,
    "flow_score": 25.0485,
    "flow_velocity_ms": 0.1217,
    "generation_score": 30.5593,
    "impact_score": 50.6966,
    "impervious_pct": 6.54,
    "land_ownership": 0.5,
    "lat": 36.2811,
    "litter_complaint_density": 0.0,
    "lon": -80.8427,
    "navigable_dist_m": null,
    "npdes_points": 1,
    "pixel_col": 505.0,
    "pixel_row": 266.0,
    "population_density": 71.0,
    "position_along": 0.25,
    "protected_area_score": 7.8172,
    "rank": 18,
    "road_access_m": 230.9,
    "road_access_score": 0.8,
    "road_density_km_km2": 5.739,
    "robustness_pct": 0.0,
    "runoff_coeff_C": 0.1089,
    "seasonal_cv": 0.4122,
    "segment_id": 4,
    "segment_length_m": 4111.4359,
    "stream_order": 3,
    "superfund_score": 0.0,
    "tourism_amenity_density": 1.6711,
    "tri_facility_density": 0.0,
    "usgs_mean_q_cfs": 4.707,
    "velocity_feasibility": 0.7,
    "water_intake_score": 1.8404
   },
   "type": "Feature"
  },
  {
   "geometry": {
    "coordinates": [
     -80.873688,
     36.238239
    ],
    "type": "Point"
   },
   "properties": {
    "accumulation": 25588.0,
    "bank_slope_deg": 0.85,
    "bank_slope_score": 1.0,
    "bank_slope_source": "nc-dps-lidar-dem03-cross-section",
    "beach_dist_km": 359.58,
    "bridge_proximity_bonus": 0.0,
    "catchment_area_km2": 2.5508,
    "channel_width_m": 4.6,
    "channel_width_score": 1.0,
    "composite_score": 35.6321,
    "cso_density": 0.0,
    "ej_index": 0.3812,
    "elevation_m": 269.6264,
    "estuary_dist_km": 455.41,
    "feasibility_score": 58.0357,
    "flood_q10_cfs": 415.21,
    "flow_score": 21.285,
    "flow_velocity_ms": 0.1308,
    "generation_score": 24.8207,
    "impact_score": 47.1976,
    "impervious_pct": 5.57,
    "land_ownership": 0.5,
    "lat": 36.2382,
    "litter_complaint_density": 0.0,
    "lon": -80.8737,
    "navigable_dist_m": null,
    "npdes_points": 0,
    "pixel_col": 227.0,
    "pixel_row": 744.0,
    "population_density": 163.0,
    "position_along": 0.5,
    "protected_area_score": 6.4439,
    "rank": 19,
    "road_access_m": 169.7,
    "road_access_score": 1.0,
    "road_density_km_km2": 1.099,
    "robustness_pct": 0.0,
    "runoff_coeff_C": 0.1001,
    "seasonal_cv": 0.453,
    "segment_id": 12,
    "segment_length_m": 561.9607,
    "stream_order": 3,
    "superfund_score": 0.0,
    "tourism_amenity_density": 3.1831,
    "tri_facility_density": 0.0,
    "usgs_mean_q_cfs": 1.63,
    "velocity_feasibility": 0.7,
    "water_intake_score": 2.067
   },
   "type": "Feature"
  },
  {
   "geometry": {
    "coordinates": [
     -80.824025,
     36.229522
    ],
    "type": "Point"
   },
   "properties": {
    "accumulation": 31446.0,
    "bank_slope_deg": 22.33,
    "bank_slope_score": 0.5,
    "bank_slope_source": "nc-dps-lidar-dem03-cross-section",
    "beach_dist_km": 355.48,
    "bridge_proximity_bonus": 0.0,
    "catchment_area_km2": 3.1348,
    "channel_width_m": 5.01,
    "channel_width_score": 1.0,
    "composite_score": 35.0222,
    "cso_density": 0.0,
    "ej_index": 0.6072,
    "elevation_m": 271.9256,
    "estuary_dist_km": 450.86,
    "feasibility_score": 20.3125,
    "flood_q10_cfs": 473.83,
    "flow_score": 22.7275,
    "flow_velocity_ms": 0.0416,
    "generation_score": 29.1836,
    "impact_score": 58.4613,
    "impervious_pct": 4.24,
    "land_ownership": 0.5,
    "lat": 36.2295,
    "litter_complaint_density": 0.0,
    "lon": -80.824,
    "navigable_dist_m": null,
    "npdes_points": 0,
    "pixel_col": 671.0,
    "pixel_row": 837.0,
    "population_density": 182.8,
    "position_along": 0.5,
    "protected_area_score": 6.4912,
    "rank": 20,
    "road_access_m": 276.7,
    "road_access_score": 0.8,
    "road_density_km_km2": 3.754,
    "robustness_pct": 0.0,
    "runoff_coeff_C": 0.0882,
    "seasonal_cv": 0.3949,
    "segment_id": 19,
    "segment_length_m": 2588.4353,
    "stream_order": 3,
    "superfund_score": 0.0,
    "tourism_amenity_density": 1.9099,
    "tri_facility_density": 0.0,
    "usgs_mean_q_cfs": 5.399,
    "velocity_feasibility": 0.3,
    "water_intake_score": 1.805
   },
   "type": "Feature"
  },
  {
   "geometry": {
    "coordinates": [
     -80.879196,
     36.280115
    ],
    "type": "Point"
   },
   "properties": {
    "accumulation": 53754.0,
    "bank_slope_deg": 20.95,
    "bank_slope_score": 0.5,
    "bank_slope_source": "nc-dps-lidar-dem03-cross-section",
    "beach_dist_km": 362.85,
    "bridge_proximity_bonus": 0.0,
    "catchment_area_km2": 5.3586,
    "channel_width_m": 6.26,
    "channel_width_score": 1.0,
    "composite_score": 34.4357,
    "cso_density": 0.0,
    "ej_index": 0.5502,
    "elevation_m": 301.7707,
    "estuary_dist_km": 457.14,
    "feasibility_score": 60.9375,
    "flood_q10_cfs": 658.98,
    "flow_score": 45.8272,
    "flow_velocity_ms": 0.5,
    "generation_score": 6.5829,
    "impact_score": 39.5446,
    "impervious_pct": null,
    "land_ownership": 0.5,
    "lat": 36.2801,
    "litter_complaint_density": 0.0,
    "lon": -80.8792,
    "navigable_dist_m": null,
    "npdes_points": 0,
    "pixel_col": 176.0,
    "pixel_row": 279.0,
    "population_density": 62.8,
    "position_along": 0.75,
    "protected_area_score": 7.5125,
    "rank": 21,
    "road_access_m": 128.3,
    "road_access_score": 1.0,
    "road_density_km_km2": 2.211,
    "robustness_pct": 0.0,
    "runoff_coeff_C": null,
    "seasonal_cv": null,
    "segment_id": 2,
    "segment_length_m": 3223.4184,
    "stream_order": 3,
    "superfund_score": 0.0,
    "tourism_amenity_density": 0.4775,
    "tri_facility_density": 0.0,
    "usgs_mean_q_cfs": null,
    "velocity_feasibility": 1.0,
    "water_intake_score": 1.8561
   },
   "type": "Feature"
  },
  {
   "geometry": {
    "coordinates": [
     -80.806274,
     36.288996
    ],
    "type": "Point"
   },
   "properties": {
    "accumulation": 115018.0,
    "bank_slope_deg": 5.58,
    "bank_slope_score": 1.0,
    "bank_slope_source": "nc-dps-lidar-dem03-cross-section",
    "beach_dist_km": 358.38,
    "bridge_proximity_bonus": 0.0,
    "catchment_area_km2": 11.4658,
    "channel_width_m": 8.59,
    "channel_width_score": 1.0,
    "composite_score": 33.3104,
    "cso_density": 0.0,
    "ej_index": 0.3618,
    "elevation_m": 280.7398,
    "estuary_dist_km": 451.14,
    "feasibility_score": 42.4107,
    "flood_q10_cfs": 1166.39,
    "flow_score": 41.7054,
    "flow_velocity_ms": 0.1644,
    "generation_score": 13.7608,
    "impact_score": 41.3139,
    "impervious_pct": 4.02,
    "land_ownership": 0.5,
    "lat": 36.289,
    "litter_complaint_density": 0.0,
    "lon": -80.8063,
    "navigable_dist_m": null,
    "npdes_points": 1,
    "pixel_col": 833.0,
    "pixel_row": 177.0,
    "population_density": 39.4,
    "position_along": 0.5,
    "protected_area_score": 7.7456,
    "rank": 22,
    "road_access_m": 310.5,
    "road_access_score": 0.8,
    "road_density_km_km2": 1.05,
    "robustness_pct": 0.0,
    "runoff_coeff_C": 0.0862,
    "seasonal_cv": 0.3751,
    "segment_id": 5,
    "segment_length_m": 2355.2479,
    "stream_order": 3,
    "superfund_score": 0.0,
    "tourism_amenity_density": 0.0796,
    "tri_facility_density": 0.0,
    "usgs_mean_q_cfs": 9.87,
    "velocity_feasibility": 0.7,
    "water_intake_score": 1.5842
   },
   "type": "Feature"
  },
  {
   "geometry": {
    "coordinates": [
     -80.863614,
     36.283658
    ],
    "type": "Point"
   },
   "properties": {
    "accumulation": 39173.0,
    "bank_slope_deg": 4.77,
    "bank_slope_score": 1.0,
    "bank_slope_source": "nc-dps-lidar-dem03-cross-section",
    "beach_dist_km": 362.0,
    "bridge_proximity_bonus": 0.0,
    "catchment_area_km2": 3.905,
    "channel_width_m": 5.49,
    "channel_width_score": 1.0,
    "composite_score": 32.6174,
    "cso_density": 0.0,
    "ej_index": 0.6804,
    "elevation_m": 307.2207,
    "estuary_dist_km": 455.91,
    "feasibility_score": 42.4107,
    "flood_q10_cfs": 550.33,
    "flow_score": 25.2901,
    "flow_velocity_ms": 0.0951,
    "generation_score": 14.9637,
    "impact_score": 51.4807,
    "impervious_pct": 3.33,
    "land_ownership": 0.5,
    "lat": 36.2837,
    "litter_complaint_density": 0.0,
    "lon": -80.8636,
    "navigable_dist_m": null,
    "npdes_points": 0,
    "pixel_col": 313.0,
    "pixel_row": 240.0,
    "population_density": 72.8,
    "position_along": 0.5,
    "protected_area_score": 7.8211,
    "rank": 23,
    "road_access_m": 498.3,
    "road_access_score": 0.8,
    "road_density_km_km2": 2.73,
    "robustness_pct": 0.0,
    "runoff_coeff_C": 0.08,
    "seasonal_cv": 0.4062,
    "segment_id": 1,
    "segment_length_m": 2887.6712,
    "stream_order": 3,
    "superfund_score": 0.0,
    "tourism_amenity_density": 1.512,
    "tri_facility_density": 0.0,
    "usgs_mean_q_cfs": 6.809,
    "velocity_feasibility": 0.7,
    "water_intake_score": 1.851
   },
   "type": "Feature"
  },
  {
   "geometry": {
    "coordinates": [
     -80.880786,
     36.26641
    ],
    "type": "Point"
   },
   "properties": {
    "accumulation": 28064.0,
    "bank_slope_deg": 10.59,
    "bank_slope_score": 1.0,
    "bank_slope_source": "nc-dps-lidar-dem03-cross-section",
    "beach_dist_km": 362.01,
    "bridge_proximity_bonus": 0.0,
    "catchment_area_km2": 2.7976,
    "channel_width_m": 4.78,
    "channel_width_score": 1.0,
    "composite_score": 30.0968,
    "cso_density": 0.0,
    "ej_index": 0.547,
    "elevation_m": 294.6444,
    "estuary_dist_km": 456.86,
    "feasibility_score": 42.4107,
    "flood_q10_cfs": 419.87,
    "flow_score": 21.6934,
    "flow_velocity_ms": 0.1272,
    "generation_score": 14.1091,
    "impact_score": 46.9304,
    "impervious_pct": 2.23,
    "land_ownership": 0.5,
    "lat": 36.2664,
    "litter_complaint_density": 0.0,
    "lon": -80.8808,
    "navigable_dist_m": null,
    "npdes_points": 0,
    "pixel_col": 163.0,
    "pixel_row": 429.0,
    "population_density": 78.8,
    "position_along": 0.5,
    "protected_area_score": 7.3102,
    "rank": 24,
    "road_access_m": 200.1,
    "road_access_score": 0.8,
    "road_density_km_km2": 3.098,
    "robustness_pct": 0.0,
    "runoff_coeff_C": 0.0701,
    "seasonal_cv": 0.4292,
    "segment_id": 6,
    "segment_length_m": 1753.0559,
    "stream_order": 3,
    "superfund_score": 0.0,
    "tourism_amenity_density": 0.7162,
    "tri_facility_density": 0.0,
    "usgs_mean_q_cfs": 3.61,
    "velocity_feasibility": 0.7,
    "water_intake_score": 2.0278
   },
   "type": "Feature"
  },
  {
   "geometry": {
    "coordinates": [
     -80.823543,
     36.285692
    ],
    "type": "Point"
   },
   "properties": {
    "accumulation": 52608.0,
    "bank_slope_deg": 23.8,
    "bank_slope_score": 0.5,
    "bank_slope_source": "nc-dps-lidar-dem03-cross-section",
    "beach_dist_km": 359.35,
    "bridge_proximity_bonus": 0.0,
    "catchment_area_km2": 5.2443,
    "channel_width_m": 6.21,
    "channel_width_score": 1.0,
    "composite_score": 29.1145,
    "cso_density": 0.0,
    "ej_index": 0.3435,
    "elevation_m": 290.8601,
    "estuary_dist_km": 452.52,
    "feasibility_score": 20.3125,
    "flood_q10_cfs": 726.99,
    "flow_score": 27.2666,
    "flow_velocity_ms": 0.0489,
    "generation_score": 21.5637,
    "impact_score": 42.6063,
    "impervious_pct": 6.54,
    "land_ownership": 0.5,
    "lat": 36.2857,
    "litter_complaint_density": 0.0,
    "lon": -80.8235,
    "navigable_dist_m": null,
    "npdes_points": 1,
    "pixel_col": 678.0,
    "pixel_row": 214.0,
    "population_density": 38.9,
    "position_along": 0.75,
    "protected_area_score": 7.8689,
    "rank": 25,
    "road_access_m": 391.1,
    "road_access_score": 0.8,
    "road_density_km_km2": 2.618,
    "robustness_pct": 0.0,
    "runoff_coeff_C": 0.1089,
    "seasonal_cv": 0.4122,
    "segment_id": 4,
    "segment_length_m": 4111.4359,
    "stream_order": 3,
    "superfund_score": 0.0,
    "tourism_amenity_density": 0.6366,
    "tri_facility_density": 0.0,
    "usgs_mean_q_cfs": 4.707,
    "velocity_feasibility": 0.3,
    "water_intake_score": 1.6965
   },
   "type": "Feature"
  },
  {
   "geometry": {
    "coordinates": [
     -80.883595,
     36.291553
    ],
    "type": "Point"
   },
   "properties": {
    "accumulation": 23448.0,
    "bank_slope_deg": 8.72,
    "bank_slope_score": 1.0,
    "bank_slope_source": "nc-dps-lidar-dem03-cross-section",
    "beach_dist_km": 363.95,
    "bridge_proximity_bonus": 0.0,
    "catchment_area_km2": 2.3375,
    "channel_width_m": 4.44,
    "channel_width_score": 1.0,
    "composite_score": 28.115,
    "cso_density": 0.0,
    "ej_index": 0.4898,
    "elevation_m": 328.7176,
    "estuary_dist_km": 457.87,
    "feasibility_score": 53.125,
    "flood_q10_cfs": 352.65,
    "flow_score": 40.2127,
    "flow_velocity_ms": 0.5,
    "generation_score": 3.5542,
    "impact_score": 30.0894,
    "impervious_pct": null,
    "land_ownership": 0.5,
    "lat": 36.2916,
    "litter_complaint_density": 0.0,
    "lon": -80.8836,
    "navigable_dist_m": null,
    "npdes_points": 0,
    "pixel_col": 136.0,
    "pixel_row": 152.0,
    "population_density": 48.6,
    "position_along": 0.25,
    "protected_area_score": 7.713,
    "rank": 26,
    "road_access_m": 313.1,
    "road_access_score": 0.8,
    "road_density_km_km2": 1.331,
    "robustness_pct": 0.0,
    "runoff_coeff_C": null,
    "seasonal_cv": null,
    "segment_id": 2,
    "segment_length_m": 3223.4184,
    "stream_order": 3,
    "superfund_score": 0.0,
    "tourism_amenity_density": 1.2732,
    "tri_facility_density": 0.0,
    "usgs_mean_q_cfs": null,
    "velocity_feasibility": 1.0,
    "water_intake_score": 1.6796
   },
   "type": "Feature"
  },
  {
   "geometry": {
    "coordinates": [
     -80.88366,
     36.235072
    ],
    "type": "Point"
   },
   "properties": {
    "accumulation": 33105.0,
    "bank_slope_deg": 14.22,
    "bank_slope_score": 1.0,
    "bank_slope_source": "nc-dps-lidar-dem03-cross-section",
    "beach_dist_km": 360.07,
    "bridge_proximity_bonus": 0.0,
    "catchment_area_km2": 3.3001,
    "channel_width_m": 5.12,
    "channel_width_score": 1.0,
    "composite_score": 28.0395,
    "cso_density": 0.0,
    "ej_index": 0.2555,
    "elevation_m": 266.3673,
    "estuary_dist_km": 456.18,
    "feasibility_score": 53.125,
    "flood_q10_cfs": 457.33,
    "flow_score": 42.0738,
    "flow_velocity_ms": 0.5,
    "generation_score": 3.69,
    "impact_score": 28.1509,
    "impervious_pct": null,
    "land_ownership": 0.5,
    "lat": 36.2351,
    "litter_complaint_density": 0.0,
    "lon": -80.8837,
    "navigable_dist_m": null,
    "npdes_points": 0,
    "pixel_col": 138.0,
    "pixel_row": 779.0,
    "population_density": 58.9,
    "position_along": 0.5,
    "protected_area_score": 6.1442,
    "rank": 27,
    "road_access_m": 456.3,
    "road_access_score": 0.8,
    "road_density_km_km2": 0.884,
    "robustness_pct": 0.0,
    "runoff_coeff_C": null,
    "seasonal_cv": null,
    "segment_id": 13,
    "segment_length_m": 1676.7795,
    "stream_order": 3,
    "superfund_score": 0.0,
    "tourism_amenity_density": 0.0,
    "tri_facility_density": 0.0,
    "usgs_mean_q_cfs": null,
    "velocity_feasibility": 1.0,
    "water_intake_score": 1.9369
   },
   "type": "Feature"
  },
  {
   "geometry": {
    "coordinates": [
     -80.802731,
     36.258745
    ],
    "type": "Point"
   },
   "properties": {
    "accumulation": 35392.0,
    "bank_slope_deg": 0.07,
    "bank_slope_score": 1.0,
    "bank_slope_source": "nc-dps-lidar-dem03-cross-section",
    "beach_dist_km": 356.01,
    "bridge_proximity_bonus": 0.0,
    "catchment_area_km2": 3.5281,
    "channel_width_m": 5.26,
    "channel_width_score": 1.0,
    "composite_score": 26.2023,
    "cso_density": 0.0,
    "ej_index": 0.3143,
    "elevation_m": 271.1888,
    "estuary_dist_km": 449.9,
    "feasibility_score": 43.75,
    "flood_q10_cfs": 516.72,
    "flow_score": 7.5431,
    "flow_velocity_ms": 0.0429,
    "generation_score": 10.9852,
    "impact_score": 48.1949,
    "impervious_pct": 4.1,
    "land_ownership": 0.5,
    "lat": 36.2587,
    "litter_complaint_density": 0.0,
    "lon": -80.8027,
    "navigable_dist_m": null,
    "npdes_points": 0,
    "pixel_col": 864.0,
    "pixel_row": 515.0,
    "population_density": 37.3,
    "position_along": 0.5,
    "protected_area_score": 7.5947,
    "rank": 28,
    "road_access_m": 128.9,
    "road_access_score": 1.0,
    "road_density_km_km2": 1.638,
    "robustness_pct": 0.0,
    "runoff_coeff_C": 0.0869,
    "seasonal_cv": 0.4272,
    "segment_id": 9,
    "segment_length_m": 2005.3807,
    "stream_order": 1,
    "superfund_score": 0.0,
    "tourism_amenity_density": 0.0,
    "tri_facility_density": 0.0,
    "usgs_mean_q_cfs": 2.351,
    "velocity_feasibility": 0.3,
    "water_intake_score": 1.6817
   },
   "type": "Feature"
  },
  {
   "geometry": {
    "coordinates": [
     -80.880646,
     36.231304
    ],
    "type": "Point"
   },
   "properties": {
    "accumulation": 42610.0,
    "bank_slope_deg": 12.95,
    "bank_slope_score": 1.0,
    "bank_slope_source": "nc-dps-lidar-dem03-cross-section",
    "beach_dist_km": 359.6,
    "bridge_proximity_bonus": 0.0,
    "catchment_area_km2": 4.2477,
    "channel_width_m": 5.69,
    "channel_width_score": 1.0,
    "composite_score": 25.0261,
    "cso_density": 0.0,
    "ej_index": 0.4034,
    "elevation_m": 271.7695,
    "estuary_dist_km": 455.8,
    "feasibility_score": 42.4107,
    "flood_q10_cfs": 566.66,
    "flow_score": 25.0918,
    "flow_velocity_ms": 0.1213,
    "generation_score": 7.0486,
    "impact_score": 34.2564,
    "impervious_pct": 1.38,
    "land_ownership": 0.5,
    "lat": 36.2313,
    "litter_complaint_density": 0.0,
    "lon": -80.8806,
    "navigable_dist_m": null,
    "npdes_points": 0,
    "pixel_col": 165.0,
    "pixel_row": 819.0,
    "population_density": 65.9,
    "position_along": 0.75,
    "protected_area_score": 6.0714,
    "rank": 29,
    "road_access_m": 207.0,
    "road_access_score": 0.8,
    "road_density_km_km2": 0.895,
    "robustness_pct": 0.0,
    "runoff_coeff_C": 0.0624,
    "seasonal_cv": 0.3941,
    "segment_id": 22,
    "segment_length_m": 3197.895,
    "stream_order": 3,
    "superfund_score": 0.0,
    "tourism_amenity_density": 0.0796,
    "tri_facility_density": 0.0,
    "usgs_mean_q_cfs": 4.497,
    "velocity_feasibility": 0.7,
    "water_intake_score": 1.9271
   },
   "type": "Feature"
  },
  {
   "geometry": {
    "coordinates": [
     -80.819787,
     36.290738
    ],
    "type": "Point"
   },
   "properties": {
    "accumulation": 38357.0,
    "bank_slope_deg": 11.77,
    "bank_slope_score": 1.0,
    "bank_slope_source": "nc-dps-lidar-dem03-cross-section",
    "beach_dist_km": 359.44,
    "bridge_proximity_bonus": 0.0,
    "catchment_area_km2": 3.8237,
    "channel_width_m": 5.44,
    "channel_width_score": 1.0,
    "composite_score": 21.1941,
    "cso_density": 0.0,
    "ej_index": 0.3435,
    "elevation_m": 290.7902,
    "estuary_dist_km": 452.36,
    "feasibility_score": 12.5,
    "flood_q10_cfs": 525.24,
    "flow_score": 22.0796,
    "flow_velocity_ms": 0.0442,
    "generation_score": 5.4787,
    "impact_score": 40.5185,
    "impervious_pct": 1.57,
    "land_ownership": 0.5,
    "lat": 36.2907,
    "litter_complaint_density": 0.0,
    "lon": -80.8198,
    "navigable_dist_m": null,
    "npdes_points": 0,
    "pixel_col": 710.0,
    "pixel_row": 160.0,
    "population_density": 38.9,
    "position_along": 0.5,
    "protected_area_score": 7.9592,
    "rank": 30,
    "road_access_m": 535.5,
    "road_access_score": 0.6,
    "road_density_km_km2": 1.234,
    "robustness_pct": 0.0,
    "runoff_coeff_C": 0.0641,
    "seasonal_cv": 0.4181,
    "segment_id": 0,
    "segment_length_m": 909.1114,
    "stream_order": 3,
    "superfund_score": 0.0,
    "tourism_amenity_density": 0.2387,
    "tri_facility_density": 0.0,
    "usgs_mean_q_cfs": 4.333,
    "velocity_feasibility": 0.3,
    "water_intake_score": 1.6396
   },
   "type": "Feature"
  },
  {
   "geometry": {
    "coordinates": [
     -80.885145,
     36.220316
    ],
    "type": "Point"
   },
   "properties": {
    "accumulation": 34273.0,
    "bank_slope_deg": 8.58,
    "bank_slope_score": 1.0,
    "bank_slope_source": "nc-dps-lidar-dem03-cross-section",
    "beach_dist_km": 359.17,
    "bridge_proximity_bonus": 0.0,
    "catchment_area_km2": 3.4166,
    "channel_width_m": 5.2,
    "channel_width_score": 1.0,
    "composite_score": 20.8324,
    "cso_density": 0.0,
    "ej_index": 0.4423,
    "elevation_m": 280.5358,
    "estuary_dist_km": 455.87,
    "feasibility_score": 42.4107,
    "flood_q10_cfs": 480.91,
    "flow_score": 23.5097,
    "flow_velocity_ms": 0.1204,
    "generation_score": 3.6294,
    "impact_score": 25.0151,
    "impervious_pct": 1.38,
    "land_ownership": 0.5,
    "lat": 36.2203,
    "litter_complaint_density": 0.0,
    "lon": -80.8851,
    "navigable_dist_m": null,
    "npdes_points": 0,
    "pixel_col": 123.0,
    "pixel_row": 940.0,
    "population_density": 20.3,
    "position_along": 0.25,
    "protected_area_score": 5.3288,
    "rank": 31,
    "road_access_m": 463.1,
    "road_access_score": 0.8,
    "road_density_km_km2": 1.39,
    "robustness_pct": 0.0,
    "runoff_coeff_C": 0.0624,
    "seasonal_cv": 0.3941,
    "segment_id": 22,
    "segment_length_m": 3197.895,
    "stream_order": 3,
    "superfund_score": 0.0,
    "tourism_amenity_density": 0.0796,
    "tri_facility_density": 0.0,
    "usgs_mean_q_cfs": 4.497,
    "velocity_feasibility": 0.7,
    "water_intake_score": 1.7648
   },
   "type": "Feature"
  }
 ],
 "note": "GRIME region 'Elkin, NC' \u2014 real-data pipeline (DEM\u2192streams\u2192candidates\u2192stream mask (sites confined to \u00b1150 m of mapped OSM/NHD waterways)\u2192region-appropriate real parameters\u2192shipped scoring, math unchanged). Width curve: Bieger et al. 2015 JAWRA Table 3, Appalachian Highlands. Flood: SIR 2014-5030 HR1. NC Piedmont (DEQ physiography polygon); merged nearby towns: Jonesville",
 "provenance": {
  "candidates_pre_gate": 31,
  "constant": [
   "channel_width_score",
   "cso_density",
   "litter_complaint_density",
   "superfund_score"
  ],
  "gated_navigable": 0,
  "hard_gate_removed": 0,
  "n_parameters": 27,
  "parameters": {
   "bank_slope_score": {
    "kind": "real",
    "n_3dep_10m_fallback": 0,
    "n_nc_lidar_3_125ft": 31,
    "n_real": 31,
    "n_sites": 31,
    "source": "NC OneMap / NC DPS DEM03 statewide lidar-derived 3.125-ft (0.953 m) elevations (perpendicular 50 m transect; robust 5 m bank-rise metric); unavailable profiles use the region 10 m 3DEP DEM-gradient fallback",
    "source_mosaics": [
     "Surry_Ground_3ft",
     "Wilkes_Ground_3ft",
     "Yadkin_Ground_3ft"
    ]
   },
   "beach_dist_km": {
    "kind": "real",
    "n_real": 31,
    "n_sites": 31,
    "source": "haversine to region ref: Wrightsville Beach (shipped NC reference)"
   },
   "bridge_proximity_bonus": {
    "kind": "real",
    "n_real": 31,
    "n_sites": 31,
    "source": "FHWA/BTS NBI (NTAD), 50 m proximity"
   },
   "catchment_area_km2": {
    "kind": "real",
    "n_real": 31,
    "n_sites": 31,
    "source": "DEM flow accumulation (pipeline)"
   },
   "channel_width_score": {
    "kind": "real",
    "n_real": 31,
    "n_sites": 31,
    "source": "Bieger 2015 AHI width curve on DEM drainage area \u2192 shipped width curve"
   },
   "cso_density": {
    "kind": "real",
    "n_real": 31,
    "n_sites": 31,
    "source": "EPA ECHO open CSO/TCS outfall PF coordinates states=NC, Cauchy proximity"
   },
   "ej_index": {
    "kind": "real",
    "n_real": 31,
    "n_sites": 31,
    "source": "Census ACS C17002+B03002 two-component demographic index, percentile-ranked within region"
   },
   "estuary_dist_km": {
    "kind": "real",
    "n_real": 31,
    "n_sites": 31,
    "source": "haversine to region ref: Pamlico Sound (shipped NC reference)"
   },
   "flood_q10_cfs": {
    "impervious_fallback_reason": "StreamCat imperviousness unavailable; the existing regression-input fallback of 0.0% impervious was used and is disclosed here",
    "kind": "real",
    "n_impervious_fallback": 8,
    "n_real": 31,
    "n_sites": 31,
    "source": "USGS SIR 2014-5030 Table 7 HR1 (NC Piedmont)"
   },
   "flow_velocity_ms": {
    "fallback_reason": "EROM/DEM continuity input unavailable; shipped 0.5 m/s default used",
    "kind": "real",
    "n_fallback": 8,
    "n_real": 23,
    "n_sites": 31,
    "source": "Manning (region DEM/D8) blended with EROM continuity (shipped M4 logic)"
   },
   "impervious_pct": {
    "fallback_reason": "NLDI/StreamCat did not return a snap-compatible catchment value; value remains null and is removed by constant-column handling",
    "kind": "real",
    "n_fallback": 8,
    "n_real": 23,
    "n_sites": 31,
    "source": "EPA StreamCat pctimp2019 (per NHDPlus watershed)"
   },
   "land_ownership": {
    "fallback_reason": "no containing parcel owner returned; shipped unknown ownership 0.5 used",
    "kind": "real",
    "n_fallback": 9,
    "n_real": 22,
    "n_sites": 31,
    "source": "NC OneMap statewide parcels (NC Parcels Transformer) ownname"
   },
   "litter_complaint_density": {
    "kind": "fallback",
    "n_real": 0,
    "n_sites": 31,
    "source": "no public machine-readable litter/illegal-dumping feed for this region"
   },
   "navigable_dist_m": {
    "kind": "real",
    "n_real": 31,
    "n_sites": 31,
    "source": "USACE/BTS NWN (NTAD): no navigable segment within this bbox (+2 km) \u2014 computed absence, gate passes all sites"
   },
   "npdes_points": {
    "kind": "real",
    "n_real": 31,
    "n_sites": 31,
    "source": "EPA ECHO active NPDES outfalls states=NC (types NPD/GPC/NGP; statuses ADC/EFF/EXP), per catchment"
   },
   "population_density": {
    "kind": "real",
    "n_real": 31,
    "n_sites": 31,
    "source": "Census ACS 2022 B01003 block groups (bbox, multi-county), area-weighted"
   },
   "protected_area_score": {
    "kind": "real",
    "n_real": 31,
    "n_sites": 31,
    "source": "USGS PAD-US 4.1 state GDB; states=NC; shipped designation-weighted proximity curve"
   },
   "road_access_score": {
    "kind": "real",
    "n_real": 31,
    "n_sites": 31,
    "source": "OSM drive network nearest-node distance"
   },
   "road_density_km_km2": {
    "kind": "real",
    "n_real": 31,
    "n_sites": 31,
    "source": "OSM drive network (osmnx, cached) clipped per catchment"
   },
   "runoff_coeff_C": {
    "fallback_reason": "source impervious_pct was unavailable; derived value remains null",
    "kind": "real",
    "n_fallback": 8,
    "n_real": 23,
    "n_sites": 31,
    "source": "derived from real impervious_pct (C=0.05+0.009*I)"
   },
   "seasonal_cv": {
    "fallback_reason": "NHDPlus monthly EROM was unavailable or failed the drainage-area snap guard; value remains null",
    "kind": "real",
    "n_fallback": 8,
    "n_real": 23,
    "n_sites": 31,
    "source": "CV of NHDPlus EROM monthly flows per COMID"
   },
   "stream_order": {
    "kind": "real",
    "n_real": 31,
    "n_sites": 31,
    "source": "DEM stream-network confluence heuristic (pipeline)"
   },
   "superfund_score": {
    "kind": "real",
    "n_real": 31,
    "n_sites": 31,
    "source": "EPA DataMap SEMS active sites states=NC (non-archived, georeferenced), shipped 500 m inverse-distance curve"
   },
   "tourism_amenity_density": {
    "kind": "real",
    "n_real": 31,
    "n_sites": 31,
    "source": "OSM leisure/tourism features per 2 km radius"
   },
   "tri_facility_density": {
    "kind": "real",
    "n_real": 31,
    "n_sites": 31,
    "source": "EPA DataMap TRI open facilities states=NC (preferred decimal or packed-DMS recovery), per catchment"
   },
   "usgs_mean_q_cfs": {
    "fallback_reason": "NHDPlus EROM was unavailable or failed the drainage-area snap guard; value remains null",
    "kind": "real",
    "n_fallback": 8,
    "n_real": 23,
    "n_sites": 31,
    "source": "NHDPlus EROM qe_ma per COMID (snap-guarded)"
   },
   "velocity_feasibility": {
    "fallback_reason": "derived from the shipped 0.5 m/s velocity fallback",
    "kind": "real",
    "n_fallback": 8,
    "n_real": 23,
    "n_sites": 31,
    "source": "shipped step curve on the computed velocity"
   },
   "velocity_transport_favorability": {
    "fallback_reason": "EROM/DEM continuity input unavailable; shipped 0.5 m/s default used",
    "kind": "derived",
    "n_fallback": 8,
    "n_real": 23,
    "n_sites": 31,
    "source": "scored form of flow_velocity_ms inside the Flow family \u2014 peaked Gaussian exp(-((v-0.9)/0.6)^2), model.json curves.velocity_transport_favorability; construct: transport/delivery favorability, deliberately distinct from velocity_feasibility (device operability)"
   },
   "water_intake_score": {
    "kind": "real",
    "n_real": 31,
    "n_sites": 31,
    "source": "NC OneMap / NC DEQ SWAP public water supply sources (source_typ='Surface Water'), shipped exp(-d/10km) curve"
   }
  },
  "stream_mask": {
   "buffer_m": 150.0,
   "pre_mask": 31,
   "removed": 0,
   "sources": [
    "osm-overpass (all waterway ways)",
    "usgs-nhdplus flowlines"
   ]
  },
  "varying": [
   "bank_slope_score",
   "beach_dist_km",
   "bridge_proximity_bonus",
   "catchment_area_km2",
   "ej_index",
   "estuary_dist_km",
   "flood_q10_cfs",
   "flow_velocity_ms",
   "impervious_pct",
   "land_ownership",
   "npdes_points",
   "population_density",
   "protected_area_score",
   "road_access_score",
   "road_density_km_km2",
   "runoff_coeff_C",
   "seasonal_cv",
   "stream_order",
   "tourism_amenity_density",
   "tri_facility_density",
   "usgs_mean_q_cfs",
   "velocity_feasibility",
   "water_intake_score"
  ]
 },
 "region": {
  "bbox": [
   -80.8987,
   36.2082,
   -80.7955,
   36.305
  ],
  "beach_ref": {
   "label": "Wrightsville Beach (shipped NC reference)",
   "lat": 34.21,
   "lon": -77.79
  },
  "center": [
   -80.847106,
   36.263365
  ],
  "estuary_ref": {
   "label": "Pamlico Sound (shipped NC reference)",
   "lat": 35.05,
   "lon": -76.05
  },
  "flood_method": "sir2014_hr1",
  "name": "Elkin, NC",
  "notes": "NC Piedmont (DEQ physiography polygon); merged nearby towns: Jonesville",
  "slug": "elkin",
  "state": "NC",
  "utm_epsg": 32617,
  "width_curve": {
   "a": 3.12,
   "b": 0.415,
   "code": "AHI",
   "source": "Bieger et al. 2015 JAWRA Table 3, Appalachian Highlands"
  }
 },
 "type": "FeatureCollection"
}
