{
 "features": [
  {
   "geometry": {
    "coordinates": [
     -79.73792,
     35.064703
    ],
    "type": "Point"
   },
   "properties": {
    "accumulation": 29104.0,
    "bank_slope_deg": 8.74,
    "bank_slope_score": 1.0,
    "bank_slope_source": "nc-dps-lidar-dem03-cross-section",
    "beach_dist_km": 201.96,
    "bridge_proximity_bonus": 0.0,
    "catchment_area_km2": 2.9002,
    "channel_width_m": 3.27,
    "channel_width_score": 1.0,
    "composite_score": 86.3028,
    "cso_density": 0.0,
    "ej_index": 0.5833,
    "elevation_m": 112.3314,
    "estuary_dist_km": 335.67,
    "feasibility_score": 100.0,
    "flood_q10_cfs": 190.48,
    "flow_score": 98.5156,
    "flow_velocity_ms": 0.1423,
    "generation_score": 87.2094,
    "impact_score": 68.3701,
    "impervious_pct": 4.87,
    "land_ownership": 0.5,
    "lat": 35.0647,
    "litter_complaint_density": 0.0,
    "lon": -79.7379,
    "navigable_dist_m": null,
    "npdes_points": 0,
    "pixel_col": 383.0,
    "pixel_row": 257.0,
    "population_density": 15.5,
    "position_along": 0.5,
    "protected_area_score": 5.8336,
    "rank": 1,
    "road_access_m": 86.1,
    "road_access_score": 1.0,
    "road_density_km_km2": 1.096,
    "robustness_pct": 100.0,
    "runoff_coeff_C": 0.0938,
    "seasonal_cv": 0.428,
    "segment_id": 1,
    "segment_length_m": 634.1501,
    "stream_order": 1,
    "superfund_score": 0.0,
    "tourism_amenity_density": 0.0796,
    "tri_facility_density": 0.0,
    "usgs_mean_q_cfs": 2.058,
    "velocity_feasibility": 0.7,
    "water_intake_score": 1.3462
   },
   "type": "Feature"
  },
  {
   "geometry": {
    "coordinates": [
     -79.777242,
     35.083705
    ],
    "type": "Point"
   },
   "properties": {
    "accumulation": 21209.0,
    "bank_slope_deg": 11.59,
    "bank_slope_score": 1.0,
    "bank_slope_source": "nc-dps-lidar-dem03-cross-section",
    "beach_dist_km": 206.11,
    "bridge_proximity_bonus": 0.0,
    "catchment_area_km2": 2.1134,
    "channel_width_m": 2.91,
    "channel_width_score": 1.0,
    "composite_score": 44.8914,
    "cso_density": 0.0,
    "ej_index": 0.3214,
    "elevation_m": 126.6265,
    "estuary_dist_km": 339.22,
    "feasibility_score": 28.5714,
    "flood_q10_cfs": 161.64,
    "flow_score": 52.0095,
    "flow_velocity_ms": 0.1303,
    "generation_score": 79.1667,
    "impact_score": 12.8443,
    "impervious_pct": 5.98,
    "land_ownership": 0.5,
    "lat": 35.0837,
    "litter_complaint_density": 0.0,
    "lon": -79.7772,
    "navigable_dist_m": null,
    "npdes_points": 0,
    "pixel_col": 17.0,
    "pixel_row": 48.0,
    "population_density": 16.9,
    "position_along": 0.5,
    "protected_area_score": 4.9592,
    "rank": 2,
    "road_access_m": 1245.4,
    "road_access_score": 0.3,
    "road_density_km_km2": 0.0,
    "robustness_pct": 100.0,
    "runoff_coeff_C": 0.1038,
    "seasonal_cv": 0.4292,
    "segment_id": 0,
    "segment_length_m": 508.5139,
    "stream_order": 1,
    "superfund_score": 0.0,
    "tourism_amenity_density": 0.6366,
    "tri_facility_density": 0.0,
    "usgs_mean_q_cfs": 1.699,
    "velocity_feasibility": 0.7,
    "water_intake_score": 1.2443
   },
   "type": "Feature"
  },
  {
   "geometry": {
    "coordinates": [
     -79.778947,
     35.056392
    ],
    "type": "Point"
   },
   "properties": {
    "accumulation": 20542.0,
    "bank_slope_deg": 24.75,
    "bank_slope_score": 0.5,
    "bank_slope_source": "nc-dps-lidar-dem03-cross-section",
    "beach_dist_km": 204.86,
    "bridge_proximity_bonus": 0.0,
    "catchment_area_km2": 2.047,
    "channel_width_m": 2.88,
    "channel_width_score": 1.0,
    "composite_score": 14.2221,
    "cso_density": 0.0,
    "ej_index": 0.7381,
    "elevation_m": 109.4711,
    "estuary_dist_km": 339.41,
    "feasibility_score": 0.0,
    "flood_q10_cfs": 140.41,
    "flow_score": 0.0,
    "flow_velocity_ms": 0.1213,
    "generation_score": 0.0,
    "impact_score": 47.407,
    "impervious_pct": 0.75,
    "land_ownership": 0.5,
    "lat": 35.0564,
    "litter_complaint_density": 0.0,
    "lon": -79.7789,
    "navigable_dist_m": null,
    "npdes_points": 0,
    "pixel_col": 7.0,
    "pixel_row": 355.0,
    "population_density": 3.6,
    "position_along": 0.5,
    "protected_area_score": 4.8943,
    "rank": 3,
    "road_access_m": 1473.4,
    "road_access_score": 0.3,
    "road_density_km_km2": 0.0,
    "robustness_pct": 100.0,
    "runoff_coeff_C": 0.0568,
    "seasonal_cv": 0.4335,
    "segment_id": 2,
    "segment_length_m": 174.5448,
    "stream_order": 1,
    "superfund_score": 0.0,
    "tourism_amenity_density": 0.0,
    "tri_facility_density": 0.0,
    "usgs_mean_q_cfs": 0.528,
    "velocity_feasibility": 0.7,
    "water_intake_score": 1.5132
   },
   "type": "Feature"
  }
 ],
 "note": "GRIME region 'Ellerbe, NC' \u2014 real-data pipeline (DEM\u2192streams\u2192candidates\u2192stream mask (sites confined to \u00b1150 m of mapped OSM/NHD waterways)\u2192region-appropriate real parameters\u2192shipped scoring, math unchanged). Width curve: Bieger et al. 2015 JAWRA Table 3, Atlantic Plain. Flood: SIR 2014-5030 HR4 (I24H50Y: NOAA Atlas 14). NC Coastal Plain (SIR 2014-5030 HR4; I24H50Y from NOAA Atlas 14 at region center)",
 "provenance": {
  "candidates_pre_gate": 3,
  "constant": [
   "bridge_proximity_bonus",
   "channel_width_score",
   "cso_density",
   "land_ownership",
   "litter_complaint_density",
   "npdes_points",
   "stream_order",
   "superfund_score",
   "tri_facility_density",
   "velocity_feasibility"
  ],
  "gated_navigable": 0,
  "hard_gate_removed": 0,
  "n_parameters": 27,
  "parameters": {
   "bank_slope_score": {
    "kind": "real",
    "n_3dep_10m_fallback": 0,
    "n_nc_lidar_3_125ft": 3,
    "n_real": 3,
    "n_sites": 3,
    "source": "NC OneMap / NC DPS DEM03 statewide lidar-derived 3.125-ft (0.953 m) elevations (perpendicular 50 m transect; robust 5 m bank-rise metric); unavailable profiles use the region 10 m 3DEP DEM-gradient fallback",
    "source_mosaics": [
     "Richmond_QL1_2024_03ft_CountywideRaster"
    ]
   },
   "beach_dist_km": {
    "kind": "real",
    "n_real": 3,
    "n_sites": 3,
    "source": "haversine to region ref: Wrightsville Beach (shipped NC reference)"
   },
   "bridge_proximity_bonus": {
    "kind": "real",
    "n_real": 3,
    "n_sites": 3,
    "source": "FHWA/BTS NBI (NTAD), 50 m proximity"
   },
   "catchment_area_km2": {
    "kind": "real",
    "n_real": 3,
    "n_sites": 3,
    "source": "DEM flow accumulation (pipeline)"
   },
   "channel_width_score": {
    "kind": "real",
    "n_real": 3,
    "n_sites": 3,
    "source": "Bieger 2015 APL width curve on DEM drainage area \u2192 shipped width curve"
   },
   "cso_density": {
    "kind": "real",
    "n_real": 3,
    "n_sites": 3,
    "source": "EPA ECHO open CSO/TCS outfall PF coordinates states=NC, Cauchy proximity"
   },
   "ej_index": {
    "kind": "real",
    "n_real": 3,
    "n_sites": 3,
    "source": "Census ACS C17002+B03002 two-component demographic index, percentile-ranked within region"
   },
   "estuary_dist_km": {
    "kind": "real",
    "n_real": 3,
    "n_sites": 3,
    "source": "haversine to region ref: Pamlico Sound (shipped NC reference)"
   },
   "flood_q10_cfs": {
    "kind": "real",
    "n_real": 3,
    "n_sites": 3,
    "source": "USGS SIR 2014-5030 Table 7 HR4 (NC Coastal Plain; I24H50Y from NOAA Atlas 14 at region center)"
   },
   "flow_velocity_ms": {
    "kind": "real",
    "n_fallback": 0,
    "n_real": 3,
    "n_sites": 3,
    "source": "Manning (region DEM/D8) blended with EROM continuity (shipped M4 logic)"
   },
   "impervious_pct": {
    "kind": "real",
    "n_real": 3,
    "n_sites": 3,
    "source": "EPA StreamCat pctimp2019 (per NHDPlus watershed)"
   },
   "land_ownership": {
    "kind": "real",
    "n_fallback": 0,
    "n_real": 3,
    "n_sites": 3,
    "source": "NC OneMap statewide parcels (NC Parcels Transformer) ownname"
   },
   "litter_complaint_density": {
    "kind": "fallback",
    "n_real": 0,
    "n_sites": 3,
    "source": "no public machine-readable litter/illegal-dumping feed for this region"
   },
   "navigable_dist_m": {
    "kind": "real",
    "n_real": 3,
    "n_sites": 3,
    "source": "USACE/BTS NWN (NTAD): no navigable segment within this bbox (+2 km) \u2014 computed absence, gate passes all sites"
   },
   "npdes_points": {
    "kind": "real",
    "n_real": 3,
    "n_sites": 3,
    "source": "EPA ECHO active NPDES outfalls states=NC (types NPD/GPC/NGP; statuses ADC/EFF/EXP), per catchment"
   },
   "population_density": {
    "kind": "real",
    "n_real": 3,
    "n_sites": 3,
    "source": "Census ACS 2022 B01003 block groups (bbox, multi-county), area-weighted"
   },
   "protected_area_score": {
    "kind": "real",
    "n_real": 3,
    "n_sites": 3,
    "source": "USGS PAD-US 4.1 state GDB; states=NC; shipped designation-weighted proximity curve"
   },
   "road_access_score": {
    "kind": "real",
    "n_real": 3,
    "n_sites": 3,
    "source": "OSM drive network nearest-node distance"
   },
   "road_density_km_km2": {
    "kind": "real",
    "n_real": 3,
    "n_sites": 3,
    "source": "OSM drive network (osmnx, cached) clipped per catchment"
   },
   "runoff_coeff_C": {
    "kind": "real",
    "n_real": 3,
    "n_sites": 3,
    "source": "derived from real impervious_pct (C=0.05+0.009*I)"
   },
   "seasonal_cv": {
    "kind": "real",
    "n_real": 3,
    "n_sites": 3,
    "source": "CV of NHDPlus EROM monthly flows per COMID"
   },
   "stream_order": {
    "kind": "real",
    "n_real": 3,
    "n_sites": 3,
    "source": "DEM stream-network confluence heuristic (pipeline)"
   },
   "superfund_score": {
    "kind": "real",
    "n_real": 3,
    "n_sites": 3,
    "source": "EPA DataMap SEMS active sites states=NC (non-archived, georeferenced), shipped 500 m inverse-distance curve"
   },
   "tourism_amenity_density": {
    "kind": "real",
    "n_real": 3,
    "n_sites": 3,
    "source": "OSM leisure/tourism features per 2 km radius"
   },
   "tri_facility_density": {
    "kind": "real",
    "n_real": 3,
    "n_sites": 3,
    "source": "EPA DataMap TRI open facilities states=NC (preferred decimal or packed-DMS recovery), per catchment"
   },
   "usgs_mean_q_cfs": {
    "kind": "real",
    "n_real": 3,
    "n_sites": 3,
    "source": "NHDPlus EROM qe_ma per COMID (snap-guarded)"
   },
   "velocity_feasibility": {
    "kind": "real",
    "n_fallback": 0,
    "n_real": 3,
    "n_sites": 3,
    "source": "shipped step curve on the computed velocity"
   },
   "velocity_transport_favorability": {
    "kind": "derived",
    "n_real": 3,
    "n_sites": 3,
    "source": "scored form of flow_velocity_ms inside the Flow family \u2014 peaked Gaussian exp(-((v-0.9)/0.6)^2), model.json curves.velocity_transport_favorability; construct: transport/delivery favorability, deliberately distinct from velocity_feasibility (device operability)"
   },
   "water_intake_score": {
    "kind": "real",
    "n_real": 3,
    "n_sites": 3,
    "source": "NC OneMap / NC DEQ SWAP public water supply sources (source_typ='Surface Water'), shipped exp(-d/10km) curve"
   }
  },
  "stream_mask": {
   "buffer_m": 150.0,
   "pre_mask": 3,
   "removed": 0,
   "sources": [
    "osm-overpass (all waterway ways)",
    "usgs-nhdplus flowlines"
   ]
  },
  "varying": [
   "bank_slope_score",
   "beach_dist_km",
   "catchment_area_km2",
   "ej_index",
   "estuary_dist_km",
   "flood_q10_cfs",
   "flow_velocity_ms",
   "impervious_pct",
   "population_density",
   "protected_area_score",
   "road_access_score",
   "road_density_km_km2",
   "runoff_coeff_C",
   "seasonal_cv",
   "tourism_amenity_density",
   "usgs_mean_q_cfs",
   "water_intake_score"
  ]
 },
 "region": {
  "bbox": [
   -79.7793,
   35.0512,
   -79.7346,
   35.0878
  ],
  "beach_ref": {
   "label": "Wrightsville Beach (shipped NC reference)",
   "lat": 34.21,
   "lon": -77.79
  },
  "center": [
   -79.756986,
   35.069501
  ],
  "estuary_ref": {
   "label": "Pamlico Sound (shipped NC reference)",
   "lat": 35.05,
   "lon": -76.05
  },
  "flood_method": "sir2014_hr4",
  "name": "Ellerbe, NC",
  "notes": "NC Coastal Plain (SIR 2014-5030 HR4; I24H50Y from NOAA Atlas 14 at region center)",
  "slug": "ellerbe",
  "state": "NC",
  "utm_epsg": 32617,
  "width_curve": {
   "a": 2.22,
   "b": 0.363,
   "code": "APL",
   "source": "Bieger et al. 2015 JAWRA Table 3, Atlantic Plain"
  }
 },
 "type": "FeatureCollection"
}
