{
 "features": [
  {
   "geometry": {
    "coordinates": [
     -81.740145,
     35.342342
    ],
    "type": "Point"
   },
   "properties": {
    "accumulation": 45465.0,
    "bank_slope_deg": 20.0,
    "bank_slope_score": 0.5,
    "bank_slope_source": "nc-dps-lidar-dem03-cross-section",
    "beach_dist_km": 382.09,
    "bridge_proximity_bonus": 0.0,
    "catchment_area_km2": 4.5352,
    "channel_width_m": 5.84,
    "channel_width_score": 1.0,
    "composite_score": 54.4897,
    "cso_density": 0.0,
    "ej_index": 0.4413,
    "elevation_m": 253.4277,
    "estuary_dist_km": 517.99,
    "feasibility_score": 22.7273,
    "flood_q10_cfs": 597.0,
    "flow_score": 73.0116,
    "flow_velocity_ms": 0.0445,
    "generation_score": 38.85,
    "impact_score": 70.5757,
    "impervious_pct": 1.54,
    "land_ownership": 0.5,
    "lat": 35.3423,
    "litter_complaint_density": 0.0,
    "lon": -81.7401,
    "navigable_dist_m": null,
    "npdes_points": 0,
    "pixel_col": 398.0,
    "pixel_row": 75.0,
    "population_density": 95.8,
    "position_along": 0.5,
    "protected_area_score": 3.968,
    "rank": 1,
    "road_access_m": 258.0,
    "road_access_score": 0.8,
    "road_density_km_km2": 0.83,
    "robustness_pct": 100.0,
    "runoff_coeff_C": 0.0639,
    "seasonal_cv": 0.4312,
    "segment_id": 2,
    "segment_length_m": 180.485,
    "stream_order": 3,
    "superfund_score": 0.0,
    "tourism_amenity_density": 0.0,
    "tri_facility_density": 0.0,
    "usgs_mean_q_cfs": 18.817,
    "velocity_feasibility": 0.3,
    "water_intake_score": 1.0743
   },
   "type": "Feature"
  },
  {
   "geometry": {
    "coordinates": [
     -81.741274,
     35.342128
    ],
    "type": "Point"
   },
   "properties": {
    "accumulation": 25039.0,
    "bank_slope_deg": 11.61,
    "bank_slope_score": 1.0,
    "bank_slope_source": "nc-dps-lidar-dem03-cross-section",
    "beach_dist_km": 382.18,
    "bridge_proximity_bonus": 0.0,
    "catchment_area_km2": 2.4977,
    "channel_width_m": 4.56,
    "channel_width_score": 1.0,
    "composite_score": 54.0121,
    "cso_density": 0.0,
    "ej_index": 0.4395,
    "elevation_m": 254.2533,
    "estuary_dist_km": 518.1,
    "feasibility_score": 100.0,
    "flood_q10_cfs": 370.72,
    "flow_score": 40.1178,
    "flow_velocity_ms": 0.5,
    "generation_score": 24.4381,
    "impact_score": 72.1706,
    "impervious_pct": null,
    "land_ownership": 0.5,
    "lat": 35.3421,
    "litter_complaint_density": 0.0,
    "lon": -81.7413,
    "navigable_dist_m": null,
    "npdes_points": 0,
    "pixel_col": 387.0,
    "pixel_row": 77.0,
    "population_density": 95.5,
    "position_along": 0.5,
    "protected_area_score": 3.9639,
    "rank": 2,
    "road_access_m": 167.7,
    "road_access_score": 1.0,
    "road_density_km_km2": 0.999,
    "robustness_pct": 100.0,
    "runoff_coeff_C": null,
    "seasonal_cv": null,
    "segment_id": 1,
    "segment_length_m": 44.087,
    "stream_order": 3,
    "superfund_score": 0.0,
    "tourism_amenity_density": 0.0796,
    "tri_facility_density": 0.0,
    "usgs_mean_q_cfs": null,
    "velocity_feasibility": 1.0,
    "water_intake_score": 1.0719
   },
   "type": "Feature"
  },
  {
   "geometry": {
    "coordinates": [
     -81.741822,
     35.342686
    ],
    "type": "Point"
   },
   "properties": {
    "accumulation": 24964.0,
    "bank_slope_deg": 18.11,
    "bank_slope_score": 0.5,
    "bank_slope_source": "nc-dps-lidar-dem03-cross-section",
    "beach_dist_km": 382.24,
    "bridge_proximity_bonus": 0.0,
    "catchment_area_km2": 2.4902,
    "channel_width_m": 4.56,
    "channel_width_score": 1.0,
    "composite_score": 50.9028,
    "cso_density": 0.0,
    "ej_index": 0.4297,
    "elevation_m": 255.0493,
    "estuary_dist_km": 518.15,
    "feasibility_score": 81.8182,
    "flood_q10_cfs": 369.88,
    "flow_score": 40.0,
    "flow_velocity_ms": 0.5,
    "generation_score": 20.8333,
    "impact_score": 74.6002,
    "impervious_pct": null,
    "land_ownership": 0.5,
    "lat": 35.3427,
    "litter_complaint_density": 0.0,
    "lon": -81.7418,
    "navigable_dist_m": null,
    "npdes_points": 0,
    "pixel_col": 381.0,
    "pixel_row": 73.0,
    "population_density": 93.9,
    "position_along": 0.5,
    "protected_area_score": 3.965,
    "rank": 3,
    "road_access_m": 101.4,
    "road_access_score": 1.0,
    "road_density_km_km2": 1.025,
    "robustness_pct": 100.0,
    "runoff_coeff_C": null,
    "seasonal_cv": null,
    "segment_id": 0,
    "segment_length_m": 255.2444,
    "stream_order": 3,
    "superfund_score": 0.0,
    "tourism_amenity_density": 0.1592,
    "tri_facility_density": 0.0,
    "usgs_mean_q_cfs": null,
    "velocity_feasibility": 1.0,
    "water_intake_score": 1.0722
   },
   "type": "Feature"
  },
  {
   "geometry": {
    "coordinates": [
     -81.77968,
     35.325688
    ],
    "type": "Point"
   },
   "properties": {
    "accumulation": 26719.0,
    "bank_slope_deg": 25.1,
    "bank_slope_score": 0.5,
    "bank_slope_source": "nc-dps-lidar-dem03-cross-section",
    "beach_dist_km": 384.93,
    "bridge_proximity_bonus": 0.0,
    "catchment_area_km2": 2.6652,
    "channel_width_m": 4.69,
    "channel_width_score": 1.0,
    "composite_score": 43.3228,
    "cso_density": 0.0,
    "ej_index": 0.6543,
    "elevation_m": 263.87,
    "estuary_dist_km": 521.52,
    "feasibility_score": 20.7792,
    "flood_q10_cfs": 414.05,
    "flow_score": 29.3021,
    "flow_velocity_ms": 0.1229,
    "generation_score": 79.1667,
    "impact_score": 30.4348,
    "impervious_pct": 3.52,
    "land_ownership": 0.5,
    "lat": 35.3257,
    "litter_complaint_density": 0.0,
    "lon": -81.7797,
    "navigable_dist_m": null,
    "npdes_points": 0,
    "pixel_col": 34.0,
    "pixel_row": 260.0,
    "population_density": 107.8,
    "position_along": 0.5,
    "protected_area_score": 3.5826,
    "rank": 4,
    "road_access_m": 560.4,
    "road_access_score": 0.6,
    "road_density_km_km2": 0.264,
    "robustness_pct": 100.0,
    "runoff_coeff_C": 0.0817,
    "seasonal_cv": 0.4454,
    "segment_id": 3,
    "segment_length_m": 1268.242,
    "stream_order": 1,
    "superfund_score": 0.0,
    "tourism_amenity_density": 0.2387,
    "tri_facility_density": 0.0,
    "usgs_mean_q_cfs": 14.785,
    "velocity_feasibility": 0.7,
    "water_intake_score": 1.0026
   },
   "type": "Feature"
  }
 ],
 "note": "GRIME region 'Ellenboro, NC' \u2014 real-data pipeline (DEM\u2192streams\u2192candidates\u2192stream mask (sites confined to \u00b1150 m of mapped OSM/NHD waterways)\u2192region-appropriate real parameters\u2192shipped scoring, math unchanged). Width curve: Bieger et al. 2015 JAWRA Table 3, Appalachian Highlands. Flood: SIR 2014-5030 HR1. NC Piedmont (DEQ physiography polygon)",
 "provenance": {
  "candidates_pre_gate": 4,
  "constant": [
   "bridge_proximity_bonus",
   "channel_width_score",
   "cso_density",
   "land_ownership",
   "litter_complaint_density",
   "npdes_points",
   "superfund_score",
   "tri_facility_density"
  ],
  "gated_navigable": 0,
  "hard_gate_removed": 0,
  "n_parameters": 27,
  "parameters": {
   "bank_slope_score": {
    "kind": "real",
    "n_3dep_10m_fallback": 0,
    "n_nc_lidar_3_125ft": 4,
    "n_real": 4,
    "n_sites": 4,
    "source": "NC OneMap / NC DPS DEM03 statewide lidar-derived 3.125-ft (0.953 m) elevations (perpendicular 50 m transect; robust 5 m bank-rise metric); unavailable profiles use the region 10 m 3DEP DEM-gradient fallback",
    "source_mosaics": [
     "Rutherford_QL1_2025_03ft_CountywideRaster"
    ]
   },
   "beach_dist_km": {
    "kind": "real",
    "n_real": 4,
    "n_sites": 4,
    "source": "haversine to region ref: Wrightsville Beach (shipped NC reference)"
   },
   "bridge_proximity_bonus": {
    "kind": "real",
    "n_real": 4,
    "n_sites": 4,
    "source": "FHWA/BTS NBI (NTAD), 50 m proximity"
   },
   "catchment_area_km2": {
    "kind": "real",
    "n_real": 4,
    "n_sites": 4,
    "source": "DEM flow accumulation (pipeline)"
   },
   "channel_width_score": {
    "kind": "real",
    "n_real": 4,
    "n_sites": 4,
    "source": "Bieger 2015 AHI width curve on DEM drainage area \u2192 shipped width curve"
   },
   "cso_density": {
    "kind": "real",
    "n_real": 4,
    "n_sites": 4,
    "source": "EPA ECHO open CSO/TCS outfall PF coordinates states=NC, Cauchy proximity"
   },
   "ej_index": {
    "kind": "real",
    "n_real": 4,
    "n_sites": 4,
    "source": "Census ACS C17002+B03002 two-component demographic index, percentile-ranked within region"
   },
   "estuary_dist_km": {
    "kind": "real",
    "n_real": 4,
    "n_sites": 4,
    "source": "haversine to region ref: Pamlico Sound (shipped NC reference)"
   },
   "flood_q10_cfs": {
    "impervious_fallback_reason": "StreamCat imperviousness unavailable; the existing regression-input fallback of 0.0% impervious was used and is disclosed here",
    "kind": "real",
    "n_impervious_fallback": 2,
    "n_real": 4,
    "n_sites": 4,
    "source": "USGS SIR 2014-5030 Table 7 HR1 (NC Piedmont)"
   },
   "flow_velocity_ms": {
    "fallback_reason": "EROM/DEM continuity input unavailable; shipped 0.5 m/s default used",
    "kind": "real",
    "n_fallback": 2,
    "n_real": 2,
    "n_sites": 4,
    "source": "Manning (region DEM/D8) blended with EROM continuity (shipped M4 logic)"
   },
   "impervious_pct": {
    "fallback_reason": "NLDI/StreamCat did not return a snap-compatible catchment value; value remains null and is removed by constant-column handling",
    "kind": "real",
    "n_fallback": 2,
    "n_real": 2,
    "n_sites": 4,
    "source": "EPA StreamCat pctimp2019 (per NHDPlus watershed)"
   },
   "land_ownership": {
    "kind": "real",
    "n_fallback": 0,
    "n_real": 4,
    "n_sites": 4,
    "source": "NC OneMap statewide parcels (NC Parcels Transformer) ownname"
   },
   "litter_complaint_density": {
    "kind": "fallback",
    "n_real": 0,
    "n_sites": 4,
    "source": "no public machine-readable litter/illegal-dumping feed for this region"
   },
   "navigable_dist_m": {
    "kind": "real",
    "n_real": 4,
    "n_sites": 4,
    "source": "USACE/BTS NWN (NTAD): no navigable segment within this bbox (+2 km) \u2014 computed absence, gate passes all sites"
   },
   "npdes_points": {
    "kind": "real",
    "n_real": 4,
    "n_sites": 4,
    "source": "EPA ECHO active NPDES outfalls states=NC (types NPD/GPC/NGP; statuses ADC/EFF/EXP), per catchment"
   },
   "population_density": {
    "kind": "real",
    "n_real": 4,
    "n_sites": 4,
    "source": "Census ACS 2022 B01003 block groups (bbox, multi-county), area-weighted"
   },
   "protected_area_score": {
    "kind": "real",
    "n_real": 4,
    "n_sites": 4,
    "source": "USGS PAD-US 4.1 state GDB; states=NC; shipped designation-weighted proximity curve"
   },
   "road_access_score": {
    "kind": "real",
    "n_real": 4,
    "n_sites": 4,
    "source": "OSM drive network nearest-node distance"
   },
   "road_density_km_km2": {
    "kind": "real",
    "n_real": 4,
    "n_sites": 4,
    "source": "OSM drive network (osmnx, cached) clipped per catchment"
   },
   "runoff_coeff_C": {
    "fallback_reason": "source impervious_pct was unavailable; derived value remains null",
    "kind": "real",
    "n_fallback": 2,
    "n_real": 2,
    "n_sites": 4,
    "source": "derived from real impervious_pct (C=0.05+0.009*I)"
   },
   "seasonal_cv": {
    "fallback_reason": "NHDPlus monthly EROM was unavailable or failed the drainage-area snap guard; value remains null",
    "kind": "real",
    "n_fallback": 2,
    "n_real": 2,
    "n_sites": 4,
    "source": "CV of NHDPlus EROM monthly flows per COMID"
   },
   "stream_order": {
    "kind": "real",
    "n_real": 4,
    "n_sites": 4,
    "source": "DEM stream-network confluence heuristic (pipeline)"
   },
   "superfund_score": {
    "kind": "real",
    "n_real": 4,
    "n_sites": 4,
    "source": "EPA DataMap SEMS active sites states=NC (non-archived, georeferenced), shipped 500 m inverse-distance curve"
   },
   "tourism_amenity_density": {
    "kind": "real",
    "n_real": 4,
    "n_sites": 4,
    "source": "OSM leisure/tourism features per 2 km radius"
   },
   "tri_facility_density": {
    "kind": "real",
    "n_real": 4,
    "n_sites": 4,
    "source": "EPA DataMap TRI open facilities states=NC (preferred decimal or packed-DMS recovery), per catchment"
   },
   "usgs_mean_q_cfs": {
    "fallback_reason": "NHDPlus EROM was unavailable or failed the drainage-area snap guard; value remains null",
    "kind": "real",
    "n_fallback": 2,
    "n_real": 2,
    "n_sites": 4,
    "source": "NHDPlus EROM qe_ma per COMID (snap-guarded)"
   },
   "velocity_feasibility": {
    "fallback_reason": "derived from the shipped 0.5 m/s velocity fallback",
    "kind": "real",
    "n_fallback": 2,
    "n_real": 2,
    "n_sites": 4,
    "source": "shipped step curve on the computed velocity"
   },
   "velocity_transport_favorability": {
    "fallback_reason": "EROM/DEM continuity input unavailable; shipped 0.5 m/s default used",
    "kind": "derived",
    "n_fallback": 2,
    "n_real": 2,
    "n_sites": 4,
    "source": "scored form of flow_velocity_ms inside the Flow family \u2014 peaked Gaussian exp(-((v-0.9)/0.6)^2), model.json curves.velocity_transport_favorability; construct: transport/delivery favorability, deliberately distinct from velocity_feasibility (device operability)"
   },
   "water_intake_score": {
    "kind": "real",
    "n_real": 4,
    "n_sites": 4,
    "source": "NC OneMap / NC DEQ SWAP public water supply sources (source_typ='Surface Water'), shipped exp(-d/10km) curve"
   }
  },
  "stream_mask": {
   "buffer_m": 150.0,
   "pre_mask": 4,
   "removed": 0,
   "sources": [
    "osm-overpass (all waterway ways)",
    "usgs-nhdplus flowlines"
   ]
  },
  "varying": [
   "bank_slope_score",
   "beach_dist_km",
   "catchment_area_km2",
   "ej_index",
   "estuary_dist_km",
   "flood_q10_cfs",
   "flow_velocity_ms",
   "impervious_pct",
   "population_density",
   "protected_area_score",
   "road_access_score",
   "road_density_km_km2",
   "runoff_coeff_C",
   "seasonal_cv",
   "stream_order",
   "tourism_amenity_density",
   "usgs_mean_q_cfs",
   "velocity_feasibility",
   "water_intake_score"
  ]
 },
 "region": {
  "bbox": [
   -81.7834,
   35.3129,
   -81.7392,
   35.3489
  ],
  "beach_ref": {
   "label": "Wrightsville Beach (shipped NC reference)",
   "lat": 34.21,
   "lon": -77.79
  },
  "center": [
   -81.761274,
   35.330878
  ],
  "estuary_ref": {
   "label": "Pamlico Sound (shipped NC reference)",
   "lat": 35.05,
   "lon": -76.05
  },
  "flood_method": "sir2014_hr1",
  "name": "Ellenboro, NC",
  "notes": "NC Piedmont (DEQ physiography polygon)",
  "slug": "ellenboro",
  "state": "NC",
  "utm_epsg": 32617,
  "width_curve": {
   "a": 3.12,
   "b": 0.415,
   "code": "AHI",
   "source": "Bieger et al. 2015 JAWRA Table 3, Appalachian Highlands"
  }
 },
 "type": "FeatureCollection"
}
