{
 "features": [
  {
   "geometry": {
    "coordinates": [
     -78.682049,
     35.332708
    ],
    "type": "Point"
   },
   "properties": {
    "accumulation": 33120.0,
    "bank_slope_deg": 8.44,
    "bank_slope_score": 1.0,
    "bank_slope_source": "nc-dps-lidar-dem03-cross-section",
    "beach_dist_km": 149.07,
    "bridge_proximity_bonus": 0.0,
    "catchment_area_km2": 3.3081,
    "channel_width_m": 3.43,
    "channel_width_score": 1.0,
    "composite_score": 54.1039,
    "cso_density": 0.0,
    "ej_index": 0.597,
    "elevation_m": 38.2745,
    "estuary_dist_km": 241.23,
    "feasibility_score": 43.75,
    "flood_q10_cfs": 299.27,
    "flow_score": 30.9665,
    "flow_velocity_ms": 0.1584,
    "generation_score": 77.3969,
    "impact_score": 55.269,
    "impervious_pct": 18.13,
    "land_ownership": 0.5,
    "lat": 35.3327,
    "litter_complaint_density": 0.0,
    "lon": -78.682,
    "navigable_dist_m": null,
    "npdes_points": 0,
    "pixel_col": 295.0,
    "pixel_row": 261.0,
    "population_density": 231.2,
    "position_along": 0.5,
    "protected_area_score": 5.1738,
    "rank": 1,
    "road_access_m": 125.8,
    "road_access_score": 1.0,
    "road_density_km_km2": 6.678,
    "robustness_pct": 100.0,
    "runoff_coeff_C": 0.2132,
    "seasonal_cv": 0.4063,
    "segment_id": 3,
    "segment_length_m": 2493.7304,
    "stream_order": 3,
    "superfund_score": 0.28,
    "tourism_amenity_density": 2.3077,
    "tri_facility_density": 0.3023,
    "usgs_mean_q_cfs": 1.896,
    "velocity_feasibility": 0.7,
    "water_intake_score": 1.2746
   },
   "type": "Feature"
  },
  {
   "geometry": {
    "coordinates": [
     -78.644857,
     35.309888
    ],
    "type": "Point"
   },
   "properties": {
    "accumulation": 28754.0,
    "bank_slope_deg": 24.12,
    "bank_slope_score": 0.5,
    "bank_slope_source": "nc-dps-lidar-dem03-cross-section",
    "beach_dist_km": 145.11,
    "bridge_proximity_bonus": 0.0,
    "catchment_area_km2": 2.872,
    "channel_width_m": 3.26,
    "channel_width_score": 1.0,
    "composite_score": 48.3421,
    "cso_density": 0.0,
    "ej_index": 0.5982,
    "elevation_m": 48.5322,
    "estuary_dist_km": 237.59,
    "feasibility_score": 47.3214,
    "flood_q10_cfs": 180.34,
    "flow_score": 27.6894,
    "flow_velocity_ms": 0.5,
    "generation_score": 67.5087,
    "impact_score": 46.8965,
    "impervious_pct": null,
    "land_ownership": 0.5,
    "lat": 35.3099,
    "litter_complaint_density": 0.0,
    "lon": -78.6449,
    "navigable_dist_m": null,
    "npdes_points": 5,
    "pixel_col": 642.0,
    "pixel_row": 508.0,
    "population_density": 274.4,
    "position_along": 0.5,
    "protected_area_score": 5.5071,
    "rank": 2,
    "road_access_m": 411.5,
    "road_access_score": 0.8,
    "road_density_km_km2": 3.183,
    "robustness_pct": 96.5,
    "runoff_coeff_C": null,
    "seasonal_cv": null,
    "segment_id": 6,
    "segment_length_m": 1410.8233,
    "stream_order": 1,
    "superfund_score": 0.0259,
    "tourism_amenity_density": 0.0,
    "tri_facility_density": 0.3482,
    "usgs_mean_q_cfs": null,
    "velocity_feasibility": 1.0,
    "water_intake_score": 0.9174
   },
   "type": "Feature"
  },
  {
   "geometry": {
    "coordinates": [
     -78.693493,
     35.313848
    ],
    "type": "Point"
   },
   "properties": {
    "accumulation": 202901.0,
    "bank_slope_deg": 13.42,
    "bank_slope_score": 1.0,
    "bank_slope_source": "nc-dps-lidar-dem03-cross-section",
    "beach_dist_km": 147.91,
    "bridge_proximity_bonus": 0.0,
    "catchment_area_km2": 20.2659,
    "channel_width_m": 6.62,
    "channel_width_score": 1.0,
    "composite_score": 46.6894,
    "cso_density": 0.0,
    "ej_index": 0.5609,
    "elevation_m": 20.0683,
    "estuary_dist_km": 242.03,
    "feasibility_score": 78.5714,
    "flood_q10_cfs": 582.89,
    "flow_score": 72.0,
    "flow_velocity_ms": 0.5,
    "generation_score": 17.0908,
    "impact_score": 39.2548,
    "impervious_pct": null,
    "land_ownership": 1.0,
    "lat": 35.3138,
    "litter_complaint_density": 0.0,
    "lon": -78.6935,
    "navigable_dist_m": null,
    "npdes_points": 0,
    "pixel_col": 199.0,
    "pixel_row": 475.0,
    "population_density": 97.4,
    "position_along": 0.75,
    "protected_area_score": 5.2282,
    "rank": 3,
    "road_access_m": 265.1,
    "road_access_score": 0.8,
    "road_density_km_km2": 2.476,
    "robustness_pct": 99.5,
    "runoff_coeff_C": null,
    "seasonal_cv": null,
    "segment_id": 4,
    "segment_length_m": 4006.0868,
    "stream_order": 3,
    "superfund_score": 0.0672,
    "tourism_amenity_density": 0.8754,
    "tri_facility_density": 0.0987,
    "usgs_mean_q_cfs": null,
    "velocity_feasibility": 1.0,
    "water_intake_score": 1.2569
   },
   "type": "Feature"
  },
  {
   "geometry": {
    "coordinates": [
     -78.694022,
     35.328683
    ],
    "type": "Point"
   },
   "properties": {
    "accumulation": 161405.0,
    "bank_slope_deg": 27.63,
    "bank_slope_score": 0.5,
    "bank_slope_source": "nc-dps-lidar-dem03-cross-section",
    "beach_dist_km": 149.3,
    "bridge_proximity_bonus": 0.0,
    "catchment_area_km2": 16.1213,
    "channel_width_m": 6.09,
    "channel_width_score": 1.0,
    "composite_score": 45.8464,
    "cso_density": 0.0,
    "ej_index": 0.5379,
    "elevation_m": 23.5318,
    "estuary_dist_km": 242.26,
    "feasibility_score": 50.0,
    "flood_q10_cfs": 573.38,
    "flow_score": 68.9309,
    "flow_velocity_ms": 0.191,
    "generation_score": 30.396,
    "impact_score": 39.9831,
    "impervious_pct": 5.2,
    "land_ownership": 1.0,
    "lat": 35.3287,
    "litter_complaint_density": 0.0,
    "lon": -78.694,
    "navigable_dist_m": null,
    "npdes_points": 0,
    "pixel_col": 191.0,
    "pixel_row": 307.0,
    "population_density": 120.7,
    "position_along": 0.25,
    "protected_area_score": 5.1639,
    "rank": 4,
    "road_access_m": 150.6,
    "road_access_score": 1.0,
    "road_density_km_km2": 3.504,
    "robustness_pct": 100.0,
    "runoff_coeff_C": 0.0968,
    "seasonal_cv": 0.4558,
    "segment_id": 4,
    "segment_length_m": 4006.0868,
    "stream_order": 3,
    "superfund_score": 0.1073,
    "tourism_amenity_density": 1.0345,
    "tri_facility_density": 0.1241,
    "usgs_mean_q_cfs": 18.086,
    "velocity_feasibility": 0.7,
    "water_intake_score": 1.3961
   },
   "type": "Feature"
  },
  {
   "geometry": {
    "coordinates": [
     -78.636127,
     35.330815
    ],
    "type": "Point"
   },
   "properties": {
    "accumulation": 24863.0,
    "bank_slope_deg": 14.43,
    "bank_slope_score": 1.0,
    "bank_slope_source": "nc-dps-lidar-dem03-cross-section",
    "beach_dist_km": 146.65,
    "bridge_proximity_bonus": 0.2,
    "catchment_area_km2": 2.4833,
    "channel_width_m": 3.09,
    "channel_width_score": 1.0,
    "composite_score": 41.4739,
    "cso_density": 0.0,
    "ej_index": 0.6812,
    "elevation_m": 50.5365,
    "estuary_dist_km": 237.07,
    "feasibility_score": 91.0714,
    "flood_q10_cfs": 165.27,
    "flow_score": 26.8137,
    "flow_velocity_ms": 0.5,
    "generation_score": 20.9535,
    "impact_score": 49.4124,
    "impervious_pct": null,
    "land_ownership": 1.0,
    "lat": 35.3308,
    "litter_complaint_density": 0.0,
    "lon": -78.6361,
    "navigable_dist_m": null,
    "npdes_points": 0,
    "pixel_col": 717.0,
    "pixel_row": 271.0,
    "population_density": 242.4,
    "position_along": 0.5,
    "protected_area_score": 5.2914,
    "rank": 5,
    "road_access_m": 424.9,
    "road_access_score": 0.8,
    "road_density_km_km2": 0.632,
    "robustness_pct": 71.5,
    "runoff_coeff_C": null,
    "seasonal_cv": null,
    "segment_id": 5,
    "segment_length_m": 693.5558,
    "stream_order": 1,
    "superfund_score": 0.0227,
    "tourism_amenity_density": 0.0,
    "tri_facility_density": 0.0,
    "usgs_mean_q_cfs": null,
    "velocity_feasibility": 1.0,
    "water_intake_score": 0.9113
   },
   "type": "Feature"
  },
  {
   "geometry": {
    "coordinates": [
     -78.692367,
     35.335664
    ],
    "type": "Point"
   },
   "properties": {
    "accumulation": 106468.0,
    "bank_slope_deg": 24.98,
    "bank_slope_score": 0.5,
    "bank_slope_source": "nc-dps-lidar-dem03-cross-section",
    "beach_dist_km": 149.87,
    "bridge_proximity_bonus": 0.0,
    "catchment_area_km2": 10.6341,
    "channel_width_m": 5.24,
    "channel_width_score": 1.0,
    "composite_score": 34.741,
    "cso_density": 0.0,
    "ej_index": 0.524,
    "elevation_m": 29.1793,
    "estuary_dist_km": 242.2,
    "feasibility_score": 22.3214,
    "flood_q10_cfs": 423.18,
    "flow_score": 54.1387,
    "flow_velocity_ms": 0.169,
    "generation_score": 24.8083,
    "impact_score": 34.7187,
    "impervious_pct": 2.88,
    "land_ownership": 0.5,
    "lat": 35.3357,
    "litter_complaint_density": 0.0,
    "lon": -78.6924,
    "navigable_dist_m": null,
    "npdes_points": 0,
    "pixel_col": 203.0,
    "pixel_row": 232.0,
    "population_density": 125.2,
    "position_along": 0.5,
    "protected_area_score": 5.1717,
    "rank": 6,
    "road_access_m": 414.9,
    "road_access_score": 0.8,
    "road_density_km_km2": 3.123,
    "robustness_pct": 30.0,
    "runoff_coeff_C": 0.0759,
    "seasonal_cv": 0.4516,
    "segment_id": 2,
    "segment_length_m": 562.507,
    "stream_order": 3,
    "superfund_score": 0.0962,
    "tourism_amenity_density": 0.7958,
    "tri_facility_density": 0.094,
    "usgs_mean_q_cfs": 15.4,
    "velocity_feasibility": 0.7,
    "water_intake_score": 1.3511
   },
   "type": "Feature"
  },
  {
   "geometry": {
    "coordinates": [
     -78.689201,
     35.342244
    ],
    "type": "Point"
   },
   "properties": {
    "accumulation": 77696.0,
    "bank_slope_deg": 2.8,
    "bank_slope_score": 1.0,
    "bank_slope_source": "nc-dps-lidar-dem03-cross-section",
    "beach_dist_km": 150.32,
    "bridge_proximity_bonus": 0.0,
    "catchment_area_km2": 7.7603,
    "channel_width_m": 4.67,
    "channel_width_score": 1.0,
    "composite_score": 32.0383,
    "cso_density": 0.0,
    "ej_index": 0.5123,
    "elevation_m": 34.383,
    "estuary_dist_km": 242.0,
    "feasibility_score": 43.75,
    "flood_q10_cfs": 351.15,
    "flow_score": 48.9815,
    "flow_velocity_ms": 0.2194,
    "generation_score": 18.1732,
    "impact_score": 25.9281,
    "impervious_pct": 2.99,
    "land_ownership": 0.5,
    "lat": 35.3422,
    "litter_complaint_density": 0.0,
    "lon": -78.6892,
    "navigable_dist_m": null,
    "npdes_points": 0,
    "pixel_col": 227.0,
    "pixel_row": 158.0,
    "population_density": 123.9,
    "position_along": 0.8333,
    "protected_area_score": 5.0203,
    "rank": 7,
    "road_access_m": 196.2,
    "road_access_score": 1.0,
    "road_density_km_km2": 2.901,
    "robustness_pct": 2.5,
    "runoff_coeff_C": 0.0769,
    "seasonal_cv": 0.4482,
    "segment_id": 0,
    "segment_length_m": 4725.9011,
    "stream_order": 3,
    "superfund_score": 0.0756,
    "tourism_amenity_density": 0.4775,
    "tri_facility_density": 0.0,
    "usgs_mean_q_cfs": 13.956,
    "velocity_feasibility": 0.7,
    "water_intake_score": 1.2899
   },
   "type": "Feature"
  },
  {
   "geometry": {
    "coordinates": [
     -78.641376,
     35.295967
    ],
    "type": "Point"
   },
   "properties": {
    "accumulation": 33496.0,
    "bank_slope_deg": 0.8,
    "bank_slope_score": 1.0,
    "bank_slope_source": "nc-dps-lidar-dem03-cross-section",
    "beach_dist_km": 143.64,
    "bridge_proximity_bonus": 0.0,
    "catchment_area_km2": 3.3456,
    "channel_width_m": 3.44,
    "channel_width_score": 1.0,
    "composite_score": 30.7227,
    "cso_density": 0.0,
    "ej_index": 0.5595,
    "elevation_m": 47.0838,
    "estuary_dist_km": 237.11,
    "feasibility_score": 37.5,
    "flood_q10_cfs": 197.65,
    "flow_score": 28.7219,
    "flow_velocity_ms": 0.5,
    "generation_score": 16.84,
    "impact_score": 42.8839,
    "impervious_pct": null,
    "land_ownership": 0.5,
    "lat": 35.296,
    "litter_complaint_density": 0.0,
    "lon": -78.6414,
    "navigable_dist_m": null,
    "npdes_points": 3,
    "pixel_col": 677.0,
    "pixel_row": 662.0,
    "population_density": 112.4,
    "position_along": 0.5,
    "protected_area_score": 5.4735,
    "rank": 8,
    "road_access_m": 1294.7,
    "road_access_score": 0.3,
    "road_density_km_km2": 0.236,
    "robustness_pct": 0.0,
    "runoff_coeff_C": null,
    "seasonal_cv": null,
    "segment_id": 8,
    "segment_length_m": 1286.3391,
    "stream_order": 1,
    "superfund_score": 0.0159,
    "tourism_amenity_density": 0.0,
    "tri_facility_density": 0.0,
    "usgs_mean_q_cfs": null,
    "velocity_feasibility": 1.0,
    "water_intake_score": 0.8393
   },
   "type": "Feature"
  },
  {
   "geometry": {
    "coordinates": [
     -78.679495,
     35.345276
    ],
    "type": "Point"
   },
   "properties": {
    "accumulation": 56529.0,
    "bank_slope_deg": 9.4,
    "bank_slope_score": 1.0,
    "bank_slope_source": "nc-dps-lidar-dem03-cross-section",
    "beach_dist_km": 150.12,
    "bridge_proximity_bonus": 0.0,
    "catchment_area_km2": 5.6462,
    "channel_width_m": 4.16,
    "channel_width_score": 1.0,
    "composite_score": 30.1931,
    "cso_density": 0.0,
    "ej_index": 0.5255,
    "elevation_m": 38.4576,
    "estuary_dist_km": 241.17,
    "feasibility_score": 34.8214,
    "flood_q10_cfs": 291.8,
    "flow_score": 37.3996,
    "flow_velocity_ms": 0.1582,
    "generation_score": 23.5514,
    "impact_score": 28.5151,
    "impervious_pct": 3.24,
    "land_ownership": 0.5,
    "lat": 35.3453,
    "litter_complaint_density": 0.0,
    "lon": -78.6795,
    "navigable_dist_m": null,
    "npdes_points": 1,
    "pixel_col": 315.0,
    "pixel_row": 120.0,
    "population_density": 146.5,
    "position_along": 0.5,
    "protected_area_score": 4.8882,
    "rank": 9,
    "road_access_m": 222.4,
    "road_access_score": 0.8,
    "road_density_km_km2": 2.78,
    "robustness_pct": 0.0,
    "runoff_coeff_C": 0.0792,
    "seasonal_cv": 0.4358,
    "segment_id": 0,
    "segment_length_m": 4725.9011,
    "stream_order": 3,
    "superfund_score": 0.0693,
    "tourism_amenity_density": 1.512,
    "tri_facility_density": 0.0,
    "usgs_mean_q_cfs": 9.125,
    "velocity_feasibility": 0.7,
    "water_intake_score": 1.2119
   },
   "type": "Feature"
  },
  {
   "geometry": {
    "coordinates": [
     -78.666665,
     35.342929
    ],
    "type": "Point"
   },
   "properties": {
    "accumulation": 41962.0,
    "bank_slope_deg": 5.37,
    "bank_slope_score": 1.0,
    "bank_slope_source": "nc-dps-lidar-dem03-cross-section",
    "beach_dist_km": 149.27,
    "bridge_proximity_bonus": 0.0,
    "catchment_area_km2": 4.1912,
    "channel_width_m": 3.73,
    "channel_width_score": 1.0,
    "composite_score": 30.0934,
    "cso_density": 0.0,
    "ej_index": 0.5165,
    "elevation_m": 42.8426,
    "estuary_dist_km": 239.98,
    "feasibility_score": 34.8214,
    "flood_q10_cfs": 243.99,
    "flow_score": 32.8368,
    "flow_velocity_ms": 0.1024,
    "generation_score": 24.9789,
    "impact_score": 30.5578,
    "impervious_pct": 3.24,
    "land_ownership": 0.5,
    "lat": 35.3429,
    "litter_complaint_density": 0.0,
    "lon": -78.6667,
    "navigable_dist_m": null,
    "npdes_points": 1,
    "pixel_col": 432.0,
    "pixel_row": 144.0,
    "population_density": 156.4,
    "position_along": 0.1667,
    "protected_area_score": 4.9733,
    "rank": 10,
    "road_access_m": 332.2,
    "road_access_score": 0.8,
    "road_density_km_km2": 3.02,
    "robustness_pct": 0.0,
    "runoff_coeff_C": 0.0792,
    "seasonal_cv": 0.4358,
    "segment_id": 0,
    "segment_length_m": 4725.9011,
    "stream_order": 3,
    "superfund_score": 0.0675,
    "tourism_amenity_density": 1.512,
    "tri_facility_density": 0.0,
    "usgs_mean_q_cfs": 9.125,
    "velocity_feasibility": 0.7,
    "water_intake_score": 1.1269
   },
   "type": "Feature"
  },
  {
   "geometry": {
    "coordinates": [
     -78.685233,
     35.291683
    ],
    "type": "Point"
   },
   "properties": {
    "accumulation": 22951.0,
    "bank_slope_deg": 12.73,
    "bank_slope_score": 1.0,
    "bank_slope_source": "nc-dps-lidar-dem03-cross-section",
    "beach_dist_km": 145.45,
    "bridge_proximity_bonus": 0.0,
    "catchment_area_km2": 2.2924,
    "channel_width_m": 3.0,
    "channel_width_score": 1.0,
    "composite_score": 28.2856,
    "cso_density": 0.0,
    "ej_index": 0.5858,
    "elevation_m": 18.0475,
    "estuary_dist_km": 241.03,
    "feasibility_score": 56.25,
    "flood_q10_cfs": 157.51,
    "flow_score": 26.372,
    "flow_velocity_ms": 0.5,
    "generation_score": 0.0,
    "impact_score": 44.1836,
    "impervious_pct": null,
    "land_ownership": 1.0,
    "lat": 35.2917,
    "litter_complaint_density": 0.0,
    "lon": -78.6852,
    "navigable_dist_m": null,
    "npdes_points": 0,
    "pixel_col": 279.0,
    "pixel_row": 719.0,
    "population_density": 35.7,
    "position_along": 0.5,
    "protected_area_score": 5.7186,
    "rank": 11,
    "road_access_m": 1037.5,
    "road_access_score": 0.3,
    "road_density_km_km2": 0.137,
    "robustness_pct": 0.0,
    "runoff_coeff_C": null,
    "seasonal_cv": null,
    "segment_id": 9,
    "segment_length_m": 561.7968,
    "stream_order": 1,
    "superfund_score": 0.0252,
    "tourism_amenity_density": 0.0796,
    "tri_facility_density": 0.0,
    "usgs_mean_q_cfs": null,
    "velocity_feasibility": 1.0,
    "water_intake_score": 1.0185
   },
   "type": "Feature"
  },
  {
   "geometry": {
    "coordinates": [
     -78.675839,
     35.297428
    ],
    "type": "Point"
   },
   "properties": {
    "accumulation": 38228.0,
    "bank_slope_deg": 28.27,
    "bank_slope_score": 0.5,
    "bank_slope_source": "nc-dps-lidar-dem03-cross-section",
    "beach_dist_km": 145.5,
    "bridge_proximity_bonus": 0.0,
    "catchment_area_km2": 3.8182,
    "channel_width_m": 3.61,
    "channel_width_score": 1.0,
    "composite_score": 26.0519,
    "cso_density": 0.0,
    "ej_index": 0.6391,
    "elevation_m": 35.1683,
    "estuary_dist_km": 240.24,
    "feasibility_score": 31.25,
    "flood_q10_cfs": 243.45,
    "flow_score": 14.36,
    "flow_velocity_ms": 0.1693,
    "generation_score": 12.456,
    "impact_score": 46.7919,
    "impervious_pct": 5.55,
    "land_ownership": 0.5,
    "lat": 35.2974,
    "litter_complaint_density": 0.0,
    "lon": -78.6758,
    "navigable_dist_m": null,
    "npdes_points": 0,
    "pixel_col": 363.0,
    "pixel_row": 653.0,
    "population_density": 41.1,
    "position_along": 0.5,
    "protected_area_score": 5.4414,
    "rank": 12,
    "road_access_m": 197.1,
    "road_access_score": 1.0,
    "road_density_km_km2": 2.221,
    "robustness_pct": 0.0,
    "runoff_coeff_C": 0.0999,
    "seasonal_cv": 0.4088,
    "segment_id": 7,
    "segment_length_m": 2366.111,
    "stream_order": 1,
    "superfund_score": 0.0314,
    "tourism_amenity_density": 0.0796,
    "tri_facility_density": 0.0,
    "usgs_mean_q_cfs": 3.227,
    "velocity_feasibility": 0.7,
    "water_intake_score": 1.0273
   },
   "type": "Feature"
  },
  {
   "geometry": {
    "coordinates": [
     -78.692946,
     35.338171
    ],
    "type": "Point"
   },
   "properties": {
    "accumulation": 20334.0,
    "bank_slope_deg": 12.98,
    "bank_slope_score": 1.0,
    "bank_slope_source": "nc-dps-lidar-dem03-cross-section",
    "beach_dist_km": 150.13,
    "bridge_proximity_bonus": 0.0,
    "catchment_area_km2": 2.031,
    "channel_width_m": 2.87,
    "channel_width_score": 1.0,
    "composite_score": 21.5507,
    "cso_density": 0.0,
    "ej_index": 0.5029,
    "elevation_m": 31.5871,
    "estuary_dist_km": 242.28,
    "feasibility_score": 25.8929,
    "flood_q10_cfs": 154.02,
    "flow_score": 19.7026,
    "flow_velocity_ms": 0.1422,
    "generation_score": 14.2853,
    "impact_score": 28.1851,
    "impervious_pct": 2.16,
    "land_ownership": 0.5,
    "lat": 35.3382,
    "litter_complaint_density": 0.0,
    "lon": -78.6929,
    "navigable_dist_m": null,
    "npdes_points": 0,
    "pixel_col": 198.0,
    "pixel_row": 203.0,
    "population_density": 111.6,
    "position_along": 0.5,
    "protected_area_score": 5.1158,
    "rank": 13,
    "road_access_m": 551.9,
    "road_access_score": 0.6,
    "road_density_km_km2": 2.123,
    "robustness_pct": 0.0,
    "runoff_coeff_C": 0.0694,
    "seasonal_cv": 0.408,
    "segment_id": 1,
    "segment_length_m": 188.8822,
    "stream_order": 3,
    "superfund_score": 0.0833,
    "tourism_amenity_density": 0.3979,
    "tri_facility_density": 0.0,
    "usgs_mean_q_cfs": 1.324,
    "velocity_feasibility": 0.7,
    "water_intake_score": 1.3377
   },
   "type": "Feature"
  }
 ],
 "note": "GRIME region 'Erwin, NC' \u2014 real-data pipeline (DEM\u2192streams\u2192candidates\u2192stream mask (sites confined to \u00b1150 m of mapped OSM/NHD waterways)\u2192region-appropriate real parameters\u2192shipped scoring, math unchanged). Width curve: Bieger et al. 2015 JAWRA Table 3, Atlantic Plain. Flood: SIR 2014-5030 HR4 (I24H50Y: NOAA Atlas 14). NC Coastal Plain (SIR 2014-5030 HR4; I24H50Y from NOAA Atlas 14 at region center)",
 "provenance": {
  "candidates_pre_gate": 13,
  "constant": [
   "channel_width_score",
   "cso_density",
   "litter_complaint_density"
  ],
  "gated_navigable": 0,
  "hard_gate_removed": 0,
  "n_parameters": 27,
  "parameters": {
   "bank_slope_score": {
    "kind": "real",
    "n_3dep_10m_fallback": 0,
    "n_nc_lidar_3_125ft": 13,
    "n_real": 13,
    "n_sites": 13,
    "source": "NC OneMap / NC DPS DEM03 statewide lidar-derived 3.125-ft (0.953 m) elevations (perpendicular 50 m transect; robust 5 m bank-rise metric); unavailable profiles use the region 10 m 3DEP DEM-gradient fallback",
    "source_mosaics": [
     "Harnett_QL1_2024_03ft_CountywideRaster"
    ]
   },
   "beach_dist_km": {
    "kind": "real",
    "n_real": 13,
    "n_sites": 13,
    "source": "haversine to region ref: Wrightsville Beach (shipped NC reference)"
   },
   "bridge_proximity_bonus": {
    "kind": "real",
    "n_real": 13,
    "n_sites": 13,
    "source": "FHWA/BTS NBI (NTAD), 50 m proximity"
   },
   "catchment_area_km2": {
    "kind": "real",
    "n_real": 13,
    "n_sites": 13,
    "source": "DEM flow accumulation (pipeline)"
   },
   "channel_width_score": {
    "kind": "real",
    "n_real": 13,
    "n_sites": 13,
    "source": "Bieger 2015 APL width curve on DEM drainage area \u2192 shipped width curve"
   },
   "cso_density": {
    "kind": "real",
    "n_real": 13,
    "n_sites": 13,
    "source": "EPA ECHO open CSO/TCS outfall PF coordinates states=NC, Cauchy proximity"
   },
   "ej_index": {
    "kind": "real",
    "n_real": 13,
    "n_sites": 13,
    "source": "Census ACS C17002+B03002 two-component demographic index, percentile-ranked within region"
   },
   "estuary_dist_km": {
    "kind": "real",
    "n_real": 13,
    "n_sites": 13,
    "source": "haversine to region ref: Pamlico Sound (shipped NC reference)"
   },
   "flood_q10_cfs": {
    "impervious_fallback_reason": "StreamCat imperviousness unavailable; the existing regression-input fallback of 0.0% impervious was used and is disclosed here",
    "kind": "real",
    "n_impervious_fallback": 5,
    "n_real": 13,
    "n_sites": 13,
    "source": "USGS SIR 2014-5030 Table 7 HR4 (NC Coastal Plain; I24H50Y from NOAA Atlas 14 at region center)"
   },
   "flow_velocity_ms": {
    "fallback_reason": "EROM/DEM continuity input unavailable; shipped 0.5 m/s default used",
    "kind": "real",
    "n_fallback": 5,
    "n_real": 8,
    "n_sites": 13,
    "source": "Manning (region DEM/D8) blended with EROM continuity (shipped M4 logic)"
   },
   "impervious_pct": {
    "fallback_reason": "NLDI/StreamCat did not return a snap-compatible catchment value; value remains null and is removed by constant-column handling",
    "kind": "real",
    "n_fallback": 5,
    "n_real": 8,
    "n_sites": 13,
    "source": "EPA StreamCat pctimp2019 (per NHDPlus watershed)"
   },
   "land_ownership": {
    "kind": "real",
    "n_fallback": 0,
    "n_real": 13,
    "n_sites": 13,
    "source": "NC OneMap statewide parcels (NC Parcels Transformer) ownname"
   },
   "litter_complaint_density": {
    "kind": "fallback",
    "n_real": 0,
    "n_sites": 13,
    "source": "no public machine-readable litter/illegal-dumping feed for this region"
   },
   "navigable_dist_m": {
    "kind": "real",
    "n_real": 13,
    "n_sites": 13,
    "source": "USACE/BTS NWN (NTAD): no navigable segment within this bbox (+2 km) \u2014 computed absence, gate passes all sites"
   },
   "npdes_points": {
    "kind": "real",
    "n_real": 13,
    "n_sites": 13,
    "source": "EPA ECHO active NPDES outfalls states=NC (types NPD/GPC/NGP; statuses ADC/EFF/EXP), per catchment"
   },
   "population_density": {
    "kind": "real",
    "n_real": 13,
    "n_sites": 13,
    "source": "Census ACS 2022 B01003 block groups (bbox, multi-county), area-weighted"
   },
   "protected_area_score": {
    "kind": "real",
    "n_real": 13,
    "n_sites": 13,
    "source": "USGS PAD-US 4.1 state GDB; states=NC; shipped designation-weighted proximity curve"
   },
   "road_access_score": {
    "kind": "real",
    "n_real": 13,
    "n_sites": 13,
    "source": "OSM drive network nearest-node distance"
   },
   "road_density_km_km2": {
    "kind": "real",
    "n_real": 13,
    "n_sites": 13,
    "source": "OSM drive network (osmnx, cached) clipped per catchment"
   },
   "runoff_coeff_C": {
    "fallback_reason": "source impervious_pct was unavailable; derived value remains null",
    "kind": "real",
    "n_fallback": 5,
    "n_real": 8,
    "n_sites": 13,
    "source": "derived from real impervious_pct (C=0.05+0.009*I)"
   },
   "seasonal_cv": {
    "fallback_reason": "NHDPlus monthly EROM was unavailable or failed the drainage-area snap guard; value remains null",
    "kind": "real",
    "n_fallback": 5,
    "n_real": 8,
    "n_sites": 13,
    "source": "CV of NHDPlus EROM monthly flows per COMID"
   },
   "stream_order": {
    "kind": "real",
    "n_real": 13,
    "n_sites": 13,
    "source": "DEM stream-network confluence heuristic (pipeline)"
   },
   "superfund_score": {
    "kind": "real",
    "n_real": 13,
    "n_sites": 13,
    "source": "EPA DataMap SEMS active sites states=NC (non-archived, georeferenced), shipped 500 m inverse-distance curve"
   },
   "tourism_amenity_density": {
    "kind": "real",
    "n_real": 13,
    "n_sites": 13,
    "source": "OSM leisure/tourism features per 2 km radius"
   },
   "tri_facility_density": {
    "kind": "real",
    "n_real": 13,
    "n_sites": 13,
    "source": "EPA DataMap TRI open facilities states=NC (preferred decimal or packed-DMS recovery), per catchment"
   },
   "usgs_mean_q_cfs": {
    "fallback_reason": "NHDPlus EROM was unavailable or failed the drainage-area snap guard; value remains null",
    "kind": "real",
    "n_fallback": 5,
    "n_real": 8,
    "n_sites": 13,
    "source": "NHDPlus EROM qe_ma per COMID (snap-guarded)"
   },
   "velocity_feasibility": {
    "fallback_reason": "derived from the shipped 0.5 m/s velocity fallback",
    "kind": "real",
    "n_fallback": 5,
    "n_real": 8,
    "n_sites": 13,
    "source": "shipped step curve on the computed velocity"
   },
   "velocity_transport_favorability": {
    "fallback_reason": "EROM/DEM continuity input unavailable; shipped 0.5 m/s default used",
    "kind": "derived",
    "n_fallback": 5,
    "n_real": 8,
    "n_sites": 13,
    "source": "scored form of flow_velocity_ms inside the Flow family \u2014 peaked Gaussian exp(-((v-0.9)/0.6)^2), model.json curves.velocity_transport_favorability; construct: transport/delivery favorability, deliberately distinct from velocity_feasibility (device operability)"
   },
   "water_intake_score": {
    "kind": "real",
    "n_real": 13,
    "n_sites": 13,
    "source": "NC OneMap / NC DEQ SWAP public water supply sources (source_typ='Surface Water'), shipped exp(-d/10km) curve"
   }
  },
  "stream_mask": {
   "buffer_m": 150.0,
   "pre_mask": 13,
   "removed": 0,
   "sources": [
    "osm-overpass (all waterway ways)",
    "usgs-nhdplus flowlines"
   ]
  },
  "varying": [
   "bank_slope_score",
   "beach_dist_km",
   "bridge_proximity_bonus",
   "catchment_area_km2",
   "ej_index",
   "estuary_dist_km",
   "flood_q10_cfs",
   "flow_velocity_ms",
   "impervious_pct",
   "land_ownership",
   "npdes_points",
   "population_density",
   "protected_area_score",
   "road_access_score",
   "road_density_km_km2",
   "runoff_coeff_C",
   "seasonal_cv",
   "stream_order",
   "superfund_score",
   "tourism_amenity_density",
   "tri_facility_density",
   "usgs_mean_q_cfs",
   "velocity_feasibility",
   "water_intake_score"
  ]
 },
 "region": {
  "bbox": [
   -78.7141,
   35.2891,
   -78.633,
   35.3553
  ],
  "beach_ref": {
   "label": "Wrightsville Beach (shipped NC reference)",
   "lat": 34.21,
   "lon": -77.79
  },
  "center": [
   -78.67353,
   35.322217
  ],
  "estuary_ref": {
   "label": "Pamlico Sound (shipped NC reference)",
   "lat": 35.05,
   "lon": -76.05
  },
  "flood_method": "sir2014_hr4",
  "name": "Erwin, NC",
  "notes": "NC Coastal Plain (SIR 2014-5030 HR4; I24H50Y from NOAA Atlas 14 at region center)",
  "slug": "erwin",
  "state": "NC",
  "utm_epsg": 32617,
  "width_curve": {
   "a": 2.22,
   "b": 0.363,
   "code": "APL",
   "source": "Bieger et al. 2015 JAWRA Table 3, Atlantic Plain"
  }
 },
 "type": "FeatureCollection"
}
