{
 "features": [
  {
   "geometry": {
    "coordinates": [
     -79.106358,
     34.499924
    ],
    "type": "Point"
   },
   "properties": {
    "accumulation": 70775.0,
    "bank_slope_deg": 1.82,
    "bank_slope_score": 1.0,
    "bank_slope_source": "nc-dps-lidar-dem03-cross-section",
    "beach_dist_km": 125.06,
    "bridge_proximity_bonus": 0.0,
    "catchment_area_km2": 7.0711,
    "channel_width_m": 4.52,
    "channel_width_score": 1.0,
    "composite_score": 55.6696,
    "cso_density": 0.0,
    "ej_index": 0.678,
    "elevation_m": 28.2436,
    "estuary_dist_km": 285.76,
    "feasibility_score": 38.961,
    "flood_q10_cfs": 340.19,
    "flow_score": 54.5673,
    "flow_velocity_ms": 0.1268,
    "generation_score": 61.1579,
    "impact_score": 59.4543,
    "impervious_pct": 2.71,
    "land_ownership": 0.5,
    "lat": 34.4999,
    "litter_complaint_density": 0.0,
    "lon": -79.1064,
    "navigable_dist_m": null,
    "npdes_points": 1,
    "pixel_col": 363.0,
    "pixel_row": 243.0,
    "population_density": 63.3,
    "position_along": 0.75,
    "protected_area_score": 4.6304,
    "rank": 1,
    "road_access_m": 229.3,
    "road_access_score": 0.8,
    "road_density_km_km2": 5.841,
    "robustness_pct": 100.0,
    "runoff_coeff_C": 0.0744,
    "seasonal_cv": 0.4505,
    "segment_id": 0,
    "segment_length_m": 4431.3284,
    "stream_order": 3,
    "superfund_score": 0.1003,
    "tourism_amenity_density": 0.3183,
    "tri_facility_density": 0.1414,
    "usgs_mean_q_cfs": 18.406,
    "velocity_feasibility": 0.7,
    "water_intake_score": 0.2158
   },
   "type": "Feature"
  },
  {
   "geometry": {
    "coordinates": [
     -79.113668,
     34.513145
    ],
    "type": "Point"
   },
   "properties": {
    "accumulation": 26811.0,
    "bank_slope_deg": 1.48,
    "bank_slope_score": 1.0,
    "bank_slope_source": "nc-dps-lidar-dem03-cross-section",
    "beach_dist_km": 126.09,
    "bridge_proximity_bonus": 0.0,
    "catchment_area_km2": 2.6787,
    "channel_width_m": 3.17,
    "channel_width_score": 1.0,
    "composite_score": 54.005,
    "cso_density": 0.0,
    "ej_index": 0.6415,
    "elevation_m": 30.948,
    "estuary_dist_km": 286.08,
    "feasibility_score": 100.0,
    "flood_q10_cfs": 178.34,
    "flow_score": 40.8265,
    "flow_velocity_ms": 0.5,
    "generation_score": 23.0769,
    "impact_score": 72.9175,
    "impervious_pct": null,
    "land_ownership": 0.5,
    "lat": 34.5131,
    "litter_complaint_density": 0.0,
    "lon": -79.1137,
    "navigable_dist_m": null,
    "npdes_points": 0,
    "pixel_col": 295.0,
    "pixel_row": 97.0,
    "population_density": 78.3,
    "position_along": 0.25,
    "protected_area_score": 4.771,
    "rank": 2,
    "road_access_m": 105.4,
    "road_access_score": 1.0,
    "road_density_km_km2": 2.883,
    "robustness_pct": 100.0,
    "runoff_coeff_C": null,
    "seasonal_cv": null,
    "segment_id": 0,
    "segment_length_m": 4431.3284,
    "stream_order": 3,
    "superfund_score": 0.9377,
    "tourism_amenity_density": 0.3183,
    "tri_facility_density": 0.0,
    "usgs_mean_q_cfs": null,
    "velocity_feasibility": 1.0,
    "water_intake_score": 0.2386
   },
   "type": "Feature"
  },
  {
   "geometry": {
    "coordinates": [
     -79.114183,
     34.493246
    ],
    "type": "Point"
   },
   "properties": {
    "accumulation": 48948.0,
    "bank_slope_deg": 15.6,
    "bank_slope_score": 0.5,
    "bank_slope_source": "nc-dps-lidar-dem03-cross-section",
    "beach_dist_km": 125.57,
    "bridge_proximity_bonus": 0.0,
    "catchment_area_km2": 4.8904,
    "channel_width_m": 3.95,
    "channel_width_score": 1.0,
    "composite_score": 44.2516,
    "cso_density": 0.0,
    "ej_index": 0.5296,
    "elevation_m": 29.779,
    "estuary_dist_km": 286.63,
    "feasibility_score": 66.2338,
    "flood_q10_cfs": 309.04,
    "flow_score": 35.3105,
    "flow_velocity_ms": 0.0952,
    "generation_score": 52.4914,
    "impact_score": 32.4717,
    "impervious_pct": 8.1,
    "land_ownership": 0.5,
    "lat": 34.4932,
    "litter_complaint_density": 0.0,
    "lon": -79.1142,
    "navigable_dist_m": null,
    "npdes_points": 1,
    "pixel_col": 294.0,
    "pixel_row": 318.0,
    "population_density": 54.0,
    "position_along": 0.5,
    "protected_area_score": 4.5309,
    "rank": 3,
    "road_access_m": 88.3,
    "road_access_score": 1.0,
    "road_density_km_km2": 7.066,
    "robustness_pct": 100.0,
    "runoff_coeff_C": 0.1229,
    "seasonal_cv": 0.4137,
    "segment_id": 3,
    "segment_length_m": 2214.6848,
    "stream_order": 3,
    "superfund_score": 0.0522,
    "tourism_amenity_density": 0.3979,
    "tri_facility_density": 0.0,
    "usgs_mean_q_cfs": 3.612,
    "velocity_feasibility": 0.7,
    "water_intake_score": 0.1958
   },
   "type": "Feature"
  },
  {
   "geometry": {
    "coordinates": [
     -79.095685,
     34.486943
    ],
    "type": "Point"
   },
   "properties": {
    "accumulation": 157059.0,
    "bank_slope_deg": 9.09,
    "bank_slope_score": 1.0,
    "bank_slope_source": "nc-dps-lidar-dem03-cross-section",
    "beach_dist_km": 123.76,
    "bridge_proximity_bonus": 0.0,
    "catchment_area_km2": 15.6917,
    "channel_width_m": 6.03,
    "channel_width_score": 1.0,
    "composite_score": 42.9753,
    "cso_density": 0.0,
    "ej_index": 0.6001,
    "elevation_m": 26.3659,
    "estuary_dist_km": 285.15,
    "feasibility_score": 18.1818,
    "flood_q10_cfs": 561.14,
    "flow_score": 50.2815,
    "flow_velocity_ms": 0.01,
    "generation_score": 27.3343,
    "impact_score": 64.9245,
    "impervious_pct": 3.65,
    "land_ownership": 0.5,
    "lat": 34.4869,
    "litter_complaint_density": 0.0,
    "lon": -79.0957,
    "navigable_dist_m": null,
    "npdes_points": 2,
    "pixel_col": 465.0,
    "pixel_row": 385.0,
    "population_density": 44.8,
    "position_along": 0.25,
    "protected_area_score": 4.6474,
    "rank": 4,
    "road_access_m": 495.0,
    "road_access_score": 0.8,
    "road_density_km_km2": 3.012,
    "robustness_pct": 86.5,
    "runoff_coeff_C": 0.0829,
    "seasonal_cv": 0.4506,
    "segment_id": 4,
    "segment_length_m": 3735.9066,
    "stream_order": 3,
    "superfund_score": 0.0235,
    "tourism_amenity_density": 0.8754,
    "tri_facility_density": 0.0,
    "usgs_mean_q_cfs": 0.196,
    "velocity_feasibility": 0.3,
    "water_intake_score": 0.1961
   },
   "type": "Feature"
  },
  {
   "geometry": {
    "coordinates": [
     -79.126001,
     34.494329
    ],
    "type": "Point"
   },
   "properties": {
    "accumulation": 20699.0,
    "bank_slope_deg": 7.73,
    "bank_slope_score": 1.0,
    "bank_slope_source": "nc-dps-lidar-dem03-cross-section",
    "beach_dist_km": 126.65,
    "bridge_proximity_bonus": 0.0,
    "catchment_area_km2": 2.068,
    "channel_width_m": 2.89,
    "channel_width_score": 1.0,
    "composite_score": 31.4486,
    "cso_density": 0.0,
    "ej_index": 0.3912,
    "elevation_m": 32.342,
    "estuary_dist_km": 287.66,
    "feasibility_score": 84.4156,
    "flood_q10_cfs": 184.33,
    "flow_score": 26.9273,
    "flow_velocity_ms": 0.0908,
    "generation_score": 35.9537,
    "impact_score": 4.2276,
    "impervious_pct": 8.1,
    "land_ownership": 0.5,
    "lat": 34.4943,
    "litter_complaint_density": 0.0,
    "lon": -79.126,
    "navigable_dist_m": null,
    "npdes_points": 0,
    "pixel_col": 185.0,
    "pixel_row": 307.0,
    "population_density": 58.2,
    "position_along": 0.5,
    "protected_area_score": 4.3458,
    "rank": 5,
    "road_access_m": 182.5,
    "road_access_score": 1.0,
    "road_density_km_km2": 3.236,
    "robustness_pct": 88.0,
    "runoff_coeff_C": 0.1229,
    "seasonal_cv": 0.4137,
    "segment_id": 2,
    "segment_length_m": 142.3621,
    "stream_order": 3,
    "superfund_score": 0.0432,
    "tourism_amenity_density": 0.3979,
    "tri_facility_density": 0.0,
    "usgs_mean_q_cfs": 3.612,
    "velocity_feasibility": 0.7,
    "water_intake_score": 0.1883
   },
   "type": "Feature"
  },
  {
   "geometry": {
    "coordinates": [
     -79.122968,
     34.492247
    ],
    "type": "Point"
   },
   "properties": {
    "accumulation": 21528.0,
    "bank_slope_deg": 10.93,
    "bank_slope_score": 1.0,
    "bank_slope_source": "nc-dps-lidar-dem03-cross-section",
    "beach_dist_km": 126.33,
    "bridge_proximity_bonus": 0.0,
    "catchment_area_km2": 2.1509,
    "channel_width_m": 2.93,
    "channel_width_score": 1.0,
    "composite_score": 28.957,
    "cso_density": 0.0,
    "ej_index": 0.3865,
    "elevation_m": 31.8485,
    "estuary_dist_km": 287.44,
    "feasibility_score": 84.4156,
    "flood_q10_cfs": 188.73,
    "flow_score": 13.6076,
    "flow_velocity_ms": 0.1089,
    "generation_score": 38.805,
    "impact_score": 4.1711,
    "impervious_pct": 8.1,
    "land_ownership": 0.5,
    "lat": 34.4922,
    "litter_complaint_density": 0.0,
    "lon": -79.123,
    "navigable_dist_m": null,
    "npdes_points": 0,
    "pixel_col": 211.0,
    "pixel_row": 327.0,
    "population_density": 57.0,
    "position_along": 0.5,
    "protected_area_score": 4.2939,
    "rank": 6,
    "road_access_m": 90.3,
    "road_access_score": 1.0,
    "road_density_km_km2": 4.436,
    "robustness_pct": 15.0,
    "runoff_coeff_C": 0.1229,
    "seasonal_cv": 0.4137,
    "segment_id": 5,
    "segment_length_m": 337.8373,
    "stream_order": 1,
    "superfund_score": 0.0406,
    "tourism_amenity_density": 0.3979,
    "tri_facility_density": 0.0,
    "usgs_mean_q_cfs": 3.612,
    "velocity_feasibility": 0.7,
    "water_intake_score": 0.187
   },
   "type": "Feature"
  },
  {
   "geometry": {
    "coordinates": [
     -79.125729,
     34.495324
    ],
    "type": "Point"
   },
   "properties": {
    "accumulation": 20543.0,
    "bank_slope_deg": 16.18,
    "bank_slope_score": 0.5,
    "bank_slope_source": "nc-dps-lidar-dem03-cross-section",
    "beach_dist_km": 126.66,
    "bridge_proximity_bonus": 0.0,
    "catchment_area_km2": 2.0524,
    "channel_width_m": 2.88,
    "channel_width_score": 1.0,
    "composite_score": 23.9649,
    "cso_density": 0.0,
    "ej_index": 0.4039,
    "elevation_m": 33.0432,
    "estuary_dist_km": 287.61,
    "feasibility_score": 20.7792,
    "flood_q10_cfs": 183.49,
    "flow_score": 27.5709,
    "flow_velocity_ms": 0.1209,
    "generation_score": 38.6769,
    "impact_score": 7.8407,
    "impervious_pct": 8.1,
    "land_ownership": 0.5,
    "lat": 34.4953,
    "litter_complaint_density": 0.0,
    "lon": -79.1257,
    "navigable_dist_m": null,
    "npdes_points": 0,
    "pixel_col": 186.0,
    "pixel_row": 297.0,
    "population_density": 60.2,
    "position_along": 0.5,
    "protected_area_score": 4.3966,
    "rank": 7,
    "road_access_m": 288.1,
    "road_access_score": 0.8,
    "road_density_km_km2": 3.675,
    "robustness_pct": 10.5,
    "runoff_coeff_C": 0.1229,
    "seasonal_cv": 0.4137,
    "segment_id": 1,
    "segment_length_m": 226.4662,
    "stream_order": 3,
    "superfund_score": 0.0472,
    "tourism_amenity_density": 0.3979,
    "tri_facility_density": 0.0,
    "usgs_mean_q_cfs": 3.612,
    "velocity_feasibility": 0.7,
    "water_intake_score": 0.1903
   },
   "type": "Feature"
  }
 ],
 "note": "GRIME region 'Fairmont, NC' \u2014 real-data pipeline (DEM\u2192streams\u2192candidates\u2192stream mask (sites confined to \u00b1150 m of mapped OSM/NHD waterways)\u2192region-appropriate real parameters\u2192shipped scoring, math unchanged). Width curve: Bieger et al. 2015 JAWRA Table 3, Atlantic Plain. Flood: SIR 2014-5030 HR4 (I24H50Y: NOAA Atlas 14). NC Coastal Plain (SIR 2014-5030 HR4; I24H50Y from NOAA Atlas 14 at region center)",
 "provenance": {
  "candidates_pre_gate": 7,
  "constant": [
   "bridge_proximity_bonus",
   "channel_width_score",
   "cso_density",
   "land_ownership",
   "litter_complaint_density"
  ],
  "gated_navigable": 0,
  "hard_gate_removed": 0,
  "n_parameters": 27,
  "parameters": {
   "bank_slope_score": {
    "kind": "real",
    "n_3dep_10m_fallback": 0,
    "n_nc_lidar_3_125ft": 7,
    "n_real": 7,
    "n_sites": 7,
    "source": "NC OneMap / NC DPS DEM03 statewide lidar-derived 3.125-ft (0.953 m) elevations (perpendicular 50 m transect; robust 5 m bank-rise metric); unavailable profiles use the region 10 m 3DEP DEM-gradient fallback",
    "source_mosaics": [
     "Robeson_Ground_3ft"
    ]
   },
   "beach_dist_km": {
    "kind": "real",
    "n_real": 7,
    "n_sites": 7,
    "source": "haversine to region ref: Wrightsville Beach (shipped NC reference)"
   },
   "bridge_proximity_bonus": {
    "kind": "real",
    "n_real": 7,
    "n_sites": 7,
    "source": "FHWA/BTS NBI (NTAD), 50 m proximity"
   },
   "catchment_area_km2": {
    "kind": "real",
    "n_real": 7,
    "n_sites": 7,
    "source": "DEM flow accumulation (pipeline)"
   },
   "channel_width_score": {
    "kind": "real",
    "n_real": 7,
    "n_sites": 7,
    "source": "Bieger 2015 APL width curve on DEM drainage area \u2192 shipped width curve"
   },
   "cso_density": {
    "kind": "real",
    "n_real": 7,
    "n_sites": 7,
    "source": "EPA ECHO open CSO/TCS outfall PF coordinates states=NC, Cauchy proximity"
   },
   "ej_index": {
    "kind": "real",
    "n_real": 7,
    "n_sites": 7,
    "source": "Census ACS C17002+B03002 two-component demographic index, percentile-ranked within region"
   },
   "estuary_dist_km": {
    "kind": "real",
    "n_real": 7,
    "n_sites": 7,
    "source": "haversine to region ref: Pamlico Sound (shipped NC reference)"
   },
   "flood_q10_cfs": {
    "impervious_fallback_reason": "StreamCat imperviousness unavailable; the existing regression-input fallback of 0.0% impervious was used and is disclosed here",
    "kind": "real",
    "n_impervious_fallback": 1,
    "n_real": 7,
    "n_sites": 7,
    "source": "USGS SIR 2014-5030 Table 7 HR4 (NC Coastal Plain; I24H50Y from NOAA Atlas 14 at region center)"
   },
   "flow_velocity_ms": {
    "fallback_reason": "EROM/DEM continuity input unavailable; shipped 0.5 m/s default used",
    "kind": "real",
    "n_fallback": 1,
    "n_real": 6,
    "n_sites": 7,
    "source": "Manning (region DEM/D8) blended with EROM continuity (shipped M4 logic)"
   },
   "impervious_pct": {
    "fallback_reason": "NLDI/StreamCat did not return a snap-compatible catchment value; value remains null and is removed by constant-column handling",
    "kind": "real",
    "n_fallback": 1,
    "n_real": 6,
    "n_sites": 7,
    "source": "EPA StreamCat pctimp2019 (per NHDPlus watershed)"
   },
   "land_ownership": {
    "kind": "real",
    "n_fallback": 0,
    "n_real": 7,
    "n_sites": 7,
    "source": "NC OneMap statewide parcels (NC Parcels Transformer) ownname"
   },
   "litter_complaint_density": {
    "kind": "fallback",
    "n_real": 0,
    "n_sites": 7,
    "source": "no public machine-readable litter/illegal-dumping feed for this region"
   },
   "navigable_dist_m": {
    "kind": "real",
    "n_real": 7,
    "n_sites": 7,
    "source": "USACE/BTS NWN (NTAD): no navigable segment within this bbox (+2 km) \u2014 computed absence, gate passes all sites"
   },
   "npdes_points": {
    "kind": "real",
    "n_real": 7,
    "n_sites": 7,
    "source": "EPA ECHO active NPDES outfalls states=NC (types NPD/GPC/NGP; statuses ADC/EFF/EXP), per catchment"
   },
   "population_density": {
    "kind": "real",
    "n_real": 7,
    "n_sites": 7,
    "source": "Census ACS 2022 B01003 block groups (bbox, multi-county), area-weighted"
   },
   "protected_area_score": {
    "kind": "real",
    "n_real": 7,
    "n_sites": 7,
    "source": "USGS PAD-US 4.1 state GDB; states=NC; shipped designation-weighted proximity curve"
   },
   "road_access_score": {
    "kind": "real",
    "n_real": 7,
    "n_sites": 7,
    "source": "OSM drive network nearest-node distance"
   },
   "road_density_km_km2": {
    "kind": "real",
    "n_real": 7,
    "n_sites": 7,
    "source": "OSM drive network (osmnx, cached) clipped per catchment"
   },
   "runoff_coeff_C": {
    "fallback_reason": "source impervious_pct was unavailable; derived value remains null",
    "kind": "real",
    "n_fallback": 1,
    "n_real": 6,
    "n_sites": 7,
    "source": "derived from real impervious_pct (C=0.05+0.009*I)"
   },
   "seasonal_cv": {
    "fallback_reason": "NHDPlus monthly EROM was unavailable or failed the drainage-area snap guard; value remains null",
    "kind": "real",
    "n_fallback": 1,
    "n_real": 6,
    "n_sites": 7,
    "source": "CV of NHDPlus EROM monthly flows per COMID"
   },
   "stream_order": {
    "kind": "real",
    "n_real": 7,
    "n_sites": 7,
    "source": "DEM stream-network confluence heuristic (pipeline)"
   },
   "superfund_score": {
    "kind": "real",
    "n_real": 7,
    "n_sites": 7,
    "source": "EPA DataMap SEMS active sites states=NC (non-archived, georeferenced), shipped 500 m inverse-distance curve"
   },
   "tourism_amenity_density": {
    "kind": "real",
    "n_real": 7,
    "n_sites": 7,
    "source": "OSM leisure/tourism features per 2 km radius"
   },
   "tri_facility_density": {
    "kind": "real",
    "n_real": 7,
    "n_sites": 7,
    "source": "EPA DataMap TRI open facilities states=NC (preferred decimal or packed-DMS recovery), per catchment"
   },
   "usgs_mean_q_cfs": {
    "fallback_reason": "NHDPlus EROM was unavailable or failed the drainage-area snap guard; value remains null",
    "kind": "real",
    "n_fallback": 1,
    "n_real": 6,
    "n_sites": 7,
    "source": "NHDPlus EROM qe_ma per COMID (snap-guarded)"
   },
   "velocity_feasibility": {
    "fallback_reason": "derived from the shipped 0.5 m/s velocity fallback",
    "kind": "real",
    "n_fallback": 1,
    "n_real": 6,
    "n_sites": 7,
    "source": "shipped step curve on the computed velocity"
   },
   "velocity_transport_favorability": {
    "fallback_reason": "EROM/DEM continuity input unavailable; shipped 0.5 m/s default used",
    "kind": "derived",
    "n_fallback": 1,
    "n_real": 6,
    "n_sites": 7,
    "source": "scored form of flow_velocity_ms inside the Flow family \u2014 peaked Gaussian exp(-((v-0.9)/0.6)^2), model.json curves.velocity_transport_favorability; construct: transport/delivery favorability, deliberately distinct from velocity_feasibility (device operability)"
   },
   "water_intake_score": {
    "kind": "real",
    "n_real": 7,
    "n_sites": 7,
    "source": "NC OneMap / NC DEQ SWAP public water supply sources (source_typ='Surface Water'), shipped exp(-d/10km) curve"
   }
  },
  "stream_mask": {
   "buffer_m": 150.0,
   "pre_mask": 9,
   "removed": 2,
   "sources": [
    "osm-overpass (all waterway ways)",
    "usgs-nhdplus flowlines"
   ]
  },
  "varying": [
   "bank_slope_score",
   "beach_dist_km",
   "catchment_area_km2",
   "ej_index",
   "estuary_dist_km",
   "flood_q10_cfs",
   "flow_velocity_ms",
   "impervious_pct",
   "npdes_points",
   "population_density",
   "protected_area_score",
   "road_access_score",
   "road_density_km_km2",
   "runoff_coeff_C",
   "seasonal_cv",
   "stream_order",
   "superfund_score",
   "tourism_amenity_density",
   "tri_facility_density",
   "usgs_mean_q_cfs",
   "velocity_feasibility",
   "water_intake_score"
  ]
 },
 "region": {
  "bbox": [
   -79.1454,
   34.4683,
   -79.0811,
   34.5213
  ],
  "beach_ref": {
   "label": "Wrightsville Beach (shipped NC reference)",
   "lat": 34.21,
   "lon": -77.79
  },
  "center": [
   -79.113202,
   34.494759
  ],
  "estuary_ref": {
   "label": "Pamlico Sound (shipped NC reference)",
   "lat": 35.05,
   "lon": -76.05
  },
  "flood_method": "sir2014_hr4",
  "name": "Fairmont, NC",
  "notes": "NC Coastal Plain (SIR 2014-5030 HR4; I24H50Y from NOAA Atlas 14 at region center)",
  "slug": "fairmont",
  "state": "NC",
  "utm_epsg": 32617,
  "width_curve": {
   "a": 2.22,
   "b": 0.363,
   "code": "APL",
   "source": "Bieger et al. 2015 JAWRA Table 3, Atlantic Plain"
  }
 },
 "type": "FeatureCollection"
}
