{
 "features": [
  {
   "geometry": {
    "coordinates": [
     -78.127053,
     35.116815
    ],
    "type": "Point"
   },
   "properties": {
    "accumulation": 57226.0,
    "bank_slope_deg": 0.68,
    "bank_slope_score": 1.0,
    "bank_slope_source": "nc-dps-lidar-dem03-cross-section",
    "beach_dist_km": 105.44,
    "bridge_proximity_bonus": 0.0,
    "catchment_area_km2": 5.7077,
    "channel_width_m": 4.18,
    "channel_width_score": 1.0,
    "composite_score": 54.6071,
    "cso_density": 0.0,
    "ej_index": 0.6269,
    "elevation_m": 34.7131,
    "estuary_dist_km": 189.14,
    "feasibility_score": 100.0,
    "flood_q10_cfs": 324.8,
    "flow_score": 42.3682,
    "flow_velocity_ms": 0.1419,
    "generation_score": 37.331,
    "impact_score": 59.3859,
    "impervious_pct": 2.49,
    "land_ownership": 0.5,
    "lat": 35.1168,
    "litter_complaint_density": 0.0,
    "lon": -78.1271,
    "navigable_dist_m": null,
    "npdes_points": 1,
    "pixel_col": 292.0,
    "pixel_row": 197.0,
    "population_density": 31.3,
    "position_along": 0.5,
    "protected_area_score": 3.0096,
    "rank": 1,
    "road_access_m": 396.8,
    "road_access_score": 0.8,
    "road_density_km_km2": 3.317,
    "robustness_pct": 100.0,
    "runoff_coeff_C": 0.0724,
    "seasonal_cv": 0.4257,
    "segment_id": 1,
    "segment_length_m": 5698.268,
    "stream_order": 1,
    "superfund_score": 0.0,
    "tourism_amenity_density": 0.557,
    "tri_facility_density": 0.0,
    "usgs_mean_q_cfs": 5.277,
    "velocity_feasibility": 0.7,
    "water_intake_score": 0.0763
   },
   "type": "Feature"
  },
  {
   "geometry": {
    "coordinates": [
     -78.142414,
     35.128141
    ],
    "type": "Point"
   },
   "properties": {
    "accumulation": 31649.0,
    "bank_slope_deg": 4.69,
    "bank_slope_score": 1.0,
    "bank_slope_source": "nc-dps-lidar-dem03-cross-section",
    "beach_dist_km": 107.06,
    "bridge_proximity_bonus": 0.0,
    "catchment_area_km2": 3.1567,
    "channel_width_m": 3.37,
    "channel_width_score": 1.0,
    "composite_score": 53.1711,
    "cso_density": 0.0,
    "ej_index": 0.7895,
    "elevation_m": 34.1706,
    "estuary_dist_km": 190.58,
    "feasibility_score": 0.0,
    "flood_q10_cfs": 237.33,
    "flow_score": 47.0952,
    "flow_velocity_ms": 0.0927,
    "generation_score": 73.0842,
    "impact_score": 64.9068,
    "impervious_pct": 4.29,
    "land_ownership": 0.5,
    "lat": 35.1281,
    "litter_complaint_density": 0.0,
    "lon": -78.1424,
    "navigable_dist_m": null,
    "npdes_points": 0,
    "pixel_col": 148.0,
    "pixel_row": 77.0,
    "population_density": 44.6,
    "position_along": 0.5,
    "protected_area_score": 3.073,
    "rank": 2,
    "road_access_m": 765.8,
    "road_access_score": 0.6,
    "road_density_km_km2": 0.768,
    "robustness_pct": 100.0,
    "runoff_coeff_C": 0.0886,
    "seasonal_cv": 0.4226,
    "segment_id": 0,
    "segment_length_m": 2150.9894,
    "stream_order": 1,
    "superfund_score": 0.0,
    "tourism_amenity_density": 0.557,
    "tri_facility_density": 0.3168,
    "usgs_mean_q_cfs": 8.145,
    "velocity_feasibility": 0.7,
    "water_intake_score": 0.0799
   },
   "type": "Feature"
  },
  {
   "geometry": {
    "coordinates": [
     -78.121063,
     35.129567
    ],
    "type": "Point"
   },
   "properties": {
    "accumulation": 74114.0,
    "bank_slope_deg": 2.02,
    "bank_slope_score": 1.0,
    "bank_slope_source": "nc-dps-lidar-dem03-cross-section",
    "beach_dist_km": 106.64,
    "bridge_proximity_bonus": 0.0,
    "catchment_area_km2": 7.3921,
    "channel_width_m": 4.59,
    "channel_width_score": 1.0,
    "composite_score": 39.7789,
    "cso_density": 0.0,
    "ej_index": 0.5326,
    "elevation_m": 30.7666,
    "estuary_dist_km": 188.64,
    "feasibility_score": 0.0,
    "flood_q10_cfs": 379.35,
    "flow_score": 50.5461,
    "flow_velocity_ms": 0.1287,
    "generation_score": 33.4222,
    "impact_score": 57.0523,
    "impervious_pct": 2.49,
    "land_ownership": 0.5,
    "lat": 35.1296,
    "litter_complaint_density": 0.0,
    "lon": -78.1211,
    "navigable_dist_m": null,
    "npdes_points": 1,
    "pixel_col": 343.0,
    "pixel_row": 56.0,
    "population_density": 30.4,
    "position_along": 0.8333,
    "protected_area_score": 3.0575,
    "rank": 3,
    "road_access_m": 876.2,
    "road_access_score": 0.6,
    "road_density_km_km2": 0.483,
    "robustness_pct": 100.0,
    "runoff_coeff_C": 0.0724,
    "seasonal_cv": 0.4257,
    "segment_id": 1,
    "segment_length_m": 5698.268,
    "stream_order": 1,
    "superfund_score": 0.0,
    "tourism_amenity_density": 0.0796,
    "tri_facility_density": 0.1353,
    "usgs_mean_q_cfs": 5.277,
    "velocity_feasibility": 0.7,
    "water_intake_score": 0.0871
   },
   "type": "Feature"
  },
  {
   "geometry": {
    "coordinates": [
     -78.128801,
     35.105368
    ],
    "type": "Point"
   },
   "properties": {
    "accumulation": 29539.0,
    "bank_slope_deg": 1.63,
    "bank_slope_score": 1.0,
    "bank_slope_source": "nc-dps-lidar-dem03-cross-section",
    "beach_dist_km": 104.27,
    "bridge_proximity_bonus": 0.0,
    "catchment_area_km2": 2.9462,
    "channel_width_m": 3.29,
    "channel_width_score": 1.0,
    "composite_score": 13.174,
    "cso_density": 0.0,
    "ej_index": 0.5218,
    "elevation_m": 39.7509,
    "estuary_dist_km": 189.27,
    "feasibility_score": 0.0,
    "flood_q10_cfs": 218.36,
    "flow_score": 9.5957,
    "flow_velocity_ms": 0.119,
    "generation_score": 1.7281,
    "impact_score": 34.1887,
    "impervious_pct": 2.49,
    "land_ownership": 0.5,
    "lat": 35.1054,
    "litter_complaint_density": 0.0,
    "lon": -78.1288,
    "navigable_dist_m": null,
    "npdes_points": 0,
    "pixel_col": 280.0,
    "pixel_row": 326.0,
    "population_density": 22.6,
    "position_along": 0.1667,
    "protected_area_score": 2.9517,
    "rank": 4,
    "road_access_m": 662.1,
    "road_access_score": 0.6,
    "road_density_km_km2": 0.865,
    "robustness_pct": 100.0,
    "runoff_coeff_C": 0.0724,
    "seasonal_cv": 0.4257,
    "segment_id": 1,
    "segment_length_m": 5698.268,
    "stream_order": 1,
    "superfund_score": 0.0,
    "tourism_amenity_density": 0.557,
    "tri_facility_density": 0.0,
    "usgs_mean_q_cfs": 5.277,
    "velocity_feasibility": 0.7,
    "water_intake_score": 0.0619
   },
   "type": "Feature"
  }
 ],
 "note": "GRIME region 'Faison, NC' \u2014 real-data pipeline (DEM\u2192streams\u2192candidates\u2192stream mask (sites confined to \u00b1150 m of mapped OSM/NHD waterways)\u2192region-appropriate real parameters\u2192shipped scoring, math unchanged). Width curve: Bieger et al. 2015 JAWRA Table 3, Atlantic Plain. Flood: SIR 2014-5030 HR4 (I24H50Y: NOAA Atlas 14). NC Coastal Plain (SIR 2014-5030 HR4; I24H50Y from NOAA Atlas 14 at region center)",
 "provenance": {
  "candidates_pre_gate": 4,
  "constant": [
   "bank_slope_score",
   "bridge_proximity_bonus",
   "channel_width_score",
   "cso_density",
   "land_ownership",
   "litter_complaint_density",
   "stream_order",
   "superfund_score",
   "velocity_feasibility"
  ],
  "gated_navigable": 0,
  "hard_gate_removed": 0,
  "n_parameters": 27,
  "parameters": {
   "bank_slope_score": {
    "kind": "real",
    "n_3dep_10m_fallback": 0,
    "n_nc_lidar_3_125ft": 4,
    "n_real": 4,
    "n_sites": 4,
    "source": "NC OneMap / NC DPS DEM03 statewide lidar-derived 3.125-ft (0.953 m) elevations (perpendicular 50 m transect; robust 5 m bank-rise metric); unavailable profiles use the region 10 m 3DEP DEM-gradient fallback",
    "source_mosaics": [
     "Duplin_Ground_3ft",
     "Sampson_Ground_3ft"
    ]
   },
   "beach_dist_km": {
    "kind": "real",
    "n_real": 4,
    "n_sites": 4,
    "source": "haversine to region ref: Wrightsville Beach (shipped NC reference)"
   },
   "bridge_proximity_bonus": {
    "kind": "real",
    "n_real": 4,
    "n_sites": 4,
    "source": "FHWA/BTS NBI (NTAD), 50 m proximity"
   },
   "catchment_area_km2": {
    "kind": "real",
    "n_real": 4,
    "n_sites": 4,
    "source": "DEM flow accumulation (pipeline)"
   },
   "channel_width_score": {
    "kind": "real",
    "n_real": 4,
    "n_sites": 4,
    "source": "Bieger 2015 APL width curve on DEM drainage area \u2192 shipped width curve"
   },
   "cso_density": {
    "kind": "real",
    "n_real": 4,
    "n_sites": 4,
    "source": "EPA ECHO open CSO/TCS outfall PF coordinates states=NC, Cauchy proximity"
   },
   "ej_index": {
    "kind": "real",
    "n_real": 4,
    "n_sites": 4,
    "source": "Census ACS C17002+B03002 two-component demographic index, percentile-ranked within region"
   },
   "estuary_dist_km": {
    "kind": "real",
    "n_real": 4,
    "n_sites": 4,
    "source": "haversine to region ref: Pamlico Sound (shipped NC reference)"
   },
   "flood_q10_cfs": {
    "kind": "real",
    "n_real": 4,
    "n_sites": 4,
    "source": "USGS SIR 2014-5030 Table 7 HR4 (NC Coastal Plain; I24H50Y from NOAA Atlas 14 at region center)"
   },
   "flow_velocity_ms": {
    "kind": "real",
    "n_fallback": 0,
    "n_real": 4,
    "n_sites": 4,
    "source": "Manning (region DEM/D8) blended with EROM continuity (shipped M4 logic)"
   },
   "impervious_pct": {
    "kind": "real",
    "n_real": 4,
    "n_sites": 4,
    "source": "EPA StreamCat pctimp2019 (per NHDPlus watershed)"
   },
   "land_ownership": {
    "fallback_reason": "no containing parcel owner returned; shipped unknown ownership 0.5 used",
    "kind": "real",
    "n_fallback": 1,
    "n_real": 3,
    "n_sites": 4,
    "source": "NC OneMap statewide parcels (NC Parcels Transformer) ownname"
   },
   "litter_complaint_density": {
    "kind": "fallback",
    "n_real": 0,
    "n_sites": 4,
    "source": "no public machine-readable litter/illegal-dumping feed for this region"
   },
   "navigable_dist_m": {
    "kind": "real",
    "n_real": 4,
    "n_sites": 4,
    "source": "USACE/BTS NWN (NTAD): no navigable segment within this bbox (+2 km) \u2014 computed absence, gate passes all sites"
   },
   "npdes_points": {
    "kind": "real",
    "n_real": 4,
    "n_sites": 4,
    "source": "EPA ECHO active NPDES outfalls states=NC (types NPD/GPC/NGP; statuses ADC/EFF/EXP), per catchment"
   },
   "population_density": {
    "kind": "real",
    "n_real": 4,
    "n_sites": 4,
    "source": "Census ACS 2022 B01003 block groups (bbox, multi-county), area-weighted"
   },
   "protected_area_score": {
    "kind": "real",
    "n_real": 4,
    "n_sites": 4,
    "source": "USGS PAD-US 4.1 state GDB; states=NC; shipped designation-weighted proximity curve"
   },
   "road_access_score": {
    "kind": "real",
    "n_real": 4,
    "n_sites": 4,
    "source": "OSM drive network nearest-node distance"
   },
   "road_density_km_km2": {
    "kind": "real",
    "n_real": 4,
    "n_sites": 4,
    "source": "OSM drive network (osmnx, cached) clipped per catchment"
   },
   "runoff_coeff_C": {
    "kind": "real",
    "n_real": 4,
    "n_sites": 4,
    "source": "derived from real impervious_pct (C=0.05+0.009*I)"
   },
   "seasonal_cv": {
    "kind": "real",
    "n_real": 4,
    "n_sites": 4,
    "source": "CV of NHDPlus EROM monthly flows per COMID"
   },
   "stream_order": {
    "kind": "real",
    "n_real": 4,
    "n_sites": 4,
    "source": "DEM stream-network confluence heuristic (pipeline)"
   },
   "superfund_score": {
    "kind": "real",
    "n_real": 4,
    "n_sites": 4,
    "source": "EPA DataMap SEMS active sites states=NC (non-archived, georeferenced), shipped 500 m inverse-distance curve"
   },
   "tourism_amenity_density": {
    "kind": "real",
    "n_real": 4,
    "n_sites": 4,
    "source": "OSM leisure/tourism features per 2 km radius"
   },
   "tri_facility_density": {
    "kind": "real",
    "n_real": 4,
    "n_sites": 4,
    "source": "EPA DataMap TRI open facilities states=NC (preferred decimal or packed-DMS recovery), per catchment"
   },
   "usgs_mean_q_cfs": {
    "kind": "real",
    "n_real": 4,
    "n_sites": 4,
    "source": "NHDPlus EROM qe_ma per COMID (snap-guarded)"
   },
   "velocity_feasibility": {
    "kind": "real",
    "n_fallback": 0,
    "n_real": 4,
    "n_sites": 4,
    "source": "shipped step curve on the computed velocity"
   },
   "velocity_transport_favorability": {
    "kind": "derived",
    "n_real": 4,
    "n_sites": 4,
    "source": "scored form of flow_velocity_ms inside the Flow family \u2014 peaked Gaussian exp(-((v-0.9)/0.6)^2), model.json curves.velocity_transport_favorability; construct: transport/delivery favorability, deliberately distinct from velocity_feasibility (device operability)"
   },
   "water_intake_score": {
    "kind": "real",
    "n_real": 4,
    "n_sites": 4,
    "source": "NC OneMap / NC DEQ SWAP public water supply sources (source_typ='Surface Water'), shipped exp(-d/10km) curve"
   }
  },
  "stream_mask": {
   "buffer_m": 150.0,
   "pre_mask": 4,
   "removed": 0,
   "sources": [
    "osm-overpass (all waterway ways)",
    "usgs-nhdplus flowlines"
   ]
  },
  "varying": [
   "beach_dist_km",
   "catchment_area_km2",
   "ej_index",
   "estuary_dist_km",
   "flood_q10_cfs",
   "flow_velocity_ms",
   "impervious_pct",
   "npdes_points",
   "population_density",
   "protected_area_score",
   "road_access_score",
   "road_density_km_km2",
   "runoff_coeff_C",
   "seasonal_cv",
   "tourism_amenity_density",
   "tri_facility_density",
   "usgs_mean_q_cfs",
   "water_intake_score"
  ]
 },
 "region": {
  "bbox": [
   -78.1583,
   35.0984,
   -78.1143,
   35.1345
  ],
  "beach_ref": {
   "label": "Wrightsville Beach (shipped NC reference)",
   "lat": 34.21,
   "lon": -77.79
  },
  "center": [
   -78.136287,
   35.116461
  ],
  "estuary_ref": {
   "label": "Pamlico Sound (shipped NC reference)",
   "lat": 35.05,
   "lon": -76.05
  },
  "flood_method": "sir2014_hr4",
  "name": "Faison, NC",
  "notes": "NC Coastal Plain (SIR 2014-5030 HR4; I24H50Y from NOAA Atlas 14 at region center)",
  "slug": "faison",
  "state": "NC",
  "utm_epsg": 32617,
  "width_curve": {
   "a": 2.22,
   "b": 0.363,
   "code": "APL",
   "source": "Bieger et al. 2015 JAWRA Table 3, Atlantic Plain"
  }
 },
 "type": "FeatureCollection"
}
