{
 "features": [
  {
   "geometry": {
    "coordinates": [
     -81.869054,
     35.323069
    ],
    "type": "Point"
   },
   "properties": {
    "accumulation": 22174.0,
    "bank_slope_deg": 5.64,
    "bank_slope_score": 1.0,
    "bank_slope_source": "nc-dps-lidar-dem03-cross-section",
    "beach_dist_km": 392.58,
    "bridge_proximity_bonus": 0.0,
    "catchment_area_km2": 2.212,
    "channel_width_m": 4.34,
    "channel_width_score": 1.0,
    "composite_score": 60.2743,
    "cso_density": 0.0,
    "ej_index": 0.8895,
    "elevation_m": 275.9516,
    "estuary_dist_km": 529.62,
    "feasibility_score": 76.7857,
    "flood_q10_cfs": 486.23,
    "flow_score": 42.1334,
    "flow_velocity_ms": 0.1367,
    "generation_score": 72.7273,
    "impact_score": 54.6832,
    "impervious_pct": 20.73,
    "land_ownership": 1.0,
    "lat": 35.3231,
    "litter_complaint_density": 0.0,
    "lon": -81.8691,
    "navigable_dist_m": null,
    "npdes_points": 0,
    "pixel_col": 541.0,
    "pixel_row": 655.0,
    "population_density": 530.7,
    "position_along": 0.5,
    "protected_area_score": 3.2407,
    "rank": 1,
    "road_access_m": 69.9,
    "road_access_score": 1.0,
    "road_density_km_km2": 8.16,
    "robustness_pct": 98.5,
    "runoff_coeff_C": 0.2366,
    "seasonal_cv": 0.4533,
    "segment_id": 17,
    "segment_length_m": 490.1148,
    "stream_order": 3,
    "superfund_score": 0.0017,
    "tourism_amenity_density": 1.512,
    "tri_facility_density": 0.0,
    "usgs_mean_q_cfs": 12.769,
    "velocity_feasibility": 0.7,
    "water_intake_score": 1.1469
   },
   "type": "Feature"
  },
  {
   "geometry": {
    "coordinates": [
     -81.863842,
     35.315215
    ],
    "type": "Point"
   },
   "properties": {
    "accumulation": 133974.0,
    "bank_slope_deg": 1.09,
    "bank_slope_score": 1.0,
    "bank_slope_source": "nc-dps-lidar-dem03-cross-section",
    "beach_dist_km": 391.87,
    "bridge_proximity_bonus": 0.0,
    "catchment_area_km2": 13.3649,
    "channel_width_m": 9.15,
    "channel_width_score": 1.0,
    "composite_score": 54.4205,
    "cso_density": 0.0,
    "ej_index": 0.7203,
    "elevation_m": 274.7257,
    "estuary_dist_km": 529.12,
    "feasibility_score": 58.0357,
    "flood_q10_cfs": 1599.45,
    "flow_score": 53.2485,
    "flow_velocity_ms": 0.0574,
    "generation_score": 64.5223,
    "impact_score": 43.4877,
    "impervious_pct": 20.73,
    "land_ownership": 0.5,
    "lat": 35.3152,
    "litter_complaint_density": 0.0,
    "lon": -81.8638,
    "navigable_dist_m": null,
    "npdes_points": 0,
    "pixel_col": 586.0,
    "pixel_row": 743.0,
    "population_density": 271.7,
    "position_along": 0.1667,
    "protected_area_score": 3.0395,
    "rank": 2,
    "road_access_m": 172.9,
    "road_access_score": 1.0,
    "road_density_km_km2": 6.213,
    "robustness_pct": 93.5,
    "runoff_coeff_C": 0.2366,
    "seasonal_cv": 0.4533,
    "segment_id": 18,
    "segment_length_m": 5104.6473,
    "stream_order": 3,
    "superfund_score": 0.0015,
    "tourism_amenity_density": 0.7162,
    "tri_facility_density": 0.1496,
    "usgs_mean_q_cfs": 12.769,
    "velocity_feasibility": 0.7,
    "water_intake_score": 1.0933
   },
   "type": "Feature"
  },
  {
   "geometry": {
    "coordinates": [
     -81.886348,
     35.326961
    ],
    "type": "Point"
   },
   "properties": {
    "accumulation": 64637.0,
    "bank_slope_deg": 18.34,
    "bank_slope_score": 0.5,
    "bank_slope_source": "nc-dps-lidar-dem03-cross-section",
    "beach_dist_km": 394.21,
    "bridge_proximity_bonus": 0.0,
    "catchment_area_km2": 6.448,
    "channel_width_m": 6.76,
    "channel_width_score": 1.0,
    "composite_score": 53.0237,
    "cso_density": 0.0,
    "ej_index": 0.7901,
    "elevation_m": 289.5979,
    "estuary_dist_km": 531.2,
    "feasibility_score": 50.2232,
    "flood_q10_cfs": 1088.92,
    "flow_score": 48.3248,
    "flow_velocity_ms": 0.1359,
    "generation_score": 58.6214,
    "impact_score": 52.7421,
    "impervious_pct": 20.73,
    "land_ownership": 0.5,
    "lat": 35.327,
    "litter_complaint_density": 0.0,
    "lon": -81.8863,
    "navigable_dist_m": null,
    "npdes_points": 0,
    "pixel_col": 385.0,
    "pixel_row": 611.0,
    "population_density": 338.3,
    "position_along": 0.25,
    "protected_area_score": 3.4373,
    "rank": 3,
    "road_access_m": 64.8,
    "road_access_score": 1.0,
    "road_density_km_km2": 6.686,
    "robustness_pct": 93.0,
    "runoff_coeff_C": 0.2366,
    "seasonal_cv": 0.4533,
    "segment_id": 16,
    "segment_length_m": 3702.0885,
    "stream_order": 3,
    "superfund_score": 0.002,
    "tourism_amenity_density": 1.7507,
    "tri_facility_density": 0.0,
    "usgs_mean_q_cfs": 12.769,
    "velocity_feasibility": 0.7,
    "water_intake_score": 1.1891
   },
   "type": "Feature"
  },
  {
   "geometry": {
    "coordinates": [
     -81.876202,
     35.317261
    ],
    "type": "Point"
   },
   "properties": {
    "accumulation": 93841.0,
    "bank_slope_deg": 15.95,
    "bank_slope_score": 0.5,
    "bank_slope_source": "nc-dps-lidar-dem03-cross-section",
    "beach_dist_km": 393.01,
    "bridge_proximity_bonus": 0.0,
    "catchment_area_km2": 9.3613,
    "channel_width_m": 7.89,
    "channel_width_score": 1.0,
    "composite_score": 51.8305,
    "cso_density": 0.0,
    "ej_index": 0.7434,
    "elevation_m": 279.89,
    "estuary_dist_km": 530.25,
    "feasibility_score": 50.2232,
    "flood_q10_cfs": 1313.18,
    "flow_score": 52.1002,
    "flow_velocity_ms": 0.1676,
    "generation_score": 59.0629,
    "impact_score": 45.177,
    "impervious_pct": 20.73,
    "land_ownership": 0.5,
    "lat": 35.3173,
    "litter_complaint_density": 0.0,
    "lon": -81.8762,
    "navigable_dist_m": null,
    "npdes_points": 0,
    "pixel_col": 477.0,
    "pixel_row": 716.0,
    "population_density": 332.7,
    "position_along": 0.75,
    "protected_area_score": 3.2371,
    "rank": 4,
    "road_access_m": 156.1,
    "road_access_score": 1.0,
    "road_density_km_km2": 7.066,
    "robustness_pct": 80.5,
    "runoff_coeff_C": 0.2366,
    "seasonal_cv": 0.4533,
    "segment_id": 16,
    "segment_length_m": 3702.0885,
    "stream_order": 3,
    "superfund_score": 0.0016,
    "tourism_amenity_density": 0.7958,
    "tri_facility_density": 0.0,
    "usgs_mean_q_cfs": 12.769,
    "velocity_feasibility": 0.7,
    "water_intake_score": 1.1246
   },
   "type": "Feature"
  },
  {
   "geometry": {
    "coordinates": [
     -81.893697,
     35.336187
    ],
    "type": "Point"
   },
   "properties": {
    "accumulation": 23418.0,
    "bank_slope_deg": 17.74,
    "bank_slope_score": 0.5,
    "bank_slope_source": "nc-dps-lidar-dem03-cross-section",
    "beach_dist_km": 395.15,
    "bridge_proximity_bonus": 0.0,
    "catchment_area_km2": 2.3361,
    "channel_width_m": 4.44,
    "channel_width_score": 1.0,
    "composite_score": 49.2525,
    "cso_density": 0.0,
    "ej_index": 0.7567,
    "elevation_m": 295.6234,
    "estuary_dist_km": 531.89,
    "feasibility_score": 50.2232,
    "flood_q10_cfs": 506.65,
    "flow_score": 41.9229,
    "flow_velocity_ms": 0.1206,
    "generation_score": 48.6131,
    "impact_score": 55.5146,
    "impervious_pct": 20.73,
    "land_ownership": 0.5,
    "lat": 35.3362,
    "litter_complaint_density": 0.0,
    "lon": -81.8937,
    "navigable_dist_m": null,
    "npdes_points": 0,
    "pixel_col": 320.0,
    "pixel_row": 508.0,
    "population_density": 202.7,
    "position_along": 0.5,
    "protected_area_score": 3.4729,
    "rank": 5,
    "road_access_m": 51.1,
    "road_access_score": 1.0,
    "road_density_km_km2": 5.614,
    "robustness_pct": 35.5,
    "runoff_coeff_C": 0.2366,
    "seasonal_cv": 0.4533,
    "segment_id": 15,
    "segment_length_m": 804.7071,
    "stream_order": 3,
    "superfund_score": 0.0025,
    "tourism_amenity_density": 2.5465,
    "tri_facility_density": 0.0,
    "usgs_mean_q_cfs": 12.769,
    "velocity_feasibility": 0.7,
    "water_intake_score": 1.2372
   },
   "type": "Feature"
  },
  {
   "geometry": {
    "coordinates": [
     -81.867993,
     35.304869
    ],
    "type": "Point"
   },
   "properties": {
    "accumulation": 154019.0,
    "bank_slope_deg": 24.95,
    "bank_slope_score": 0.5,
    "bank_slope_source": "nc-dps-lidar-dem03-cross-section",
    "beach_dist_km": 391.89,
    "bridge_proximity_bonus": 0.0,
    "catchment_area_km2": 15.3645,
    "channel_width_m": 9.7,
    "channel_width_score": 1.0,
    "composite_score": 48.6702,
    "cso_density": 0.0,
    "ej_index": 0.6473,
    "elevation_m": 260.626,
    "estuary_dist_km": 529.47,
    "feasibility_score": 50.2232,
    "flood_q10_cfs": 1727.88,
    "flow_score": 57.6965,
    "flow_velocity_ms": 0.1657,
    "generation_score": 54.7204,
    "impact_score": 34.3217,
    "impervious_pct": 20.73,
    "land_ownership": 0.5,
    "lat": 35.3049,
    "litter_complaint_density": 0.0,
    "lon": -81.868,
    "navigable_dist_m": null,
    "npdes_points": 0,
    "pixel_col": 549.0,
    "pixel_row": 857.0,
    "population_density": 186.6,
    "position_along": 0.5,
    "protected_area_score": 2.8738,
    "rank": 6,
    "road_access_m": 199.8,
    "road_access_score": 1.0,
    "road_density_km_km2": 4.482,
    "robustness_pct": 50.0,
    "runoff_coeff_C": 0.2366,
    "seasonal_cv": 0.4533,
    "segment_id": 18,
    "segment_length_m": 5104.6473,
    "stream_order": 3,
    "superfund_score": 0.0013,
    "tourism_amenity_density": 0.3183,
    "tri_facility_density": 0.1302,
    "usgs_mean_q_cfs": 12.769,
    "velocity_feasibility": 0.7,
    "water_intake_score": 1.0298
   },
   "type": "Feature"
  },
  {
   "geometry": {
    "coordinates": [
     -81.893826,
     35.337808
    ],
    "type": "Point"
   },
   "properties": {
    "accumulation": 27674.0,
    "bank_slope_deg": 14.37,
    "bank_slope_score": 1.0,
    "bank_slope_source": "nc-dps-lidar-dem03-cross-section",
    "beach_dist_km": 395.21,
    "bridge_proximity_bonus": 0.0,
    "catchment_area_km2": 2.7607,
    "channel_width_m": 4.76,
    "channel_width_score": 1.0,
    "composite_score": 48.2959,
    "cso_density": 0.0,
    "ej_index": 0.7638,
    "elevation_m": 291.6429,
    "estuary_dist_km": 531.91,
    "feasibility_score": 43.75,
    "flood_q10_cfs": 574.6,
    "flow_score": 40.8322,
    "flow_velocity_ms": 0.0403,
    "generation_score": 48.5479,
    "impact_score": 56.5365,
    "impervious_pct": 20.73,
    "land_ownership": 0.5,
    "lat": 35.3378,
    "litter_complaint_density": 0.0,
    "lon": -81.8938,
    "navigable_dist_m": null,
    "npdes_points": 0,
    "pixel_col": 318.0,
    "pixel_row": 490.0,
    "population_density": 206.9,
    "position_along": 0.5,
    "protected_area_score": 3.4428,
    "rank": 7,
    "road_access_m": 110.3,
    "road_access_score": 1.0,
    "road_density_km_km2": 5.461,
    "robustness_pct": 9.5,
    "runoff_coeff_C": 0.2366,
    "seasonal_cv": 0.4533,
    "segment_id": 14,
    "segment_length_m": 1170.8305,
    "stream_order": 3,
    "superfund_score": 0.0026,
    "tourism_amenity_density": 2.7852,
    "tri_facility_density": 0.0,
    "usgs_mean_q_cfs": 12.769,
    "velocity_feasibility": 0.3,
    "water_intake_score": 1.2442
   },
   "type": "Feature"
  },
  {
   "geometry": {
    "coordinates": [
     -81.862033,
     35.29483
    ],
    "type": "Point"
   },
   "properties": {
    "accumulation": 178164.0,
    "bank_slope_deg": 14.71,
    "bank_slope_score": 1.0,
    "bank_slope_source": "nc-dps-lidar-dem03-cross-section",
    "beach_dist_km": 391.05,
    "bridge_proximity_bonus": 0.0,
    "catchment_area_km2": 17.7732,
    "channel_width_m": 10.3,
    "channel_width_score": 1.0,
    "composite_score": 44.5873,
    "cso_density": 0.0,
    "ej_index": 0.6481,
    "elevation_m": 251.6572,
    "estuary_dist_km": 528.9,
    "feasibility_score": 42.4107,
    "flood_q10_cfs": 1873.03,
    "flow_score": 58.1401,
    "flow_velocity_ms": 0.1014,
    "generation_score": 47.3119,
    "impact_score": 31.6569,
    "impervious_pct": 20.73,
    "land_ownership": 0.5,
    "lat": 35.2948,
    "litter_complaint_density": 0.0,
    "lon": -81.862,
    "navigable_dist_m": null,
    "npdes_points": 0,
    "pixel_col": 602.0,
    "pixel_row": 969.0,
    "population_density": 145.1,
    "position_along": 0.8333,
    "protected_area_score": 2.77,
    "rank": 8,
    "road_access_m": 320.5,
    "road_access_score": 0.8,
    "road_density_km_km2": 2.626,
    "robustness_pct": 1.5,
    "runoff_coeff_C": 0.2366,
    "seasonal_cv": 0.4533,
    "segment_id": 18,
    "segment_length_m": 5104.6473,
    "stream_order": 3,
    "superfund_score": 0.0011,
    "tourism_amenity_density": 0.3183,
    "tri_facility_density": 0.1125,
    "usgs_mean_q_cfs": 12.769,
    "velocity_feasibility": 0.7,
    "water_intake_score": 0.9598
   },
   "type": "Feature"
  },
  {
   "geometry": {
    "coordinates": [
     -81.838548,
     35.337781
    ],
    "type": "Point"
   },
   "properties": {
    "accumulation": 233309.0,
    "bank_slope_deg": 22.24,
    "bank_slope_score": 0.5,
    "bank_slope_source": "nc-dps-lidar-dem03-cross-section",
    "beach_dist_km": 390.43,
    "bridge_proximity_bonus": 0.0,
    "catchment_area_km2": 23.2743,
    "channel_width_m": 11.52,
    "channel_width_score": 1.0,
    "composite_score": 43.8486,
    "cso_density": 0.0,
    "ej_index": 0.6045,
    "elevation_m": 240.4485,
    "estuary_dist_km": 526.9,
    "feasibility_score": 60.9375,
    "flood_q10_cfs": 1633.17,
    "flow_score": 58.7635,
    "flow_velocity_ms": 0.5,
    "generation_score": 16.3346,
    "impact_score": 50.3891,
    "impervious_pct": null,
    "land_ownership": 0.5,
    "lat": 35.3378,
    "litter_complaint_density": 0.0,
    "lon": -81.8385,
    "navigable_dist_m": null,
    "npdes_points": 0,
    "pixel_col": 820.0,
    "pixel_row": 494.0,
    "population_density": 129.1,
    "position_along": 0.5,
    "protected_area_score": 3.0884,
    "rank": 9,
    "road_access_m": 152.5,
    "road_access_score": 1.0,
    "road_density_km_km2": 3.696,
    "robustness_pct": 9.5,
    "runoff_coeff_C": null,
    "seasonal_cv": null,
    "segment_id": 12,
    "segment_length_m": 4907.0701,
    "stream_order": 3,
    "superfund_score": 0.0018,
    "tourism_amenity_density": 0.6366,
    "tri_facility_density": 0.0859,
    "usgs_mean_q_cfs": null,
    "velocity_feasibility": 1.0,
    "water_intake_score": 1.1936
   },
   "type": "Feature"
  },
  {
   "geometry": {
    "coordinates": [
     -81.835967,
     35.318773
    ],
    "type": "Point"
   },
   "properties": {
    "accumulation": 26311.0,
    "bank_slope_deg": 6.79,
    "bank_slope_score": 1.0,
    "bank_slope_source": "nc-dps-lidar-dem03-cross-section",
    "beach_dist_km": 389.57,
    "bridge_proximity_bonus": 0.0,
    "catchment_area_km2": 2.6247,
    "channel_width_m": 4.66,
    "channel_width_score": 1.0,
    "composite_score": 43.7966,
    "cso_density": 0.0,
    "ej_index": 0.7313,
    "elevation_m": 242.6382,
    "estuary_dist_km": 526.6,
    "feasibility_score": 43.75,
    "flood_q10_cfs": 473.28,
    "flow_score": 26.0401,
    "flow_velocity_ms": 0.0404,
    "generation_score": 58.8697,
    "impact_score": 43.544,
    "impervious_pct": 11.82,
    "land_ownership": 0.5,
    "lat": 35.3188,
    "litter_complaint_density": 0.0,
    "lon": -81.836,
    "navigable_dist_m": null,
    "npdes_points": 0,
    "pixel_col": 843.0,
    "pixel_row": 704.0,
    "population_density": 189.4,
    "position_along": 0.5,
    "protected_area_score": 2.7462,
    "rank": 10,
    "road_access_m": 88.6,
    "road_access_score": 1.0,
    "road_density_km_km2": 4.015,
    "robustness_pct": 1.0,
    "runoff_coeff_C": 0.1564,
    "seasonal_cv": 0.4758,
    "segment_id": 20,
    "segment_length_m": 531.4859,
    "stream_order": 3,
    "superfund_score": 0.0013,
    "tourism_amenity_density": 0.1592,
    "tri_facility_density": 0.381,
    "usgs_mean_q_cfs": 4.187,
    "velocity_feasibility": 0.3,
    "water_intake_score": 1.065
   },
   "type": "Feature"
  },
  {
   "geometry": {
    "coordinates": [
     -81.832773,
     35.331941
    ],
    "type": "Point"
   },
   "properties": {
    "accumulation": 79208.0,
    "bank_slope_deg": 15.59,
    "bank_slope_score": 0.5,
    "bank_slope_source": "nc-dps-lidar-dem03-cross-section",
    "beach_dist_km": 389.73,
    "bridge_proximity_bonus": 0.0,
    "catchment_area_km2": 7.9016,
    "channel_width_m": 7.36,
    "channel_width_score": 1.0,
    "composite_score": 42.706,
    "cso_density": 0.0,
    "ej_index": 0.5856,
    "elevation_m": 242.0319,
    "estuary_dist_km": 526.35,
    "feasibility_score": 50.2232,
    "flood_q10_cfs": 921.39,
    "flow_score": 48.5889,
    "flow_velocity_ms": 0.1359,
    "generation_score": 29.7551,
    "impact_score": 46.9958,
    "impervious_pct": 1.88,
    "land_ownership": 0.5,
    "lat": 35.3319,
    "litter_complaint_density": 0.0,
    "lon": -81.8328,
    "navigable_dist_m": null,
    "npdes_points": 0,
    "pixel_col": 873.0,
    "pixel_row": 560.0,
    "population_density": 122.3,
    "position_along": 0.8333,
    "protected_area_score": 2.9871,
    "rank": 11,
    "road_access_m": 185.1,
    "road_access_score": 1.0,
    "road_density_km_km2": 3.248,
    "robustness_pct": 0.0,
    "runoff_coeff_C": 0.0669,
    "seasonal_cv": 0.4362,
    "segment_id": 7,
    "segment_length_m": 4877.9381,
    "stream_order": 3,
    "superfund_score": 0.0015,
    "tourism_amenity_density": 0.3979,
    "tri_facility_density": 0.2531,
    "usgs_mean_q_cfs": 16.338,
    "velocity_feasibility": 0.7,
    "water_intake_score": 1.1453
   },
   "type": "Feature"
  },
  {
   "geometry": {
    "coordinates": [
     -81.845973,
     35.345919
    ],
    "type": "Point"
   },
   "properties": {
    "accumulation": 207807.0,
    "bank_slope_deg": 30.83,
    "bank_slope_score": 0.2,
    "bank_slope_source": "nc-dps-lidar-dem03-cross-section",
    "beach_dist_km": 391.34,
    "bridge_proximity_bonus": 0.0,
    "catchment_area_km2": 20.7303,
    "channel_width_m": 10.98,
    "channel_width_score": 1.0,
    "composite_score": 42.5587,
    "cso_density": 0.0,
    "ej_index": 0.6601,
    "elevation_m": 241.6291,
    "estuary_dist_km": 527.6,
    "feasibility_score": 40.625,
    "flood_q10_cfs": 1531.75,
    "flow_score": 56.9023,
    "flow_velocity_ms": 0.5,
    "generation_score": 17.768,
    "impact_score": 56.3631,
    "impervious_pct": null,
    "land_ownership": 0.5,
    "lat": 35.3459,
    "litter_complaint_density": 0.0,
    "lon": -81.846,
    "navigable_dist_m": null,
    "npdes_points": 0,
    "pixel_col": 753.0,
    "pixel_row": 403.0,
    "population_density": 137.1,
    "position_along": 0.1667,
    "protected_area_score": 3.3704,
    "rank": 12,
    "road_access_m": 333.2,
    "road_access_score": 0.8,
    "road_density_km_km2": 3.801,
    "robustness_pct": 1.5,
    "runoff_coeff_C": null,
    "seasonal_cv": null,
    "segment_id": 12,
    "segment_length_m": 4907.0701,
    "stream_order": 3,
    "superfund_score": 0.0021,
    "tourism_amenity_density": 0.6366,
    "tri_facility_density": 0.0965,
    "usgs_mean_q_cfs": null,
    "velocity_feasibility": 1.0,
    "water_intake_score": 1.2575
   },
   "type": "Feature"
  },
  {
   "geometry": {
    "coordinates": [
     -81.864382,
     35.357759
    ],
    "type": "Point"
   },
   "properties": {
    "accumulation": 28153.0,
    "bank_slope_deg": 17.43,
    "bank_slope_score": 0.5,
    "bank_slope_source": "nc-dps-lidar-dem03-cross-section",
    "beach_dist_km": 393.34,
    "bridge_proximity_bonus": 0.0,
    "catchment_area_km2": 2.8085,
    "channel_width_m": 4.79,
    "channel_width_score": 1.0,
    "composite_score": 42.4073,
    "cso_density": 0.0,
    "ej_index": 0.8064,
    "elevation_m": 251.2733,
    "estuary_dist_km": 529.31,
    "feasibility_score": 34.5982,
    "flood_q10_cfs": 496.56,
    "flow_score": 29.8011,
    "flow_velocity_ms": 0.1352,
    "generation_score": 30.7103,
    "impact_score": 68.514,
    "impervious_pct": 11.65,
    "land_ownership": 0.5,
    "lat": 35.3578,
    "litter_complaint_density": 0.0,
    "lon": -81.8644,
    "navigable_dist_m": null,
    "npdes_points": 0,
    "pixel_col": 588.0,
    "pixel_row": 269.0,
    "population_density": 242.6,
    "position_along": 0.5,
    "protected_area_score": 3.7377,
    "rank": 13,
    "road_access_m": 267.5,
    "road_access_score": 0.8,
    "road_density_km_km2": 2.17,
    "robustness_pct": 6.0,
    "runoff_coeff_C": 0.1548,
    "seasonal_cv": 0.4779,
    "segment_id": 8,
    "segment_length_m": 936.2628,
    "stream_order": 3,
    "superfund_score": 0.0032,
    "tourism_amenity_density": 1.2732,
    "tri_facility_density": 0.0,
    "usgs_mean_q_cfs": 5.266,
    "velocity_feasibility": 0.7,
    "water_intake_score": 1.3723
   },
   "type": "Feature"
  },
  {
   "geometry": {
    "coordinates": [
     -81.83712,
     35.32705
    ],
    "type": "Point"
   },
   "properties": {
    "accumulation": 246247.0,
    "bank_slope_deg": 32.57,
    "bank_slope_score": 0.2,
    "bank_slope_source": "nc-dps-lidar-dem03-cross-section",
    "beach_dist_km": 389.95,
    "bridge_proximity_bonus": 0.0,
    "catchment_area_km2": 24.5649,
    "channel_width_m": 11.78,
    "channel_width_score": 1.0,
    "composite_score": 41.3856,
    "cso_density": 0.0,
    "ej_index": 0.6393,
    "elevation_m": 239.664,
    "estuary_dist_km": 526.73,
    "feasibility_score": 40.625,
    "flood_q10_cfs": 1682.73,
    "flow_score": 59.6941,
    "flow_velocity_ms": 0.5,
    "generation_score": 23.3929,
    "impact_score": 44.5016,
    "impervious_pct": null,
    "land_ownership": 0.5,
    "lat": 35.3271,
    "litter_complaint_density": 0.0,
    "lon": -81.8371,
    "navigable_dist_m": null,
    "npdes_points": 0,
    "pixel_col": 833.0,
    "pixel_row": 612.0,
    "population_density": 147.1,
    "position_along": 0.8333,
    "protected_area_score": 2.9065,
    "rank": 14,
    "road_access_m": 261.6,
    "road_access_score": 0.8,
    "road_density_km_km2": 3.95,
    "robustness_pct": 0.0,
    "runoff_coeff_C": null,
    "seasonal_cv": null,
    "segment_id": 12,
    "segment_length_m": 4907.0701,
    "stream_order": 3,
    "superfund_score": 0.0015,
    "tourism_amenity_density": 0.0,
    "tri_facility_density": 0.1628,
    "usgs_mean_q_cfs": null,
    "velocity_feasibility": 1.0,
    "water_intake_score": 1.1269
   },
   "type": "Feature"
  },
  {
   "geometry": {
    "coordinates": [
     -81.821869,
     35.318957
    ],
    "type": "Point"
   },
   "properties": {
    "accumulation": 426512.0,
    "bank_slope_deg": 18.93,
    "bank_slope_score": 0.5,
    "bank_slope_source": "nc-dps-lidar-dem03-cross-section",
    "beach_dist_km": 388.36,
    "bridge_proximity_bonus": 0.0,
    "catchment_area_km2": 42.5477,
    "channel_width_m": 14.8,
    "channel_width_score": 1.0,
    "composite_score": 41.2276,
    "cso_density": 0.0,
    "ej_index": 0.5822,
    "elevation_m": 237.1311,
    "estuary_dist_km": 525.32,
    "feasibility_score": 45.3125,
    "flood_q10_cfs": 2281.15,
    "flow_score": 72.0,
    "flow_velocity_ms": 0.5,
    "generation_score": 13.1891,
    "impact_score": 41.5799,
    "impervious_pct": null,
    "land_ownership": 0.5,
    "lat": 35.319,
    "litter_complaint_density": 0.0,
    "lon": -81.8219,
    "navigable_dist_m": null,
    "npdes_points": 0,
    "pixel_col": 972.0,
    "pixel_row": 705.0,
    "population_density": 117.3,
    "position_along": 0.5,
    "protected_area_score": 2.76,
    "rank": 15,
    "road_access_m": 325.1,
    "road_access_score": 0.8,
    "road_density_km_km2": 2.186,
    "robustness_pct": 6.5,
    "runoff_coeff_C": null,
    "seasonal_cv": null,
    "segment_id": 25,
    "segment_length_m": 1698.889,
    "stream_order": 3,
    "superfund_score": 0.0012,
    "tourism_amenity_density": 0.1592,
    "tri_facility_density": 0.094,
    "usgs_mean_q_cfs": null,
    "velocity_feasibility": 1.0,
    "water_intake_score": 1.0406
   },
   "type": "Feature"
  },
  {
   "geometry": {
    "coordinates": [
     -81.850438,
     35.349567
    ],
    "type": "Point"
   },
   "properties": {
    "accumulation": 21674.0,
    "bank_slope_deg": 16.53,
    "bank_slope_score": 0.5,
    "bank_slope_source": "nc-dps-lidar-dem03-cross-section",
    "beach_dist_km": 391.85,
    "bridge_proximity_bonus": 0.0,
    "catchment_area_km2": 2.1621,
    "channel_width_m": 4.3,
    "channel_width_score": 1.0,
    "composite_score": 41.1702,
    "cso_density": 0.0,
    "ej_index": 0.7923,
    "elevation_m": 245.2098,
    "estuary_dist_km": 528.02,
    "feasibility_score": 53.3482,
    "flood_q10_cfs": 431.44,
    "flow_score": 22.9583,
    "flow_velocity_ms": 0.1113,
    "generation_score": 28.0165,
    "impact_score": 63.4116,
    "impervious_pct": 14.88,
    "land_ownership": 1.0,
    "lat": 35.3496,
    "litter_complaint_density": 0.0,
    "lon": -81.8504,
    "navigable_dist_m": null,
    "npdes_points": 0,
    "pixel_col": 714.0,
    "pixel_row": 362.0,
    "population_density": 131.4,
    "position_along": 0.5,
    "protected_area_score": 3.5076,
    "rank": 16,
    "road_access_m": 329.9,
    "road_access_score": 0.8,
    "road_density_km_km2": 1.684,
    "robustness_pct": 4.5,
    "runoff_coeff_C": 0.1839,
    "seasonal_cv": 0.5403,
    "segment_id": 11,
    "segment_length_m": 503.9457,
    "stream_order": 3,
    "superfund_score": 0.0024,
    "tourism_amenity_density": 0.8754,
    "tri_facility_density": 0.0,
    "usgs_mean_q_cfs": 1.502,
    "velocity_feasibility": 0.7,
    "water_intake_score": 1.2941
   },
   "type": "Feature"
  },
  {
   "geometry": {
    "coordinates": [
     -81.828599,
     35.323578
    ],
    "type": "Point"
   },
   "properties": {
    "accumulation": 346618.0,
    "bank_slope_deg": 34.71,
    "bank_slope_score": 0.2,
    "bank_slope_source": "nc-dps-lidar-dem03-cross-section",
    "beach_dist_km": 389.09,
    "bridge_proximity_bonus": 0.0,
    "catchment_area_km2": 34.5777,
    "channel_width_m": 13.58,
    "channel_width_score": 1.0,
    "composite_score": 40.5462,
    "cso_density": 0.0,
    "ej_index": 0.5919,
    "elevation_m": 238.3102,
    "estuary_dist_km": 525.95,
    "feasibility_score": 40.625,
    "flood_q10_cfs": 2033.57,
    "flow_score": 66.6726,
    "flow_velocity_ms": 0.5,
    "generation_score": 16.505,
    "impact_score": 42.776,
    "impervious_pct": null,
    "land_ownership": 0.5,
    "lat": 35.3236,
    "litter_complaint_density": 0.0,
    "lon": -81.8286,
    "navigable_dist_m": null,
    "npdes_points": 0,
    "pixel_col": 911.0,
    "pixel_row": 652.0,
    "population_density": 125.3,
    "position_along": 0.5,
    "protected_area_score": 2.8464,
    "rank": 17,
    "road_access_m": 406.0,
    "road_access_score": 0.8,
    "road_density_km_km2": 2.831,
    "robustness_pct": 3.0,
    "runoff_coeff_C": null,
    "seasonal_cv": null,
    "segment_id": 13,
    "segment_length_m": 696.1385,
    "stream_order": 3,
    "superfund_score": 0.0013,
    "tourism_amenity_density": 0.1592,
    "tri_facility_density": 0.1157,
    "usgs_mean_q_cfs": null,
    "velocity_feasibility": 1.0,
    "water_intake_score": 1.0771
   },
   "type": "Feature"
  },
  {
   "geometry": {
    "coordinates": [
     -81.898116,
     35.367603
    ],
    "type": "Point"
   },
   "properties": {
    "accumulation": 32226.0,
    "bank_slope_deg": 8.54,
    "bank_slope_score": 1.0,
    "bank_slope_source": "nc-dps-lidar-dem03-cross-section",
    "beach_dist_km": 396.58,
    "bridge_proximity_bonus": 0.0,
    "catchment_area_km2": 3.2148,
    "channel_width_m": 5.07,
    "channel_width_score": 1.0,
    "composite_score": 40.4973,
    "cso_density": 0.0,
    "ej_index": 0.4866,
    "elevation_m": 263.528,
    "estuary_dist_km": 532.41,
    "feasibility_score": 58.0357,
    "flood_q10_cfs": 528.65,
    "flow_score": 44.9272,
    "flow_velocity_ms": 0.1372,
    "generation_score": 21.6091,
    "impact_score": 46.9248,
    "impervious_pct": 9.41,
    "land_ownership": 0.5,
    "lat": 35.3676,
    "litter_complaint_density": 0.0,
    "lon": -81.8981,
    "navigable_dist_m": null,
    "npdes_points": 0,
    "pixel_col": 280.0,
    "pixel_row": 154.0,
    "population_density": 134.2,
    "position_along": 0.5,
    "protected_area_score": 3.7417,
    "rank": 18,
    "road_access_m": 106.8,
    "road_access_score": 1.0,
    "road_density_km_km2": 2.392,
    "robustness_pct": 0.0,
    "runoff_coeff_C": 0.1347,
    "seasonal_cv": 0.4292,
    "segment_id": 5,
    "segment_length_m": 2120.5085,
    "stream_order": 3,
    "superfund_score": 0.0058,
    "tourism_amenity_density": 0.0796,
    "tri_facility_density": 0.0,
    "usgs_mean_q_cfs": 15.864,
    "velocity_feasibility": 0.7,
    "water_intake_score": 1.3297
   },
   "type": "Feature"
  },
  {
   "geometry": {
    "coordinates": [
     -81.849864,
     35.355779
    ],
    "type": "Point"
   },
   "properties": {
    "accumulation": 166199.0,
    "bank_slope_deg": 32.26,
    "bank_slope_score": 0.2,
    "bank_slope_source": "nc-dps-lidar-dem03-cross-section",
    "beach_dist_km": 392.01,
    "bridge_proximity_bonus": 0.2,
    "catchment_area_km2": 16.5796,
    "channel_width_m": 10.01,
    "channel_width_score": 1.0,
    "composite_score": 40.4537,
    "cso_density": 0.0,
    "ej_index": 0.6329,
    "elevation_m": 243.1576,
    "estuary_dist_km": 527.99,
    "feasibility_score": 37.5,
    "flood_q10_cfs": 1353.45,
    "flow_score": 53.7736,
    "flow_velocity_ms": 0.5,
    "generation_score": 7.6946,
    "impact_score": 63.5896,
    "impervious_pct": null,
    "land_ownership": 0.5,
    "lat": 35.3558,
    "litter_complaint_density": 0.0,
    "lon": -81.8499,
    "navigable_dist_m": null,
    "npdes_points": 0,
    "pixel_col": 720.0,
    "pixel_row": 292.0,
    "population_density": 123.9,
    "position_along": 0.5,
    "protected_area_score": 3.6951,
    "rank": 19,
    "road_access_m": 656.3,
    "road_access_score": 0.6,
    "road_density_km_km2": 2.609,
    "robustness_pct": 4.5,
    "runoff_coeff_C": null,
    "seasonal_cv": null,
    "segment_id": 10,
    "segment_length_m": 2380.1928,
    "stream_order": 3,
    "superfund_score": 0.0027,
    "tourism_amenity_density": 1.0345,
    "tri_facility_density": 0.0,
    "usgs_mean_q_cfs": null,
    "velocity_feasibility": 1.0,
    "water_intake_score": 1.3364
   },
   "type": "Feature"
  },
  {
   "geometry": {
    "coordinates": [
     -81.870448,
     35.365217
    ],
    "type": "Point"
   },
   "properties": {
    "accumulation": 40820.0,
    "bank_slope_deg": 13.34,
    "bank_slope_score": 1.0,
    "bank_slope_source": "nc-dps-lidar-dem03-cross-section",
    "beach_dist_km": 394.11,
    "bridge_proximity_bonus": 0.0,
    "catchment_area_km2": 4.0721,
    "channel_width_m": 5.59,
    "channel_width_score": 1.0,
    "composite_score": 39.9496,
    "cso_density": 0.0,
    "ej_index": 0.4784,
    "elevation_m": 262.0182,
    "estuary_dist_km": 529.89,
    "feasibility_score": 42.4107,
    "flood_q10_cfs": 657.0,
    "flow_score": 31.8208,
    "flow_velocity_ms": 0.1467,
    "generation_score": 28.9702,
    "impact_score": 56.4723,
    "impervious_pct": 11.65,
    "land_ownership": 0.5,
    "lat": 35.3652,
    "litter_complaint_density": 0.0,
    "lon": -81.8704,
    "navigable_dist_m": null,
    "npdes_points": 0,
    "pixel_col": 533.0,
    "pixel_row": 183.0,
    "population_density": 184.2,
    "position_along": 0.5,
    "protected_area_score": 3.6287,
    "rank": 20,
    "road_access_m": 398.1,
    "road_access_score": 0.8,
    "road_density_km_km2": 2.984,
    "robustness_pct": 0.0,
    "runoff_coeff_C": 0.1548,
    "seasonal_cv": 0.4779,
    "segment_id": 4,
    "segment_length_m": 2377.1813,
    "stream_order": 3,
    "superfund_score": 0.0041,
    "tourism_amenity_density": 0.557,
    "tri_facility_density": 0.0,
    "usgs_mean_q_cfs": 5.266,
    "velocity_feasibility": 0.7,
    "water_intake_score": 1.4249
   },
   "type": "Feature"
  },
  {
   "geometry": {
    "coordinates": [
     -81.915792,
     35.375147
    ],
    "type": "Point"
   },
   "properties": {
    "accumulation": 27513.0,
    "bank_slope_deg": 20.09,
    "bank_slope_score": 0.5,
    "bank_slope_source": "nc-dps-lidar-dem03-cross-section",
    "beach_dist_km": 398.36,
    "bridge_proximity_bonus": 0.0,
    "catchment_area_km2": 2.7446,
    "channel_width_m": 4.74,
    "channel_width_score": 1.0,
    "composite_score": 39.5509,
    "cso_density": 0.0,
    "ej_index": 0.7596,
    "elevation_m": 267.9984,
    "estuary_dist_km": 534.04,
    "feasibility_score": 50.2232,
    "flood_q10_cfs": 526.26,
    "flow_score": 26.3567,
    "flow_velocity_ms": 0.1424,
    "generation_score": 33.6725,
    "impact_score": 51.0882,
    "impervious_pct": 15.96,
    "land_ownership": 0.5,
    "lat": 35.3751,
    "litter_complaint_density": 0.0,
    "lon": -81.9158,
    "navigable_dist_m": null,
    "npdes_points": 0,
    "pixel_col": 123.0,
    "pixel_row": 69.0,
    "population_density": 200.8,
    "position_along": 0.25,
    "protected_area_score": 3.8775,
    "rank": 21,
    "road_access_m": 164.1,
    "road_access_score": 1.0,
    "road_density_km_km2": 1.714,
    "robustness_pct": 0.0,
    "runoff_coeff_C": 0.1936,
    "seasonal_cv": 0.5182,
    "segment_id": 0,
    "segment_length_m": 3436.0159,
    "stream_order": 3,
    "superfund_score": 0.0082,
    "tourism_amenity_density": 0.0796,
    "tri_facility_density": 0.0,
    "usgs_mean_q_cfs": 2.253,
    "velocity_feasibility": 0.7,
    "water_intake_score": 1.2574
   },
   "type": "Feature"
  },
  {
   "geometry": {
    "coordinates": [
     -81.85931,
     35.360602
    ],
    "type": "Point"
   },
   "properties": {
    "accumulation": 81168.0,
    "bank_slope_deg": 14.68,
    "bank_slope_score": 1.0,
    "bank_slope_source": "nc-dps-lidar-dem03-cross-section",
    "beach_dist_km": 392.99,
    "bridge_proximity_bonus": 0.0,
    "catchment_area_km2": 8.0971,
    "channel_width_m": 7.43,
    "channel_width_score": 1.0,
    "composite_score": 39.3046,
    "cso_density": 0.0,
    "ej_index": 0.6165,
    "elevation_m": 246.9755,
    "estuary_dist_km": 528.87,
    "feasibility_score": 26.7857,
    "flood_q10_cfs": 1068.92,
    "flow_score": 36.7362,
    "flow_velocity_ms": 0.1528,
    "generation_score": 25.3687,
    "impact_score": 61.6402,
    "impervious_pct": 11.65,
    "land_ownership": 0.5,
    "lat": 35.3606,
    "litter_complaint_density": 0.0,
    "lon": -81.8593,
    "navigable_dist_m": null,
    "npdes_points": 0,
    "pixel_col": 635.0,
    "pixel_row": 237.0,
    "population_density": 158.7,
    "position_along": 0.5,
    "protected_area_score": 3.6611,
    "rank": 22,
    "road_access_m": 648.9,
    "road_access_score": 0.6,
    "road_density_km_km2": 1.929,
    "robustness_pct": 0.5,
    "runoff_coeff_C": 0.1548,
    "seasonal_cv": 0.4779,
    "segment_id": 9,
    "segment_length_m": 473.9822,
    "stream_order": 3,
    "superfund_score": 0.0032,
    "tourism_amenity_density": 0.6366,
    "tri_facility_density": 0.0,
    "usgs_mean_q_cfs": 5.266,
    "velocity_feasibility": 0.7,
    "water_intake_score": 1.3899
   },
   "type": "Feature"
  },
  {
   "geometry": {
    "coordinates": [
     -81.892895,
     35.3774
    ],
    "type": "Point"
   },
   "properties": {
    "accumulation": 86155.0,
    "bank_slope_deg": 2.08,
    "bank_slope_score": 1.0,
    "bank_slope_source": "nc-dps-lidar-dem03-cross-section",
    "beach_dist_km": 396.47,
    "bridge_proximity_bonus": 0.0,
    "catchment_area_km2": 8.5946,
    "channel_width_m": 7.62,
    "channel_width_score": 1.0,
    "composite_score": 39.2004,
    "cso_density": 0.0,
    "ej_index": 0.4457,
    "elevation_m": 253.4571,
    "estuary_dist_km": 531.98,
    "feasibility_score": 42.4107,
    "flood_q10_cfs": 1071.14,
    "flow_score": 51.225,
    "flow_velocity_ms": 0.1375,
    "generation_score": 18.401,
    "impact_score": 48.3743,
    "impervious_pct": 9.41,
    "land_ownership": 0.5,
    "lat": 35.3774,
    "litter_complaint_density": 0.0,
    "lon": -81.8929,
    "navigable_dist_m": null,
    "npdes_points": 0,
    "pixel_col": 330.0,
    "pixel_row": 46.0,
    "population_density": 111.6,
    "position_along": 0.5,
    "protected_area_score": 3.6497,
    "rank": 23,
    "road_access_m": 394.6,
    "road_access_score": 0.8,
    "road_density_km_km2": 1.449,
    "robustness_pct": 0.0,
    "runoff_coeff_C": 0.1347,
    "seasonal_cv": 0.4292,
    "segment_id": 6,
    "segment_length_m": 1556.6356,
    "stream_order": 3,
    "superfund_score": 0.0078,
    "tourism_amenity_density": 0.0,
    "tri_facility_density": 0.0,
    "usgs_mean_q_cfs": 15.864,
    "velocity_feasibility": 0.7,
    "water_intake_score": 1.3562
   },
   "type": "Feature"
  },
  {
   "geometry": {
    "coordinates": [
     -81.827169,
     35.355594
    ],
    "type": "Point"
   },
   "properties": {
    "accumulation": 42990.0,
    "bank_slope_deg": 11.98,
    "bank_slope_score": 1.0,
    "bank_slope_source": "nc-dps-lidar-dem03-cross-section",
    "beach_dist_km": 390.05,
    "bridge_proximity_bonus": 0.0,
    "catchment_area_km2": 4.2886,
    "channel_width_m": 5.71,
    "channel_width_score": 1.0,
    "composite_score": 38.8291,
    "cso_density": 0.0,
    "ej_index": 0.3564,
    "elevation_m": 250.318,
    "estuary_dist_km": 525.93,
    "feasibility_score": 58.0357,
    "flood_q10_cfs": 575.79,
    "flow_score": 45.0517,
    "flow_velocity_ms": 0.1564,
    "generation_score": 5.1881,
    "impact_score": 57.6812,
    "impervious_pct": 1.88,
    "land_ownership": 0.5,
    "lat": 35.3556,
    "litter_complaint_density": 0.0,
    "lon": -81.8272,
    "navigable_dist_m": null,
    "npdes_points": 0,
    "pixel_col": 923.0,
    "pixel_row": 297.0,
    "population_density": 59.5,
    "position_along": 0.1667,
    "protected_area_score": 3.8073,
    "rank": 24,
    "road_access_m": 56.3,
    "road_access_score": 1.0,
    "road_density_km_km2": 1.851,
    "robustness_pct": 1.0,
    "runoff_coeff_C": 0.0669,
    "seasonal_cv": 0.4362,
    "segment_id": 7,
    "segment_length_m": 4877.9381,
    "stream_order": 3,
    "superfund_score": 0.002,
    "tourism_amenity_density": 0.9549,
    "tri_facility_density": 0.0,
    "usgs_mean_q_cfs": 16.338,
    "velocity_feasibility": 0.7,
    "water_intake_score": 1.2541
   },
   "type": "Feature"
  },
  {
   "geometry": {
    "coordinates": [
     -81.830384,
     35.320856
    ],
    "type": "Point"
   },
   "properties": {
    "accumulation": 66815.0,
    "bank_slope_deg": 12.36,
    "bank_slope_score": 1.0,
    "bank_slope_source": "nc-dps-lidar-dem03-cross-section",
    "beach_dist_km": 389.16,
    "bridge_proximity_bonus": 0.0,
    "catchment_area_km2": 6.6653,
    "channel_width_m": 6.86,
    "channel_width_score": 1.0,
    "composite_score": 38.5845,
    "cso_density": 0.0,
    "ej_index": 0.6378,
    "elevation_m": 240.4081,
    "estuary_dist_km": 526.1,
    "feasibility_score": 42.4107,
    "flood_q10_cfs": 955.27,
    "flow_score": 33.3262,
    "flow_velocity_ms": 0.1309,
    "generation_score": 36.885,
    "impact_score": 42.7527,
    "impervious_pct": 11.82,
    "land_ownership": 0.5,
    "lat": 35.3209,
    "litter_complaint_density": 0.0,
    "lon": -81.8304,
    "navigable_dist_m": null,
    "npdes_points": 0,
    "pixel_col": 894.0,
    "pixel_row": 680.0,
    "population_density": 140.4,
    "position_along": 0.5,
    "protected_area_score": 2.7998,
    "rank": 25,
    "road_access_m": 228.3,
    "road_access_score": 0.8,
    "road_density_km_km2": 2.718,
    "robustness_pct": 0.0,
    "runoff_coeff_C": 0.1564,
    "seasonal_cv": 0.4758,
    "segment_id": 24,
    "segment_length_m": 675.1589,
    "stream_order": 3,
    "superfund_score": 0.0013,
    "tourism_amenity_density": 0.1592,
    "tri_facility_density": 0.15,
    "usgs_mean_q_cfs": 4.187,
    "velocity_feasibility": 0.7,
    "water_intake_score": 1.066
   },
   "type": "Feature"
  },
  {
   "geometry": {
    "coordinates": [
     -81.905606,
     35.377972
    ],
    "type": "Point"
   },
   "properties": {
    "accumulation": 37140.0,
    "bank_slope_deg": 4.5,
    "bank_slope_score": 1.0,
    "bank_slope_source": "nc-dps-lidar-dem03-cross-section",
    "beach_dist_km": 397.58,
    "bridge_proximity_bonus": 0.0,
    "catchment_area_km2": 3.705,
    "channel_width_m": 5.37,
    "channel_width_score": 1.0,
    "composite_score": 36.8315,
    "cso_density": 0.0,
    "ej_index": 0.7413,
    "elevation_m": 257.8909,
    "estuary_dist_km": 533.13,
    "feasibility_score": 28.125,
    "flood_q10_cfs": 588.32,
    "flow_score": 43.4521,
    "flow_velocity_ms": 0.044,
    "generation_score": 18.8778,
    "impact_score": 53.6211,
    "impervious_pct": 9.41,
    "land_ownership": 0.5,
    "lat": 35.378,
    "litter_complaint_density": 0.0,
    "lon": -81.9056,
    "navigable_dist_m": null,
    "npdes_points": 0,
    "pixel_col": 215.0,
    "pixel_row": 40.0,
    "population_density": 148.0,
    "position_along": 0.75,
    "protected_area_score": 3.7434,
    "rank": 26,
    "road_access_m": 323.0,
    "road_access_score": 0.8,
    "road_density_km_km2": 0.64,
    "robustness_pct": 0.0,
    "runoff_coeff_C": 0.1347,
    "seasonal_cv": 0.4292,
    "segment_id": 0,
    "segment_length_m": 3436.0159,
    "stream_order": 3,
    "superfund_score": 0.0089,
    "tourism_amenity_density": 0.0796,
    "tri_facility_density": 0.0,
    "usgs_mean_q_cfs": 15.864,
    "velocity_feasibility": 0.3,
    "water_intake_score": 1.2931
   },
   "type": "Feature"
  },
  {
   "geometry": {
    "coordinates": [
     -81.886776,
     35.301786
    ],
    "type": "Point"
   },
   "properties": {
    "accumulation": 128873.0,
    "bank_slope_deg": 9.83,
    "bank_slope_score": 1.0,
    "bank_slope_source": "nc-dps-lidar-dem03-cross-section",
    "beach_dist_km": 393.43,
    "bridge_proximity_bonus": 0.0,
    "catchment_area_km2": 12.856,
    "channel_width_m": 9.0,
    "channel_width_score": 1.0,
    "composite_score": 36.3506,
    "cso_density": 0.0,
    "ej_index": 0.5563,
    "elevation_m": 259.1316,
    "estuary_dist_km": 531.16,
    "feasibility_score": 58.0357,
    "flood_q10_cfs": 1274.19,
    "flow_score": 54.6658,
    "flow_velocity_ms": 0.1665,
    "generation_score": 18.52,
    "impact_score": 28.076,
    "impervious_pct": 5.83,
    "land_ownership": 0.5,
    "lat": 35.3018,
    "litter_complaint_density": 0.0,
    "lon": -81.8868,
    "navigable_dist_m": null,
    "npdes_points": 0,
    "pixel_col": 378.0,
    "pixel_row": 890.0,
    "population_density": 131.7,
    "position_along": 0.5,
    "protected_area_score": 2.9509,
    "rank": 27,
    "road_access_m": 145.0,
    "road_access_score": 1.0,
    "road_density_km_km2": 3.528,
    "robustness_pct": 0.0,
    "runoff_coeff_C": 0.1025,
    "seasonal_cv": 0.4547,
    "segment_id": 22,
    "segment_length_m": 2374.7578,
    "stream_order": 3,
    "superfund_score": 0.0013,
    "tourism_amenity_density": 0.0,
    "tri_facility_density": 0.0,
    "usgs_mean_q_cfs": 16.294,
    "velocity_feasibility": 0.7,
    "water_intake_score": 1.0551
   },
   "type": "Feature"
  },
  {
   "geometry": {
    "coordinates": [
     -81.850256,
     35.369195
    ],
    "type": "Point"
   },
   "properties": {
    "accumulation": 36409.0,
    "bank_slope_deg": 28.74,
    "bank_slope_score": 0.5,
    "bank_slope_source": "nc-dps-lidar-dem03-cross-section",
    "beach_dist_km": 392.51,
    "bridge_proximity_bonus": 0.0,
    "catchment_area_km2": 3.6321,
    "channel_width_m": 5.33,
    "channel_width_score": 1.0,
    "composite_score": 34.562,
    "cso_density": 0.0,
    "ej_index": 0.3649,
    "elevation_m": 246.7941,
    "estuary_dist_km": 528.08,
    "feasibility_score": 45.3125,
    "flood_q10_cfs": 491.58,
    "flow_score": 41.8203,
    "flow_velocity_ms": 0.5,
    "generation_score": 1.595,
    "impact_score": 56.1052,
    "impervious_pct": null,
    "land_ownership": 0.5,
    "lat": 35.3692,
    "litter_complaint_density": 0.0,
    "lon": -81.8503,
    "navigable_dist_m": null,
    "npdes_points": 0,
    "pixel_col": 714.0,
    "pixel_row": 143.0,
    "population_density": 59.8,
    "position_along": 0.5,
    "protected_area_score": 3.4891,
    "rank": 28,
    "road_access_m": 450.6,
    "road_access_score": 0.8,
    "road_density_km_km2": 1.423,
    "robustness_pct": 0.0,
    "runoff_coeff_C": null,
    "seasonal_cv": null,
    "segment_id": 2,
    "segment_length_m": 917.291,
    "stream_order": 3,
    "superfund_score": 0.0034,
    "tourism_amenity_density": 0.6366,
    "tri_facility_density": 0.0,
    "usgs_mean_q_cfs": null,
    "velocity_feasibility": 1.0,
    "water_intake_score": 1.4317
   },
   "type": "Feature"
  },
  {
   "geometry": {
    "coordinates": [
     -81.832501,
     35.343704
    ],
    "type": "Point"
   },
   "properties": {
    "accumulation": 62410.0,
    "bank_slope_deg": 19.5,
    "bank_slope_score": 0.5,
    "bank_slope_source": "nc-dps-lidar-dem03-cross-section",
    "beach_dist_km": 390.11,
    "bridge_proximity_bonus": 0.0,
    "catchment_area_km2": 6.2259,
    "channel_width_m": 6.66,
    "channel_width_score": 1.0,
    "composite_score": 34.4922,
    "cso_density": 0.0,
    "ej_index": 0.4971,
    "elevation_m": 245.1581,
    "estuary_dist_km": 526.37,
    "feasibility_score": 34.5982,
    "flood_q10_cfs": 762.54,
    "flow_score": 46.4523,
    "flow_velocity_ms": 0.1262,
    "generation_score": 7.1393,
    "impact_score": 51.8253,
    "impervious_pct": 1.88,
    "land_ownership": 0.5,
    "lat": 35.3437,
    "litter_complaint_density": 0.0,
    "lon": -81.8325,
    "navigable_dist_m": null,
    "npdes_points": 0,
    "pixel_col": 875.0,
    "pixel_row": 429.0,
    "population_density": 74.9,
    "position_along": 0.5,
    "protected_area_score": 3.185,
    "rank": 29,
    "road_access_m": 209.2,
    "road_access_score": 0.8,
    "road_density_km_km2": 2.377,
    "robustness_pct": 0.0,
    "runoff_coeff_C": 0.0669,
    "seasonal_cv": 0.4362,
    "segment_id": 7,
    "segment_length_m": 4877.9381,
    "stream_order": 3,
    "superfund_score": 0.0018,
    "tourism_amenity_density": 1.0345,
    "tri_facility_density": 0.0,
    "usgs_mean_q_cfs": 16.338,
    "velocity_feasibility": 0.7,
    "water_intake_score": 1.2114
   },
   "type": "Feature"
  },
  {
   "geometry": {
    "coordinates": [
     -81.85564,
     35.364046
    ],
    "type": "Point"
   },
   "properties": {
    "accumulation": 67912.0,
    "bank_slope_deg": 32.37,
    "bank_slope_score": 0.2,
    "bank_slope_source": "nc-dps-lidar-dem03-cross-section",
    "beach_dist_km": 392.79,
    "bridge_proximity_bonus": 0.0,
    "catchment_area_km2": 6.7747,
    "channel_width_m": 6.9,
    "channel_width_score": 1.0,
    "composite_score": 34.4848,
    "cso_density": 0.0,
    "ej_index": 0.5157,
    "elevation_m": 244.8404,
    "estuary_dist_km": 528.55,
    "feasibility_score": 25.0,
    "flood_q10_cfs": 786.36,
    "flow_score": 45.3358,
    "flow_velocity_ms": 0.5,
    "generation_score": 5.0192,
    "impact_score": 59.6504,
    "impervious_pct": null,
    "land_ownership": 0.5,
    "lat": 35.364,
    "litter_complaint_density": 0.0,
    "lon": -81.8556,
    "navigable_dist_m": null,
    "npdes_points": 0,
    "pixel_col": 667.0,
    "pixel_row": 201.0,
    "population_density": 119.1,
    "position_along": 0.5,
    "protected_area_score": 3.574,
    "rank": 30,
    "road_access_m": 730.0,
    "road_access_score": 0.6,
    "road_density_km_km2": 1.419,
    "robustness_pct": 0.0,
    "runoff_coeff_C": null,
    "seasonal_cv": null,
    "segment_id": 3,
    "segment_length_m": 1032.7141,
    "stream_order": 3,
    "superfund_score": 0.0033,
    "tourism_amenity_density": 0.7162,
    "tri_facility_density": 0.0,
    "usgs_mean_q_cfs": null,
    "velocity_feasibility": 1.0,
    "water_intake_score": 1.4094
   },
   "type": "Feature"
  },
  {
   "geometry": {
    "coordinates": [
     -81.878917,
     35.291618
    ],
    "type": "Point"
   },
   "properties": {
    "accumulation": 176416.0,
    "bank_slope_deg": 15.85,
    "bank_slope_score": 0.5,
    "bank_slope_source": "nc-dps-lidar-dem03-cross-section",
    "beach_dist_km": 392.42,
    "bridge_proximity_bonus": 0.0,
    "catchment_area_km2": 17.5988,
    "channel_width_m": 10.26,
    "channel_width_score": 1.0,
    "composite_score": 33.5648,
    "cso_density": 0.0,
    "ej_index": 0.5462,
    "elevation_m": 248.7248,
    "estuary_dist_km": 530.42,
    "feasibility_score": 50.2232,
    "flood_q10_cfs": 1516.26,
    "flow_score": 57.5108,
    "flow_velocity_ms": 0.1294,
    "generation_score": 14.4185,
    "impact_score": 24.427,
    "impervious_pct": 5.83,
    "land_ownership": 0.5,
    "lat": 35.2916,
    "litter_complaint_density": 0.0,
    "lon": -81.8789,
    "navigable_dist_m": null,
    "npdes_points": 0,
    "pixel_col": 450.0,
    "pixel_row": 1004.0,
    "population_density": 121.2,
    "position_along": 0.5,
    "protected_area_score": 2.7909,
    "rank": 31,
    "road_access_m": 177.3,
    "road_access_score": 1.0,
    "road_density_km_km2": 1.794,
    "robustness_pct": 0.0,
    "runoff_coeff_C": 0.1025,
    "seasonal_cv": 0.4547,
    "segment_id": 28,
    "segment_length_m": 1164.9797,
    "stream_order": 3,
    "superfund_score": 0.0011,
    "tourism_amenity_density": 0.0,
    "tri_facility_density": 0.0,
    "usgs_mean_q_cfs": 16.294,
    "velocity_feasibility": 0.7,
    "water_intake_score": 0.9747
   },
   "type": "Feature"
  },
  {
   "geometry": {
    "coordinates": [
     -81.855033,
     35.369606
    ],
    "type": "Point"
   },
   "properties": {
    "accumulation": 21486.0,
    "bank_slope_deg": 33.26,
    "bank_slope_score": 0.2,
    "bank_slope_source": "nc-dps-lidar-dem03-cross-section",
    "beach_dist_km": 392.93,
    "bridge_proximity_bonus": 0.0,
    "catchment_area_km2": 2.1434,
    "channel_width_m": 4.28,
    "channel_width_score": 1.0,
    "composite_score": 32.2825,
    "cso_density": 0.0,
    "ej_index": 0.2763,
    "elevation_m": 245.6184,
    "estuary_dist_km": 528.52,
    "feasibility_score": 40.625,
    "flood_q10_cfs": 330.35,
    "flow_score": 40.0,
    "flow_velocity_ms": 0.5,
    "generation_score": 1.8167,
    "impact_score": 52.1458,
    "impervious_pct": null,
    "land_ownership": 0.5,
    "lat": 35.3696,
    "litter_complaint_density": 0.0,
    "lon": -81.855,
    "navigable_dist_m": null,
    "npdes_points": 0,
    "pixel_col": 674.0,
    "pixel_row": 140.0,
    "population_density": 73.1,
    "position_along": 0.5,
    "protected_area_score": 3.4956,
    "rank": 32,
    "road_access_m": 398.3,
    "road_access_score": 0.8,
    "road_density_km_km2": 1.151,
    "robustness_pct": 0.0,
    "runoff_coeff_C": null,
    "seasonal_cv": null,
    "segment_id": 1,
    "segment_length_m": 570.1394,
    "stream_order": 3,
    "superfund_score": 0.0037,
    "tourism_amenity_density": 0.2387,
    "tri_facility_density": 0.0,
    "usgs_mean_q_cfs": null,
    "velocity_feasibility": 1.0,
    "water_intake_score": 1.4513
   },
   "type": "Feature"
  },
  {
   "geometry": {
    "coordinates": [
     -81.900595,
     35.314964
    ],
    "type": "Point"
   },
   "properties": {
    "accumulation": 31610.0,
    "bank_slope_deg": 4.16,
    "bank_slope_score": 1.0,
    "bank_slope_source": "nc-dps-lidar-dem03-cross-section",
    "beach_dist_km": 395.05,
    "bridge_proximity_bonus": 0.0,
    "catchment_area_km2": 3.1533,
    "channel_width_m": 5.03,
    "channel_width_score": 1.0,
    "composite_score": 31.3217,
    "cso_density": 0.0,
    "ej_index": 0.6581,
    "elevation_m": 281.2334,
    "estuary_dist_km": 532.45,
    "feasibility_score": 58.0357,
    "flood_q10_cfs": 486.99,
    "flow_score": 24.4318,
    "flow_velocity_ms": 0.0992,
    "generation_score": 19.3101,
    "impact_score": 35.7179,
    "impervious_pct": 5.55,
    "land_ownership": 0.5,
    "lat": 35.315,
    "litter_complaint_density": 0.0,
    "lon": -81.9006,
    "navigable_dist_m": null,
    "npdes_points": 0,
    "pixel_col": 255.0,
    "pixel_row": 743.0,
    "population_density": 135.4,
    "position_along": 0.5,
    "protected_area_score": 3.202,
    "rank": 33,
    "road_access_m": 149.7,
    "road_access_score": 1.0,
    "road_density_km_km2": 4.017,
    "robustness_pct": 0.0,
    "runoff_coeff_C": 0.0999,
    "seasonal_cv": 0.502,
    "segment_id": 19,
    "segment_length_m": 2030.7395,
    "stream_order": 3,
    "superfund_score": 0.0017,
    "tourism_amenity_density": 0.2387,
    "tri_facility_density": 0.0,
    "usgs_mean_q_cfs": 3.242,
    "velocity_feasibility": 0.7,
    "water_intake_score": 1.1521
   },
   "type": "Feature"
  },
  {
   "geometry": {
    "coordinates": [
     -81.822698,
     35.302473
    ],
    "type": "Point"
   },
   "properties": {
    "accumulation": 34476.0,
    "bank_slope_deg": 13.23,
    "bank_slope_score": 1.0,
    "bank_slope_source": "nc-dps-lidar-dem03-cross-section",
    "beach_dist_km": 387.89,
    "bridge_proximity_bonus": 0.0,
    "catchment_area_km2": 3.4392,
    "channel_width_m": 5.21,
    "channel_width_score": 1.0,
    "composite_score": 30.595,
    "cso_density": 0.0,
    "ej_index": 0.6815,
    "elevation_m": 246.4106,
    "estuary_dist_km": 525.35,
    "feasibility_score": 68.75,
    "flood_q10_cfs": 471.78,
    "flow_score": 27.5923,
    "flow_velocity_ms": 0.5,
    "generation_score": 6.197,
    "impact_score": 38.4178,
    "impervious_pct": null,
    "land_ownership": 0.5,
    "lat": 35.3025,
    "litter_complaint_density": 0.0,
    "lon": -81.8227,
    "navigable_dist_m": null,
    "npdes_points": 0,
    "pixel_col": 962.0,
    "pixel_row": 886.0,
    "population_density": 110.0,
    "position_along": 0.5,
    "protected_area_score": 2.529,
    "rank": 34,
    "road_access_m": 59.2,
    "road_access_score": 1.0,
    "road_density_km_km2": 2.265,
    "robustness_pct": 0.0,
    "runoff_coeff_C": null,
    "seasonal_cv": null,
    "segment_id": 26,
    "segment_length_m": 2263.8875,
    "stream_order": 1,
    "superfund_score": 0.001,
    "tourism_amenity_density": 0.1592,
    "tri_facility_density": 0.0,
    "usgs_mean_q_cfs": null,
    "velocity_feasibility": 1.0,
    "water_intake_score": 0.9596
   },
   "type": "Feature"
  },
  {
   "geometry": {
    "coordinates": [
     -81.913394,
     35.307758
    ],
    "type": "Point"
   },
   "properties": {
    "accumulation": 29532.0,
    "bank_slope_deg": 2.37,
    "bank_slope_score": 1.0,
    "bank_slope_source": "nc-dps-lidar-dem03-cross-section",
    "beach_dist_km": 395.93,
    "bridge_proximity_bonus": 0.0,
    "catchment_area_km2": 2.946,
    "channel_width_m": 4.89,
    "channel_width_score": 1.0,
    "composite_score": 30.0511,
    "cso_density": 0.0,
    "ej_index": 0.655,
    "elevation_m": 284.6751,
    "estuary_dist_km": 533.59,
    "feasibility_score": 42.4107,
    "flood_q10_cfs": 474.05,
    "flow_score": 30.2083,
    "flow_velocity_ms": 0.0995,
    "generation_score": 21.994,
    "impact_score": 31.7975,
    "impervious_pct": 6.94,
    "land_ownership": 0.5,
    "lat": 35.3078,
    "litter_complaint_density": 0.0,
    "lon": -81.9134,
    "navigable_dist_m": null,
    "npdes_points": 0,
    "pixel_col": 134.0,
    "pixel_row": 822.0,
    "population_density": 130.2,
    "position_along": 0.25,
    "protected_area_score": 3.2418,
    "rank": 35,
    "road_access_m": 306.7,
    "road_access_score": 0.8,
    "road_density_km_km2": 4.49,
    "robustness_pct": 0.0,
    "runoff_coeff_C": 0.1125,
    "seasonal_cv": 0.4716,
    "segment_id": 21,
    "segment_length_m": 3700.2531,
    "stream_order": 3,
    "superfund_score": 0.0015,
    "tourism_amenity_density": 0.0796,
    "tri_facility_density": 0.0,
    "usgs_mean_q_cfs": 7.009,
    "velocity_feasibility": 0.7,
    "water_intake_score": 1.1367
   },
   "type": "Feature"
  },
  {
   "geometry": {
    "coordinates": [
     -81.888551,
     35.294022
    ],
    "type": "Point"
   },
   "properties": {
    "accumulation": 25716.0,
    "bank_slope_deg": 10.94,
    "bank_slope_score": 1.0,
    "bank_slope_source": "nc-dps-lidar-dem03-cross-section",
    "beach_dist_km": 393.33,
    "bridge_proximity_bonus": 0.0,
    "catchment_area_km2": 2.5654,
    "channel_width_m": 4.61,
    "channel_width_score": 1.0,
    "composite_score": 29.5687,
    "cso_density": 0.0,
    "ej_index": 0.4884,
    "elevation_m": 257.0408,
    "estuary_dist_km": 531.3,
    "feasibility_score": 68.75,
    "flood_q10_cfs": 378.27,
    "flow_score": 40.5319,
    "flow_velocity_ms": 0.5,
    "generation_score": 7.1828,
    "impact_score": 23.228,
    "impervious_pct": null,
    "land_ownership": 0.5,
    "lat": 35.294,
    "litter_complaint_density": 0.0,
    "lon": -81.8886,
    "navigable_dist_m": null,
    "npdes_points": 0,
    "pixel_col": 362.0,
    "pixel_row": 976.0,
    "population_density": 113.7,
    "position_along": 0.5,
    "protected_area_score": 2.911,
    "rank": 36,
    "road_access_m": 122.2,
    "road_access_score": 1.0,
    "road_density_km_km2": 2.648,
    "robustness_pct": 0.0,
    "runoff_coeff_C": null,
    "seasonal_cv": null,
    "segment_id": 27,
    "segment_length_m": 977.2181,
    "stream_order": 3,
    "superfund_score": 0.0012,
    "tourism_amenity_density": 0.0,
    "tri_facility_density": 0.0,
    "usgs_mean_q_cfs": null,
    "velocity_feasibility": 1.0,
    "water_intake_score": 1.0066
   },
   "type": "Feature"
  },
  {
   "geometry": {
    "coordinates": [
     -81.89974,
     35.306161
    ],
    "type": "Point"
   },
   "properties": {
    "accumulation": 62717.0,
    "bank_slope_deg": 15.07,
    "bank_slope_score": 0.5,
    "bank_slope_source": "nc-dps-lidar-dem03-cross-section",
    "beach_dist_km": 394.69,
    "bridge_proximity_bonus": 0.0,
    "catchment_area_km2": 6.2565,
    "channel_width_m": 6.68,
    "channel_width_score": 1.0,
    "composite_score": 29.4046,
    "cso_density": 0.0,
    "ej_index": 0.5812,
    "elevation_m": 270.8068,
    "estuary_dist_km": 532.35,
    "feasibility_score": 34.5982,
    "flood_q10_cfs": 836.22,
    "flow_score": 34.6909,
    "flow_velocity_ms": 0.1165,
    "generation_score": 20.2812,
    "impact_score": 31.5259,
    "impervious_pct": 6.94,
    "land_ownership": 0.5,
    "lat": 35.3062,
    "litter_complaint_density": 0.0,
    "lon": -81.8997,
    "navigable_dist_m": null,
    "npdes_points": 0,
    "pixel_col": 262.0,
    "pixel_row": 838.0,
    "population_density": 124.8,
    "position_along": 0.75,
    "protected_area_score": 3.2469,
    "rank": 37,
    "road_access_m": 438.2,
    "road_access_score": 0.8,
    "road_density_km_km2": 3.795,
    "robustness_pct": 0.0,
    "runoff_coeff_C": 0.1125,
    "seasonal_cv": 0.4716,
    "segment_id": 21,
    "segment_length_m": 3700.2531,
    "stream_order": 3,
    "superfund_score": 0.0014,
    "tourism_amenity_density": 0.0796,
    "tri_facility_density": 0.0,
    "usgs_mean_q_cfs": 7.009,
    "velocity_feasibility": 0.7,
    "water_intake_score": 1.1037
   },
   "type": "Feature"
  }
 ],
 "note": "GRIME region 'Forest City, NC' \u2014 real-data pipeline (DEM\u2192streams\u2192candidates\u2192stream mask (sites confined to \u00b1150 m of mapped OSM/NHD waterways)\u2192region-appropriate real parameters\u2192shipped scoring, math unchanged). Width curve: Bieger et al. 2015 JAWRA Table 3, Appalachian Highlands. Flood: SIR 2014-5030 HR1. NC Piedmont (DEQ physiography polygon); merged nearby towns: Bostic",
 "provenance": {
  "candidates_pre_gate": 37,
  "constant": [
   "channel_width_score",
   "cso_density",
   "litter_complaint_density",
   "npdes_points"
  ],
  "gated_navigable": 0,
  "hard_gate_removed": 0,
  "n_parameters": 27,
  "parameters": {
   "bank_slope_score": {
    "kind": "real",
    "n_3dep_10m_fallback": 0,
    "n_nc_lidar_3_125ft": 37,
    "n_real": 37,
    "n_sites": 37,
    "source": "NC OneMap / NC DPS DEM03 statewide lidar-derived 3.125-ft (0.953 m) elevations (perpendicular 50 m transect; robust 5 m bank-rise metric); unavailable profiles use the region 10 m 3DEP DEM-gradient fallback",
    "source_mosaics": [
     "Rutherford_QL1_2025_03ft_CountywideRaster"
    ]
   },
   "beach_dist_km": {
    "kind": "real",
    "n_real": 37,
    "n_sites": 37,
    "source": "haversine to region ref: Wrightsville Beach (shipped NC reference)"
   },
   "bridge_proximity_bonus": {
    "kind": "real",
    "n_real": 37,
    "n_sites": 37,
    "source": "FHWA/BTS NBI (NTAD), 50 m proximity"
   },
   "catchment_area_km2": {
    "kind": "real",
    "n_real": 37,
    "n_sites": 37,
    "source": "DEM flow accumulation (pipeline)"
   },
   "channel_width_score": {
    "kind": "real",
    "n_real": 37,
    "n_sites": 37,
    "source": "Bieger 2015 AHI width curve on DEM drainage area \u2192 shipped width curve"
   },
   "cso_density": {
    "kind": "real",
    "n_real": 37,
    "n_sites": 37,
    "source": "EPA ECHO open CSO/TCS outfall PF coordinates states=NC, Cauchy proximity"
   },
   "ej_index": {
    "kind": "real",
    "n_real": 37,
    "n_sites": 37,
    "source": "Census ACS C17002+B03002 two-component demographic index, percentile-ranked within region"
   },
   "estuary_dist_km": {
    "kind": "real",
    "n_real": 37,
    "n_sites": 37,
    "source": "haversine to region ref: Pamlico Sound (shipped NC reference)"
   },
   "flood_q10_cfs": {
    "impervious_fallback_reason": "StreamCat imperviousness unavailable; the existing regression-input fallback of 0.0% impervious was used and is disclosed here",
    "kind": "real",
    "n_impervious_fallback": 11,
    "n_real": 37,
    "n_sites": 37,
    "source": "USGS SIR 2014-5030 Table 7 HR1 (NC Piedmont)"
   },
   "flow_velocity_ms": {
    "fallback_reason": "EROM/DEM continuity input unavailable; shipped 0.5 m/s default used",
    "kind": "real",
    "n_fallback": 11,
    "n_real": 26,
    "n_sites": 37,
    "source": "Manning (region DEM/D8) blended with EROM continuity (shipped M4 logic)"
   },
   "impervious_pct": {
    "fallback_reason": "NLDI/StreamCat did not return a snap-compatible catchment value; value remains null and is removed by constant-column handling",
    "kind": "real",
    "n_fallback": 11,
    "n_real": 26,
    "n_sites": 37,
    "source": "EPA StreamCat pctimp2019 (per NHDPlus watershed)"
   },
   "land_ownership": {
    "fallback_reason": "no containing parcel owner returned; shipped unknown ownership 0.5 used",
    "kind": "real",
    "n_fallback": 2,
    "n_real": 35,
    "n_sites": 37,
    "source": "NC OneMap statewide parcels (NC Parcels Transformer) ownname"
   },
   "litter_complaint_density": {
    "kind": "fallback",
    "n_real": 0,
    "n_sites": 37,
    "source": "no public machine-readable litter/illegal-dumping feed for this region"
   },
   "navigable_dist_m": {
    "kind": "real",
    "n_real": 37,
    "n_sites": 37,
    "source": "USACE/BTS NWN (NTAD): no navigable segment within this bbox (+2 km) \u2014 computed absence, gate passes all sites"
   },
   "npdes_points": {
    "kind": "real",
    "n_real": 37,
    "n_sites": 37,
    "source": "EPA ECHO active NPDES outfalls states=NC (types NPD/GPC/NGP; statuses ADC/EFF/EXP), per catchment"
   },
   "population_density": {
    "kind": "real",
    "n_real": 37,
    "n_sites": 37,
    "source": "Census ACS 2022 B01003 block groups (bbox, multi-county), area-weighted"
   },
   "protected_area_score": {
    "kind": "real",
    "n_real": 37,
    "n_sites": 37,
    "source": "USGS PAD-US 4.1 state GDB; states=NC; shipped designation-weighted proximity curve"
   },
   "road_access_score": {
    "kind": "real",
    "n_real": 37,
    "n_sites": 37,
    "source": "OSM drive network nearest-node distance"
   },
   "road_density_km_km2": {
    "kind": "real",
    "n_real": 37,
    "n_sites": 37,
    "source": "OSM drive network (osmnx, cached) clipped per catchment"
   },
   "runoff_coeff_C": {
    "fallback_reason": "source impervious_pct was unavailable; derived value remains null",
    "kind": "real",
    "n_fallback": 11,
    "n_real": 26,
    "n_sites": 37,
    "source": "derived from real impervious_pct (C=0.05+0.009*I)"
   },
   "seasonal_cv": {
    "fallback_reason": "NHDPlus monthly EROM was unavailable or failed the drainage-area snap guard; value remains null",
    "kind": "real",
    "n_fallback": 11,
    "n_real": 26,
    "n_sites": 37,
    "source": "CV of NHDPlus EROM monthly flows per COMID"
   },
   "stream_order": {
    "kind": "real",
    "n_real": 37,
    "n_sites": 37,
    "source": "DEM stream-network confluence heuristic (pipeline)"
   },
   "superfund_score": {
    "kind": "real",
    "n_real": 37,
    "n_sites": 37,
    "source": "EPA DataMap SEMS active sites states=NC (non-archived, georeferenced), shipped 500 m inverse-distance curve"
   },
   "tourism_amenity_density": {
    "kind": "real",
    "n_real": 37,
    "n_sites": 37,
    "source": "OSM leisure/tourism features per 2 km radius"
   },
   "tri_facility_density": {
    "kind": "real",
    "n_real": 37,
    "n_sites": 37,
    "source": "EPA DataMap TRI open facilities states=NC (preferred decimal or packed-DMS recovery), per catchment"
   },
   "usgs_mean_q_cfs": {
    "fallback_reason": "NHDPlus EROM was unavailable or failed the drainage-area snap guard; value remains null",
    "kind": "real",
    "n_fallback": 11,
    "n_real": 26,
    "n_sites": 37,
    "source": "NHDPlus EROM qe_ma per COMID (snap-guarded)"
   },
   "velocity_feasibility": {
    "fallback_reason": "derived from the shipped 0.5 m/s velocity fallback",
    "kind": "real",
    "n_fallback": 11,
    "n_real": 26,
    "n_sites": 37,
    "source": "shipped step curve on the computed velocity"
   },
   "velocity_transport_favorability": {
    "fallback_reason": "EROM/DEM continuity input unavailable; shipped 0.5 m/s default used",
    "kind": "derived",
    "n_fallback": 11,
    "n_real": 26,
    "n_sites": 37,
    "source": "scored form of flow_velocity_ms inside the Flow family \u2014 peaked Gaussian exp(-((v-0.9)/0.6)^2), model.json curves.velocity_transport_favorability; construct: transport/delivery favorability, deliberately distinct from velocity_feasibility (device operability)"
   },
   "water_intake_score": {
    "kind": "real",
    "n_real": 37,
    "n_sites": 37,
    "source": "NC OneMap / NC DEQ SWAP public water supply sources (source_typ='Surface Water'), shipped exp(-d/10km) curve"
   }
  },
  "stream_mask": {
   "buffer_m": 150.0,
   "pre_mask": 38,
   "removed": 1,
   "sources": [
    "osm-overpass (all waterway ways)",
    "usgs-nhdplus flowlines"
   ]
  },
  "varying": [
   "bank_slope_score",
   "beach_dist_km",
   "bridge_proximity_bonus",
   "catchment_area_km2",
   "ej_index",
   "estuary_dist_km",
   "flood_q10_cfs",
   "flow_velocity_ms",
   "impervious_pct",
   "land_ownership",
   "population_density",
   "protected_area_score",
   "road_access_score",
   "road_density_km_km2",
   "runoff_coeff_C",
   "seasonal_cv",
   "stream_order",
   "superfund_score",
   "tourism_amenity_density",
   "tri_facility_density",
   "usgs_mean_q_cfs",
   "velocity_feasibility",
   "water_intake_score"
  ]
 },
 "region": {
  "bbox": [
   -81.9281,
   35.288,
   -81.8134,
   35.3815
  ],
  "beach_ref": {
   "label": "Wrightsville Beach (shipped NC reference)",
   "lat": 34.21,
   "lon": -77.79
  },
  "center": [
   -81.870751,
   35.334708
  ],
  "estuary_ref": {
   "label": "Pamlico Sound (shipped NC reference)",
   "lat": 35.05,
   "lon": -76.05
  },
  "flood_method": "sir2014_hr1",
  "name": "Forest City, NC",
  "notes": "NC Piedmont (DEQ physiography polygon); merged nearby towns: Bostic",
  "slug": "forest-city",
  "state": "NC",
  "utm_epsg": 32617,
  "width_curve": {
   "a": 3.12,
   "b": 0.415,
   "code": "AHI",
   "source": "Bieger et al. 2015 JAWRA Table 3, Appalachian Highlands"
  }
 },
 "type": "FeatureCollection"
}
