{
 "features": [
  {
   "geometry": {
    "coordinates": [
     -83.184734,
     35.299889
    ],
    "type": "Point"
   },
   "properties": {
    "accumulation": 23809.0,
    "bank_slope_deg": 11.44,
    "bank_slope_score": 1.0,
    "bank_slope_source": "nc-dps-lidar-dem03-cross-section",
    "beach_dist_km": 507.46,
    "bridge_proximity_bonus": 0.0,
    "catchment_area_km2": 2.3728,
    "channel_width_m": 4.47,
    "channel_width_score": 1.0,
    "composite_score": 59.0505,
    "cso_density": 0.0,
    "ej_index": 0.7098,
    "elevation_m": 646.3304,
    "estuary_dist_km": 648.93,
    "feasibility_score": 43.75,
    "flood_q10_cfs": null,
    "flow_score": 12.7616,
    "flow_velocity_ms": 0.1842,
    "generation_score": 88.2114,
    "impact_score": 76.114,
    "impervious_pct": 2.94,
    "land_ownership": 0.5,
    "lat": 35.2999,
    "litter_complaint_density": 0.0,
    "lon": -83.1847,
    "navigable_dist_m": null,
    "npdes_points": 0,
    "pixel_col": 305.0,
    "pixel_row": 160.0,
    "population_density": 617.2,
    "position_along": 0.5,
    "protected_area_score": 10.1192,
    "rank": 1,
    "road_access_m": 37.6,
    "road_access_score": 1.0,
    "road_density_km_km2": 7.816,
    "robustness_pct": 100.0,
    "runoff_coeff_C": 0.0765,
    "seasonal_cv": 0.4991,
    "segment_id": 1,
    "segment_length_m": 506.117,
    "stream_order": 3,
    "superfund_score": 0.0034,
    "tourism_amenity_density": 18.8599,
    "tri_facility_density": 0.0,
    "usgs_mean_q_cfs": 1.946,
    "velocity_feasibility": 0.7,
    "water_intake_score": 2.3337
   },
   "type": "Feature"
  },
  {
   "geometry": {
    "coordinates": [
     -83.184781,
     35.30573
    ],
    "type": "Point"
   },
   "properties": {
    "accumulation": 91184.0,
    "bank_slope_deg": 2.94,
    "bank_slope_score": 1.0,
    "bank_slope_source": "nc-dps-lidar-dem03-cross-section",
    "beach_dist_km": 507.6,
    "bridge_proximity_bonus": 0.0,
    "catchment_area_km2": 9.0872,
    "channel_width_m": 7.8,
    "channel_width_score": 1.0,
    "composite_score": 55.7973,
    "cso_density": 0.0,
    "ej_index": 0.6549,
    "elevation_m": 638.087,
    "estuary_dist_km": 648.94,
    "feasibility_score": 62.5,
    "flood_q10_cfs": null,
    "flow_score": 50.5501,
    "flow_velocity_ms": 0.0645,
    "generation_score": 45.4628,
    "impact_score": 67.153,
    "impervious_pct": 1.17,
    "land_ownership": 1.0,
    "lat": 35.3057,
    "litter_complaint_density": 0.0,
    "lon": -83.1848,
    "navigable_dist_m": null,
    "npdes_points": 0,
    "pixel_col": 305.0,
    "pixel_row": 94.0,
    "population_density": 467.1,
    "position_along": 0.5,
    "protected_area_score": 10.0618,
    "rank": 2,
    "road_access_m": 82.2,
    "road_access_score": 1.0,
    "road_density_km_km2": 4.138,
    "robustness_pct": 100.0,
    "runoff_coeff_C": 0.0605,
    "seasonal_cv": 0.425,
    "segment_id": 3,
    "segment_length_m": 1403.6947,
    "stream_order": 3,
    "superfund_score": 0.0038,
    "tourism_amenity_density": 18.8599,
    "tri_facility_density": 0.0,
    "usgs_mean_q_cfs": 49.543,
    "velocity_feasibility": 0.7,
    "water_intake_score": 2.4223
   },
   "type": "Feature"
  },
  {
   "geometry": {
    "coordinates": [
     -83.18284,
     35.29475
    ],
    "type": "Point"
   },
   "properties": {
    "accumulation": 54625.0,
    "bank_slope_deg": 2.37,
    "bank_slope_score": 1.0,
    "bank_slope_source": "nc-dps-lidar-dem03-cross-section",
    "beach_dist_km": 507.17,
    "bridge_proximity_bonus": 0.0,
    "catchment_area_km2": 5.4438,
    "channel_width_m": 6.3,
    "channel_width_score": 1.0,
    "composite_score": 53.3763,
    "cso_density": 0.0,
    "ej_index": 0.703,
    "elevation_m": 645.5262,
    "estuary_dist_km": 648.76,
    "feasibility_score": 62.5,
    "flood_q10_cfs": null,
    "flow_score": 43.491,
    "flow_velocity_ms": 0.1465,
    "generation_score": 42.8713,
    "impact_score": 67.5573,
    "impervious_pct": 0.58,
    "land_ownership": 1.0,
    "lat": 35.2948,
    "litter_complaint_density": 0.0,
    "lon": -83.1828,
    "navigable_dist_m": null,
    "npdes_points": 0,
    "pixel_col": 320.0,
    "pixel_row": 216.0,
    "population_density": 459.6,
    "position_along": 0.75,
    "protected_area_score": 10.0699,
    "rank": 3,
    "road_access_m": 94.1,
    "road_access_score": 1.0,
    "road_density_km_km2": 5.113,
    "robustness_pct": 100.0,
    "runoff_coeff_C": 0.0552,
    "seasonal_cv": 0.4198,
    "segment_id": 2,
    "segment_length_m": 3168.9016,
    "stream_order": 3,
    "superfund_score": 0.003,
    "tourism_amenity_density": 17.9845,
    "tri_facility_density": 0.0,
    "usgs_mean_q_cfs": 47.114,
    "velocity_feasibility": 0.7,
    "water_intake_score": 2.263
   },
   "type": "Feature"
  },
  {
   "geometry": {
    "coordinates": [
     -83.191787,
     35.307209
    ],
    "type": "Point"
   },
   "properties": {
    "accumulation": 30228.0,
    "bank_slope_deg": 13.23,
    "bank_slope_score": 1.0,
    "bank_slope_source": "nc-dps-lidar-dem03-cross-section",
    "beach_dist_km": 508.26,
    "bridge_proximity_bonus": 0.2,
    "catchment_area_km2": 3.0125,
    "channel_width_m": 4.93,
    "channel_width_score": 1.0,
    "composite_score": 48.7939,
    "cso_density": 0.0,
    "ej_index": 0.5316,
    "elevation_m": 642.9039,
    "estuary_dist_km": 649.58,
    "feasibility_score": 56.25,
    "flood_q10_cfs": null,
    "flow_score": 17.5044,
    "flow_velocity_ms": 0.1971,
    "generation_score": 71.3488,
    "impact_score": 48.5855,
    "impervious_pct": 4.1,
    "land_ownership": 0.5,
    "lat": 35.3072,
    "litter_complaint_density": 0.0,
    "lon": -83.1918,
    "navigable_dist_m": null,
    "npdes_points": 0,
    "pixel_col": 243.0,
    "pixel_row": 78.0,
    "population_density": 365.4,
    "position_along": 0.5,
    "protected_area_score": 10.162,
    "rank": 4,
    "road_access_m": 32.8,
    "road_access_score": 1.0,
    "road_density_km_km2": 4.863,
    "robustness_pct": 94.0,
    "runoff_coeff_C": 0.0869,
    "seasonal_cv": 0.4699,
    "segment_id": 0,
    "segment_length_m": 1340.9596,
    "stream_order": 3,
    "superfund_score": 0.0044,
    "tourism_amenity_density": 17.507,
    "tri_facility_density": 0.0,
    "usgs_mean_q_cfs": 3.632,
    "velocity_feasibility": 0.7,
    "water_intake_score": 2.346
   },
   "type": "Feature"
  },
  {
   "geometry": {
    "coordinates": [
     -83.187592,
     35.312275
    ],
    "type": "Point"
   },
   "properties": {
    "accumulation": 136074.0,
    "bank_slope_deg": 19.98,
    "bank_slope_score": 0.5,
    "bank_slope_source": "nc-dps-lidar-dem03-cross-section",
    "beach_dist_km": 508.0,
    "bridge_proximity_bonus": 0.0,
    "catchment_area_km2": 13.5609,
    "channel_width_m": 9.21,
    "channel_width_score": 1.0,
    "composite_score": 48.2771,
    "cso_density": 0.0,
    "ej_index": 0.5867,
    "elevation_m": 633.5735,
    "estuary_dist_km": 649.2,
    "feasibility_score": 18.75,
    "flood_q10_cfs": null,
    "flow_score": 68.3272,
    "flow_velocity_ms": 0.1889,
    "generation_score": 41.3345,
    "impact_score": 53.2748,
    "impervious_pct": 1.89,
    "land_ownership": 1.0,
    "lat": 35.3123,
    "litter_complaint_density": 0.0,
    "lon": -83.1876,
    "navigable_dist_m": null,
    "npdes_points": 0,
    "pixel_col": 281.0,
    "pixel_row": 21.0,
    "population_density": 387.1,
    "position_along": 0.5,
    "protected_area_score": 10.0566,
    "rank": 5,
    "road_access_m": 298.9,
    "road_access_score": 0.8,
    "road_density_km_km2": 2.615,
    "robustness_pct": 96.5,
    "runoff_coeff_C": 0.067,
    "seasonal_cv": 0.4342,
    "segment_id": 4,
    "segment_length_m": 364.2282,
    "stream_order": 3,
    "superfund_score": 0.0045,
    "tourism_amenity_density": 16.3134,
    "tri_facility_density": 0.0,
    "usgs_mean_q_cfs": 54.684,
    "velocity_feasibility": 0.7,
    "water_intake_score": 2.4466
   },
   "type": "Feature"
  },
  {
   "geometry": {
    "coordinates": [
     -83.185826,
     35.284157
    ],
    "type": "Point"
   },
   "properties": {
    "accumulation": 35122.0,
    "bank_slope_deg": 1.98,
    "bank_slope_score": 1.0,
    "bank_slope_source": "nc-dps-lidar-dem03-cross-section",
    "beach_dist_km": 507.18,
    "bridge_proximity_bonus": 0.0,
    "catchment_area_km2": 3.5002,
    "channel_width_m": 5.25,
    "channel_width_score": 1.0,
    "composite_score": 32.9503,
    "cso_density": 0.0,
    "ej_index": 0.6667,
    "elevation_m": 653.1658,
    "estuary_dist_km": 649.02,
    "feasibility_score": 68.75,
    "flood_q10_cfs": null,
    "flow_score": 38.6303,
    "flow_velocity_ms": 0.5,
    "generation_score": 2.0068,
    "impact_score": 41.2605,
    "impervious_pct": null,
    "land_ownership": 0.5,
    "lat": 35.2842,
    "litter_complaint_density": 0.0,
    "lon": -83.1858,
    "navigable_dist_m": null,
    "npdes_points": 0,
    "pixel_col": 292.0,
    "pixel_row": 334.0,
    "population_density": 55.9,
    "position_along": 0.25,
    "protected_area_score": 10.0972,
    "rank": 6,
    "road_access_m": 166.9,
    "road_access_score": 1.0,
    "road_density_km_km2": 3.116,
    "robustness_pct": 9.5,
    "runoff_coeff_C": null,
    "seasonal_cv": null,
    "segment_id": 2,
    "segment_length_m": 3168.9016,
    "stream_order": 3,
    "superfund_score": 0.0025,
    "tourism_amenity_density": 3.3423,
    "tri_facility_density": 0.0,
    "usgs_mean_q_cfs": null,
    "velocity_feasibility": 1.0,
    "water_intake_score": 2.0863
   },
   "type": "Feature"
  }
 ],
 "note": "GRIME region 'Forest Hills, NC' \u2014 real-data pipeline (DEM\u2192streams\u2192candidates\u2192stream mask (sites confined to \u00b1150 m of mapped OSM/NHD waterways)\u2192region-appropriate real parameters\u2192shipped scoring, math unchanged). Width curve: Bieger et al. 2015 JAWRA Table 3, Appalachian Highlands. Flood: not applicable here (documented fallback). NC Blue Ridge (outside SIR 2014-5030 urban coverage)",
 "provenance": {
  "candidates_pre_gate": 6,
  "constant": [
   "channel_width_score",
   "cso_density",
   "flood_q10_cfs",
   "litter_complaint_density",
   "npdes_points",
   "stream_order",
   "tri_facility_density"
  ],
  "gated_navigable": 0,
  "hard_gate_removed": 0,
  "n_parameters": 27,
  "parameters": {
   "bank_slope_score": {
    "kind": "real",
    "n_3dep_10m_fallback": 0,
    "n_nc_lidar_3_125ft": 6,
    "n_real": 6,
    "n_sites": 6,
    "source": "NC OneMap / NC DPS DEM03 statewide lidar-derived 3.125-ft (0.953 m) elevations (perpendicular 50 m transect; robust 5 m bank-rise metric); unavailable profiles use the region 10 m 3DEP DEM-gradient fallback",
    "source_mosaics": [
     "Jackson_QL1_2025_03ft_CountywideRaster"
    ]
   },
   "beach_dist_km": {
    "kind": "real",
    "n_real": 6,
    "n_sites": 6,
    "source": "haversine to region ref: Wrightsville Beach (shipped NC reference)"
   },
   "bridge_proximity_bonus": {
    "kind": "real",
    "n_real": 6,
    "n_sites": 6,
    "source": "FHWA/BTS NBI (NTAD), 50 m proximity"
   },
   "catchment_area_km2": {
    "kind": "real",
    "n_real": 6,
    "n_sites": 6,
    "source": "DEM flow accumulation (pipeline)"
   },
   "channel_width_score": {
    "kind": "real",
    "n_real": 6,
    "n_sites": 6,
    "source": "Bieger 2015 AHI width curve on DEM drainage area \u2192 shipped width curve"
   },
   "cso_density": {
    "kind": "real",
    "n_real": 6,
    "n_sites": 6,
    "source": "EPA ECHO open CSO/TCS outfall PF coordinates states=NC, Cauchy proximity"
   },
   "ej_index": {
    "kind": "real",
    "n_real": 6,
    "n_sites": 6,
    "source": "Census ACS C17002+B03002 two-component demographic index, percentile-ranked within region"
   },
   "estuary_dist_km": {
    "kind": "real",
    "n_real": 6,
    "n_sites": 6,
    "source": "haversine to region ref: Pamlico Sound (shipped NC reference)"
   },
   "flood_q10_cfs": {
    "impervious_fallback_reason": "StreamCat imperviousness unavailable; the existing regression-input fallback of 0.0% impervious was used and is disclosed here",
    "kind": "fallback",
    "n_impervious_fallback": 1,
    "n_real": 0,
    "n_sites": 6,
    "source": "flood regression not valid here (NC Blue Ridge (outside SIR 2014-5030 urban coverage)...) \u2014 NaN, dropped by constant-column handling"
   },
   "flow_velocity_ms": {
    "fallback_reason": "EROM/DEM continuity input unavailable; shipped 0.5 m/s default used",
    "kind": "real",
    "n_fallback": 1,
    "n_real": 5,
    "n_sites": 6,
    "source": "Manning (region DEM/D8) blended with EROM continuity (shipped M4 logic)"
   },
   "impervious_pct": {
    "fallback_reason": "NLDI/StreamCat did not return a snap-compatible catchment value; value remains null and is removed by constant-column handling",
    "kind": "real",
    "n_fallback": 1,
    "n_real": 5,
    "n_sites": 6,
    "source": "EPA StreamCat pctimp2019 (per NHDPlus watershed)"
   },
   "land_ownership": {
    "kind": "real",
    "n_fallback": 0,
    "n_real": 6,
    "n_sites": 6,
    "source": "NC OneMap statewide parcels (NC Parcels Transformer) ownname"
   },
   "litter_complaint_density": {
    "kind": "fallback",
    "n_real": 0,
    "n_sites": 6,
    "source": "no public machine-readable litter/illegal-dumping feed for this region"
   },
   "navigable_dist_m": {
    "kind": "real",
    "n_real": 6,
    "n_sites": 6,
    "source": "USACE/BTS NWN (NTAD): no navigable segment within this bbox (+2 km) \u2014 computed absence, gate passes all sites"
   },
   "npdes_points": {
    "kind": "real",
    "n_real": 6,
    "n_sites": 6,
    "source": "EPA ECHO active NPDES outfalls states=NC (types NPD/GPC/NGP; statuses ADC/EFF/EXP), per catchment"
   },
   "population_density": {
    "kind": "real",
    "n_real": 6,
    "n_sites": 6,
    "source": "Census ACS 2022 B01003 block groups (bbox, multi-county), area-weighted"
   },
   "protected_area_score": {
    "kind": "real",
    "n_real": 6,
    "n_sites": 6,
    "source": "USGS PAD-US 4.1 state GDB; states=NC; shipped designation-weighted proximity curve"
   },
   "road_access_score": {
    "kind": "real",
    "n_real": 6,
    "n_sites": 6,
    "source": "OSM drive network nearest-node distance"
   },
   "road_density_km_km2": {
    "kind": "real",
    "n_real": 6,
    "n_sites": 6,
    "source": "OSM drive network (osmnx, cached) clipped per catchment"
   },
   "runoff_coeff_C": {
    "fallback_reason": "source impervious_pct was unavailable; derived value remains null",
    "kind": "real",
    "n_fallback": 1,
    "n_real": 5,
    "n_sites": 6,
    "source": "derived from real impervious_pct (C=0.05+0.009*I)"
   },
   "seasonal_cv": {
    "fallback_reason": "NHDPlus monthly EROM was unavailable or failed the drainage-area snap guard; value remains null",
    "kind": "real",
    "n_fallback": 1,
    "n_real": 5,
    "n_sites": 6,
    "source": "CV of NHDPlus EROM monthly flows per COMID"
   },
   "stream_order": {
    "kind": "real",
    "n_real": 6,
    "n_sites": 6,
    "source": "DEM stream-network confluence heuristic (pipeline)"
   },
   "superfund_score": {
    "kind": "real",
    "n_real": 6,
    "n_sites": 6,
    "source": "EPA DataMap SEMS active sites states=NC (non-archived, georeferenced), shipped 500 m inverse-distance curve"
   },
   "tourism_amenity_density": {
    "kind": "real",
    "n_real": 6,
    "n_sites": 6,
    "source": "OSM leisure/tourism features per 2 km radius"
   },
   "tri_facility_density": {
    "kind": "real",
    "n_real": 6,
    "n_sites": 6,
    "source": "EPA DataMap TRI open facilities states=NC (preferred decimal or packed-DMS recovery), per catchment"
   },
   "usgs_mean_q_cfs": {
    "fallback_reason": "NHDPlus EROM was unavailable or failed the drainage-area snap guard; value remains null",
    "kind": "real",
    "n_fallback": 1,
    "n_real": 5,
    "n_sites": 6,
    "source": "NHDPlus EROM qe_ma per COMID (snap-guarded)"
   },
   "velocity_feasibility": {
    "fallback_reason": "derived from the shipped 0.5 m/s velocity fallback",
    "kind": "real",
    "n_fallback": 1,
    "n_real": 5,
    "n_sites": 6,
    "source": "shipped step curve on the computed velocity"
   },
   "velocity_transport_favorability": {
    "fallback_reason": "EROM/DEM continuity input unavailable; shipped 0.5 m/s default used",
    "kind": "derived",
    "n_fallback": 1,
    "n_real": 5,
    "n_sites": 6,
    "source": "scored form of flow_velocity_ms inside the Flow family \u2014 peaked Gaussian exp(-((v-0.9)/0.6)^2), model.json curves.velocity_transport_favorability; construct: transport/delivery favorability, deliberately distinct from velocity_feasibility (device operability)"
   },
   "water_intake_score": {
    "kind": "real",
    "n_real": 6,
    "n_sites": 6,
    "source": "NC OneMap / NC DEQ SWAP public water supply sources (source_typ='Surface Water'), shipped exp(-d/10km) curve"
   }
  },
  "stream_mask": {
   "buffer_m": 150.0,
   "pre_mask": 6,
   "removed": 0,
   "sources": [
    "osm-overpass (all waterway ways)",
    "usgs-nhdplus flowlines"
   ]
  },
  "varying": [
   "bank_slope_score",
   "beach_dist_km",
   "bridge_proximity_bonus",
   "catchment_area_km2",
   "ej_index",
   "estuary_dist_km",
   "flow_velocity_ms",
   "impervious_pct",
   "land_ownership",
   "population_density",
   "protected_area_score",
   "road_access_score",
   "road_density_km_km2",
   "runoff_coeff_C",
   "seasonal_cv",
   "superfund_score",
   "tourism_amenity_density",
   "usgs_mean_q_cfs",
   "velocity_feasibility",
   "water_intake_score"
  ]
 },
 "region": {
  "bbox": [
   -83.2175,
   35.2777,
   -83.1733,
   35.3138
  ],
  "beach_ref": {
   "label": "Wrightsville Beach (shipped NC reference)",
   "lat": 34.21,
   "lon": -77.79
  },
  "center": [
   -83.195423,
   35.295759
  ],
  "estuary_ref": {
   "label": "Pamlico Sound (shipped NC reference)",
   "lat": 35.05,
   "lon": -76.05
  },
  "flood_method": "none",
  "name": "Forest Hills, NC",
  "notes": "NC Blue Ridge (outside SIR 2014-5030 urban coverage)",
  "slug": "forest-hills",
  "state": "NC",
  "utm_epsg": 32617,
  "width_curve": {
   "a": 3.12,
   "b": 0.415,
   "code": "AHI",
   "source": "Bieger et al. 2015 JAWRA Table 3, Appalachian Highlands"
  }
 },
 "type": "FeatureCollection"
}
