{
 "features": [
  {
   "geometry": {
    "coordinates": [
     -79.542594,
     35.137659
    ],
    "type": "Point"
   },
   "properties": {
    "accumulation": 420763.0,
    "bank_slope_deg": 2.04,
    "bank_slope_score": 1.0,
    "bank_slope_source": "nc-dps-lidar-dem03-cross-section",
    "beach_dist_km": 190.59,
    "bridge_proximity_bonus": 0.0,
    "catchment_area_km2": 42.0297,
    "channel_width_m": 8.62,
    "channel_width_score": 1.0,
    "composite_score": 54.4895,
    "cso_density": 0.0,
    "ej_index": 0.4983,
    "elevation_m": 100.9155,
    "estuary_dist_km": 317.89,
    "feasibility_score": 54.7619,
    "flood_q10_cfs": 890.42,
    "flow_score": 67.7045,
    "flow_velocity_ms": 0.1422,
    "generation_score": 10.9438,
    "impact_score": 86.8865,
    "impervious_pct": 2.42,
    "land_ownership": 1.0,
    "lat": 35.1377,
    "litter_complaint_density": 0.0,
    "lon": -79.5426,
    "navigable_dist_m": null,
    "npdes_points": 0,
    "pixel_col": 672.0,
    "pixel_row": 930.0,
    "population_density": 21.8,
    "position_along": 0.5,
    "protected_area_score": 12.3517,
    "rank": 1,
    "road_access_m": 370.6,
    "road_access_score": 0.8,
    "road_density_km_km2": 0.298,
    "robustness_pct": 97.0,
    "runoff_coeff_C": 0.0718,
    "seasonal_cv": 0.4659,
    "segment_id": 16,
    "segment_length_m": 381.2102,
    "stream_order": 3,
    "superfund_score": 0.0,
    "tourism_amenity_density": 0.0796,
    "tri_facility_density": 0.0,
    "usgs_mean_q_cfs": 21.864,
    "velocity_feasibility": 0.7,
    "water_intake_score": 0.8239
   },
   "type": "Feature"
  },
  {
   "geometry": {
    "coordinates": [
     -79.5444,
     35.147127
    ],
    "type": "Point"
   },
   "properties": {
    "accumulation": 362862.0,
    "bank_slope_deg": 7.07,
    "bank_slope_score": 1.0,
    "bank_slope_source": "nc-dps-lidar-dem03-cross-section",
    "beach_dist_km": 191.29,
    "bridge_proximity_bonus": 0.0,
    "catchment_area_km2": 36.246,
    "channel_width_m": 8.17,
    "channel_width_score": 1.0,
    "composite_score": 49.4385,
    "cso_density": 0.0,
    "ej_index": 0.5023,
    "elevation_m": 103.1865,
    "estuary_dist_km": 318.07,
    "feasibility_score": 29.7619,
    "flood_q10_cfs": 820.58,
    "flow_score": 63.525,
    "flow_velocity_ms": 0.2275,
    "generation_score": 16.5191,
    "impact_score": 80.4575,
    "impervious_pct": 2.73,
    "land_ownership": 0.5,
    "lat": 35.1471,
    "litter_complaint_density": 0.0,
    "lon": -79.5444,
    "navigable_dist_m": null,
    "npdes_points": 1,
    "pixel_col": 654.0,
    "pixel_row": 825.0,
    "population_density": 22.8,
    "position_along": 0.5,
    "protected_area_score": 12.1315,
    "rank": 2,
    "road_access_m": 452.6,
    "road_access_score": 0.8,
    "road_density_km_km2": 0.6,
    "robustness_pct": 91.5,
    "runoff_coeff_C": 0.0746,
    "seasonal_cv": 0.464,
    "segment_id": 14,
    "segment_length_m": 2110.7904,
    "stream_order": 3,
    "superfund_score": 0.0,
    "tourism_amenity_density": 0.0796,
    "tri_facility_density": 0.0,
    "usgs_mean_q_cfs": 19.251,
    "velocity_feasibility": 0.7,
    "water_intake_score": 0.782
   },
   "type": "Feature"
  },
  {
   "geometry": {
    "coordinates": [
     -79.526229,
     35.183724
    ],
    "type": "Point"
   },
   "properties": {
    "accumulation": 32443.0,
    "bank_slope_deg": 7.1,
    "bank_slope_score": 1.0,
    "bank_slope_source": "nc-dps-lidar-dem03-cross-section",
    "beach_dist_km": 192.14,
    "bridge_proximity_bonus": 0.0,
    "catchment_area_km2": 3.2407,
    "channel_width_m": 3.4,
    "channel_width_score": 1.0,
    "composite_score": 49.3181,
    "cso_density": 0.0,
    "ej_index": 0.278,
    "elevation_m": 120.9074,
    "estuary_dist_km": 316.52,
    "feasibility_score": 29.7619,
    "flood_q10_cfs": 235.06,
    "flow_score": 12.1098,
    "flow_velocity_ms": 0.1125,
    "generation_score": 82.0,
    "impact_score": 57.4212,
    "impervious_pct": 11.31,
    "land_ownership": 0.5,
    "lat": 35.1837,
    "litter_complaint_density": 0.0,
    "lon": -79.5262,
    "navigable_dist_m": null,
    "npdes_points": 1,
    "pixel_col": 815.0,
    "pixel_row": 415.0,
    "population_density": 118.4,
    "position_along": 0.25,
    "protected_area_score": 11.4216,
    "rank": 3,
    "road_access_m": 355.1,
    "road_access_score": 0.8,
    "road_density_km_km2": 2.127,
    "robustness_pct": 72.0,
    "runoff_coeff_C": 0.1518,
    "seasonal_cv": 0.4853,
    "segment_id": 6,
    "segment_length_m": 4435.432,
    "stream_order": 3,
    "superfund_score": 0.0,
    "tourism_amenity_density": 0.1592,
    "tri_facility_density": 0.0,
    "usgs_mean_q_cfs": 2.024,
    "velocity_feasibility": 0.7,
    "water_intake_score": 0.6994
   },
   "type": "Feature"
  },
  {
   "geometry": {
    "coordinates": [
     -79.540403,
     35.162968
    ],
    "type": "Point"
   },
   "properties": {
    "accumulation": 302113.0,
    "bank_slope_deg": 0.62,
    "bank_slope_score": 1.0,
    "bank_slope_source": "nc-dps-lidar-dem03-cross-section",
    "beach_dist_km": 191.94,
    "bridge_proximity_bonus": 0.0,
    "catchment_area_km2": 30.1779,
    "channel_width_m": 7.65,
    "channel_width_score": 1.0,
    "composite_score": 46.7616,
    "cso_density": 0.0,
    "ej_index": 0.4789,
    "elevation_m": 107.3163,
    "estuary_dist_km": 317.74,
    "feasibility_score": 17.8571,
    "flood_q10_cfs": 747.69,
    "flow_score": 52.2879,
    "flow_velocity_ms": 0.1886,
    "generation_score": 29.1638,
    "impact_score": 74.2065,
    "impervious_pct": 3.46,
    "land_ownership": 0.5,
    "lat": 35.163,
    "litter_complaint_density": 0.0,
    "lon": -79.5404,
    "navigable_dist_m": null,
    "npdes_points": 2,
    "pixel_col": 688.0,
    "pixel_row": 648.0,
    "population_density": 33.2,
    "position_along": 0.5,
    "protected_area_score": 11.6169,
    "rank": 4,
    "road_access_m": 948.6,
    "road_access_score": 0.6,
    "road_density_km_km2": 1.292,
    "robustness_pct": 91.0,
    "runoff_coeff_C": 0.0811,
    "seasonal_cv": 0.4609,
    "segment_id": 9,
    "segment_length_m": 24.1288,
    "stream_order": 3,
    "superfund_score": 0.0,
    "tourism_amenity_density": 0.1592,
    "tri_facility_density": 0.0,
    "usgs_mean_q_cfs": 14.752,
    "velocity_feasibility": 0.7,
    "water_intake_score": 0.7293
   },
   "type": "Feature"
  },
  {
   "geometry": {
    "coordinates": [
     -79.54299,
     35.158491
    ],
    "type": "Point"
   },
   "properties": {
    "accumulation": 305349.0,
    "bank_slope_deg": 6.99,
    "bank_slope_score": 1.0,
    "bank_slope_source": "nc-dps-lidar-dem03-cross-section",
    "beach_dist_km": 191.87,
    "bridge_proximity_bonus": 0.0,
    "catchment_area_km2": 30.5011,
    "channel_width_m": 7.68,
    "channel_width_score": 1.0,
    "composite_score": 43.7291,
    "cso_density": 0.0,
    "ej_index": 0.4916,
    "elevation_m": 105.9531,
    "estuary_dist_km": 317.97,
    "feasibility_score": 0.0,
    "flood_q10_cfs": 746.04,
    "flow_score": 54.3513,
    "flow_velocity_ms": 0.1885,
    "generation_score": 23.7898,
    "impact_score": 76.681,
    "impervious_pct": 3.09,
    "land_ownership": 0.5,
    "lat": 35.1585,
    "litter_complaint_density": 0.0,
    "lon": -79.543,
    "navigable_dist_m": null,
    "npdes_points": 1,
    "pixel_col": 665.0,
    "pixel_row": 698.0,
    "population_density": 28.2,
    "position_along": 0.5,
    "protected_area_score": 11.7589,
    "rank": 5,
    "road_access_m": 1459.4,
    "road_access_score": 0.3,
    "road_density_km_km2": 1.189,
    "robustness_pct": 61.0,
    "runoff_coeff_C": 0.0778,
    "seasonal_cv": 0.4624,
    "segment_id": 12,
    "segment_length_m": 1285.3897,
    "stream_order": 3,
    "superfund_score": 0.0,
    "tourism_amenity_density": 0.1592,
    "tri_facility_density": 0.0,
    "usgs_mean_q_cfs": 16.565,
    "velocity_feasibility": 0.7,
    "water_intake_score": 0.7412
   },
   "type": "Feature"
  },
  {
   "geometry": {
    "coordinates": [
     -79.586928,
     35.136743
    ],
    "type": "Point"
   },
   "properties": {
    "accumulation": 136848.0,
    "bank_slope_deg": 2.67,
    "bank_slope_score": 1.0,
    "bank_slope_source": "nc-dps-lidar-dem03-cross-section",
    "beach_dist_km": 193.96,
    "bridge_proximity_bonus": 0.0,
    "catchment_area_km2": 13.6697,
    "channel_width_m": 5.74,
    "channel_width_score": 1.0,
    "composite_score": 41.7086,
    "cso_density": 0.0,
    "ej_index": 0.5341,
    "elevation_m": 104.651,
    "estuary_dist_km": 321.92,
    "feasibility_score": 33.3333,
    "flood_q10_cfs": 428.82,
    "flow_score": 42.5078,
    "flow_velocity_ms": 0.5,
    "generation_score": 21.2206,
    "impact_score": 65.7184,
    "impervious_pct": null,
    "land_ownership": 0.5,
    "lat": 35.1367,
    "litter_complaint_density": 0.0,
    "lon": -79.5869,
    "navigable_dist_m": null,
    "npdes_points": 10,
    "pixel_col": 269.0,
    "pixel_row": 946.0,
    "population_density": 16.9,
    "position_along": 0.5,
    "protected_area_score": 10.9192,
    "rank": 6,
    "road_access_m": 1615.2,
    "road_access_score": 0.3,
    "road_density_km_km2": 0.152,
    "robustness_pct": 21.5,
    "runoff_coeff_C": null,
    "seasonal_cv": null,
    "segment_id": 18,
    "segment_length_m": 68.2465,
    "stream_order": 3,
    "superfund_score": 0.0,
    "tourism_amenity_density": 0.0796,
    "tri_facility_density": 0.0,
    "usgs_mean_q_cfs": null,
    "velocity_feasibility": 1.0,
    "water_intake_score": 0.7889
   },
   "type": "Feature"
  },
  {
   "geometry": {
    "coordinates": [
     -79.544002,
     35.169455
    ],
    "type": "Point"
   },
   "properties": {
    "accumulation": 187247.0,
    "bank_slope_deg": 2.96,
    "bank_slope_score": 1.0,
    "bank_slope_source": "nc-dps-lidar-dem03-cross-section",
    "beach_dist_km": 192.61,
    "bridge_proximity_bonus": 0.0,
    "catchment_area_km2": 18.704,
    "channel_width_m": 6.43,
    "channel_width_score": 1.0,
    "composite_score": 41.3594,
    "cso_density": 0.0,
    "ej_index": 0.4756,
    "elevation_m": 109.0909,
    "estuary_dist_km": 318.09,
    "feasibility_score": 29.7619,
    "flood_q10_cfs": 544.19,
    "flow_score": 33.3978,
    "flow_velocity_ms": 0.1223,
    "generation_score": 26.7498,
    "impact_score": 68.4024,
    "impervious_pct": 2.15,
    "land_ownership": 0.5,
    "lat": 35.1695,
    "litter_complaint_density": 0.0,
    "lon": -79.544,
    "navigable_dist_m": null,
    "npdes_points": 2,
    "pixel_col": 654.0,
    "pixel_row": 577.0,
    "population_density": 36.8,
    "position_along": 0.5,
    "protected_area_score": 11.354,
    "rank": 7,
    "road_access_m": 376.0,
    "road_access_score": 0.8,
    "road_density_km_km2": 1.341,
    "robustness_pct": 0.0,
    "runoff_coeff_C": 0.0693,
    "seasonal_cv": 0.4572,
    "segment_id": 8,
    "segment_length_m": 1892.3328,
    "stream_order": 3,
    "superfund_score": 0.0,
    "tourism_amenity_density": 0.1592,
    "tri_facility_density": 0.0,
    "usgs_mean_q_cfs": 9.93,
    "velocity_feasibility": 0.7,
    "water_intake_score": 0.7041
   },
   "type": "Feature"
  },
  {
   "geometry": {
    "coordinates": [
     -79.543622,
     35.184608
    ],
    "type": "Point"
   },
   "properties": {
    "accumulation": 116573.0,
    "bank_slope_deg": 0.07,
    "bank_slope_score": 1.0,
    "bank_slope_source": "nc-dps-lidar-dem03-cross-section",
    "beach_dist_km": 193.51,
    "bridge_proximity_bonus": 0.0,
    "catchment_area_km2": 11.6444,
    "channel_width_m": 5.41,
    "channel_width_score": 1.0,
    "composite_score": 41.1429,
    "cso_density": 0.0,
    "ej_index": 0.4299,
    "elevation_m": 115.2855,
    "estuary_dist_km": 318.1,
    "feasibility_score": 41.6667,
    "flood_q10_cfs": 404.13,
    "flow_score": 27.4283,
    "flow_velocity_ms": 0.2286,
    "generation_score": 36.2324,
    "impact_score": 57.2204,
    "impervious_pct": 1.59,
    "land_ownership": 0.5,
    "lat": 35.1846,
    "litter_complaint_density": 0.0,
    "lon": -79.5436,
    "navigable_dist_m": null,
    "npdes_points": 3,
    "pixel_col": 655.0,
    "pixel_row": 409.0,
    "population_density": 60.3,
    "position_along": 0.5,
    "protected_area_score": 10.7615,
    "rank": 8,
    "road_access_m": 141.6,
    "road_access_score": 1.0,
    "road_density_km_km2": 1.621,
    "robustness_pct": 24.0,
    "runoff_coeff_C": 0.0643,
    "seasonal_cv": 0.4571,
    "segment_id": 5,
    "segment_length_m": 2196.3065,
    "stream_order": 3,
    "superfund_score": 0.0,
    "tourism_amenity_density": 0.1592,
    "tri_facility_density": 0.0,
    "usgs_mean_q_cfs": 7.408,
    "velocity_feasibility": 0.7,
    "water_intake_score": 0.6696
   },
   "type": "Feature"
  },
  {
   "geometry": {
    "coordinates": [
     -79.53805,
     35.170903
    ],
    "type": "Point"
   },
   "properties": {
    "accumulation": 75806.0,
    "bank_slope_deg": 3.64,
    "bank_slope_score": 1.0,
    "bank_slope_source": "nc-dps-lidar-dem03-cross-section",
    "beach_dist_km": 192.24,
    "bridge_proximity_bonus": 0.0,
    "catchment_area_km2": 7.5722,
    "channel_width_m": 4.63,
    "channel_width_score": 1.0,
    "composite_score": 41.097,
    "cso_density": 0.0,
    "ej_index": 0.4667,
    "elevation_m": 110.2714,
    "estuary_dist_km": 317.55,
    "feasibility_score": 29.7619,
    "flood_q10_cfs": 347.19,
    "flow_score": 20.8261,
    "flow_velocity_ms": 0.17,
    "generation_score": 34.7352,
    "impact_score": 70.0188,
    "impervious_pct": 6.17,
    "land_ownership": 0.5,
    "lat": 35.1709,
    "litter_complaint_density": 0.0,
    "lon": -79.5381,
    "navigable_dist_m": null,
    "npdes_points": 1,
    "pixel_col": 708.0,
    "pixel_row": 560.0,
    "population_density": 38.4,
    "position_along": 0.75,
    "protected_area_score": 11.4065,
    "rank": 9,
    "road_access_m": 252.9,
    "road_access_score": 0.8,
    "road_density_km_km2": 1.043,
    "robustness_pct": 10.0,
    "runoff_coeff_C": 0.1055,
    "seasonal_cv": 0.4619,
    "segment_id": 6,
    "segment_length_m": 4435.432,
    "stream_order": 3,
    "superfund_score": 0.0,
    "tourism_amenity_density": 0.1592,
    "tri_facility_density": 0.0,
    "usgs_mean_q_cfs": 5.116,
    "velocity_feasibility": 0.7,
    "water_intake_score": 0.7077
   },
   "type": "Feature"
  },
  {
   "geometry": {
    "coordinates": [
     -79.592931,
     35.141102
    ],
    "type": "Point"
   },
   "properties": {
    "accumulation": 100077.0,
    "bank_slope_deg": 1.97,
    "bank_slope_score": 1.0,
    "bank_slope_source": "nc-dps-lidar-dem03-cross-section",
    "beach_dist_km": 194.68,
    "bridge_proximity_bonus": 0.0,
    "catchment_area_km2": 9.9966,
    "channel_width_m": 5.12,
    "channel_width_score": 1.0,
    "composite_score": 39.0009,
    "cso_density": 0.0,
    "ej_index": 0.5348,
    "elevation_m": 105.8415,
    "estuary_dist_km": 322.48,
    "feasibility_score": 33.3333,
    "flood_q10_cfs": 355.37,
    "flow_score": 38.9808,
    "flow_velocity_ms": 0.5,
    "generation_score": 20.9795,
    "impact_score": 59.8729,
    "impervious_pct": null,
    "land_ownership": 0.5,
    "lat": 35.1411,
    "litter_complaint_density": 0.0,
    "lon": -79.5929,
    "navigable_dist_m": null,
    "npdes_points": 10,
    "pixel_col": 214.0,
    "pixel_row": 895.0,
    "population_density": 16.8,
    "position_along": 0.8333,
    "protected_area_score": 10.6575,
    "rank": 10,
    "road_access_m": 1028.0,
    "road_access_score": 0.3,
    "road_density_km_km2": 0.125,
    "robustness_pct": 0.0,
    "runoff_coeff_C": null,
    "seasonal_cv": null,
    "segment_id": 10,
    "segment_length_m": 5771.2101,
    "stream_order": 3,
    "superfund_score": 0.0,
    "tourism_amenity_density": 0.0796,
    "tri_facility_density": 0.0,
    "usgs_mean_q_cfs": null,
    "velocity_feasibility": 1.0,
    "water_intake_score": 0.7652
   },
   "type": "Feature"
  },
  {
   "geometry": {
    "coordinates": [
     -79.539955,
     35.14234
    ],
    "type": "Point"
   },
   "properties": {
    "accumulation": 36030.0,
    "bank_slope_deg": 6.45,
    "bank_slope_score": 1.0,
    "bank_slope_source": "nc-dps-lidar-dem03-cross-section",
    "beach_dist_km": 190.67,
    "bridge_proximity_bonus": 0.0,
    "catchment_area_km2": 3.599,
    "channel_width_m": 3.53,
    "channel_width_score": 1.0,
    "composite_score": 38.0869,
    "cso_density": 0.0,
    "ej_index": 0.4954,
    "elevation_m": 103.8316,
    "estuary_dist_km": 317.66,
    "feasibility_score": 54.7619,
    "flood_q10_cfs": 193.16,
    "flow_score": 8.1062,
    "flow_velocity_ms": 0.1399,
    "generation_score": 7.7163,
    "impact_score": 85.104,
    "impervious_pct": 0.16,
    "land_ownership": 1.0,
    "lat": 35.1423,
    "litter_complaint_density": 0.0,
    "lon": -79.54,
    "navigable_dist_m": null,
    "npdes_points": 0,
    "pixel_col": 694.0,
    "pixel_row": 877.0,
    "population_density": 21.3,
    "position_along": 0.5,
    "protected_area_score": 12.3126,
    "rank": 11,
    "road_access_m": 494.2,
    "road_access_score": 0.8,
    "road_density_km_km2": 0.755,
    "robustness_pct": 24.5,
    "runoff_coeff_C": 0.0514,
    "seasonal_cv": 0.4652,
    "segment_id": 15,
    "segment_length_m": 1306.3832,
    "stream_order": 3,
    "superfund_score": 0.0,
    "tourism_amenity_density": 0.0796,
    "tri_facility_density": 0.0,
    "usgs_mean_q_cfs": 1.994,
    "velocity_feasibility": 0.7,
    "water_intake_score": 0.8068
   },
   "type": "Feature"
  },
  {
   "geometry": {
    "coordinates": [
     -79.589009,
     35.161204
    ],
    "type": "Point"
   },
   "properties": {
    "accumulation": 44997.0,
    "bank_slope_deg": 4.76,
    "bank_slope_score": 1.0,
    "bank_slope_source": "nc-dps-lidar-dem03-cross-section",
    "beach_dist_km": 195.56,
    "bridge_proximity_bonus": 0.0,
    "catchment_area_km2": 4.4947,
    "channel_width_m": 3.83,
    "channel_width_score": 1.0,
    "composite_score": 37.2772,
    "cso_density": 0.0,
    "ej_index": 0.5184,
    "elevation_m": 120.4697,
    "estuary_dist_km": 322.16,
    "feasibility_score": 29.7619,
    "flood_q10_cfs": 241.86,
    "flow_score": 13.7261,
    "flow_velocity_ms": 0.1459,
    "generation_score": 42.4212,
    "impact_score": 55.5167,
    "impervious_pct": 4.09,
    "land_ownership": 0.5,
    "lat": 35.1612,
    "litter_complaint_density": 0.0,
    "lon": -79.589,
    "navigable_dist_m": null,
    "npdes_points": 7,
    "pixel_col": 243.0,
    "pixel_row": 674.0,
    "population_density": 26.4,
    "position_along": 0.1667,
    "protected_area_score": 10.1756,
    "rank": 12,
    "road_access_m": 398.0,
    "road_access_score": 0.8,
    "road_density_km_km2": 1.727,
    "robustness_pct": 6.5,
    "runoff_coeff_C": 0.0868,
    "seasonal_cv": 0.439,
    "segment_id": 10,
    "segment_length_m": 5771.2101,
    "stream_order": 3,
    "superfund_score": 0.0,
    "tourism_amenity_density": 0.2387,
    "tri_facility_density": 0.0,
    "usgs_mean_q_cfs": 3.387,
    "velocity_feasibility": 0.7,
    "water_intake_score": 0.6923
   },
   "type": "Feature"
  },
  {
   "geometry": {
    "coordinates": [
     -79.536285,
     35.201992
    ],
    "type": "Point"
   },
   "properties": {
    "accumulation": 54235.0,
    "bank_slope_deg": 3.45,
    "bank_slope_score": 1.0,
    "bank_slope_source": "nc-dps-lidar-dem03-cross-section",
    "beach_dist_km": 194.03,
    "bridge_proximity_bonus": 0.0,
    "catchment_area_km2": 5.4175,
    "channel_width_m": 4.1,
    "channel_width_score": 1.0,
    "composite_score": 34.3373,
    "cso_density": 0.0,
    "ej_index": 0.3662,
    "elevation_m": 123.7107,
    "estuary_dist_km": 317.49,
    "feasibility_score": 29.7619,
    "flood_q10_cfs": 259.16,
    "flow_score": 13.8191,
    "flow_velocity_ms": 0.1483,
    "generation_score": 35.5849,
    "impact_score": 52.4761,
    "impervious_pct": 2.24,
    "land_ownership": 0.5,
    "lat": 35.202,
    "litter_complaint_density": 0.0,
    "lon": -79.5363,
    "navigable_dist_m": null,
    "npdes_points": 1,
    "pixel_col": 719.0,
    "pixel_row": 215.0,
    "population_density": 86.9,
    "position_along": 0.5,
    "protected_area_score": 10.4517,
    "rank": 13,
    "road_access_m": 454.6,
    "road_access_score": 0.8,
    "road_density_km_km2": 0.802,
    "robustness_pct": 0.5,
    "runoff_coeff_C": 0.0702,
    "seasonal_cv": 0.4643,
    "segment_id": 0,
    "segment_length_m": 2661.6123,
    "stream_order": 3,
    "superfund_score": 0.0,
    "tourism_amenity_density": 0.2387,
    "tri_facility_density": 0.0,
    "usgs_mean_q_cfs": 3.83,
    "velocity_feasibility": 0.7,
    "water_intake_score": 0.6447
   },
   "type": "Feature"
  },
  {
   "geometry": {
    "coordinates": [
     -79.550494,
     35.17845
    ],
    "type": "Point"
   },
   "properties": {
    "accumulation": 24911.0,
    "bank_slope_deg": 0.53,
    "bank_slope_score": 1.0,
    "bank_slope_source": "nc-dps-lidar-dem03-cross-section",
    "beach_dist_km": 193.65,
    "bridge_proximity_bonus": 0.0,
    "catchment_area_km2": 2.4883,
    "channel_width_m": 3.09,
    "channel_width_score": 1.0,
    "composite_score": 33.57,
    "cso_density": 0.0,
    "ej_index": 0.5074,
    "elevation_m": 115.7361,
    "estuary_dist_km": 318.7,
    "feasibility_score": 29.7619,
    "flood_q10_cfs": 163.92,
    "flow_score": 7.5703,
    "flow_velocity_ms": 0.1497,
    "generation_score": 29.104,
    "impact_score": 61.6064,
    "impervious_pct": 2.63,
    "land_ownership": 0.5,
    "lat": 35.1784,
    "litter_complaint_density": 0.0,
    "lon": -79.5505,
    "navigable_dist_m": null,
    "npdes_points": 1,
    "pixel_col": 594.0,
    "pixel_row": 478.0,
    "population_density": 30.7,
    "position_along": 0.5,
    "protected_area_score": 10.7883,
    "rank": 14,
    "road_access_m": 331.3,
    "road_access_score": 0.8,
    "road_density_km_km2": 1.946,
    "robustness_pct": 0.0,
    "runoff_coeff_C": 0.0737,
    "seasonal_cv": 0.4643,
    "segment_id": 7,
    "segment_length_m": 1149.191,
    "stream_order": 3,
    "superfund_score": 0.0,
    "tourism_amenity_density": 0.1592,
    "tri_facility_density": 0.0,
    "usgs_mean_q_cfs": 1.397,
    "velocity_feasibility": 0.7,
    "water_intake_score": 0.6686
   },
   "type": "Feature"
  },
  {
   "geometry": {
    "coordinates": [
     -79.542791,
     35.196081
    ],
    "type": "Point"
   },
   "properties": {
    "accumulation": 34745.0,
    "bank_slope_deg": 2.3,
    "bank_slope_score": 1.0,
    "bank_slope_source": "nc-dps-lidar-dem03-cross-section",
    "beach_dist_km": 194.15,
    "bridge_proximity_bonus": 0.0,
    "catchment_area_km2": 3.4707,
    "channel_width_m": 3.49,
    "channel_width_score": 1.0,
    "composite_score": 32.8988,
    "cso_density": 0.0,
    "ej_index": 0.4418,
    "elevation_m": 122.8558,
    "estuary_dist_km": 318.06,
    "feasibility_score": 41.6667,
    "flood_q10_cfs": 191.11,
    "flow_score": 7.0711,
    "flow_velocity_ms": 0.1066,
    "generation_score": 25.7192,
    "impact_score": 57.2177,
    "impervious_pct": 0.64,
    "land_ownership": 0.5,
    "lat": 35.1961,
    "litter_complaint_density": 0.0,
    "lon": -79.5428,
    "navigable_dist_m": null,
    "npdes_points": 1,
    "pixel_col": 662.0,
    "pixel_row": 281.0,
    "population_density": 56.8,
    "position_along": 0.5,
    "protected_area_score": 10.5461,
    "rank": 15,
    "road_access_m": 136.0,
    "road_access_score": 1.0,
    "road_density_km_km2": 1.279,
    "robustness_pct": 0.5,
    "runoff_coeff_C": 0.0558,
    "seasonal_cv": 0.4661,
    "segment_id": 4,
    "segment_length_m": 1261.5552,
    "stream_order": 3,
    "superfund_score": 0.0,
    "tourism_amenity_density": 0.2387,
    "tri_facility_density": 0.0,
    "usgs_mean_q_cfs": 1.966,
    "velocity_feasibility": 0.7,
    "water_intake_score": 0.6445
   },
   "type": "Feature"
  },
  {
   "geometry": {
    "coordinates": [
     -79.548116,
     35.156138
    ],
    "type": "Point"
   },
   "properties": {
    "accumulation": 21357.0,
    "bank_slope_deg": 5.38,
    "bank_slope_score": 1.0,
    "bank_slope_source": "nc-dps-lidar-dem03-cross-section",
    "beach_dist_km": 192.12,
    "bridge_proximity_bonus": 0.0,
    "catchment_area_km2": 2.1333,
    "channel_width_m": 2.92,
    "channel_width_score": 1.0,
    "composite_score": 29.4457,
    "cso_density": 0.0,
    "ej_index": 0.5104,
    "elevation_m": 107.6454,
    "estuary_dist_km": 318.43,
    "feasibility_score": 25.0,
    "flood_q10_cfs": 143.16,
    "flow_score": 5.6338,
    "flow_velocity_ms": 0.143,
    "generation_score": 4.602,
    "impact_score": 76.3554,
    "impervious_pct": 0.78,
    "land_ownership": 1.0,
    "lat": 35.1561,
    "litter_complaint_density": 0.0,
    "lon": -79.5481,
    "navigable_dist_m": null,
    "npdes_points": 0,
    "pixel_col": 620.0,
    "pixel_row": 725.0,
    "population_density": 24.6,
    "position_along": 0.5,
    "protected_area_score": 11.6306,
    "rank": 16,
    "road_access_m": 1467.3,
    "road_access_score": 0.3,
    "road_density_km_km2": 0.0,
    "robustness_pct": 0.0,
    "runoff_coeff_C": 0.057,
    "seasonal_cv": 0.4649,
    "segment_id": 13,
    "segment_length_m": 641.4823,
    "stream_order": 3,
    "superfund_score": 0.0,
    "tourism_amenity_density": 0.1592,
    "tri_facility_density": 0.0,
    "usgs_mean_q_cfs": 1.153,
    "velocity_feasibility": 0.7,
    "water_intake_score": 0.7433
   },
   "type": "Feature"
  },
  {
   "geometry": {
    "coordinates": [
     -79.584228,
     35.187846
    ],
    "type": "Point"
   },
   "properties": {
    "accumulation": 82043.0,
    "bank_slope_deg": 0.61,
    "bank_slope_score": 1.0,
    "bank_slope_source": "nc-dps-lidar-dem03-cross-section",
    "beach_dist_km": 196.79,
    "bridge_proximity_bonus": 0.0,
    "catchment_area_km2": 8.1952,
    "channel_width_m": 4.76,
    "channel_width_score": 1.0,
    "composite_score": 28.5415,
    "cso_density": 0.0,
    "ej_index": 0.5184,
    "elevation_m": 124.7518,
    "estuary_dist_km": 321.8,
    "feasibility_score": 29.7619,
    "flood_q10_cfs": 323.58,
    "flow_score": 21.016,
    "flow_velocity_ms": 0.1505,
    "generation_score": 19.8851,
    "impact_score": 42.8591,
    "impervious_pct": 1.1,
    "land_ownership": 0.5,
    "lat": 35.1878,
    "litter_complaint_density": 0.0,
    "lon": -79.5842,
    "navigable_dist_m": null,
    "npdes_points": 1,
    "pixel_col": 283.0,
    "pixel_row": 378.0,
    "population_density": 26.4,
    "position_along": 0.5,
    "protected_area_score": 9.4797,
    "rank": 17,
    "road_access_m": 490.1,
    "road_access_score": 0.8,
    "road_density_km_km2": 1.507,
    "robustness_pct": 0.0,
    "runoff_coeff_C": 0.0599,
    "seasonal_cv": 0.4487,
    "segment_id": 1,
    "segment_length_m": 5990.2562,
    "stream_order": 3,
    "superfund_score": 0.0,
    "tourism_amenity_density": 0.2387,
    "tri_facility_density": 0.0,
    "usgs_mean_q_cfs": 7.556,
    "velocity_feasibility": 0.7,
    "water_intake_score": 0.6119
   },
   "type": "Feature"
  },
  {
   "geometry": {
    "coordinates": [
     -79.537872,
     35.162458
    ],
    "type": "Point"
   },
   "properties": {
    "accumulation": 24947.0,
    "bank_slope_deg": 2.83,
    "bank_slope_score": 1.0,
    "bank_slope_source": "nc-dps-lidar-dem03-cross-section",
    "beach_dist_km": 191.72,
    "bridge_proximity_bonus": 0.0,
    "catchment_area_km2": 2.4919,
    "channel_width_m": 3.09,
    "channel_width_score": 1.0,
    "composite_score": 25.1026,
    "cso_density": 0.0,
    "ej_index": 0.4953,
    "elevation_m": 108.1304,
    "estuary_dist_km": 317.51,
    "feasibility_score": 0.0,
    "flood_q10_cfs": 155.23,
    "flow_score": 5.6209,
    "flow_velocity_ms": 0.1396,
    "generation_score": 2.0656,
    "impact_score": 76.9258,
    "impervious_pct": 0.25,
    "land_ownership": 0.5,
    "lat": 35.1625,
    "litter_complaint_density": 0.0,
    "lon": -79.5379,
    "navigable_dist_m": null,
    "npdes_points": 0,
    "pixel_col": 709.0,
    "pixel_row": 653.0,
    "population_density": 21.3,
    "position_along": 0.5,
    "protected_area_score": 11.6606,
    "rank": 18,
    "road_access_m": 1037.8,
    "road_access_score": 0.3,
    "road_density_km_km2": 0.0,
    "robustness_pct": 0.0,
    "runoff_coeff_C": 0.0523,
    "seasonal_cv": 0.4844,
    "segment_id": 11,
    "segment_length_m": 534.2625,
    "stream_order": 3,
    "superfund_score": 0.0,
    "tourism_amenity_density": 0.1592,
    "tri_facility_density": 0.0,
    "usgs_mean_q_cfs": 1.439,
    "velocity_feasibility": 0.7,
    "water_intake_score": 0.7341
   },
   "type": "Feature"
  },
  {
   "geometry": {
    "coordinates": [
     -79.601396,
     35.149892
    ],
    "type": "Point"
   },
   "properties": {
    "accumulation": 68317.0,
    "bank_slope_deg": 6.29,
    "bank_slope_score": 1.0,
    "bank_slope_source": "nc-dps-lidar-dem03-cross-section",
    "beach_dist_km": 195.85,
    "bridge_proximity_bonus": 0.0,
    "catchment_area_km2": 6.8241,
    "channel_width_m": 4.46,
    "channel_width_score": 1.0,
    "composite_score": 24.946,
    "cso_density": 0.0,
    "ej_index": 0.5318,
    "elevation_m": 109.5176,
    "estuary_dist_km": 323.26,
    "feasibility_score": 17.8571,
    "flood_q10_cfs": 310.77,
    "flow_score": 17.6075,
    "flow_velocity_ms": 0.1781,
    "generation_score": 13.9666,
    "impact_score": 45.5853,
    "impervious_pct": 4.09,
    "land_ownership": 0.5,
    "lat": 35.1499,
    "litter_complaint_density": 0.0,
    "lon": -79.6014,
    "navigable_dist_m": null,
    "npdes_points": 0,
    "pixel_col": 133.0,
    "pixel_row": 801.0,
    "population_density": 18.5,
    "position_along": 0.5,
    "protected_area_score": 10.0777,
    "rank": 19,
    "road_access_m": 749.8,
    "road_access_score": 0.6,
    "road_density_km_km2": 0.18,
    "robustness_pct": 0.0,
    "runoff_coeff_C": 0.0868,
    "seasonal_cv": 0.439,
    "segment_id": 10,
    "segment_length_m": 5771.2101,
    "stream_order": 3,
    "superfund_score": 0.0,
    "tourism_amenity_density": 0.0,
    "tri_facility_density": 0.0,
    "usgs_mean_q_cfs": 3.387,
    "velocity_feasibility": 0.7,
    "water_intake_score": 0.723
   },
   "type": "Feature"
  },
  {
   "geometry": {
    "coordinates": [
     -79.600434,
     35.182497
    ],
    "type": "Point"
   },
   "properties": {
    "accumulation": 117715.0,
    "bank_slope_deg": 0.0,
    "bank_slope_score": 1.0,
    "bank_slope_source": "nc-dps-lidar-dem03-cross-section",
    "beach_dist_km": 197.7,
    "bridge_proximity_bonus": 0.0,
    "catchment_area_km2": 11.7585,
    "channel_width_m": 5.43,
    "channel_width_score": 1.0,
    "composite_score": 21.7013,
    "cso_density": 0.0,
    "ej_index": 0.5184,
    "elevation_m": 118.855,
    "estuary_dist_km": 323.25,
    "feasibility_score": 17.8571,
    "flood_q10_cfs": 401.9,
    "flow_score": 26.5161,
    "flow_velocity_ms": 0.202,
    "generation_score": 12.6351,
    "impact_score": 28.6771,
    "impervious_pct": 1.1,
    "land_ownership": 0.5,
    "lat": 35.1825,
    "litter_complaint_density": 0.0,
    "lon": -79.6004,
    "navigable_dist_m": null,
    "npdes_points": 0,
    "pixel_col": 135.0,
    "pixel_row": 438.0,
    "population_density": 26.4,
    "position_along": 0.8333,
    "protected_area_score": 8.9677,
    "rank": 20,
    "road_access_m": 882.4,
    "road_access_score": 0.6,
    "road_density_km_km2": 0.837,
    "robustness_pct": 0.0,
    "runoff_coeff_C": 0.0599,
    "seasonal_cv": 0.4487,
    "segment_id": 1,
    "segment_length_m": 5990.2562,
    "stream_order": 3,
    "superfund_score": 0.0,
    "tourism_amenity_density": 0.0796,
    "tri_facility_density": 0.0,
    "usgs_mean_q_cfs": 7.556,
    "velocity_feasibility": 0.7,
    "water_intake_score": 0.6106
   },
   "type": "Feature"
  },
  {
   "geometry": {
    "coordinates": [
     -79.612148,
     35.177476
    ],
    "type": "Point"
   },
   "properties": {
    "accumulation": 171551.0,
    "bank_slope_deg": 2.27,
    "bank_slope_score": 1.0,
    "bank_slope_source": "nc-dps-lidar-dem03-cross-section",
    "beach_dist_km": 198.3,
    "bridge_proximity_bonus": 0.0,
    "catchment_area_km2": 17.1361,
    "channel_width_m": 6.23,
    "channel_width_score": 1.0,
    "composite_score": 19.2673,
    "cso_density": 0.0,
    "ej_index": 0.5412,
    "elevation_m": 112.9553,
    "estuary_dist_km": 324.3,
    "feasibility_score": 0.0,
    "flood_q10_cfs": 502.0,
    "flow_score": 33.423,
    "flow_velocity_ms": 0.1927,
    "generation_score": 8.7432,
    "impact_score": 27.6288,
    "impervious_pct": 0.94,
    "land_ownership": 0.5,
    "lat": 35.1775,
    "litter_complaint_density": 0.0,
    "lon": -79.6121,
    "navigable_dist_m": null,
    "npdes_points": 0,
    "pixel_col": 29.0,
    "pixel_row": 497.0,
    "population_density": 23.6,
    "position_along": 0.5,
    "protected_area_score": 8.9111,
    "rank": 21,
    "road_access_m": 1131.2,
    "road_access_score": 0.3,
    "road_density_km_km2": 0.506,
    "robustness_pct": 0.0,
    "runoff_coeff_C": 0.0585,
    "seasonal_cv": 0.4514,
    "segment_id": 3,
    "segment_length_m": 902.759,
    "stream_order": 3,
    "superfund_score": 0.0,
    "tourism_amenity_density": 0.0796,
    "tri_facility_density": 0.0,
    "usgs_mean_q_cfs": 9.608,
    "velocity_feasibility": 0.7,
    "water_intake_score": 0.6164
   },
   "type": "Feature"
  },
  {
   "geometry": {
    "coordinates": [
     -79.574837,
     35.201021
    ],
    "type": "Point"
   },
   "properties": {
    "accumulation": 46043.0,
    "bank_slope_deg": 1.49,
    "bank_slope_score": 1.0,
    "bank_slope_source": "nc-dps-lidar-dem03-cross-section",
    "beach_dist_km": 196.88,
    "bridge_proximity_bonus": 0.0,
    "catchment_area_km2": 4.5992,
    "channel_width_m": 3.86,
    "channel_width_score": 1.0,
    "composite_score": 16.5664,
    "cso_density": 0.0,
    "ej_index": 0.5184,
    "elevation_m": 132.0196,
    "estuary_dist_km": 320.99,
    "feasibility_score": 0.0,
    "flood_q10_cfs": 228.75,
    "flow_score": 16.1622,
    "flow_velocity_ms": 0.1236,
    "generation_score": 10.3255,
    "impact_score": 31.4275,
    "impervious_pct": 1.1,
    "land_ownership": 0.5,
    "lat": 35.201,
    "litter_complaint_density": 0.0,
    "lon": -79.5748,
    "navigable_dist_m": null,
    "npdes_points": 1,
    "pixel_col": 369.0,
    "pixel_row": 231.0,
    "population_density": 26.4,
    "position_along": 0.1667,
    "protected_area_score": 9.4089,
    "rank": 22,
    "road_access_m": 1546.4,
    "road_access_score": 0.3,
    "road_density_km_km2": 0.287,
    "robustness_pct": 0.0,
    "runoff_coeff_C": 0.0599,
    "seasonal_cv": 0.4487,
    "segment_id": 1,
    "segment_length_m": 5990.2562,
    "stream_order": 3,
    "superfund_score": 0.0,
    "tourism_amenity_density": 0.0,
    "tri_facility_density": 0.0,
    "usgs_mean_q_cfs": 7.556,
    "velocity_feasibility": 0.7,
    "water_intake_score": 0.5952
   },
   "type": "Feature"
  },
  {
   "geometry": {
    "coordinates": [
     -79.604244,
     35.19054
    ],
    "type": "Point"
   },
   "properties": {
    "accumulation": 35222.0,
    "bank_slope_deg": 4.74,
    "bank_slope_score": 1.0,
    "bank_slope_source": "nc-dps-lidar-dem03-cross-section",
    "beach_dist_km": 198.48,
    "bridge_proximity_bonus": 0.0,
    "catchment_area_km2": 3.5183,
    "channel_width_m": 3.5,
    "channel_width_score": 1.0,
    "composite_score": 10.2101,
    "cso_density": 0.0,
    "ej_index": 0.5184,
    "elevation_m": 127.299,
    "estuary_dist_km": 323.62,
    "feasibility_score": 0.0,
    "flood_q10_cfs": 191.61,
    "flow_score": 8.6338,
    "flow_velocity_ms": 0.1317,
    "generation_score": 4.0135,
    "impact_score": 22.8251,
    "impervious_pct": 0.4,
    "land_ownership": 0.5,
    "lat": 35.1905,
    "litter_complaint_density": 0.0,
    "lon": -79.6042,
    "navigable_dist_m": null,
    "npdes_points": 0,
    "pixel_col": 100.0,
    "pixel_row": 351.0,
    "population_density": 26.4,
    "position_along": 0.5,
    "protected_area_score": 8.7433,
    "rank": 23,
    "road_access_m": 1741.7,
    "road_access_score": 0.3,
    "road_density_km_km2": 0.0,
    "robustness_pct": 0.0,
    "runoff_coeff_C": 0.0536,
    "seasonal_cv": 0.4368,
    "segment_id": 2,
    "segment_length_m": 2970.8522,
    "stream_order": 3,
    "superfund_score": 0.0,
    "tourism_amenity_density": 0.0796,
    "tri_facility_density": 0.0,
    "usgs_mean_q_cfs": 2.076,
    "velocity_feasibility": 0.7,
    "water_intake_score": 0.5828
   },
   "type": "Feature"
  }
 ],
 "note": "GRIME region 'Foxfire, NC' \u2014 real-data pipeline (DEM\u2192streams\u2192candidates\u2192stream mask (sites confined to \u00b1150 m of mapped OSM/NHD waterways)\u2192region-appropriate real parameters\u2192shipped scoring, math unchanged). Width curve: Bieger et al. 2015 JAWRA Table 3, Atlantic Plain. Flood: SIR 2014-5030 HR4 (I24H50Y: NOAA Atlas 14). NC Coastal Plain (SIR 2014-5030 HR4; I24H50Y from NOAA Atlas 14 at region center)",
 "provenance": {
  "candidates_pre_gate": 23,
  "constant": [
   "bank_slope_score",
   "bridge_proximity_bonus",
   "channel_width_score",
   "cso_density",
   "litter_complaint_density",
   "stream_order",
   "superfund_score",
   "tri_facility_density"
  ],
  "gated_navigable": 0,
  "hard_gate_removed": 0,
  "n_parameters": 27,
  "parameters": {
   "bank_slope_score": {
    "kind": "real",
    "n_3dep_10m_fallback": 0,
    "n_nc_lidar_3_125ft": 23,
    "n_real": 23,
    "n_sites": 23,
    "source": "NC OneMap / NC DPS DEM03 statewide lidar-derived 3.125-ft (0.953 m) elevations (perpendicular 50 m transect; robust 5 m bank-rise metric); unavailable profiles use the region 10 m 3DEP DEM-gradient fallback",
    "source_mosaics": [
     "Montgomery_QL1_2024_03ft_CountywideRaster",
     "Moore_QL1_2024_03ft_CountywideRaster",
     "Richmond_QL1_2024_03ft_CountywideRaster"
    ]
   },
   "beach_dist_km": {
    "kind": "real",
    "n_real": 23,
    "n_sites": 23,
    "source": "haversine to region ref: Wrightsville Beach (shipped NC reference)"
   },
   "bridge_proximity_bonus": {
    "kind": "real",
    "n_real": 23,
    "n_sites": 23,
    "source": "FHWA/BTS NBI (NTAD), 50 m proximity"
   },
   "catchment_area_km2": {
    "kind": "real",
    "n_real": 23,
    "n_sites": 23,
    "source": "DEM flow accumulation (pipeline)"
   },
   "channel_width_score": {
    "kind": "real",
    "n_real": 23,
    "n_sites": 23,
    "source": "Bieger 2015 APL width curve on DEM drainage area \u2192 shipped width curve"
   },
   "cso_density": {
    "kind": "real",
    "n_real": 23,
    "n_sites": 23,
    "source": "EPA ECHO open CSO/TCS outfall PF coordinates states=NC, Cauchy proximity"
   },
   "ej_index": {
    "kind": "real",
    "n_real": 23,
    "n_sites": 23,
    "source": "Census ACS C17002+B03002 two-component demographic index, percentile-ranked within region"
   },
   "estuary_dist_km": {
    "kind": "real",
    "n_real": 23,
    "n_sites": 23,
    "source": "haversine to region ref: Pamlico Sound (shipped NC reference)"
   },
   "flood_q10_cfs": {
    "impervious_fallback_reason": "StreamCat imperviousness unavailable; the existing regression-input fallback of 0.0% impervious was used and is disclosed here",
    "kind": "real",
    "n_impervious_fallback": 2,
    "n_real": 23,
    "n_sites": 23,
    "source": "USGS SIR 2014-5030 Table 7 HR4 (NC Coastal Plain; I24H50Y from NOAA Atlas 14 at region center)"
   },
   "flow_velocity_ms": {
    "fallback_reason": "EROM/DEM continuity input unavailable; shipped 0.5 m/s default used",
    "kind": "real",
    "n_fallback": 2,
    "n_real": 21,
    "n_sites": 23,
    "source": "Manning (region DEM/D8) blended with EROM continuity (shipped M4 logic)"
   },
   "impervious_pct": {
    "fallback_reason": "NLDI/StreamCat did not return a snap-compatible catchment value; value remains null and is removed by constant-column handling",
    "kind": "real",
    "n_fallback": 2,
    "n_real": 21,
    "n_sites": 23,
    "source": "EPA StreamCat pctimp2019 (per NHDPlus watershed)"
   },
   "land_ownership": {
    "kind": "real",
    "n_fallback": 0,
    "n_real": 23,
    "n_sites": 23,
    "source": "NC OneMap statewide parcels (NC Parcels Transformer) ownname"
   },
   "litter_complaint_density": {
    "kind": "fallback",
    "n_real": 0,
    "n_sites": 23,
    "source": "no public machine-readable litter/illegal-dumping feed for this region"
   },
   "navigable_dist_m": {
    "kind": "real",
    "n_real": 23,
    "n_sites": 23,
    "source": "USACE/BTS NWN (NTAD): no navigable segment within this bbox (+2 km) \u2014 computed absence, gate passes all sites"
   },
   "npdes_points": {
    "kind": "real",
    "n_real": 23,
    "n_sites": 23,
    "source": "EPA ECHO active NPDES outfalls states=NC (types NPD/GPC/NGP; statuses ADC/EFF/EXP), per catchment"
   },
   "population_density": {
    "kind": "real",
    "n_real": 23,
    "n_sites": 23,
    "source": "Census ACS 2022 B01003 block groups (bbox, multi-county), area-weighted"
   },
   "protected_area_score": {
    "kind": "real",
    "n_real": 23,
    "n_sites": 23,
    "source": "USGS PAD-US 4.1 state GDB; states=NC; shipped designation-weighted proximity curve"
   },
   "road_access_score": {
    "kind": "real",
    "n_real": 23,
    "n_sites": 23,
    "source": "OSM drive network nearest-node distance"
   },
   "road_density_km_km2": {
    "kind": "real",
    "n_real": 23,
    "n_sites": 23,
    "source": "OSM drive network (osmnx, cached) clipped per catchment"
   },
   "runoff_coeff_C": {
    "fallback_reason": "source impervious_pct was unavailable; derived value remains null",
    "kind": "real",
    "n_fallback": 2,
    "n_real": 21,
    "n_sites": 23,
    "source": "derived from real impervious_pct (C=0.05+0.009*I)"
   },
   "seasonal_cv": {
    "fallback_reason": "NHDPlus monthly EROM was unavailable or failed the drainage-area snap guard; value remains null",
    "kind": "real",
    "n_fallback": 2,
    "n_real": 21,
    "n_sites": 23,
    "source": "CV of NHDPlus EROM monthly flows per COMID"
   },
   "stream_order": {
    "kind": "real",
    "n_real": 23,
    "n_sites": 23,
    "source": "DEM stream-network confluence heuristic (pipeline)"
   },
   "superfund_score": {
    "kind": "real",
    "n_real": 23,
    "n_sites": 23,
    "source": "EPA DataMap SEMS active sites states=NC (non-archived, georeferenced), shipped 500 m inverse-distance curve"
   },
   "tourism_amenity_density": {
    "kind": "real",
    "n_real": 23,
    "n_sites": 23,
    "source": "OSM leisure/tourism features per 2 km radius"
   },
   "tri_facility_density": {
    "kind": "real",
    "n_real": 23,
    "n_sites": 23,
    "source": "EPA DataMap TRI open facilities states=NC (preferred decimal or packed-DMS recovery), per catchment"
   },
   "usgs_mean_q_cfs": {
    "fallback_reason": "NHDPlus EROM was unavailable or failed the drainage-area snap guard; value remains null",
    "kind": "real",
    "n_fallback": 2,
    "n_real": 21,
    "n_sites": 23,
    "source": "NHDPlus EROM qe_ma per COMID (snap-guarded)"
   },
   "velocity_feasibility": {
    "fallback_reason": "derived from the shipped 0.5 m/s velocity fallback",
    "kind": "real",
    "n_fallback": 2,
    "n_real": 21,
    "n_sites": 23,
    "source": "shipped step curve on the computed velocity"
   },
   "velocity_transport_favorability": {
    "fallback_reason": "EROM/DEM continuity input unavailable; shipped 0.5 m/s default used",
    "kind": "derived",
    "n_fallback": 2,
    "n_real": 21,
    "n_sites": 23,
    "source": "scored form of flow_velocity_ms inside the Flow family \u2014 peaked Gaussian exp(-((v-0.9)/0.6)^2), model.json curves.velocity_transport_favorability; construct: transport/delivery favorability, deliberately distinct from velocity_feasibility (device operability)"
   },
   "water_intake_score": {
    "kind": "real",
    "n_real": 23,
    "n_sites": 23,
    "source": "NC OneMap / NC DEQ SWAP public water supply sources (source_typ='Surface Water'), shipped exp(-d/10km) curve"
   }
  },
  "stream_mask": {
   "buffer_m": 150.0,
   "pre_mask": 24,
   "removed": 1,
   "sources": [
    "osm-overpass (all waterway ways)",
    "usgs-nhdplus flowlines"
   ]
  },
  "varying": [
   "beach_dist_km",
   "catchment_area_km2",
   "ej_index",
   "estuary_dist_km",
   "flood_q10_cfs",
   "flow_velocity_ms",
   "impervious_pct",
   "land_ownership",
   "npdes_points",
   "population_density",
   "protected_area_score",
   "road_access_score",
   "road_density_km_km2",
   "runoff_coeff_C",
   "seasonal_cv",
   "tourism_amenity_density",
   "usgs_mean_q_cfs",
   "velocity_feasibility",
   "water_intake_score"
  ]
 },
 "region": {
  "bbox": [
   -79.6149,
   35.1361,
   -79.5111,
   35.2209
  ],
  "beach_ref": {
   "label": "Wrightsville Beach (shipped NC reference)",
   "lat": 34.21,
   "lon": -77.79
  },
  "center": [
   -79.562976,
   35.178492
  ],
  "estuary_ref": {
   "label": "Pamlico Sound (shipped NC reference)",
   "lat": 35.05,
   "lon": -76.05
  },
  "flood_method": "sir2014_hr4",
  "name": "Foxfire, NC",
  "notes": "NC Coastal Plain (SIR 2014-5030 HR4; I24H50Y from NOAA Atlas 14 at region center)",
  "slug": "foxfire",
  "state": "NC",
  "utm_epsg": 32617,
  "width_curve": {
   "a": 2.22,
   "b": 0.363,
   "code": "APL",
   "source": "Bieger et al. 2015 JAWRA Table 3, Atlantic Plain"
  }
 },
 "type": "FeatureCollection"
}
