{
 "features": [
  {
   "geometry": {
    "coordinates": [
     -78.444641,
     36.085703
    ],
    "type": "Point"
   },
   "properties": {
    "accumulation": 28418.0,
    "bank_slope_deg": 11.04,
    "bank_slope_score": 1.0,
    "bank_slope_source": "nc-dps-lidar-dem03-cross-section",
    "beach_dist_km": 216.89,
    "bridge_proximity_bonus": 0.0,
    "catchment_area_km2": 2.8382,
    "channel_width_m": 4.81,
    "channel_width_score": 1.0,
    "composite_score": 75.9406,
    "cso_density": 0.0,
    "ej_index": 0.8415,
    "elevation_m": 92.1787,
    "estuary_dist_km": 245.3,
    "feasibility_score": 100.0,
    "flood_q10_cfs": 476.49,
    "flow_score": 45.8311,
    "flow_velocity_ms": 0.0982,
    "generation_score": 94.7097,
    "impact_score": 70.2331,
    "impervious_pct": 8.84,
    "land_ownership": 0.5,
    "lat": 36.0857,
    "litter_complaint_density": 0.0,
    "lon": -78.4446,
    "navigable_dist_m": null,
    "npdes_points": 4,
    "pixel_col": 332.0,
    "pixel_row": 415.0,
    "population_density": 111.7,
    "position_along": 0.5,
    "protected_area_score": 10.5076,
    "rank": 1,
    "road_access_m": 212.5,
    "road_access_score": 0.8,
    "road_density_km_km2": 1.21,
    "robustness_pct": 100.0,
    "runoff_coeff_C": 0.1296,
    "seasonal_cv": 0.4328,
    "segment_id": 2,
    "segment_length_m": 1525.8364,
    "stream_order": 3,
    "superfund_score": 0.0509,
    "tourism_amenity_density": 0.1592,
    "tri_facility_density": 0.0,
    "usgs_mean_q_cfs": 1.646,
    "velocity_feasibility": 0.7,
    "water_intake_score": 1.8858
   },
   "type": "Feature"
  },
  {
   "geometry": {
    "coordinates": [
     -78.437256,
     36.080591
    ],
    "type": "Point"
   },
   "properties": {
    "accumulation": 66564.0,
    "bank_slope_deg": 4.87,
    "bank_slope_score": 1.0,
    "bank_slope_source": "nc-dps-lidar-dem03-cross-section",
    "beach_dist_km": 216.16,
    "bridge_proximity_bonus": 0.0,
    "catchment_area_km2": 6.6479,
    "channel_width_m": 6.85,
    "channel_width_score": 1.0,
    "composite_score": 60.2556,
    "cso_density": 0.0,
    "ej_index": 0.8073,
    "elevation_m": 87.7093,
    "estuary_dist_km": 244.45,
    "feasibility_score": 0.0,
    "flood_q10_cfs": 848.8,
    "flow_score": 89.6561,
    "flow_velocity_ms": 0.0907,
    "generation_score": 65.2593,
    "impact_score": 60.8792,
    "impervious_pct": 5.18,
    "land_ownership": 0.5,
    "lat": 36.0806,
    "litter_complaint_density": 0.0,
    "lon": -78.4373,
    "navigable_dist_m": null,
    "npdes_points": 5,
    "pixel_col": 400.0,
    "pixel_row": 469.0,
    "population_density": 114.9,
    "position_along": 0.5,
    "protected_area_score": 10.4897,
    "rank": 2,
    "road_access_m": 610.0,
    "road_access_score": 0.6,
    "road_density_km_km2": 0.457,
    "robustness_pct": 100.0,
    "runoff_coeff_C": 0.0966,
    "seasonal_cv": 0.4184,
    "segment_id": 4,
    "segment_length_m": 559.7639,
    "stream_order": 3,
    "superfund_score": 0.0269,
    "tourism_amenity_density": 0.0796,
    "tri_facility_density": 0.0,
    "usgs_mean_q_cfs": 4.178,
    "velocity_feasibility": 0.7,
    "water_intake_score": 1.7878
   },
   "type": "Feature"
  },
  {
   "geometry": {
    "coordinates": [
     -78.438116,
     36.085585
    ],
    "type": "Point"
   },
   "properties": {
    "accumulation": 30253.0,
    "bank_slope_deg": 1.41,
    "bank_slope_score": 1.0,
    "bank_slope_source": "nc-dps-lidar-dem03-cross-section",
    "beach_dist_km": 216.72,
    "bridge_proximity_bonus": 0.0,
    "catchment_area_km2": 3.0214,
    "channel_width_m": 4.94,
    "channel_width_score": 1.0,
    "composite_score": 45.6515,
    "cso_density": 0.0,
    "ej_index": 0.8415,
    "elevation_m": 90.6448,
    "estuary_dist_km": 244.77,
    "feasibility_score": 0.0,
    "flood_q10_cfs": 463.54,
    "flow_score": 25.6922,
    "flow_velocity_ms": 0.081,
    "generation_score": 67.2647,
    "impact_score": 63.4966,
    "impervious_pct": 4.57,
    "land_ownership": 0.5,
    "lat": 36.0856,
    "litter_complaint_density": 0.0,
    "lon": -78.4381,
    "navigable_dist_m": null,
    "npdes_points": 5,
    "pixel_col": 389.0,
    "pixel_row": 415.0,
    "population_density": 111.7,
    "position_along": 0.5,
    "protected_area_score": 10.395,
    "rank": 3,
    "road_access_m": 701.2,
    "road_access_score": 0.6,
    "road_density_km_km2": 0.742,
    "robustness_pct": 100.0,
    "runoff_coeff_C": 0.0911,
    "seasonal_cv": 0.4335,
    "segment_id": 3,
    "segment_length_m": 767.2048,
    "stream_order": 3,
    "superfund_score": 0.0372,
    "tourism_amenity_density": 0.0796,
    "tri_facility_density": 0.0,
    "usgs_mean_q_cfs": 1.607,
    "velocity_feasibility": 0.7,
    "water_intake_score": 1.8248
   },
   "type": "Feature"
  },
  {
   "geometry": {
    "coordinates": [
     -78.470332,
     36.115635
    ],
    "type": "Point"
   },
   "properties": {
    "accumulation": 32541.0,
    "bank_slope_deg": 2.7,
    "bank_slope_score": 1.0,
    "bank_slope_source": "nc-dps-lidar-dem03-cross-section",
    "beach_dist_km": 220.74,
    "bridge_proximity_bonus": 0.0,
    "catchment_area_km2": 3.2499,
    "channel_width_m": 5.09,
    "channel_width_score": 1.0,
    "composite_score": 32.4203,
    "cso_density": 0.0,
    "ej_index": 0.3798,
    "elevation_m": 86.0596,
    "estuary_dist_km": 248.88,
    "feasibility_score": 0.0,
    "flood_q10_cfs": 502.65,
    "flow_score": 42.0666,
    "flow_velocity_ms": 0.0981,
    "generation_score": 30.5556,
    "impact_score": 42.4567,
    "impervious_pct": 6.06,
    "land_ownership": 0.5,
    "lat": 36.1156,
    "litter_complaint_density": 0.0,
    "lon": -78.4703,
    "navigable_dist_m": null,
    "npdes_points": 0,
    "pixel_col": 90.0,
    "pixel_row": 85.0,
    "population_density": 51.3,
    "position_along": 0.5,
    "protected_area_score": 8.3256,
    "rank": 4,
    "road_access_m": 719.6,
    "road_access_score": 0.6,
    "road_density_km_km2": 0.755,
    "robustness_pct": 100.0,
    "runoff_coeff_C": 0.1045,
    "seasonal_cv": 0.4261,
    "segment_id": 1,
    "segment_length_m": 1696.0219,
    "stream_order": 1,
    "superfund_score": 0.0654,
    "tourism_amenity_density": 0.557,
    "tri_facility_density": 0.0,
    "usgs_mean_q_cfs": 2.464,
    "velocity_feasibility": 0.7,
    "water_intake_score": 2.1172
   },
   "type": "Feature"
  },
  {
   "geometry": {
    "coordinates": [
     -78.434463,
     36.120523
    ],
    "type": "Point"
   },
   "properties": {
    "accumulation": 21159.0,
    "bank_slope_deg": 1.53,
    "bank_slope_score": 1.0,
    "bank_slope_source": "nc-dps-lidar-dem03-cross-section",
    "beach_dist_km": 220.37,
    "bridge_proximity_bonus": 0.0,
    "catchment_area_km2": 2.1132,
    "channel_width_m": 4.26,
    "channel_width_score": 1.0,
    "composite_score": 27.7449,
    "cso_density": 0.0,
    "ej_index": 0.7561,
    "elevation_m": 87.0922,
    "estuary_dist_km": 246.29,
    "feasibility_score": 100.0,
    "flood_q10_cfs": 339.02,
    "flow_score": 11.5385,
    "flow_velocity_ms": 0.0935,
    "generation_score": 3.9177,
    "impact_score": 28.9498,
    "impervious_pct": 2.09,
    "land_ownership": 0.5,
    "lat": 36.1205,
    "litter_complaint_density": 0.0,
    "lon": -78.4345,
    "navigable_dist_m": null,
    "npdes_points": 0,
    "pixel_col": 413.0,
    "pixel_row": 25.0,
    "population_density": 40.5,
    "position_along": 0.5,
    "protected_area_score": 7.9298,
    "rank": 5,
    "road_access_m": 282.9,
    "road_access_score": 0.8,
    "road_density_km_km2": 0.634,
    "robustness_pct": 100.0,
    "runoff_coeff_C": 0.0688,
    "seasonal_cv": 0.4363,
    "segment_id": 0,
    "segment_length_m": 609.0217,
    "stream_order": 1,
    "superfund_score": 0.0275,
    "tourism_amenity_density": 0.3183,
    "tri_facility_density": 0.0,
    "usgs_mean_q_cfs": 1.497,
    "velocity_feasibility": 0.7,
    "water_intake_score": 1.7489
   },
   "type": "Feature"
  }
 ],
 "note": "GRIME region 'Franklinton, NC' \u2014 real-data pipeline (DEM\u2192streams\u2192candidates\u2192stream mask (sites confined to \u00b1150 m of mapped OSM/NHD waterways)\u2192region-appropriate real parameters\u2192shipped scoring, math unchanged). Width curve: Bieger et al. 2015 JAWRA Table 3, Appalachian Highlands. Flood: SIR 2014-5030 HR1. NC Piedmont (DEQ physiography polygon)",
 "provenance": {
  "candidates_pre_gate": 5,
  "constant": [
   "bank_slope_score",
   "bridge_proximity_bonus",
   "channel_width_score",
   "cso_density",
   "land_ownership",
   "litter_complaint_density",
   "tri_facility_density",
   "velocity_feasibility"
  ],
  "gated_navigable": 0,
  "hard_gate_removed": 0,
  "n_parameters": 27,
  "parameters": {
   "bank_slope_score": {
    "kind": "real",
    "n_3dep_10m_fallback": 0,
    "n_nc_lidar_3_125ft": 5,
    "n_real": 5,
    "n_sites": 5,
    "source": "NC OneMap / NC DPS DEM03 statewide lidar-derived 3.125-ft (0.953 m) elevations (perpendicular 50 m transect; robust 5 m bank-rise metric); unavailable profiles use the region 10 m 3DEP DEM-gradient fallback",
    "source_mosaics": [
     "Franklin_Ground_3ft"
    ]
   },
   "beach_dist_km": {
    "kind": "real",
    "n_real": 5,
    "n_sites": 5,
    "source": "haversine to region ref: Wrightsville Beach (shipped NC reference)"
   },
   "bridge_proximity_bonus": {
    "kind": "real",
    "n_real": 5,
    "n_sites": 5,
    "source": "FHWA/BTS NBI (NTAD), 50 m proximity"
   },
   "catchment_area_km2": {
    "kind": "real",
    "n_real": 5,
    "n_sites": 5,
    "source": "DEM flow accumulation (pipeline)"
   },
   "channel_width_score": {
    "kind": "real",
    "n_real": 5,
    "n_sites": 5,
    "source": "Bieger 2015 AHI width curve on DEM drainage area \u2192 shipped width curve"
   },
   "cso_density": {
    "kind": "real",
    "n_real": 5,
    "n_sites": 5,
    "source": "EPA ECHO open CSO/TCS outfall PF coordinates states=NC, Cauchy proximity"
   },
   "ej_index": {
    "kind": "real",
    "n_real": 5,
    "n_sites": 5,
    "source": "Census ACS C17002+B03002 two-component demographic index, percentile-ranked within region"
   },
   "estuary_dist_km": {
    "kind": "real",
    "n_real": 5,
    "n_sites": 5,
    "source": "haversine to region ref: Pamlico Sound (shipped NC reference)"
   },
   "flood_q10_cfs": {
    "kind": "real",
    "n_real": 5,
    "n_sites": 5,
    "source": "USGS SIR 2014-5030 Table 7 HR1 (NC Piedmont)"
   },
   "flow_velocity_ms": {
    "kind": "real",
    "n_fallback": 0,
    "n_real": 5,
    "n_sites": 5,
    "source": "Manning (region DEM/D8) blended with EROM continuity (shipped M4 logic)"
   },
   "impervious_pct": {
    "kind": "real",
    "n_real": 5,
    "n_sites": 5,
    "source": "EPA StreamCat pctimp2019 (per NHDPlus watershed)"
   },
   "land_ownership": {
    "kind": "real",
    "n_fallback": 0,
    "n_real": 5,
    "n_sites": 5,
    "source": "NC OneMap statewide parcels (NC Parcels Transformer) ownname"
   },
   "litter_complaint_density": {
    "kind": "fallback",
    "n_real": 0,
    "n_sites": 5,
    "source": "no public machine-readable litter/illegal-dumping feed for this region"
   },
   "navigable_dist_m": {
    "kind": "real",
    "n_real": 5,
    "n_sites": 5,
    "source": "USACE/BTS NWN (NTAD): no navigable segment within this bbox (+2 km) \u2014 computed absence, gate passes all sites"
   },
   "npdes_points": {
    "kind": "real",
    "n_real": 5,
    "n_sites": 5,
    "source": "EPA ECHO active NPDES outfalls states=NC (types NPD/GPC/NGP; statuses ADC/EFF/EXP), per catchment"
   },
   "population_density": {
    "kind": "real",
    "n_real": 5,
    "n_sites": 5,
    "source": "Census ACS 2022 B01003 block groups (bbox, multi-county), area-weighted"
   },
   "protected_area_score": {
    "kind": "real",
    "n_real": 5,
    "n_sites": 5,
    "source": "USGS PAD-US 4.1 state GDB; states=NC; shipped designation-weighted proximity curve"
   },
   "road_access_score": {
    "kind": "real",
    "n_real": 5,
    "n_sites": 5,
    "source": "OSM drive network nearest-node distance"
   },
   "road_density_km_km2": {
    "kind": "real",
    "n_real": 5,
    "n_sites": 5,
    "source": "OSM drive network (osmnx, cached) clipped per catchment"
   },
   "runoff_coeff_C": {
    "kind": "real",
    "n_real": 5,
    "n_sites": 5,
    "source": "derived from real impervious_pct (C=0.05+0.009*I)"
   },
   "seasonal_cv": {
    "kind": "real",
    "n_real": 5,
    "n_sites": 5,
    "source": "CV of NHDPlus EROM monthly flows per COMID"
   },
   "stream_order": {
    "kind": "real",
    "n_real": 5,
    "n_sites": 5,
    "source": "DEM stream-network confluence heuristic (pipeline)"
   },
   "superfund_score": {
    "kind": "real",
    "n_real": 5,
    "n_sites": 5,
    "source": "EPA DataMap SEMS active sites states=NC (non-archived, georeferenced), shipped 500 m inverse-distance curve"
   },
   "tourism_amenity_density": {
    "kind": "real",
    "n_real": 5,
    "n_sites": 5,
    "source": "OSM leisure/tourism features per 2 km radius"
   },
   "tri_facility_density": {
    "kind": "real",
    "n_real": 5,
    "n_sites": 5,
    "source": "EPA DataMap TRI open facilities states=NC (preferred decimal or packed-DMS recovery), per catchment"
   },
   "usgs_mean_q_cfs": {
    "kind": "real",
    "n_real": 5,
    "n_sites": 5,
    "source": "NHDPlus EROM qe_ma per COMID (snap-guarded)"
   },
   "velocity_feasibility": {
    "kind": "real",
    "n_fallback": 0,
    "n_real": 5,
    "n_sites": 5,
    "source": "shipped step curve on the computed velocity"
   },
   "velocity_transport_favorability": {
    "kind": "derived",
    "n_real": 5,
    "n_sites": 5,
    "source": "scored form of flow_velocity_ms inside the Flow family \u2014 peaked Gaussian exp(-((v-0.9)/0.6)^2), model.json curves.velocity_transport_favorability; construct: transport/delivery favorability, deliberately distinct from velocity_feasibility (device operability)"
   },
   "water_intake_score": {
    "kind": "real",
    "n_real": 5,
    "n_sites": 5,
    "source": "NC OneMap / NC DEQ SWAP public water supply sources (source_typ='Surface Water'), shipped exp(-d/10km) curve"
   }
  },
  "stream_mask": {
   "buffer_m": 150.0,
   "pre_mask": 5,
   "removed": 0,
   "sources": [
    "osm-overpass (all waterway ways)",
    "usgs-nhdplus flowlines"
   ]
  },
  "varying": [
   "beach_dist_km",
   "catchment_area_km2",
   "ej_index",
   "estuary_dist_km",
   "flood_q10_cfs",
   "flow_velocity_ms",
   "impervious_pct",
   "npdes_points",
   "population_density",
   "protected_area_score",
   "road_access_score",
   "road_density_km_km2",
   "runoff_coeff_C",
   "seasonal_cv",
   "stream_order",
   "superfund_score",
   "tourism_amenity_density",
   "usgs_mean_q_cfs",
   "water_intake_score"
  ]
 },
 "region": {
  "bbox": [
   -78.4801,
   36.0791,
   -78.4263,
   36.1226
  ],
  "beach_ref": {
   "label": "Wrightsville Beach (shipped NC reference)",
   "lat": 34.21,
   "lon": -77.79
  },
  "center": [
   -78.453199,
   36.100829
  ],
  "estuary_ref": {
   "label": "Pamlico Sound (shipped NC reference)",
   "lat": 35.05,
   "lon": -76.05
  },
  "flood_method": "sir2014_hr1",
  "name": "Franklinton, NC",
  "notes": "NC Piedmont (DEQ physiography polygon)",
  "slug": "franklinton",
  "state": "NC",
  "utm_epsg": 32617,
  "width_curve": {
   "a": 3.12,
   "b": 0.415,
   "code": "AHI",
   "source": "Bieger et al. 2015 JAWRA Table 3, Appalachian Highlands"
  }
 },
 "type": "FeatureCollection"
}
