{
 "features": [
  {
   "geometry": {
    "coordinates": [
     -83.371561,
     35.186576
    ],
    "type": "Point"
   },
   "properties": {
    "accumulation": 21913.0,
    "bank_slope_deg": 2.68,
    "bank_slope_score": 1.0,
    "bank_slope_source": "nc-dps-lidar-dem03-cross-section",
    "beach_dist_km": 521.62,
    "bridge_proximity_bonus": 0.0,
    "catchment_area_km2": 2.19,
    "channel_width_m": 4.32,
    "channel_width_score": 1.0,
    "composite_score": 59.4414,
    "cso_density": 0.0,
    "ej_index": 0.6608,
    "elevation_m": 613.5527,
    "estuary_dist_km": 665.95,
    "feasibility_score": 68.75,
    "flood_q10_cfs": null,
    "flow_score": 46.5595,
    "flow_velocity_ms": 0.5,
    "generation_score": 58.9744,
    "impact_score": 65.9892,
    "impervious_pct": null,
    "land_ownership": 0.5,
    "lat": 35.1866,
    "litter_complaint_density": 0.0,
    "lon": -83.3716,
    "navigable_dist_m": null,
    "npdes_points": 0,
    "pixel_col": 489.0,
    "pixel_row": 327.0,
    "population_density": 278.7,
    "position_along": 0.5,
    "protected_area_score": 13.6122,
    "rank": 1,
    "road_access_m": 35.0,
    "road_access_score": 1.0,
    "road_density_km_km2": 8.895,
    "robustness_pct": 100.0,
    "runoff_coeff_C": null,
    "seasonal_cv": null,
    "segment_id": 4,
    "segment_length_m": 128.9559,
    "stream_order": 3,
    "superfund_score": 0.0,
    "tourism_amenity_density": 2.8648,
    "tri_facility_density": 0.4566,
    "usgs_mean_q_cfs": null,
    "velocity_feasibility": 1.0,
    "water_intake_score": 1.342
   },
   "type": "Feature"
  },
  {
   "geometry": {
    "coordinates": [
     -83.377744,
     35.180697
    ],
    "type": "Point"
   },
   "properties": {
    "accumulation": 55959.0,
    "bank_slope_deg": 12.63,
    "bank_slope_score": 1.0,
    "bank_slope_source": "nc-dps-lidar-dem03-cross-section",
    "beach_dist_km": 522.05,
    "bridge_proximity_bonus": 0.0,
    "catchment_area_km2": 5.5925,
    "channel_width_m": 6.37,
    "channel_width_score": 1.0,
    "composite_score": 55.8743,
    "cso_density": 0.0,
    "ej_index": 0.5193,
    "elevation_m": 614.735,
    "estuary_dist_km": 666.52,
    "feasibility_score": 43.75,
    "flood_q10_cfs": null,
    "flow_score": 32.8755,
    "flow_velocity_ms": 0.0528,
    "generation_score": 75.5233,
    "impact_score": 61.453,
    "impervious_pct": 14.53,
    "land_ownership": 0.5,
    "lat": 35.1807,
    "litter_complaint_density": 0.0,
    "lon": -83.3777,
    "navigable_dist_m": null,
    "npdes_points": 3,
    "pixel_col": 433.0,
    "pixel_row": 387.0,
    "population_density": 264.2,
    "position_along": 0.75,
    "protected_area_score": 13.7695,
    "rank": 2,
    "road_access_m": 63.0,
    "road_access_score": 1.0,
    "road_density_km_km2": 8.771,
    "robustness_pct": 86.0,
    "runoff_coeff_C": 0.1808,
    "seasonal_cv": 0.5331,
    "segment_id": 5,
    "segment_length_m": 3923.2694,
    "stream_order": 3,
    "superfund_score": 0.0,
    "tourism_amenity_density": 2.5465,
    "tri_facility_density": 0.1788,
    "usgs_mean_q_cfs": 4.608,
    "velocity_feasibility": 0.7,
    "water_intake_score": 1.3664
   },
   "type": "Feature"
  },
  {
   "geometry": {
    "coordinates": [
     -83.371176,
     35.176583
    ],
    "type": "Point"
   },
   "properties": {
    "accumulation": 216017.0,
    "bank_slope_deg": 4.94,
    "bank_slope_score": 1.0,
    "bank_slope_source": "nc-dps-lidar-dem03-cross-section",
    "beach_dist_km": 521.38,
    "bridge_proximity_bonus": 0.0,
    "catchment_area_km2": 21.5886,
    "channel_width_m": 11.16,
    "channel_width_score": 1.0,
    "composite_score": 54.752,
    "cso_density": 0.0,
    "ej_index": 0.5322,
    "elevation_m": 609.6738,
    "estuary_dist_km": 665.93,
    "feasibility_score": 37.5,
    "flood_q10_cfs": null,
    "flow_score": 67.4419,
    "flow_velocity_ms": 0.5,
    "generation_score": 41.1162,
    "impact_score": 66.439,
    "impervious_pct": null,
    "land_ownership": 0.5,
    "lat": 35.1766,
    "litter_complaint_density": 0.0,
    "lon": -83.3712,
    "navigable_dist_m": null,
    "npdes_points": 7,
    "pixel_col": 490.0,
    "pixel_row": 434.0,
    "population_density": 164.7,
    "position_along": 0.5,
    "protected_area_score": 13.7392,
    "rank": 3,
    "road_access_m": 211.4,
    "road_access_score": 0.8,
    "road_density_km_km2": 6.93,
    "robustness_pct": 91.0,
    "runoff_coeff_C": null,
    "seasonal_cv": null,
    "segment_id": 16,
    "segment_length_m": 313.0423,
    "stream_order": 3,
    "superfund_score": 0.0,
    "tourism_amenity_density": 2.8648,
    "tri_facility_density": 0.0926,
    "usgs_mean_q_cfs": null,
    "velocity_feasibility": 1.0,
    "water_intake_score": 1.3731
   },
   "type": "Feature"
  },
  {
   "geometry": {
    "coordinates": [
     -83.365283,
     35.170178
    ],
    "type": "Point"
   },
   "properties": {
    "accumulation": 91847.0,
    "bank_slope_deg": 21.97,
    "bank_slope_score": 0.5,
    "bank_slope_source": "nc-dps-lidar-dem03-cross-section",
    "beach_dist_km": 520.73,
    "bridge_proximity_bonus": 0.2,
    "catchment_area_km2": 9.1791,
    "channel_width_m": 7.83,
    "channel_width_score": 1.0,
    "composite_score": 52.8051,
    "cso_density": 0.0,
    "ej_index": 0.4962,
    "elevation_m": 609.7686,
    "estuary_dist_km": 665.4,
    "feasibility_score": 68.75,
    "flood_q10_cfs": null,
    "flow_score": 54.0832,
    "flow_velocity_ms": 0.5,
    "generation_score": 31.0396,
    "impact_score": 65.5329,
    "impervious_pct": null,
    "land_ownership": 0.5,
    "lat": 35.1702,
    "litter_complaint_density": 0.0,
    "lon": -83.3653,
    "navigable_dist_m": null,
    "npdes_points": 4,
    "pixel_col": 543.0,
    "pixel_row": 507.0,
    "population_density": 128.8,
    "position_along": 0.5,
    "protected_area_score": 13.485,
    "rank": 4,
    "road_access_m": 101.0,
    "road_access_score": 1.0,
    "road_density_km_km2": 6.502,
    "robustness_pct": 75.5,
    "runoff_coeff_C": null,
    "seasonal_cv": null,
    "segment_id": 11,
    "segment_length_m": 1692.8683,
    "stream_order": 3,
    "superfund_score": 0.0,
    "tourism_amenity_density": 2.6261,
    "tri_facility_density": 0.1089,
    "usgs_mean_q_cfs": null,
    "velocity_feasibility": 1.0,
    "water_intake_score": 1.38
   },
   "type": "Feature"
  },
  {
   "geometry": {
    "coordinates": [
     -83.380747,
     35.190571
    ],
    "type": "Point"
   },
   "properties": {
    "accumulation": 97758.0,
    "bank_slope_deg": 8.45,
    "bank_slope_score": 1.0,
    "bank_slope_source": "nc-dps-lidar-dem03-cross-section",
    "beach_dist_km": 522.52,
    "bridge_proximity_bonus": 0.0,
    "catchment_area_km2": 9.7699,
    "channel_width_m": 8.03,
    "channel_width_score": 1.0,
    "composite_score": 52.6199,
    "cso_density": 0.0,
    "ej_index": 0.6171,
    "elevation_m": 609.5956,
    "estuary_dist_km": 666.78,
    "feasibility_score": 68.75,
    "flood_q10_cfs": null,
    "flow_score": 54.7192,
    "flow_velocity_ms": 0.5,
    "generation_score": 38.7308,
    "impact_score": 56.6945,
    "impervious_pct": null,
    "land_ownership": 0.5,
    "lat": 35.1906,
    "litter_complaint_density": 0.0,
    "lon": -83.3807,
    "navigable_dist_m": null,
    "npdes_points": 2,
    "pixel_col": 405.0,
    "pixel_row": 277.0,
    "population_density": 249.2,
    "position_along": 0.5,
    "protected_area_score": 13.4851,
    "rank": 5,
    "road_access_m": 121.9,
    "road_access_score": 1.0,
    "road_density_km_km2": 6.886,
    "robustness_pct": 94.5,
    "runoff_coeff_C": null,
    "seasonal_cv": null,
    "segment_id": 6,
    "segment_length_m": 2017.3285,
    "stream_order": 3,
    "superfund_score": 0.0,
    "tourism_amenity_density": 2.3873,
    "tri_facility_density": 0.1024,
    "usgs_mean_q_cfs": null,
    "velocity_feasibility": 1.0,
    "water_intake_score": 1.3332
   },
   "type": "Feature"
  },
  {
   "geometry": {
    "coordinates": [
     -83.393738,
     35.177722
    ],
    "type": "Point"
   },
   "properties": {
    "accumulation": 35421.0,
    "bank_slope_deg": 3.03,
    "bank_slope_score": 1.0,
    "bank_slope_source": "nc-dps-lidar-dem03-cross-section",
    "beach_dist_km": 523.42,
    "bridge_proximity_bonus": 0.0,
    "catchment_area_km2": 3.54,
    "channel_width_m": 5.27,
    "channel_width_score": 1.0,
    "composite_score": 50.3053,
    "cso_density": 0.0,
    "ej_index": 0.6793,
    "elevation_m": 626.5415,
    "estuary_dist_km": 667.98,
    "feasibility_score": 43.75,
    "flood_q10_cfs": null,
    "flow_score": 33.4357,
    "flow_velocity_ms": 0.152,
    "generation_score": 62.5956,
    "impact_score": 55.3508,
    "impervious_pct": 14.53,
    "land_ownership": 0.5,
    "lat": 35.1777,
    "litter_complaint_density": 0.0,
    "lon": -83.3937,
    "navigable_dist_m": null,
    "npdes_points": 4,
    "pixel_col": 287.0,
    "pixel_row": 419.0,
    "population_density": 202.3,
    "position_along": 0.25,
    "protected_area_score": 13.088,
    "rank": 6,
    "road_access_m": 41.7,
    "road_access_score": 1.0,
    "road_density_km_km2": 8.726,
    "robustness_pct": 37.5,
    "runoff_coeff_C": 0.1808,
    "seasonal_cv": 0.5331,
    "segment_id": 5,
    "segment_length_m": 3923.2694,
    "stream_order": 3,
    "superfund_score": 0.0,
    "tourism_amenity_density": 2.1486,
    "tri_facility_density": 0.0,
    "usgs_mean_q_cfs": 4.608,
    "velocity_feasibility": 0.7,
    "water_intake_score": 1.4007
   },
   "type": "Feature"
  },
  {
   "geometry": {
    "coordinates": [
     -83.377369,
     35.166012
    ],
    "type": "Point"
   },
   "properties": {
    "accumulation": 85636.0,
    "bank_slope_deg": 20.76,
    "bank_slope_score": 0.5,
    "bank_slope_source": "nc-dps-lidar-dem03-cross-section",
    "beach_dist_km": 521.73,
    "bridge_proximity_bonus": 0.0,
    "catchment_area_km2": 8.5584,
    "channel_width_m": 7.6,
    "channel_width_score": 1.0,
    "composite_score": 48.2474,
    "cso_density": 0.0,
    "ej_index": 0.4352,
    "elevation_m": 610.6183,
    "estuary_dist_km": 666.51,
    "feasibility_score": 56.25,
    "flood_q10_cfs": null,
    "flow_score": 53.415,
    "flow_velocity_ms": 0.5,
    "generation_score": 32.2456,
    "impact_score": 55.9415,
    "impervious_pct": null,
    "land_ownership": 0.5,
    "lat": 35.166,
    "litter_complaint_density": 0.0,
    "lon": -83.3774,
    "navigable_dist_m": null,
    "npdes_points": 4,
    "pixel_col": 429.0,
    "pixel_row": 551.0,
    "population_density": 141.3,
    "position_along": 0.5,
    "protected_area_score": 13.3023,
    "rank": 7,
    "road_access_m": 195.5,
    "road_access_score": 1.0,
    "road_density_km_km2": 6.292,
    "robustness_pct": 15.5,
    "runoff_coeff_C": null,
    "seasonal_cv": null,
    "segment_id": 15,
    "segment_length_m": 2876.1853,
    "stream_order": 3,
    "superfund_score": 0.0,
    "tourism_amenity_density": 1.9894,
    "tri_facility_density": 0.1168,
    "usgs_mean_q_cfs": null,
    "velocity_feasibility": 1.0,
    "water_intake_score": 1.3964
   },
   "type": "Feature"
  },
  {
   "geometry": {
    "coordinates": [
     -83.407212,
     35.159712
    ],
    "type": "Point"
   },
   "properties": {
    "accumulation": 72110.0,
    "bank_slope_deg": 20.74,
    "bank_slope_score": 0.5,
    "bank_slope_source": "nc-dps-lidar-dem03-cross-section",
    "beach_dist_km": 524.28,
    "bridge_proximity_bonus": 0.0,
    "catchment_area_km2": 7.2066,
    "channel_width_m": 7.08,
    "channel_width_score": 1.0,
    "composite_score": 43.3551,
    "cso_density": 0.0,
    "ej_index": 0.8789,
    "elevation_m": 619.3342,
    "estuary_dist_km": 669.24,
    "feasibility_score": 56.25,
    "flood_q10_cfs": null,
    "flow_score": 51.9598,
    "flow_velocity_ms": 0.5,
    "generation_score": 26.0301,
    "impact_score": 47.062,
    "impervious_pct": null,
    "land_ownership": 0.5,
    "lat": 35.1597,
    "litter_complaint_density": 0.0,
    "lon": -83.4072,
    "navigable_dist_m": null,
    "npdes_points": 5,
    "pixel_col": 160.0,
    "pixel_row": 617.0,
    "population_density": 134.4,
    "position_along": 0.5,
    "protected_area_score": 12.0055,
    "rank": 8,
    "road_access_m": 180.6,
    "road_access_score": 1.0,
    "road_density_km_km2": 5.338,
    "robustness_pct": 0.0,
    "runoff_coeff_C": null,
    "seasonal_cv": null,
    "segment_id": 13,
    "segment_length_m": 417.1529,
    "stream_order": 3,
    "superfund_score": 0.0,
    "tourism_amenity_density": 0.3979,
    "tri_facility_density": 0.0,
    "usgs_mean_q_cfs": null,
    "velocity_feasibility": 1.0,
    "water_intake_score": 1.4759
   },
   "type": "Feature"
  },
  {
   "geometry": {
    "coordinates": [
     -83.384254,
     35.156264
    ],
    "type": "Point"
   },
   "properties": {
    "accumulation": 47499.0,
    "bank_slope_deg": 12.29,
    "bank_slope_score": 1.0,
    "bank_slope_source": "nc-dps-lidar-dem03-cross-section",
    "beach_dist_km": 522.15,
    "bridge_proximity_bonus": 0.0,
    "catchment_area_km2": 4.747,
    "channel_width_m": 5.95,
    "channel_width_score": 1.0,
    "composite_score": 39.8393,
    "cso_density": 0.0,
    "ej_index": 0.359,
    "elevation_m": 612.7429,
    "estuary_dist_km": 667.16,
    "feasibility_score": 68.75,
    "flood_q10_cfs": null,
    "flow_score": 49.3121,
    "flow_velocity_ms": 0.5,
    "generation_score": 17.0693,
    "impact_score": 40.2601,
    "impervious_pct": null,
    "land_ownership": 0.5,
    "lat": 35.1563,
    "litter_complaint_density": 0.0,
    "lon": -83.3843,
    "navigable_dist_m": null,
    "npdes_points": 2,
    "pixel_col": 367.0,
    "pixel_row": 661.0,
    "population_density": 127.4,
    "position_along": 0.75,
    "protected_area_score": 12.6831,
    "rank": 9,
    "road_access_m": 97.7,
    "road_access_score": 1.0,
    "road_density_km_km2": 4.463,
    "robustness_pct": 0.0,
    "runoff_coeff_C": null,
    "seasonal_cv": null,
    "segment_id": 9,
    "segment_length_m": 3463.8753,
    "stream_order": 3,
    "superfund_score": 0.0,
    "tourism_amenity_density": 0.2387,
    "tri_facility_density": 0.0,
    "usgs_mean_q_cfs": null,
    "velocity_feasibility": 1.0,
    "water_intake_score": 1.4144
   },
   "type": "Feature"
  },
  {
   "geometry": {
    "coordinates": [
     -83.389286,
     35.156067
    ],
    "type": "Point"
   },
   "properties": {
    "accumulation": 29911.0,
    "bank_slope_deg": 26.98,
    "bank_slope_score": 0.5,
    "bank_slope_source": "nc-dps-lidar-dem03-cross-section",
    "beach_dist_km": 522.6,
    "bridge_proximity_bonus": 0.0,
    "catchment_area_km2": 2.9893,
    "channel_width_m": 4.91,
    "channel_width_score": 1.0,
    "composite_score": 36.9079,
    "cso_density": 0.0,
    "ej_index": 0.4162,
    "elevation_m": 614.741,
    "estuary_dist_km": 667.61,
    "feasibility_score": 56.25,
    "flood_q10_cfs": null,
    "flow_score": 47.42,
    "flow_velocity_ms": 0.5,
    "generation_score": 15.7175,
    "impact_score": 39.6672,
    "impervious_pct": null,
    "land_ownership": 0.5,
    "lat": 35.1561,
    "litter_complaint_density": 0.0,
    "lon": -83.3893,
    "navigable_dist_m": null,
    "npdes_points": 1,
    "pixel_col": 322.0,
    "pixel_row": 662.0,
    "population_density": 133.0,
    "position_along": 0.25,
    "protected_area_score": 12.5769,
    "rank": 10,
    "road_access_m": 186.5,
    "road_access_score": 1.0,
    "road_density_km_km2": 4.62,
    "robustness_pct": 0.0,
    "runoff_coeff_C": null,
    "seasonal_cv": null,
    "segment_id": 9,
    "segment_length_m": 3463.8753,
    "stream_order": 3,
    "superfund_score": 0.0,
    "tourism_amenity_density": 0.2387,
    "tri_facility_density": 0.0,
    "usgs_mean_q_cfs": null,
    "velocity_feasibility": 1.0,
    "water_intake_score": 1.4217
   },
   "type": "Feature"
  },
  {
   "geometry": {
    "coordinates": [
     -83.350902,
     35.165798
    ],
    "type": "Point"
   },
   "properties": {
    "accumulation": 37350.0,
    "bank_slope_deg": 11.71,
    "bank_slope_score": 1.0,
    "bank_slope_source": "nc-dps-lidar-dem03-cross-section",
    "beach_dist_km": 519.35,
    "bridge_proximity_bonus": 0.0,
    "catchment_area_km2": 3.7327,
    "channel_width_m": 5.39,
    "channel_width_score": 1.0,
    "composite_score": 35.7027,
    "cso_density": 0.0,
    "ej_index": 0.3882,
    "elevation_m": 611.5685,
    "estuary_dist_km": 664.11,
    "feasibility_score": 37.5,
    "flood_q10_cfs": null,
    "flow_score": 48.2202,
    "flow_velocity_ms": 0.5,
    "generation_score": 4.5624,
    "impact_score": 55.513,
    "impervious_pct": null,
    "land_ownership": 0.5,
    "lat": 35.1658,
    "litter_complaint_density": 0.0,
    "lon": -83.3509,
    "navigable_dist_m": null,
    "npdes_points": 0,
    "pixel_col": 674.0,
    "pixel_row": 562.0,
    "population_density": 40.7,
    "position_along": 0.5,
    "protected_area_score": 12.7941,
    "rank": 11,
    "road_access_m": 326.6,
    "road_access_score": 0.8,
    "road_density_km_km2": 4.616,
    "robustness_pct": 0.0,
    "runoff_coeff_C": null,
    "seasonal_cv": null,
    "segment_id": 7,
    "segment_length_m": 2853.0552,
    "stream_order": 3,
    "superfund_score": 0.0,
    "tourism_amenity_density": 0.557,
    "tri_facility_density": 0.0,
    "usgs_mean_q_cfs": null,
    "velocity_feasibility": 1.0,
    "water_intake_score": 1.3938
   },
   "type": "Feature"
  },
  {
   "geometry": {
    "coordinates": [
     -83.412305,
     35.162868
    ],
    "type": "Point"
   },
   "properties": {
    "accumulation": 32014.0,
    "bank_slope_deg": 16.71,
    "bank_slope_score": 0.5,
    "bank_slope_source": "nc-dps-lidar-dem03-cross-section",
    "beach_dist_km": 524.79,
    "bridge_proximity_bonus": 0.0,
    "catchment_area_km2": 3.1995,
    "channel_width_m": 5.06,
    "channel_width_score": 1.0,
    "composite_score": 34.6333,
    "cso_density": 0.0,
    "ej_index": 0.8997,
    "elevation_m": 622.5411,
    "estuary_dist_km": 669.69,
    "feasibility_score": 31.25,
    "flood_q10_cfs": null,
    "flow_score": 31.3153,
    "flow_velocity_ms": 0.1082,
    "generation_score": 27.4077,
    "impact_score": 46.3157,
    "impervious_pct": 2.35,
    "land_ownership": 0.5,
    "lat": 35.1629,
    "litter_complaint_density": 0.0,
    "lon": -83.4123,
    "navigable_dist_m": null,
    "npdes_points": 3,
    "pixel_col": 114.0,
    "pixel_row": 581.0,
    "population_density": 153.6,
    "position_along": 0.5,
    "protected_area_score": 11.9029,
    "rank": 12,
    "road_access_m": 197.0,
    "road_access_score": 1.0,
    "road_density_km_km2": 5.216,
    "robustness_pct": 0.0,
    "runoff_coeff_C": 0.0712,
    "seasonal_cv": 0.4899,
    "segment_id": 8,
    "segment_length_m": 1155.0413,
    "stream_order": 3,
    "superfund_score": 0.0,
    "tourism_amenity_density": 0.3979,
    "tri_facility_density": 0.0,
    "usgs_mean_q_cfs": 6.841,
    "velocity_feasibility": 0.7,
    "water_intake_score": 1.4953
   },
   "type": "Feature"
  },
  {
   "geometry": {
    "coordinates": [
     -83.385598,
     35.198492
    ],
    "type": "Point"
   },
   "properties": {
    "accumulation": 21468.0,
    "bank_slope_deg": 5.42,
    "bank_slope_score": 1.0,
    "bank_slope_source": "nc-dps-lidar-dem03-cross-section",
    "beach_dist_km": 523.11,
    "bridge_proximity_bonus": 0.0,
    "catchment_area_km2": 2.1455,
    "channel_width_m": 4.28,
    "channel_width_score": 1.0,
    "composite_score": 33.9013,
    "cso_density": 0.0,
    "ej_index": 0.5997,
    "elevation_m": 609.9568,
    "estuary_dist_km": 667.2,
    "feasibility_score": 37.5,
    "flood_q10_cfs": null,
    "flow_score": 30.2326,
    "flow_velocity_ms": 0.5,
    "generation_score": 24.6511,
    "impact_score": 44.4096,
    "impervious_pct": null,
    "land_ownership": 0.5,
    "lat": 35.1985,
    "litter_complaint_density": 0.0,
    "lon": -83.3856,
    "navigable_dist_m": null,
    "npdes_points": 0,
    "pixel_col": 366.0,
    "pixel_row": 188.0,
    "population_density": 256.6,
    "position_along": 0.5,
    "protected_area_score": 13.0951,
    "rank": 13,
    "road_access_m": 275.8,
    "road_access_score": 0.8,
    "road_density_km_km2": 4.178,
    "robustness_pct": 0.0,
    "runoff_coeff_C": null,
    "seasonal_cv": null,
    "segment_id": 3,
    "segment_length_m": 268.9135,
    "stream_order": 1,
    "superfund_score": 0.0,
    "tourism_amenity_density": 1.5915,
    "tri_facility_density": 0.0,
    "usgs_mean_q_cfs": null,
    "velocity_feasibility": 1.0,
    "water_intake_score": 1.3026
   },
   "type": "Feature"
  },
  {
   "geometry": {
    "coordinates": [
     -83.380282,
     35.154739
    ],
    "type": "Point"
   },
   "properties": {
    "accumulation": 21477.0,
    "bank_slope_deg": 10.86,
    "bank_slope_score": 1.0,
    "bank_slope_source": "nc-dps-lidar-dem03-cross-section",
    "beach_dist_km": 521.77,
    "bridge_proximity_bonus": 0.0,
    "catchment_area_km2": 2.1464,
    "channel_width_m": 4.28,
    "channel_width_score": 1.0,
    "composite_score": 32.2463,
    "cso_density": 0.0,
    "ej_index": 0.2966,
    "elevation_m": 611.7048,
    "estuary_dist_km": 666.8,
    "feasibility_score": 37.5,
    "flood_q10_cfs": null,
    "flow_score": 46.5126,
    "flow_velocity_ms": 0.5,
    "generation_score": 11.3148,
    "impact_score": 38.6625,
    "impervious_pct": null,
    "land_ownership": 0.5,
    "lat": 35.1547,
    "litter_complaint_density": 0.0,
    "lon": -83.3803,
    "navigable_dist_m": null,
    "npdes_points": 1,
    "pixel_col": 401.0,
    "pixel_row": 675.0,
    "population_density": 119.5,
    "position_along": 0.5,
    "protected_area_score": 12.5336,
    "rank": 14,
    "road_access_m": 267.9,
    "road_access_score": 0.8,
    "road_density_km_km2": 3.017,
    "robustness_pct": 0.0,
    "runoff_coeff_C": null,
    "seasonal_cv": null,
    "segment_id": 14,
    "segment_length_m": 371.3089,
    "stream_order": 3,
    "superfund_score": 0.0,
    "tourism_amenity_density": 0.3183,
    "tri_facility_density": 0.0,
    "usgs_mean_q_cfs": null,
    "velocity_feasibility": 1.0,
    "water_intake_score": 1.4105
   },
   "type": "Feature"
  },
  {
   "geometry": {
    "coordinates": [
     -83.410087,
     35.155229
    ],
    "type": "Point"
   },
   "properties": {
    "accumulation": 25764.0,
    "bank_slope_deg": 21.31,
    "bank_slope_score": 0.5,
    "bank_slope_source": "nc-dps-lidar-dem03-cross-section",
    "beach_dist_km": 524.45,
    "bridge_proximity_bonus": 0.0,
    "catchment_area_km2": 2.5748,
    "channel_width_m": 4.62,
    "channel_width_score": 1.0,
    "composite_score": 31.7227,
    "cso_density": 0.0,
    "ej_index": 0.9105,
    "elevation_m": 620.2858,
    "estuary_dist_km": 669.51,
    "feasibility_score": 25.0,
    "flood_q10_cfs": null,
    "flow_score": 46.9738,
    "flow_velocity_ms": 0.5,
    "generation_score": 8.5637,
    "impact_score": 45.5338,
    "impervious_pct": null,
    "land_ownership": 0.5,
    "lat": 35.1552,
    "litter_complaint_density": 0.0,
    "lon": -83.4101,
    "navigable_dist_m": null,
    "npdes_points": 0,
    "pixel_col": 132.0,
    "pixel_row": 663.0,
    "population_density": 104.3,
    "position_along": 0.5,
    "protected_area_score": 11.8032,
    "rank": 15,
    "road_access_m": 436.8,
    "road_access_score": 0.8,
    "road_density_km_km2": 3.494,
    "robustness_pct": 0.0,
    "runoff_coeff_C": null,
    "seasonal_cv": null,
    "segment_id": 12,
    "segment_length_m": 1159.4764,
    "stream_order": 3,
    "superfund_score": 0.0,
    "tourism_amenity_density": 0.3979,
    "tri_facility_density": 0.0,
    "usgs_mean_q_cfs": null,
    "velocity_feasibility": 1.0,
    "water_intake_score": 1.4794
   },
   "type": "Feature"
  },
  {
   "geometry": {
    "coordinates": [
     -83.360496,
     35.160233
    ],
    "type": "Point"
   },
   "properties": {
    "accumulation": 25946.0,
    "bank_slope_deg": 3.34,
    "bank_slope_score": 1.0,
    "bank_slope_source": "nc-dps-lidar-dem03-cross-section",
    "beach_dist_km": 520.1,
    "bridge_proximity_bonus": 0.0,
    "catchment_area_km2": 2.593,
    "channel_width_m": 4.63,
    "channel_width_score": 1.0,
    "composite_score": 31.0561,
    "cso_density": 0.0,
    "ej_index": 0.5411,
    "elevation_m": 616.3071,
    "estuary_dist_km": 664.99,
    "feasibility_score": 31.25,
    "flood_q10_cfs": null,
    "flow_score": 24.9788,
    "flow_velocity_ms": 0.1385,
    "generation_score": 10.3093,
    "impact_score": 56.7703,
    "impervious_pct": 2.52,
    "land_ownership": 1.0,
    "lat": 35.1602,
    "litter_complaint_density": 0.0,
    "lon": -83.3605,
    "navigable_dist_m": null,
    "npdes_points": 0,
    "pixel_col": 583.0,
    "pixel_row": 618.0,
    "population_density": 67.9,
    "position_along": 0.5,
    "protected_area_score": 12.7629,
    "rank": 16,
    "road_access_m": 370.6,
    "road_access_score": 0.8,
    "road_density_km_km2": 3.923,
    "robustness_pct": 0.0,
    "runoff_coeff_C": 0.0727,
    "seasonal_cv": 0.5315,
    "segment_id": 10,
    "segment_length_m": 965.6874,
    "stream_order": 3,
    "superfund_score": 0.0,
    "tourism_amenity_density": 0.557,
    "tri_facility_density": 0.0,
    "usgs_mean_q_cfs": 2.368,
    "velocity_feasibility": 0.7,
    "water_intake_score": 1.4
   },
   "type": "Feature"
  },
  {
   "geometry": {
    "coordinates": [
     -83.361353,
     35.208808
    ],
    "type": "Point"
   },
   "properties": {
    "accumulation": 58527.0,
    "bank_slope_deg": 16.35,
    "bank_slope_score": 0.5,
    "bank_slope_source": "nc-dps-lidar-dem03-cross-section",
    "beach_dist_km": 521.16,
    "bridge_proximity_bonus": 0.0,
    "catchment_area_km2": 5.8492,
    "channel_width_m": 6.49,
    "channel_width_score": 1.0,
    "composite_score": 30.0049,
    "cso_density": 0.0,
    "ej_index": 0.5809,
    "elevation_m": 611.6611,
    "estuary_dist_km": 664.99,
    "feasibility_score": 31.25,
    "flood_q10_cfs": null,
    "flow_score": 34.9276,
    "flow_velocity_ms": 0.1481,
    "generation_score": 14.8794,
    "impact_score": 40.4054,
    "impervious_pct": 1.87,
    "land_ownership": 0.5,
    "lat": 35.2088,
    "litter_complaint_density": 0.0,
    "lon": -83.3614,
    "navigable_dist_m": null,
    "npdes_points": 2,
    "pixel_col": 589.0,
    "pixel_row": 79.0,
    "population_density": 96.0,
    "position_along": 0.75,
    "protected_area_score": 12.6661,
    "rank": 17,
    "road_access_m": 127.5,
    "road_access_score": 1.0,
    "road_density_km_km2": 3.196,
    "robustness_pct": 0.0,
    "runoff_coeff_C": 0.0668,
    "seasonal_cv": 0.5268,
    "segment_id": 2,
    "segment_length_m": 3946.3994,
    "stream_order": 1,
    "superfund_score": 0.0,
    "tourism_amenity_density": 0.0796,
    "tri_facility_density": 0.0,
    "usgs_mean_q_cfs": 19.949,
    "velocity_feasibility": 0.7,
    "water_intake_score": 1.2625
   },
   "type": "Feature"
  },
  {
   "geometry": {
    "coordinates": [
     -83.37342,
     35.206856
    ],
    "type": "Point"
   },
   "properties": {
    "accumulation": 29998.0,
    "bank_slope_deg": 0.1,
    "bank_slope_score": 1.0,
    "bank_slope_source": "nc-dps-lidar-dem03-cross-section",
    "beach_dist_km": 522.19,
    "bridge_proximity_bonus": 0.0,
    "catchment_area_km2": 2.998,
    "channel_width_m": 4.92,
    "channel_width_score": 1.0,
    "composite_score": 28.4921,
    "cso_density": 0.0,
    "ej_index": 0.7266,
    "elevation_m": 609.5072,
    "estuary_dist_km": 666.09,
    "feasibility_score": 37.5,
    "flood_q10_cfs": null,
    "flow_score": 31.1503,
    "flow_velocity_ms": 0.5,
    "generation_score": 11.393,
    "impact_score": 38.872,
    "impervious_pct": null,
    "land_ownership": 0.5,
    "lat": 35.2069,
    "litter_complaint_density": 0.0,
    "lon": -83.3734,
    "navigable_dist_m": null,
    "npdes_points": 0,
    "pixel_col": 480.0,
    "pixel_row": 100.0,
    "population_density": 158.2,
    "position_along": 0.5,
    "protected_area_score": 12.4778,
    "rank": 18,
    "road_access_m": 242.3,
    "road_access_score": 0.8,
    "road_density_km_km2": 2.252,
    "robustness_pct": 0.0,
    "runoff_coeff_C": null,
    "seasonal_cv": null,
    "segment_id": 0,
    "segment_length_m": 557.821,
    "stream_order": 1,
    "superfund_score": 0.0,
    "tourism_amenity_density": 0.1592,
    "tri_facility_density": 0.0,
    "usgs_mean_q_cfs": null,
    "velocity_feasibility": 1.0,
    "water_intake_score": 1.2654
   },
   "type": "Feature"
  },
  {
   "geometry": {
    "coordinates": [
     -83.406592,
     35.212546
    ],
    "type": "Point"
   },
   "properties": {
    "accumulation": 27259.0,
    "bank_slope_deg": 14.82,
    "bank_slope_score": 1.0,
    "bank_slope_source": "nc-dps-lidar-dem03-cross-section",
    "beach_dist_km": 525.27,
    "bridge_proximity_bonus": 0.0,
    "catchment_area_km2": 2.7242,
    "channel_width_m": 4.73,
    "channel_width_score": 1.0,
    "composite_score": 22.1752,
    "cso_density": 0.0,
    "ej_index": 0.5772,
    "elevation_m": 635.2183,
    "estuary_dist_km": 669.09,
    "feasibility_score": 43.75,
    "flood_q10_cfs": null,
    "flow_score": 15.8735,
    "flow_velocity_ms": 0.18,
    "generation_score": 12.2859,
    "impact_score": 26.5286,
    "impervious_pct": 2.07,
    "land_ownership": 0.5,
    "lat": 35.2125,
    "litter_complaint_density": 0.0,
    "lon": -83.4066,
    "navigable_dist_m": null,
    "npdes_points": 0,
    "pixel_col": 179.0,
    "pixel_row": 30.0,
    "population_density": 120.4,
    "position_along": 0.5,
    "protected_area_score": 13.6177,
    "rank": 19,
    "road_access_m": 102.8,
    "road_access_score": 1.0,
    "road_density_km_km2": 2.721,
    "robustness_pct": 0.0,
    "runoff_coeff_C": 0.0686,
    "seasonal_cv": 0.5134,
    "segment_id": 1,
    "segment_length_m": 2461.0419,
    "stream_order": 1,
    "superfund_score": 0.0,
    "tourism_amenity_density": 0.0796,
    "tri_facility_density": 0.0,
    "usgs_mean_q_cfs": 6.599,
    "velocity_feasibility": 0.7,
    "water_intake_score": 1.2339
   },
   "type": "Feature"
  },
  {
   "geometry": {
    "coordinates": [
     -83.347706,
     35.205993
    ],
    "type": "Point"
   },
   "properties": {
    "accumulation": 25662.0,
    "bank_slope_deg": 8.89,
    "bank_slope_score": 1.0,
    "bank_slope_source": "nc-dps-lidar-dem03-cross-section",
    "beach_dist_km": 519.88,
    "bridge_proximity_bonus": 0.0,
    "catchment_area_km2": 2.5646,
    "channel_width_m": 4.61,
    "channel_width_score": 1.0,
    "composite_score": 21.9513,
    "cso_density": 0.0,
    "ej_index": 0.4464,
    "elevation_m": 622.618,
    "estuary_dist_km": 663.75,
    "feasibility_score": 12.5,
    "flood_q10_cfs": null,
    "flow_score": 14.4961,
    "flow_velocity_ms": 0.1303,
    "generation_score": 10.2523,
    "impact_score": 44.5886,
    "impervious_pct": 1.45,
    "land_ownership": 0.5,
    "lat": 35.206,
    "litter_complaint_density": 0.0,
    "lon": -83.3477,
    "navigable_dist_m": null,
    "npdes_points": 2,
    "pixel_col": 710.0,
    "pixel_row": 114.0,
    "population_density": 44.1,
    "position_along": 0.25,
    "protected_area_score": 12.7471,
    "rank": 20,
    "road_access_m": 206.8,
    "road_access_score": 0.8,
    "road_density_km_km2": 3.79,
    "robustness_pct": 0.0,
    "runoff_coeff_C": 0.063,
    "seasonal_cv": 0.5307,
    "segment_id": 2,
    "segment_length_m": 3946.3994,
    "stream_order": 1,
    "superfund_score": 0.0,
    "tourism_amenity_density": 0.0796,
    "tri_facility_density": 0.0,
    "usgs_mean_q_cfs": 7.387,
    "velocity_feasibility": 0.7,
    "water_intake_score": 1.2817
   },
   "type": "Feature"
  }
 ],
 "note": "GRIME region 'Franklin, NC' \u2014 real-data pipeline (DEM\u2192streams\u2192candidates\u2192stream mask (sites confined to \u00b1150 m of mapped OSM/NHD waterways)\u2192region-appropriate real parameters\u2192shipped scoring, math unchanged). Width curve: Bieger et al. 2015 JAWRA Table 3, Appalachian Highlands. Flood: not applicable here (documented fallback). NC Blue Ridge (outside SIR 2014-5030 urban coverage)",
 "provenance": {
  "candidates_pre_gate": 20,
  "constant": [
   "channel_width_score",
   "cso_density",
   "flood_q10_cfs",
   "litter_complaint_density",
   "superfund_score"
  ],
  "gated_navigable": 0,
  "hard_gate_removed": 0,
  "n_parameters": 27,
  "parameters": {
   "bank_slope_score": {
    "kind": "real",
    "n_3dep_10m_fallback": 0,
    "n_nc_lidar_3_125ft": 20,
    "n_real": 20,
    "n_sites": 20,
    "source": "NC OneMap / NC DPS DEM03 statewide lidar-derived 3.125-ft (0.953 m) elevations (perpendicular 50 m transect; robust 5 m bank-rise metric); unavailable profiles use the region 10 m 3DEP DEM-gradient fallback",
    "source_mosaics": [
     "Macon_Ground_3ft"
    ]
   },
   "beach_dist_km": {
    "kind": "real",
    "n_real": 20,
    "n_sites": 20,
    "source": "haversine to region ref: Wrightsville Beach (shipped NC reference)"
   },
   "bridge_proximity_bonus": {
    "kind": "real",
    "n_real": 20,
    "n_sites": 20,
    "source": "FHWA/BTS NBI (NTAD), 50 m proximity"
   },
   "catchment_area_km2": {
    "kind": "real",
    "n_real": 20,
    "n_sites": 20,
    "source": "DEM flow accumulation (pipeline)"
   },
   "channel_width_score": {
    "kind": "real",
    "n_real": 20,
    "n_sites": 20,
    "source": "Bieger 2015 AHI width curve on DEM drainage area \u2192 shipped width curve"
   },
   "cso_density": {
    "kind": "real",
    "n_real": 20,
    "n_sites": 20,
    "source": "EPA ECHO open CSO/TCS outfall PF coordinates states=NC, Cauchy proximity"
   },
   "ej_index": {
    "kind": "real",
    "n_real": 20,
    "n_sites": 20,
    "source": "Census ACS C17002+B03002 two-component demographic index, percentile-ranked within region"
   },
   "estuary_dist_km": {
    "kind": "real",
    "n_real": 20,
    "n_sites": 20,
    "source": "haversine to region ref: Pamlico Sound (shipped NC reference)"
   },
   "flood_q10_cfs": {
    "impervious_fallback_reason": "StreamCat imperviousness unavailable; the existing regression-input fallback of 0.0% impervious was used and is disclosed here",
    "kind": "fallback",
    "n_impervious_fallback": 13,
    "n_real": 0,
    "n_sites": 20,
    "source": "flood regression not valid here (NC Blue Ridge (outside SIR 2014-5030 urban coverage)...) \u2014 NaN, dropped by constant-column handling"
   },
   "flow_velocity_ms": {
    "fallback_reason": "EROM/DEM continuity input unavailable; shipped 0.5 m/s default used",
    "kind": "real",
    "n_fallback": 13,
    "n_real": 7,
    "n_sites": 20,
    "source": "Manning (region DEM/D8) blended with EROM continuity (shipped M4 logic)"
   },
   "impervious_pct": {
    "fallback_reason": "NLDI/StreamCat did not return a snap-compatible catchment value; value remains null and is removed by constant-column handling",
    "kind": "real",
    "n_fallback": 13,
    "n_real": 7,
    "n_sites": 20,
    "source": "EPA StreamCat pctimp2019 (per NHDPlus watershed)"
   },
   "land_ownership": {
    "fallback_reason": "no containing parcel owner returned; shipped unknown ownership 0.5 used",
    "kind": "real",
    "n_fallback": 6,
    "n_real": 14,
    "n_sites": 20,
    "source": "NC OneMap statewide parcels (NC Parcels Transformer) ownname"
   },
   "litter_complaint_density": {
    "kind": "fallback",
    "n_real": 0,
    "n_sites": 20,
    "source": "no public machine-readable litter/illegal-dumping feed for this region"
   },
   "navigable_dist_m": {
    "kind": "real",
    "n_real": 20,
    "n_sites": 20,
    "source": "USACE/BTS NWN (NTAD): no navigable segment within this bbox (+2 km) \u2014 computed absence, gate passes all sites"
   },
   "npdes_points": {
    "kind": "real",
    "n_real": 20,
    "n_sites": 20,
    "source": "EPA ECHO active NPDES outfalls states=NC (types NPD/GPC/NGP; statuses ADC/EFF/EXP), per catchment"
   },
   "population_density": {
    "kind": "real",
    "n_real": 20,
    "n_sites": 20,
    "source": "Census ACS 2022 B01003 block groups (bbox, multi-county), area-weighted"
   },
   "protected_area_score": {
    "kind": "real",
    "n_real": 20,
    "n_sites": 20,
    "source": "USGS PAD-US 4.1 state GDB; states=NC; shipped designation-weighted proximity curve"
   },
   "road_access_score": {
    "kind": "real",
    "n_real": 20,
    "n_sites": 20,
    "source": "OSM drive network nearest-node distance"
   },
   "road_density_km_km2": {
    "kind": "real",
    "n_real": 20,
    "n_sites": 20,
    "source": "OSM drive network (osmnx, cached) clipped per catchment"
   },
   "runoff_coeff_C": {
    "fallback_reason": "source impervious_pct was unavailable; derived value remains null",
    "kind": "real",
    "n_fallback": 13,
    "n_real": 7,
    "n_sites": 20,
    "source": "derived from real impervious_pct (C=0.05+0.009*I)"
   },
   "seasonal_cv": {
    "fallback_reason": "NHDPlus monthly EROM was unavailable or failed the drainage-area snap guard; value remains null",
    "kind": "real",
    "n_fallback": 13,
    "n_real": 7,
    "n_sites": 20,
    "source": "CV of NHDPlus EROM monthly flows per COMID"
   },
   "stream_order": {
    "kind": "real",
    "n_real": 20,
    "n_sites": 20,
    "source": "DEM stream-network confluence heuristic (pipeline)"
   },
   "superfund_score": {
    "kind": "real",
    "n_real": 20,
    "n_sites": 20,
    "source": "EPA DataMap SEMS active sites states=NC (non-archived, georeferenced), shipped 500 m inverse-distance curve"
   },
   "tourism_amenity_density": {
    "kind": "real",
    "n_real": 20,
    "n_sites": 20,
    "source": "OSM leisure/tourism features per 2 km radius"
   },
   "tri_facility_density": {
    "kind": "real",
    "n_real": 20,
    "n_sites": 20,
    "source": "EPA DataMap TRI open facilities states=NC (preferred decimal or packed-DMS recovery), per catchment"
   },
   "usgs_mean_q_cfs": {
    "fallback_reason": "NHDPlus EROM was unavailable or failed the drainage-area snap guard; value remains null",
    "kind": "real",
    "n_fallback": 13,
    "n_real": 7,
    "n_sites": 20,
    "source": "NHDPlus EROM qe_ma per COMID (snap-guarded)"
   },
   "velocity_feasibility": {
    "fallback_reason": "derived from the shipped 0.5 m/s velocity fallback",
    "kind": "real",
    "n_fallback": 13,
    "n_real": 7,
    "n_sites": 20,
    "source": "shipped step curve on the computed velocity"
   },
   "velocity_transport_favorability": {
    "fallback_reason": "EROM/DEM continuity input unavailable; shipped 0.5 m/s default used",
    "kind": "derived",
    "n_fallback": 13,
    "n_real": 7,
    "n_sites": 20,
    "source": "scored form of flow_velocity_ms inside the Flow family \u2014 peaked Gaussian exp(-((v-0.9)/0.6)^2), model.json curves.velocity_transport_favorability; construct: transport/delivery favorability, deliberately distinct from velocity_feasibility (device operability)"
   },
   "water_intake_score": {
    "kind": "real",
    "n_real": 20,
    "n_sites": 20,
    "source": "NC OneMap / NC DEQ SWAP public water supply sources (source_typ='Surface Water'), shipped exp(-d/10km) curve"
   }
  },
  "stream_mask": {
   "buffer_m": 150.0,
   "pre_mask": 20,
   "removed": 0,
   "sources": [
    "osm-overpass (all waterway ways)",
    "usgs-nhdplus flowlines"
   ]
  },
  "varying": [
   "bank_slope_score",
   "beach_dist_km",
   "bridge_proximity_bonus",
   "catchment_area_km2",
   "ej_index",
   "estuary_dist_km",
   "flow_velocity_ms",
   "impervious_pct",
   "land_ownership",
   "npdes_points",
   "population_density",
   "protected_area_score",
   "road_access_score",
   "road_density_km_km2",
   "runoff_coeff_C",
   "seasonal_cv",
   "stream_order",
   "tourism_amenity_density",
   "tri_facility_density",
   "usgs_mean_q_cfs",
   "velocity_feasibility",
   "water_intake_score"
  ]
 },
 "region": {
  "bbox": [
   -83.4241,
   35.144,
   -83.3373,
   35.2149
  ],
  "beach_ref": {
   "label": "Wrightsville Beach (shipped NC reference)",
   "lat": 34.21,
   "lon": -77.79
  },
  "center": [
   -83.380691,
   35.179422
  ],
  "estuary_ref": {
   "label": "Pamlico Sound (shipped NC reference)",
   "lat": 35.05,
   "lon": -76.05
  },
  "flood_method": "none",
  "name": "Franklin, NC",
  "notes": "NC Blue Ridge (outside SIR 2014-5030 urban coverage)",
  "slug": "franklin",
  "state": "NC",
  "utm_epsg": 32617,
  "width_curve": {
   "a": 3.12,
   "b": 0.415,
   "code": "AHI",
   "source": "Bieger et al. 2015 JAWRA Table 3, Appalachian Highlands"
  }
 },
 "type": "FeatureCollection"
}
