{
 "features": [
  {
   "geometry": {
    "coordinates": [
     -77.652871,
     36.483929
    ],
    "type": "Point"
   },
   "properties": {
    "accumulation": 70068.0,
    "bank_slope_deg": 0.05,
    "bank_slope_score": 1.0,
    "bank_slope_source": "nc-dps-lidar-dem03-cross-section",
    "beach_dist_km": 253.16,
    "bridge_proximity_bonus": 0.0,
    "catchment_area_km2": 6.9932,
    "channel_width_m": 6.99,
    "channel_width_score": 1.0,
    "composite_score": 57.1092,
    "cso_density": 0.0,
    "ej_index": 0.5223,
    "elevation_m": 16.3906,
    "estuary_dist_km": 215.25,
    "feasibility_score": 33.3333,
    "flood_q10_cfs": 805.4,
    "flow_score": 67.4419,
    "flow_velocity_ms": 0.5,
    "generation_score": 54.5455,
    "impact_score": 62.9503,
    "impervious_pct": null,
    "land_ownership": 0.5,
    "lat": 36.4839,
    "litter_complaint_density": 0.0,
    "lon": -77.6529,
    "navigable_dist_m": 740.8,
    "npdes_points": 0,
    "pixel_col": 178.0,
    "pixel_row": 361.0,
    "population_density": 97.2,
    "position_along": 0.8333,
    "protected_area_score": 4.8775,
    "rank": 1,
    "road_access_m": 919.7,
    "road_access_score": 0.6,
    "road_density_km_km2": 0.467,
    "robustness_pct": 100.0,
    "runoff_coeff_C": null,
    "seasonal_cv": null,
    "segment_id": 0,
    "segment_length_m": 4811.2177,
    "stream_order": 1,
    "superfund_score": 0.0165,
    "tourism_amenity_density": 0.9549,
    "tri_facility_density": 0.286,
    "usgs_mean_q_cfs": null,
    "velocity_feasibility": 1.0,
    "water_intake_score": 2.7147
   },
   "type": "Feature"
  },
  {
   "geometry": {
    "coordinates": [
     -77.637395,
     36.492157
    ],
    "type": "Point"
   },
   "properties": {
    "accumulation": 42072.0,
    "bank_slope_deg": 1.44,
    "bank_slope_score": 1.0,
    "bank_slope_source": "nc-dps-lidar-dem03-cross-section",
    "beach_dist_km": 254.14,
    "bridge_proximity_bonus": 0.0,
    "catchment_area_km2": 4.1991,
    "channel_width_m": 5.66,
    "channel_width_score": 1.0,
    "composite_score": 49.7592,
    "cso_density": 0.0,
    "ej_index": 0.5337,
    "elevation_m": 19.5114,
    "estuary_dist_km": 214.99,
    "feasibility_score": 85.7143,
    "flood_q10_cfs": 611.0,
    "flow_score": 42.8654,
    "flow_velocity_ms": 0.1024,
    "generation_score": 46.3068,
    "impact_score": 40.979,
    "impervious_pct": 6.18,
    "land_ownership": 1.0,
    "lat": 36.4922,
    "litter_complaint_density": 0.0,
    "lon": -77.6374,
    "navigable_dist_m": 1346.3,
    "npdes_points": 0,
    "pixel_col": 317.0,
    "pixel_row": 275.0,
    "population_density": 19.7,
    "position_along": 0.25,
    "protected_area_score": 5.1002,
    "rank": 2,
    "road_access_m": 147.7,
    "road_access_score": 1.0,
    "road_density_km_km2": 3.215,
    "robustness_pct": 100.0,
    "runoff_coeff_C": 0.1056,
    "seasonal_cv": 0.4081,
    "segment_id": 1,
    "segment_length_m": 4493.5356,
    "stream_order": 1,
    "superfund_score": 0.0091,
    "tourism_amenity_density": 1.3528,
    "tri_facility_density": 0.0,
    "usgs_mean_q_cfs": 3.92,
    "velocity_feasibility": 0.7,
    "water_intake_score": 2.4547
   },
   "type": "Feature"
  },
  {
   "geometry": {
    "coordinates": [
     -77.646494,
     36.489196
    ],
    "type": "Point"
   },
   "properties": {
    "accumulation": 50704.0,
    "bank_slope_deg": 3.26,
    "bank_slope_score": 1.0,
    "bank_slope_source": "nc-dps-lidar-dem03-cross-section",
    "beach_dist_km": 253.77,
    "bridge_proximity_bonus": 0.0,
    "catchment_area_km2": 5.0606,
    "channel_width_m": 6.12,
    "channel_width_score": 1.0,
    "composite_score": 45.9788,
    "cso_density": 0.0,
    "ej_index": 0.5528,
    "elevation_m": 17.6778,
    "estuary_dist_km": 215.3,
    "feasibility_score": 20.8333,
    "flood_q10_cfs": 647.28,
    "flow_score": 52.4802,
    "flow_velocity_ms": 0.0403,
    "generation_score": 38.0133,
    "impact_score": 61.0991,
    "impervious_pct": 1.44,
    "land_ownership": 0.5,
    "lat": 36.4892,
    "litter_complaint_density": 0.0,
    "lon": -77.6465,
    "navigable_dist_m": 838.6,
    "npdes_points": 0,
    "pixel_col": 237.0,
    "pixel_row": 306.0,
    "population_density": 31.0,
    "position_along": 0.5,
    "protected_area_score": 4.9191,
    "rank": 3,
    "road_access_m": 215.4,
    "road_access_score": 0.8,
    "road_density_km_km2": 1.81,
    "robustness_pct": 100.0,
    "runoff_coeff_C": 0.063,
    "seasonal_cv": 0.4173,
    "segment_id": 0,
    "segment_length_m": 4811.2177,
    "stream_order": 1,
    "superfund_score": 0.0118,
    "tourism_amenity_density": 1.4324,
    "tri_facility_density": 0.1976,
    "usgs_mean_q_cfs": 6.047,
    "velocity_feasibility": 0.3,
    "water_intake_score": 2.6139
   },
   "type": "Feature"
  },
  {
   "geometry": {
    "coordinates": [
     -77.657378,
     36.495761
    ],
    "type": "Point"
   },
   "properties": {
    "accumulation": 23738.0,
    "bank_slope_deg": 3.23,
    "bank_slope_score": 1.0,
    "bank_slope_source": "nc-dps-lidar-dem03-cross-section",
    "beach_dist_km": 254.45,
    "bridge_proximity_bonus": 0.0,
    "catchment_area_km2": 2.3692,
    "channel_width_m": 4.46,
    "channel_width_score": 1.0,
    "composite_score": 24.3772,
    "cso_density": 0.0,
    "ej_index": 0.5657,
    "elevation_m": 30.0386,
    "estuary_dist_km": 216.49,
    "feasibility_score": 39.881,
    "flood_q10_cfs": 360.52,
    "flow_score": 26.4645,
    "flow_velocity_ms": 0.1175,
    "generation_score": 10.7226,
    "impact_score": 28.5405,
    "impervious_pct": 0.68,
    "land_ownership": 0.5,
    "lat": 36.4958,
    "litter_complaint_density": 0.0,
    "lon": -77.6574,
    "navigable_dist_m": 1908.7,
    "npdes_points": 0,
    "pixel_col": 141.0,
    "pixel_row": 230.0,
    "population_density": 17.2,
    "position_along": 0.1667,
    "protected_area_score": 4.5622,
    "rank": 4,
    "road_access_m": 365.4,
    "road_access_score": 0.8,
    "road_density_km_km2": 1.807,
    "robustness_pct": 100.0,
    "runoff_coeff_C": 0.0561,
    "seasonal_cv": 0.4195,
    "segment_id": 0,
    "segment_length_m": 4811.2177,
    "stream_order": 1,
    "superfund_score": 0.0096,
    "tourism_amenity_density": 2.1486,
    "tri_facility_density": 0.0,
    "usgs_mean_q_cfs": 4.915,
    "velocity_feasibility": 0.7,
    "water_intake_score": 2.4543
   },
   "type": "Feature"
  }
 ],
 "note": "GRIME region 'Gaston, NC' \u2014 real-data pipeline (DEM\u2192streams\u2192candidates\u2192stream mask (sites confined to \u00b1150 m of mapped OSM/NHD waterways)\u2192region-appropriate real parameters\u2192shipped scoring, math unchanged). Width curve: Bieger et al. 2015 JAWRA Table 3, Appalachian Highlands. Flood: SIR 2014-5030 HR1. NC Piedmont (DEQ physiography polygon)",
 "provenance": {
  "candidates_pre_gate": 5,
  "constant": [
   "bank_slope_score",
   "bridge_proximity_bonus",
   "channel_width_score",
   "cso_density",
   "litter_complaint_density",
   "npdes_points",
   "stream_order"
  ],
  "gated_navigable": 1,
  "hard_gate_removed": 1,
  "n_parameters": 27,
  "parameters": {
   "bank_slope_score": {
    "kind": "real",
    "n_3dep_10m_fallback": 0,
    "n_nc_lidar_3_125ft": 5,
    "n_real": 5,
    "n_sites": 5,
    "source": "NC OneMap / NC DPS DEM03 statewide lidar-derived 3.125-ft (0.953 m) elevations (perpendicular 50 m transect; robust 5 m bank-rise metric); unavailable profiles use the region 10 m 3DEP DEM-gradient fallback",
    "source_mosaics": [
     "Halifax_Ground_3ft"
    ]
   },
   "beach_dist_km": {
    "kind": "real",
    "n_real": 5,
    "n_sites": 5,
    "source": "haversine to region ref: Wrightsville Beach (shipped NC reference)"
   },
   "bridge_proximity_bonus": {
    "kind": "real",
    "n_real": 5,
    "n_sites": 5,
    "source": "FHWA/BTS NBI (NTAD), 50 m proximity"
   },
   "catchment_area_km2": {
    "kind": "real",
    "n_real": 5,
    "n_sites": 5,
    "source": "DEM flow accumulation (pipeline)"
   },
   "channel_width_score": {
    "kind": "real",
    "n_real": 5,
    "n_sites": 5,
    "source": "Bieger 2015 AHI width curve on DEM drainage area \u2192 shipped width curve"
   },
   "cso_density": {
    "kind": "real",
    "n_real": 5,
    "n_sites": 5,
    "source": "EPA ECHO open CSO/TCS outfall PF coordinates states=NC, Cauchy proximity"
   },
   "ej_index": {
    "kind": "real",
    "n_real": 5,
    "n_sites": 5,
    "source": "Census ACS C17002+B03002 two-component demographic index, percentile-ranked within region"
   },
   "estuary_dist_km": {
    "kind": "real",
    "n_real": 5,
    "n_sites": 5,
    "source": "haversine to region ref: Pamlico Sound (shipped NC reference)"
   },
   "flood_q10_cfs": {
    "impervious_fallback_reason": "StreamCat imperviousness unavailable; the existing regression-input fallback of 0.0% impervious was used and is disclosed here",
    "kind": "real",
    "n_impervious_fallback": 2,
    "n_real": 5,
    "n_sites": 5,
    "source": "USGS SIR 2014-5030 Table 7 HR1 (NC Piedmont)"
   },
   "flow_velocity_ms": {
    "fallback_reason": "EROM/DEM continuity input unavailable; shipped 0.5 m/s default used",
    "kind": "real",
    "n_fallback": 2,
    "n_real": 3,
    "n_sites": 5,
    "source": "Manning (region DEM/D8) blended with EROM continuity (shipped M4 logic)"
   },
   "impervious_pct": {
    "fallback_reason": "NLDI/StreamCat did not return a snap-compatible catchment value; value remains null and is removed by constant-column handling",
    "kind": "real",
    "n_fallback": 2,
    "n_real": 3,
    "n_sites": 5,
    "source": "EPA StreamCat pctimp2019 (per NHDPlus watershed)"
   },
   "land_ownership": {
    "fallback_reason": "no containing parcel owner returned; shipped unknown ownership 0.5 used",
    "kind": "real",
    "n_fallback": 1,
    "n_real": 4,
    "n_sites": 5,
    "source": "NC OneMap statewide parcels (NC Parcels Transformer) ownname"
   },
   "litter_complaint_density": {
    "kind": "fallback",
    "n_real": 0,
    "n_sites": 5,
    "source": "no public machine-readable litter/illegal-dumping feed for this region"
   },
   "navigable_dist_m": {
    "kind": "real",
    "n_real": 5,
    "n_sites": 5,
    "source": "USACE/BTS National Waterway Network lines (NTAD, retrieved 2026-07-10), distance to nearest navigable segment"
   },
   "npdes_points": {
    "kind": "real",
    "n_real": 5,
    "n_sites": 5,
    "source": "EPA ECHO active NPDES outfalls states=NC (types NPD/GPC/NGP; statuses ADC/EFF/EXP), per catchment"
   },
   "population_density": {
    "kind": "real",
    "n_real": 5,
    "n_sites": 5,
    "source": "Census ACS 2022 B01003 block groups (bbox, multi-county), area-weighted"
   },
   "protected_area_score": {
    "kind": "real",
    "n_real": 5,
    "n_sites": 5,
    "source": "USGS PAD-US 4.1 state GDB; states=NC; shipped designation-weighted proximity curve"
   },
   "road_access_score": {
    "kind": "real",
    "n_real": 5,
    "n_sites": 5,
    "source": "OSM drive network nearest-node distance"
   },
   "road_density_km_km2": {
    "kind": "real",
    "n_real": 5,
    "n_sites": 5,
    "source": "OSM drive network (osmnx, cached) clipped per catchment"
   },
   "runoff_coeff_C": {
    "fallback_reason": "source impervious_pct was unavailable; derived value remains null",
    "kind": "real",
    "n_fallback": 2,
    "n_real": 3,
    "n_sites": 5,
    "source": "derived from real impervious_pct (C=0.05+0.009*I)"
   },
   "seasonal_cv": {
    "fallback_reason": "NHDPlus monthly EROM was unavailable or failed the drainage-area snap guard; value remains null",
    "kind": "real",
    "n_fallback": 2,
    "n_real": 3,
    "n_sites": 5,
    "source": "CV of NHDPlus EROM monthly flows per COMID"
   },
   "stream_order": {
    "kind": "real",
    "n_real": 5,
    "n_sites": 5,
    "source": "DEM stream-network confluence heuristic (pipeline)"
   },
   "superfund_score": {
    "kind": "real",
    "n_real": 5,
    "n_sites": 5,
    "source": "EPA DataMap SEMS active sites states=NC (non-archived, georeferenced), shipped 500 m inverse-distance curve"
   },
   "tourism_amenity_density": {
    "kind": "real",
    "n_real": 5,
    "n_sites": 5,
    "source": "OSM leisure/tourism features per 2 km radius"
   },
   "tri_facility_density": {
    "kind": "real",
    "n_real": 5,
    "n_sites": 5,
    "source": "EPA DataMap TRI open facilities states=NC (preferred decimal or packed-DMS recovery), per catchment"
   },
   "usgs_mean_q_cfs": {
    "fallback_reason": "NHDPlus EROM was unavailable or failed the drainage-area snap guard; value remains null",
    "kind": "real",
    "n_fallback": 2,
    "n_real": 3,
    "n_sites": 5,
    "source": "NHDPlus EROM qe_ma per COMID (snap-guarded)"
   },
   "velocity_feasibility": {
    "fallback_reason": "derived from the shipped 0.5 m/s velocity fallback",
    "kind": "real",
    "n_fallback": 2,
    "n_real": 3,
    "n_sites": 5,
    "source": "shipped step curve on the computed velocity"
   },
   "velocity_transport_favorability": {
    "fallback_reason": "EROM/DEM continuity input unavailable; shipped 0.5 m/s default used",
    "kind": "derived",
    "n_fallback": 2,
    "n_real": 3,
    "n_sites": 5,
    "source": "scored form of flow_velocity_ms inside the Flow family \u2014 peaked Gaussian exp(-((v-0.9)/0.6)^2), model.json curves.velocity_transport_favorability; construct: transport/delivery favorability, deliberately distinct from velocity_feasibility (device operability)"
   },
   "water_intake_score": {
    "kind": "real",
    "n_real": 5,
    "n_sites": 5,
    "source": "NC OneMap / NC DEQ SWAP public water supply sources (source_typ='Surface Water'), shipped exp(-d/10km) curve"
   }
  },
  "stream_mask": {
   "buffer_m": 150.0,
   "pre_mask": 5,
   "removed": 0,
   "sources": [
    "osm-overpass (all waterway ways)",
    "usgs-nhdplus flowlines"
   ]
  },
  "varying": [
   "beach_dist_km",
   "catchment_area_km2",
   "ej_index",
   "estuary_dist_km",
   "flood_q10_cfs",
   "flow_velocity_ms",
   "impervious_pct",
   "land_ownership",
   "population_density",
   "protected_area_score",
   "road_access_score",
   "road_density_km_km2",
   "runoff_coeff_C",
   "seasonal_cv",
   "superfund_score",
   "tourism_amenity_density",
   "tri_facility_density",
   "usgs_mean_q_cfs",
   "velocity_feasibility",
   "water_intake_score"
  ]
 },
 "region": {
  "bbox": [
   -77.6722,
   36.4745,
   -77.6206,
   36.516
  ],
  "beach_ref": {
   "label": "Wrightsville Beach (shipped NC reference)",
   "lat": 34.21,
   "lon": -77.79
  },
  "center": [
   -77.646416,
   36.495229
  ],
  "estuary_ref": {
   "label": "Pamlico Sound (shipped NC reference)",
   "lat": 35.05,
   "lon": -76.05
  },
  "flood_method": "sir2014_hr1",
  "name": "Gaston, NC",
  "notes": "NC Piedmont (DEQ physiography polygon)",
  "slug": "gaston",
  "state": "NC",
  "utm_epsg": 32618,
  "width_curve": {
   "a": 3.12,
   "b": 0.415,
   "code": "AHI",
   "source": "Bieger et al. 2015 JAWRA Table 3, Appalachian Highlands"
  }
 },
 "type": "FeatureCollection"
}
