{
 "features": [
  {
   "geometry": {
    "coordinates": [
     -79.30527,
     35.587094
    ],
    "type": "Point"
   },
   "properties": {
    "accumulation": 63969.0,
    "bank_slope_deg": 9.85,
    "bank_slope_score": 1.0,
    "bank_slope_source": "nc-dps-lidar-dem03-cross-section",
    "beach_dist_km": 206.26,
    "bridge_proximity_bonus": 0.0,
    "catchment_area_km2": 6.3797,
    "channel_width_m": 6.73,
    "channel_width_score": 1.0,
    "composite_score": 72.9461,
    "cso_density": 0.0,
    "ej_index": 0.4027,
    "elevation_m": 89.6847,
    "estuary_dist_km": 301.31,
    "feasibility_score": 44.4444,
    "flood_q10_cfs": 818.84,
    "flow_score": 97.8586,
    "flow_velocity_ms": 0.1584,
    "generation_score": 67.3827,
    "impact_score": 72.0,
    "impervious_pct": 4.9,
    "land_ownership": 0.5,
    "lat": 35.5871,
    "litter_complaint_density": 0.0,
    "lon": -79.3053,
    "navigable_dist_m": null,
    "npdes_points": 1,
    "pixel_col": 374.0,
    "pixel_row": 245.0,
    "population_density": 19.5,
    "position_along": 0.5,
    "protected_area_score": 8.259,
    "rank": 1,
    "road_access_m": 842.3,
    "road_access_score": 0.6,
    "road_density_km_km2": 0.958,
    "robustness_pct": 100.0,
    "runoff_coeff_C": 0.0941,
    "seasonal_cv": 0.437,
    "segment_id": 2,
    "segment_length_m": 1327.0334,
    "stream_order": 3,
    "superfund_score": 0.0049,
    "tourism_amenity_density": 0.0796,
    "tri_facility_density": 0.0,
    "usgs_mean_q_cfs": 3.425,
    "velocity_feasibility": 0.7,
    "water_intake_score": 1.0291
   },
   "type": "Feature"
  },
  {
   "geometry": {
    "coordinates": [
     -79.3141,
     35.585147
    ],
    "type": "Point"
   },
   "properties": {
    "accumulation": 26748.0,
    "bank_slope_deg": 9.64,
    "bank_slope_score": 1.0,
    "bank_slope_source": "nc-dps-lidar-dem03-cross-section",
    "beach_dist_km": 206.64,
    "bridge_proximity_bonus": 0.0,
    "catchment_area_km2": 2.6676,
    "channel_width_m": 4.69,
    "channel_width_score": 1.0,
    "composite_score": 62.9334,
    "cso_density": 0.0,
    "ej_index": 0.5719,
    "elevation_m": 101.036,
    "estuary_dist_km": 302.06,
    "feasibility_score": 55.5556,
    "flood_q10_cfs": 442.74,
    "flow_score": 29.852,
    "flow_velocity_ms": 0.0363,
    "generation_score": 86.25,
    "impact_score": 70.8736,
    "impervious_pct": 7.31,
    "land_ownership": 0.5,
    "lat": 35.5851,
    "litter_complaint_density": 0.0,
    "lon": -79.3141,
    "navigable_dist_m": null,
    "npdes_points": 2,
    "pixel_col": 293.0,
    "pixel_row": 269.0,
    "population_density": 17.3,
    "position_along": 0.5,
    "protected_area_score": 8.0502,
    "rank": 2,
    "road_access_m": 151.9,
    "road_access_score": 1.0,
    "road_density_km_km2": 2.181,
    "robustness_pct": 100.0,
    "runoff_coeff_C": 0.1158,
    "seasonal_cv": 0.447,
    "segment_id": 1,
    "segment_length_m": 1098.7625,
    "stream_order": 3,
    "superfund_score": 0.0048,
    "tourism_amenity_density": 0.4775,
    "tri_facility_density": 0.0,
    "usgs_mean_q_cfs": 1.663,
    "velocity_feasibility": 0.3,
    "water_intake_score": 0.9783
   },
   "type": "Feature"
  },
  {
   "geometry": {
    "coordinates": [
     -79.313373,
     35.588838
    ],
    "type": "Point"
   },
   "properties": {
    "accumulation": 24968.0,
    "bank_slope_deg": 12.1,
    "bank_slope_score": 1.0,
    "bank_slope_source": "nc-dps-lidar-dem03-cross-section",
    "beach_dist_km": 206.89,
    "bridge_proximity_bonus": 0.0,
    "catchment_area_km2": 2.4901,
    "channel_width_m": 4.56,
    "channel_width_score": 1.0,
    "composite_score": 56.074,
    "cso_density": 0.0,
    "ej_index": 0.5151,
    "elevation_m": 101.6874,
    "estuary_dist_km": 302.07,
    "feasibility_score": 100.0,
    "flood_q10_cfs": 395.79,
    "flow_score": 24.9371,
    "flow_velocity_ms": 0.0999,
    "generation_score": 52.7673,
    "impact_score": 63.3652,
    "impervious_pct": 3.87,
    "land_ownership": 0.5,
    "lat": 35.5888,
    "litter_complaint_density": 0.0,
    "lon": -79.3134,
    "navigable_dist_m": null,
    "npdes_points": 0,
    "pixel_col": 300.0,
    "pixel_row": 228.0,
    "population_density": 18.0,
    "position_along": 0.5,
    "protected_area_score": 8.0531,
    "rank": 3,
    "road_access_m": 88.6,
    "road_access_score": 1.0,
    "road_density_km_km2": 2.079,
    "robustness_pct": 100.0,
    "runoff_coeff_C": 0.0848,
    "seasonal_cv": 0.4522,
    "segment_id": 0,
    "segment_length_m": 1187.2219,
    "stream_order": 3,
    "superfund_score": 0.0044,
    "tourism_amenity_density": 0.557,
    "tri_facility_density": 0.0,
    "usgs_mean_q_cfs": 1.311,
    "velocity_feasibility": 0.7,
    "water_intake_score": 0.9814
   },
   "type": "Feature"
  },
  {
   "geometry": {
    "coordinates": [
     -79.341797,
     35.576645
    ],
    "type": "Point"
   },
   "properties": {
    "accumulation": 25730.0,
    "bank_slope_deg": 6.56,
    "bank_slope_score": 1.0,
    "bank_slope_source": "nc-dps-lidar-dem03-cross-section",
    "beach_dist_km": 207.66,
    "bridge_proximity_bonus": 0.0,
    "catchment_area_km2": 2.5661,
    "channel_width_m": 4.61,
    "channel_width_score": 1.0,
    "composite_score": 22.7759,
    "cso_density": 0.0,
    "ej_index": 0.7672,
    "elevation_m": 95.8658,
    "estuary_dist_km": 304.35,
    "feasibility_score": 44.4444,
    "flood_q10_cfs": 382.01,
    "flow_score": 22.8361,
    "flow_velocity_ms": 0.1075,
    "generation_score": 10.0,
    "impact_score": 24.6674,
    "impervious_pct": 0.55,
    "land_ownership": 0.5,
    "lat": 35.5766,
    "litter_complaint_density": 0.0,
    "lon": -79.3418,
    "navigable_dist_m": null,
    "npdes_points": 1,
    "pixel_col": 42.0,
    "pixel_row": 368.0,
    "population_density": 14.7,
    "position_along": 0.5,
    "protected_area_score": 7.5311,
    "rank": 4,
    "road_access_m": 701.1,
    "road_access_score": 0.6,
    "road_density_km_km2": 0.282,
    "robustness_pct": 100.0,
    "runoff_coeff_C": 0.055,
    "seasonal_cv": 0.4419,
    "segment_id": 3,
    "segment_length_m": 923.0197,
    "stream_order": 1,
    "superfund_score": 0.0042,
    "tourism_amenity_density": 0.3979,
    "tri_facility_density": 0.0,
    "usgs_mean_q_cfs": 1.997,
    "velocity_feasibility": 0.7,
    "water_intake_score": 0.8211
   },
   "type": "Feature"
  }
 ],
 "note": "GRIME region 'Goldston, NC' \u2014 real-data pipeline (DEM\u2192streams\u2192candidates\u2192stream mask (sites confined to \u00b1150 m of mapped OSM/NHD waterways)\u2192region-appropriate real parameters\u2192shipped scoring, math unchanged). Width curve: Bieger et al. 2015 JAWRA Table 3, Appalachian Highlands. Flood: SIR 2014-5030 HR1. NC Piedmont (DEQ physiography polygon)",
 "provenance": {
  "candidates_pre_gate": 4,
  "constant": [
   "bank_slope_score",
   "bridge_proximity_bonus",
   "channel_width_score",
   "cso_density",
   "land_ownership",
   "litter_complaint_density",
   "tri_facility_density"
  ],
  "gated_navigable": 0,
  "hard_gate_removed": 0,
  "n_parameters": 27,
  "parameters": {
   "bank_slope_score": {
    "kind": "real",
    "n_3dep_10m_fallback": 0,
    "n_nc_lidar_3_125ft": 4,
    "n_real": 4,
    "n_sites": 4,
    "source": "NC OneMap / NC DPS DEM03 statewide lidar-derived 3.125-ft (0.953 m) elevations (perpendicular 50 m transect; robust 5 m bank-rise metric); unavailable profiles use the region 10 m 3DEP DEM-gradient fallback",
    "source_mosaics": [
     "Chatham_2024_QL1_03ft_CountywideRaster"
    ]
   },
   "beach_dist_km": {
    "kind": "real",
    "n_real": 4,
    "n_sites": 4,
    "source": "haversine to region ref: Wrightsville Beach (shipped NC reference)"
   },
   "bridge_proximity_bonus": {
    "kind": "real",
    "n_real": 4,
    "n_sites": 4,
    "source": "FHWA/BTS NBI (NTAD), 50 m proximity"
   },
   "catchment_area_km2": {
    "kind": "real",
    "n_real": 4,
    "n_sites": 4,
    "source": "DEM flow accumulation (pipeline)"
   },
   "channel_width_score": {
    "kind": "real",
    "n_real": 4,
    "n_sites": 4,
    "source": "Bieger 2015 AHI width curve on DEM drainage area \u2192 shipped width curve"
   },
   "cso_density": {
    "kind": "real",
    "n_real": 4,
    "n_sites": 4,
    "source": "EPA ECHO open CSO/TCS outfall PF coordinates states=NC, Cauchy proximity"
   },
   "ej_index": {
    "kind": "real",
    "n_real": 4,
    "n_sites": 4,
    "source": "Census ACS C17002+B03002 two-component demographic index, percentile-ranked within region"
   },
   "estuary_dist_km": {
    "kind": "real",
    "n_real": 4,
    "n_sites": 4,
    "source": "haversine to region ref: Pamlico Sound (shipped NC reference)"
   },
   "flood_q10_cfs": {
    "kind": "real",
    "n_real": 4,
    "n_sites": 4,
    "source": "USGS SIR 2014-5030 Table 7 HR1 (NC Piedmont)"
   },
   "flow_velocity_ms": {
    "kind": "real",
    "n_fallback": 0,
    "n_real": 4,
    "n_sites": 4,
    "source": "Manning (region DEM/D8) blended with EROM continuity (shipped M4 logic)"
   },
   "impervious_pct": {
    "kind": "real",
    "n_real": 4,
    "n_sites": 4,
    "source": "EPA StreamCat pctimp2019 (per NHDPlus watershed)"
   },
   "land_ownership": {
    "kind": "real",
    "n_fallback": 0,
    "n_real": 4,
    "n_sites": 4,
    "source": "NC OneMap statewide parcels (NC Parcels Transformer) ownname"
   },
   "litter_complaint_density": {
    "kind": "fallback",
    "n_real": 0,
    "n_sites": 4,
    "source": "no public machine-readable litter/illegal-dumping feed for this region"
   },
   "navigable_dist_m": {
    "kind": "real",
    "n_real": 4,
    "n_sites": 4,
    "source": "USACE/BTS NWN (NTAD): no navigable segment within this bbox (+2 km) \u2014 computed absence, gate passes all sites"
   },
   "npdes_points": {
    "kind": "real",
    "n_real": 4,
    "n_sites": 4,
    "source": "EPA ECHO active NPDES outfalls states=NC (types NPD/GPC/NGP; statuses ADC/EFF/EXP), per catchment"
   },
   "population_density": {
    "kind": "real",
    "n_real": 4,
    "n_sites": 4,
    "source": "Census ACS 2022 B01003 block groups (bbox, multi-county), area-weighted"
   },
   "protected_area_score": {
    "kind": "real",
    "n_real": 4,
    "n_sites": 4,
    "source": "USGS PAD-US 4.1 state GDB; states=NC; shipped designation-weighted proximity curve"
   },
   "road_access_score": {
    "kind": "real",
    "n_real": 4,
    "n_sites": 4,
    "source": "OSM drive network nearest-node distance"
   },
   "road_density_km_km2": {
    "kind": "real",
    "n_real": 4,
    "n_sites": 4,
    "source": "OSM drive network (osmnx, cached) clipped per catchment"
   },
   "runoff_coeff_C": {
    "kind": "real",
    "n_real": 4,
    "n_sites": 4,
    "source": "derived from real impervious_pct (C=0.05+0.009*I)"
   },
   "seasonal_cv": {
    "kind": "real",
    "n_real": 4,
    "n_sites": 4,
    "source": "CV of NHDPlus EROM monthly flows per COMID"
   },
   "stream_order": {
    "kind": "real",
    "n_real": 4,
    "n_sites": 4,
    "source": "DEM stream-network confluence heuristic (pipeline)"
   },
   "superfund_score": {
    "kind": "real",
    "n_real": 4,
    "n_sites": 4,
    "source": "EPA DataMap SEMS active sites states=NC (non-archived, georeferenced), shipped 500 m inverse-distance curve"
   },
   "tourism_amenity_density": {
    "kind": "real",
    "n_real": 4,
    "n_sites": 4,
    "source": "OSM leisure/tourism features per 2 km radius"
   },
   "tri_facility_density": {
    "kind": "real",
    "n_real": 4,
    "n_sites": 4,
    "source": "EPA DataMap TRI open facilities states=NC (preferred decimal or packed-DMS recovery), per catchment"
   },
   "usgs_mean_q_cfs": {
    "kind": "real",
    "n_real": 4,
    "n_sites": 4,
    "source": "NHDPlus EROM qe_ma per COMID (snap-guarded)"
   },
   "velocity_feasibility": {
    "kind": "real",
    "n_fallback": 0,
    "n_real": 4,
    "n_sites": 4,
    "source": "shipped step curve on the computed velocity"
   },
   "velocity_transport_favorability": {
    "kind": "derived",
    "n_real": 4,
    "n_sites": 4,
    "source": "scored form of flow_velocity_ms inside the Flow family \u2014 peaked Gaussian exp(-((v-0.9)/0.6)^2), model.json curves.velocity_transport_favorability; construct: transport/delivery favorability, deliberately distinct from velocity_feasibility (device operability)"
   },
   "water_intake_score": {
    "kind": "real",
    "n_real": 4,
    "n_sites": 4,
    "source": "NC OneMap / NC DEQ SWAP public water supply sources (source_typ='Surface Water'), shipped exp(-d/10km) curve"
   }
  },
  "stream_mask": {
   "buffer_m": 150.0,
   "pre_mask": 4,
   "removed": 0,
   "sources": [
    "osm-overpass (all waterway ways)",
    "usgs-nhdplus flowlines"
   ]
  },
  "varying": [
   "beach_dist_km",
   "catchment_area_km2",
   "ej_index",
   "estuary_dist_km",
   "flood_q10_cfs",
   "flow_velocity_ms",
   "impervious_pct",
   "npdes_points",
   "population_density",
   "protected_area_score",
   "road_access_score",
   "road_density_km_km2",
   "runoff_coeff_C",
   "seasonal_cv",
   "stream_order",
   "superfund_score",
   "tourism_amenity_density",
   "usgs_mean_q_cfs",
   "velocity_feasibility",
   "water_intake_score"
  ]
 },
 "region": {
  "bbox": [
   -79.3459,
   35.573,
   -79.3016,
   35.6091
  ],
  "beach_ref": {
   "label": "Wrightsville Beach (shipped NC reference)",
   "lat": 34.21,
   "lon": -77.79
  },
  "center": [
   -79.323786,
   35.591038
  ],
  "estuary_ref": {
   "label": "Pamlico Sound (shipped NC reference)",
   "lat": 35.05,
   "lon": -76.05
  },
  "flood_method": "sir2014_hr1",
  "name": "Goldston, NC",
  "notes": "NC Piedmont (DEQ physiography polygon)",
  "slug": "goldston",
  "state": "NC",
  "utm_epsg": 32617,
  "width_curve": {
   "a": 3.12,
   "b": 0.415,
   "code": "AHI",
   "source": "Bieger et al. 2015 JAWRA Table 3, Appalachian Highlands"
  }
 },
 "type": "FeatureCollection"
}
