{
 "features": [
  {
   "geometry": {
    "coordinates": [
     -81.421574,
     35.770641
    ],
    "type": "Point"
   },
   "properties": {
    "accumulation": 22931.0,
    "bank_slope_deg": 0.0,
    "bank_slope_score": 1.0,
    "bank_slope_source": "nc-dps-lidar-dem03-cross-section",
    "beach_dist_km": 373.54,
    "bridge_proximity_bonus": 0.0,
    "catchment_area_km2": 2.2879,
    "channel_width_m": 4.4,
    "channel_width_score": 1.0,
    "composite_score": 48.1438,
    "cso_density": 0.0,
    "ej_index": 0.498,
    "elevation_m": 283.7317,
    "estuary_dist_km": 493.29,
    "feasibility_score": 100.0,
    "flood_q10_cfs": 347.0,
    "flow_score": 31.3977,
    "flow_velocity_ms": 0.5,
    "generation_score": 12.3498,
    "impact_score": 71.9647,
    "impervious_pct": null,
    "land_ownership": 0.5,
    "lat": 35.7706,
    "litter_complaint_density": 0.0,
    "lon": -81.4216,
    "navigable_dist_m": null,
    "npdes_points": 0,
    "pixel_col": 422.0,
    "pixel_row": 691.0,
    "population_density": 193.7,
    "position_along": 0.5,
    "protected_area_score": 8.9056,
    "rank": 1,
    "road_access_m": 178.2,
    "road_access_score": 1.0,
    "road_density_km_km2": 1.928,
    "robustness_pct": 88.0,
    "runoff_coeff_C": null,
    "seasonal_cv": null,
    "segment_id": 7,
    "segment_length_m": 926.6418,
    "stream_order": 1,
    "superfund_score": 0.0147,
    "tourism_amenity_density": 1.512,
    "tri_facility_density": 0.0,
    "usgs_mean_q_cfs": null,
    "velocity_feasibility": 1.0,
    "water_intake_score": 2.8061
   },
   "type": "Feature"
  },
  {
   "geometry": {
    "coordinates": [
     -81.449265,
     35.818993
    ],
    "type": "Point"
   },
   "properties": {
    "accumulation": 31771.0,
    "bank_slope_deg": 6.67,
    "bank_slope_score": 1.0,
    "bank_slope_source": "nc-dps-lidar-dem03-cross-section",
    "beach_dist_km": 378.2,
    "bridge_proximity_bonus": 0.0,
    "catchment_area_km2": 3.1699,
    "channel_width_m": 5.04,
    "channel_width_score": 1.0,
    "composite_score": 47.224,
    "cso_density": 0.0,
    "ej_index": 0.7578,
    "elevation_m": 328.192,
    "estuary_dist_km": 496.52,
    "feasibility_score": 63.6364,
    "flood_q10_cfs": 543.04,
    "flow_score": 19.2165,
    "flow_velocity_ms": 0.0408,
    "generation_score": 65.6903,
    "impact_score": 43.8912,
    "impervious_pct": 11.55,
    "land_ownership": 0.5,
    "lat": 35.819,
    "litter_complaint_density": 0.0,
    "lon": -81.4493,
    "navigable_dist_m": null,
    "npdes_points": 0,
    "pixel_col": 174.0,
    "pixel_row": 154.0,
    "population_density": 250.1,
    "position_along": 0.125,
    "protected_area_score": 8.01,
    "rank": 2,
    "road_access_m": 119.9,
    "road_access_score": 1.0,
    "road_density_km_km2": 4.225,
    "robustness_pct": 91.0,
    "runoff_coeff_C": 0.154,
    "seasonal_cv": 0.3954,
    "segment_id": 0,
    "segment_length_m": 7329.4534,
    "stream_order": 1,
    "superfund_score": 0.0247,
    "tourism_amenity_density": 1.1937,
    "tri_facility_density": 0.3155,
    "usgs_mean_q_cfs": 13.286,
    "velocity_feasibility": 0.3,
    "water_intake_score": 2.4141
   },
   "type": "Feature"
  },
  {
   "geometry": {
    "coordinates": [
     -81.439005,
     35.774001
    ],
    "type": "Point"
   },
   "properties": {
    "accumulation": 20094.0,
    "bank_slope_deg": 0.0,
    "bank_slope_score": 1.0,
    "bank_slope_source": "nc-dps-lidar-dem03-cross-section",
    "beach_dist_km": 375.11,
    "bridge_proximity_bonus": 0.0,
    "catchment_area_km2": 2.0048,
    "channel_width_m": 4.16,
    "channel_width_score": 1.0,
    "composite_score": 44.9203,
    "cso_density": 0.0,
    "ej_index": 0.474,
    "elevation_m": 302.1031,
    "estuary_dist_km": 494.9,
    "feasibility_score": 77.2727,
    "flood_q10_cfs": 314.13,
    "flow_score": 30.2326,
    "flow_velocity_ms": 0.5,
    "generation_score": 21.7935,
    "impact_score": 64.1107,
    "impervious_pct": null,
    "land_ownership": 0.5,
    "lat": 35.774,
    "litter_complaint_density": 0.0,
    "lon": -81.439,
    "navigable_dist_m": null,
    "npdes_points": 0,
    "pixel_col": 265.0,
    "pixel_row": 653.0,
    "population_density": 220.1,
    "position_along": 0.5,
    "protected_area_score": 8.8159,
    "rank": 3,
    "road_access_m": 384.4,
    "road_access_score": 0.8,
    "road_density_km_km2": 3.048,
    "robustness_pct": 92.0,
    "runoff_coeff_C": null,
    "seasonal_cv": null,
    "segment_id": 6,
    "segment_length_m": 484.0081,
    "stream_order": 1,
    "superfund_score": 0.0132,
    "tourism_amenity_density": 1.4324,
    "tri_facility_density": 0.0,
    "usgs_mean_q_cfs": null,
    "velocity_feasibility": 1.0,
    "water_intake_score": 2.8961
   },
   "type": "Feature"
  },
  {
   "geometry": {
    "coordinates": [
     -81.423156,
     35.806207
    ],
    "type": "Point"
   },
   "properties": {
    "accumulation": 25632.0,
    "bank_slope_deg": 11.18,
    "bank_slope_score": 1.0,
    "bank_slope_source": "nc-dps-lidar-dem03-cross-section",
    "beach_dist_km": 375.45,
    "bridge_proximity_bonus": 0.0,
    "catchment_area_km2": 2.5574,
    "channel_width_m": 4.61,
    "channel_width_score": 1.0,
    "composite_score": 40.1063,
    "cso_density": 0.0,
    "ej_index": 0.6399,
    "elevation_m": 315.4486,
    "estuary_dist_km": 493.98,
    "feasibility_score": 61.6883,
    "flood_q10_cfs": 585.31,
    "flow_score": 15.1312,
    "flow_velocity_ms": 0.0953,
    "generation_score": 42.2768,
    "impact_score": 47.9574,
    "impervious_pct": 25.08,
    "land_ownership": 0.5,
    "lat": 35.8062,
    "litter_complaint_density": 0.0,
    "lon": -81.4232,
    "navigable_dist_m": null,
    "npdes_points": 0,
    "pixel_col": 409.0,
    "pixel_row": 296.0,
    "population_density": 177.4,
    "position_along": 0.5,
    "protected_area_score": 7.8315,
    "rank": 4,
    "road_access_m": 243.0,
    "road_access_score": 0.8,
    "road_density_km_km2": 5.863,
    "robustness_pct": 55.5,
    "runoff_coeff_C": 0.2757,
    "seasonal_cv": 0.4652,
    "segment_id": 2,
    "segment_length_m": 998.986,
    "stream_order": 1,
    "superfund_score": 0.0149,
    "tourism_amenity_density": 1.2732,
    "tri_facility_density": 0.0,
    "usgs_mean_q_cfs": 1.661,
    "velocity_feasibility": 0.7,
    "water_intake_score": 2.5526
   },
   "type": "Feature"
  },
  {
   "geometry": {
    "coordinates": [
     -81.418277,
     35.814511
    ],
    "type": "Point"
   },
   "properties": {
    "accumulation": 117316.0,
    "bank_slope_deg": 1.48,
    "bank_slope_score": 1.0,
    "bank_slope_source": "nc-dps-lidar-dem03-cross-section",
    "beach_dist_km": 375.48,
    "bridge_proximity_bonus": 0.0,
    "catchment_area_km2": 11.705,
    "channel_width_m": 8.66,
    "channel_width_score": 1.0,
    "composite_score": 39.8841,
    "cso_density": 0.0,
    "ej_index": 0.5919,
    "elevation_m": 313.5323,
    "estuary_dist_km": 493.68,
    "feasibility_score": 38.961,
    "flood_q10_cfs": 1279.47,
    "flow_score": 68.5549,
    "flow_velocity_ms": 0.0534,
    "generation_score": 24.6386,
    "impact_score": 31.6987,
    "impervious_pct": 9.89,
    "land_ownership": 0.5,
    "lat": 35.8145,
    "litter_complaint_density": 0.0,
    "lon": -81.4183,
    "navigable_dist_m": null,
    "npdes_points": 0,
    "pixel_col": 450.0,
    "pixel_row": 205.0,
    "population_density": 168.1,
    "position_along": 0.875,
    "protected_area_score": 7.6596,
    "rank": 5,
    "road_access_m": 508.7,
    "road_access_score": 0.6,
    "road_density_km_km2": 3.356,
    "robustness_pct": 55.0,
    "runoff_coeff_C": 0.139,
    "seasonal_cv": 0.3931,
    "segment_id": 0,
    "segment_length_m": 7329.4534,
    "stream_order": 1,
    "superfund_score": 0.0153,
    "tourism_amenity_density": 0.3183,
    "tri_facility_density": 0.0854,
    "usgs_mean_q_cfs": 48.265,
    "velocity_feasibility": 0.7,
    "water_intake_score": 2.3737
   },
   "type": "Feature"
  },
  {
   "geometry": {
    "coordinates": [
     -81.433948,
     35.82157
    ],
    "type": "Point"
   },
   "properties": {
    "accumulation": 59376.0,
    "bank_slope_deg": 22.41,
    "bank_slope_score": 0.5,
    "bank_slope_source": "nc-dps-lidar-dem03-cross-section",
    "beach_dist_km": 377.1,
    "bridge_proximity_bonus": 0.0,
    "catchment_area_km2": 5.9241,
    "channel_width_m": 6.53,
    "channel_width_score": 1.0,
    "composite_score": 39.3363,
    "cso_density": 0.0,
    "ej_index": 0.6595,
    "elevation_m": 317.4929,
    "estuary_dist_km": 495.19,
    "feasibility_score": 43.5065,
    "flood_q10_cfs": 869.95,
    "flow_score": 32.294,
    "flow_velocity_ms": 0.1059,
    "generation_score": 46.9528,
    "impact_score": 35.5033,
    "impervious_pct": 11.55,
    "land_ownership": 0.5,
    "lat": 35.8216,
    "litter_complaint_density": 0.0,
    "lon": -81.4339,
    "navigable_dist_m": null,
    "npdes_points": 0,
    "pixel_col": 313.0,
    "pixel_row": 125.0,
    "population_density": 179.0,
    "position_along": 0.375,
    "protected_area_score": 7.7475,
    "rank": 6,
    "road_access_m": 214.6,
    "road_access_score": 0.8,
    "road_density_km_km2": 3.58,
    "robustness_pct": 42.0,
    "runoff_coeff_C": 0.154,
    "seasonal_cv": 0.3954,
    "segment_id": 0,
    "segment_length_m": 7329.4534,
    "stream_order": 1,
    "superfund_score": 0.0204,
    "tourism_amenity_density": 1.0345,
    "tri_facility_density": 0.3376,
    "usgs_mean_q_cfs": 13.286,
    "velocity_feasibility": 0.7,
    "water_intake_score": 2.3221
   },
   "type": "Feature"
  },
  {
   "geometry": {
    "coordinates": [
     -81.407381,
     35.791862
    ],
    "type": "Point"
   },
   "properties": {
    "accumulation": 33804.0,
    "bank_slope_deg": 3.58,
    "bank_slope_score": 1.0,
    "bank_slope_source": "nc-dps-lidar-dem03-cross-section",
    "beach_dist_km": 373.46,
    "bridge_proximity_bonus": 0.0,
    "catchment_area_km2": 3.3727,
    "channel_width_m": 5.17,
    "channel_width_score": 1.0,
    "composite_score": 38.6274,
    "cso_density": 0.0,
    "ej_index": 0.3139,
    "elevation_m": 289.0688,
    "estuary_dist_km": 492.35,
    "feasibility_score": 77.2727,
    "flood_q10_cfs": 464.89,
    "flow_score": 35.7264,
    "flow_velocity_ms": 0.5,
    "generation_score": 6.6956,
    "impact_score": 53.6539,
    "impervious_pct": null,
    "land_ownership": 0.5,
    "lat": 35.7919,
    "litter_complaint_density": 0.0,
    "lon": -81.4074,
    "navigable_dist_m": null,
    "npdes_points": 0,
    "pixel_col": 550.0,
    "pixel_row": 453.0,
    "population_density": 163.0,
    "position_along": 0.5,
    "protected_area_score": 8.62,
    "rank": 7,
    "road_access_m": 275.4,
    "road_access_score": 0.8,
    "road_density_km_km2": 3.062,
    "robustness_pct": 44.0,
    "runoff_coeff_C": null,
    "seasonal_cv": null,
    "segment_id": 4,
    "segment_length_m": 1129.5482,
    "stream_order": 1,
    "superfund_score": 0.0134,
    "tourism_amenity_density": 1.1141,
    "tri_facility_density": 0.0,
    "usgs_mean_q_cfs": null,
    "velocity_feasibility": 1.0,
    "water_intake_score": 2.6097
   },
   "type": "Feature"
  },
  {
   "geometry": {
    "coordinates": [
     -81.421771,
     35.819374
    ],
    "type": "Point"
   },
   "properties": {
    "accumulation": 93857.0,
    "bank_slope_deg": 22.16,
    "bank_slope_score": 0.5,
    "bank_slope_source": "nc-dps-lidar-dem03-cross-section",
    "beach_dist_km": 376.01,
    "bridge_proximity_bonus": 0.0,
    "catchment_area_km2": 9.3644,
    "channel_width_m": 7.89,
    "channel_width_score": 1.0,
    "composite_score": 37.6388,
    "cso_density": 0.0,
    "ej_index": 0.6336,
    "elevation_m": 313.7733,
    "estuary_dist_km": 494.07,
    "feasibility_score": 43.5065,
    "flood_q10_cfs": 1132.15,
    "flow_score": 60.6616,
    "flow_velocity_ms": 0.0508,
    "generation_score": 23.2672,
    "impact_score": 29.8909,
    "impervious_pct": 9.98,
    "land_ownership": 0.5,
    "lat": 35.8194,
    "litter_complaint_density": 0.0,
    "lon": -81.4218,
    "navigable_dist_m": null,
    "npdes_points": 0,
    "pixel_col": 420.0,
    "pixel_row": 151.0,
    "population_density": 167.1,
    "position_along": 0.625,
    "protected_area_score": 7.6925,
    "rank": 8,
    "road_access_m": 251.1,
    "road_access_score": 0.8,
    "road_density_km_km2": 2.139,
    "robustness_pct": 30.5,
    "runoff_coeff_C": 0.1398,
    "seasonal_cv": 0.3927,
    "segment_id": 0,
    "segment_length_m": 7329.4534,
    "stream_order": 1,
    "superfund_score": 0.0167,
    "tourism_amenity_density": 0.2387,
    "tri_facility_density": 0.1068,
    "usgs_mean_q_cfs": 47.645,
    "velocity_feasibility": 0.7,
    "water_intake_score": 2.3111
   },
   "type": "Feature"
  },
  {
   "geometry": {
    "coordinates": [
     -81.450533,
     35.78564
    ],
    "type": "Point"
   },
   "properties": {
    "accumulation": 20738.0,
    "bank_slope_deg": 0.01,
    "bank_slope_score": 1.0,
    "bank_slope_source": "nc-dps-lidar-dem03-cross-section",
    "beach_dist_km": 376.62,
    "bridge_proximity_bonus": 0.0,
    "catchment_area_km2": 2.0691,
    "channel_width_m": 4.22,
    "channel_width_score": 1.0,
    "composite_score": 30.4257,
    "cso_density": 0.0,
    "ej_index": 0.4529,
    "elevation_m": 302.1031,
    "estuary_dist_km": 496.11,
    "feasibility_score": 18.1818,
    "flood_q10_cfs": 397.14,
    "flow_score": 6.288,
    "flow_velocity_ms": 0.0379,
    "generation_score": 35.6159,
    "impact_score": 51.4722,
    "impervious_pct": 12.04,
    "land_ownership": 0.5,
    "lat": 35.7856,
    "litter_complaint_density": 0.0,
    "lon": -81.4505,
    "navigable_dist_m": null,
    "npdes_points": 4,
    "pixel_col": 161.0,
    "pixel_row": 525.0,
    "population_density": 192.9,
    "position_along": 0.5,
    "protected_area_score": 8.6902,
    "rank": 9,
    "road_access_m": 839.7,
    "road_access_score": 0.6,
    "road_density_km_km2": 0.0,
    "robustness_pct": 2.0,
    "runoff_coeff_C": 0.1584,
    "seasonal_cv": 0.4697,
    "segment_id": 5,
    "segment_length_m": 1147.2236,
    "stream_order": 1,
    "superfund_score": 0.0139,
    "tourism_amenity_density": 0.557,
    "tri_facility_density": 0.0,
    "usgs_mean_q_cfs": 1.398,
    "velocity_feasibility": 0.3,
    "water_intake_score": 2.968
   },
   "type": "Feature"
  },
  {
   "geometry": {
    "coordinates": [
     -81.388341,
     35.807952
    ],
    "type": "Point"
   },
   "properties": {
    "accumulation": 57330.0,
    "bank_slope_deg": 18.77,
    "bank_slope_score": 0.5,
    "bank_slope_source": "nc-dps-lidar-dem03-cross-section",
    "beach_dist_km": 372.75,
    "bridge_proximity_bonus": 0.0,
    "catchment_area_km2": 5.72,
    "channel_width_m": 6.43,
    "channel_width_score": 1.0,
    "composite_score": 28.3308,
    "cso_density": 0.0,
    "ej_index": 0.2734,
    "elevation_m": 304.2793,
    "estuary_dist_km": 490.9,
    "feasibility_score": 66.2338,
    "flood_q10_cfs": 742.79,
    "flow_score": 24.9199,
    "flow_velocity_ms": 0.141,
    "generation_score": 12.5715,
    "impact_score": 27.981,
    "impervious_pct": 4.03,
    "land_ownership": 0.5,
    "lat": 35.808,
    "litter_complaint_density": 0.0,
    "lon": -81.3883,
    "navigable_dist_m": null,
    "npdes_points": 0,
    "pixel_col": 724.0,
    "pixel_row": 279.0,
    "population_density": 174.1,
    "position_along": 0.5,
    "protected_area_score": 7.7165,
    "rank": 10,
    "road_access_m": 169.3,
    "road_access_score": 1.0,
    "road_density_km_km2": 2.52,
    "robustness_pct": 0.0,
    "runoff_coeff_C": 0.0863,
    "seasonal_cv": 0.4034,
    "segment_id": 1,
    "segment_length_m": 2754.6346,
    "stream_order": 1,
    "superfund_score": 0.0117,
    "tourism_amenity_density": 0.3979,
    "tri_facility_density": 0.0,
    "usgs_mean_q_cfs": 5.92,
    "velocity_feasibility": 0.7,
    "water_intake_score": 2.2684
   },
   "type": "Feature"
  },
  {
   "geometry": {
    "coordinates": [
     -81.460355,
     35.79303
    ],
    "type": "Point"
   },
   "properties": {
    "accumulation": 24522.0,
    "bank_slope_deg": 26.15,
    "bank_slope_score": 0.5,
    "bank_slope_source": "nc-dps-lidar-dem03-cross-section",
    "beach_dist_km": 377.78,
    "bridge_proximity_bonus": 0.0,
    "catchment_area_km2": 2.4466,
    "channel_width_m": 4.52,
    "channel_width_score": 1.0,
    "composite_score": 25.4841,
    "cso_density": 0.0,
    "ej_index": 0.4574,
    "elevation_m": 305.5607,
    "estuary_dist_km": 497.1,
    "feasibility_score": 20.7792,
    "flood_q10_cfs": 438.62,
    "flow_score": 12.0824,
    "flow_velocity_ms": 0.1285,
    "generation_score": 22.7694,
    "impact_score": 41.7192,
    "impervious_pct": 10.5,
    "land_ownership": 0.5,
    "lat": 35.793,
    "litter_complaint_density": 0.0,
    "lon": -81.4604,
    "navigable_dist_m": null,
    "npdes_points": 0,
    "pixel_col": 72.0,
    "pixel_row": 440.0,
    "population_density": 203.0,
    "position_along": 0.5,
    "protected_area_score": 8.5605,
    "rank": 11,
    "road_access_m": 627.7,
    "road_access_score": 0.6,
    "road_density_km_km2": 0.657,
    "robustness_pct": 0.0,
    "runoff_coeff_C": 0.1445,
    "seasonal_cv": 0.4253,
    "segment_id": 3,
    "segment_length_m": 1182.6249,
    "stream_order": 1,
    "superfund_score": 0.0157,
    "tourism_amenity_density": 0.3183,
    "tri_facility_density": 0.0,
    "usgs_mean_q_cfs": 3.66,
    "velocity_feasibility": 0.7,
    "water_intake_score": 2.8822
   },
   "type": "Feature"
  }
 ],
 "note": "GRIME region 'Granite Falls, NC' \u2014 real-data pipeline (DEM\u2192streams\u2192candidates\u2192stream mask (sites confined to \u00b1150 m of mapped OSM/NHD waterways)\u2192region-appropriate real parameters\u2192shipped scoring, math unchanged). Width curve: Bieger et al. 2015 JAWRA Table 3, Appalachian Highlands. Flood: SIR 2014-5030 HR1. NC Piedmont (DEQ physiography polygon)",
 "provenance": {
  "candidates_pre_gate": 11,
  "constant": [
   "bridge_proximity_bonus",
   "channel_width_score",
   "cso_density",
   "land_ownership",
   "litter_complaint_density",
   "stream_order"
  ],
  "gated_navigable": 0,
  "hard_gate_removed": 0,
  "n_parameters": 27,
  "parameters": {
   "bank_slope_score": {
    "kind": "real",
    "n_3dep_10m_fallback": 0,
    "n_nc_lidar_3_125ft": 11,
    "n_real": 11,
    "n_sites": 11,
    "source": "NC OneMap / NC DPS DEM03 statewide lidar-derived 3.125-ft (0.953 m) elevations (perpendicular 50 m transect; robust 5 m bank-rise metric); unavailable profiles use the region 10 m 3DEP DEM-gradient fallback",
    "source_mosaics": [
     "Burke_QL1_2025_03ft_CountywideRaster",
     "Caldwell_Ground_3ft"
    ]
   },
   "beach_dist_km": {
    "kind": "real",
    "n_real": 11,
    "n_sites": 11,
    "source": "haversine to region ref: Wrightsville Beach (shipped NC reference)"
   },
   "bridge_proximity_bonus": {
    "kind": "real",
    "n_real": 11,
    "n_sites": 11,
    "source": "FHWA/BTS NBI (NTAD), 50 m proximity"
   },
   "catchment_area_km2": {
    "kind": "real",
    "n_real": 11,
    "n_sites": 11,
    "source": "DEM flow accumulation (pipeline)"
   },
   "channel_width_score": {
    "kind": "real",
    "n_real": 11,
    "n_sites": 11,
    "source": "Bieger 2015 AHI width curve on DEM drainage area \u2192 shipped width curve"
   },
   "cso_density": {
    "kind": "real",
    "n_real": 11,
    "n_sites": 11,
    "source": "EPA ECHO open CSO/TCS outfall PF coordinates states=NC, Cauchy proximity"
   },
   "ej_index": {
    "kind": "real",
    "n_real": 11,
    "n_sites": 11,
    "source": "Census ACS C17002+B03002 two-component demographic index, percentile-ranked within region"
   },
   "estuary_dist_km": {
    "kind": "real",
    "n_real": 11,
    "n_sites": 11,
    "source": "haversine to region ref: Pamlico Sound (shipped NC reference)"
   },
   "flood_q10_cfs": {
    "impervious_fallback_reason": "StreamCat imperviousness unavailable; the existing regression-input fallback of 0.0% impervious was used and is disclosed here",
    "kind": "real",
    "n_impervious_fallback": 3,
    "n_real": 11,
    "n_sites": 11,
    "source": "USGS SIR 2014-5030 Table 7 HR1 (NC Piedmont)"
   },
   "flow_velocity_ms": {
    "fallback_reason": "EROM/DEM continuity input unavailable; shipped 0.5 m/s default used",
    "kind": "real",
    "n_fallback": 3,
    "n_real": 8,
    "n_sites": 11,
    "source": "Manning (region DEM/D8) blended with EROM continuity (shipped M4 logic)"
   },
   "impervious_pct": {
    "fallback_reason": "NLDI/StreamCat did not return a snap-compatible catchment value; value remains null and is removed by constant-column handling",
    "kind": "real",
    "n_fallback": 3,
    "n_real": 8,
    "n_sites": 11,
    "source": "EPA StreamCat pctimp2019 (per NHDPlus watershed)"
   },
   "land_ownership": {
    "fallback_reason": "no containing parcel owner returned; shipped unknown ownership 0.5 used",
    "kind": "real",
    "n_fallback": 5,
    "n_real": 6,
    "n_sites": 11,
    "source": "NC OneMap statewide parcels (NC Parcels Transformer) ownname"
   },
   "litter_complaint_density": {
    "kind": "fallback",
    "n_real": 0,
    "n_sites": 11,
    "source": "no public machine-readable litter/illegal-dumping feed for this region"
   },
   "navigable_dist_m": {
    "kind": "real",
    "n_real": 11,
    "n_sites": 11,
    "source": "USACE/BTS NWN (NTAD): no navigable segment within this bbox (+2 km) \u2014 computed absence, gate passes all sites"
   },
   "npdes_points": {
    "kind": "real",
    "n_real": 11,
    "n_sites": 11,
    "source": "EPA ECHO active NPDES outfalls states=NC (types NPD/GPC/NGP; statuses ADC/EFF/EXP), per catchment"
   },
   "population_density": {
    "kind": "real",
    "n_real": 11,
    "n_sites": 11,
    "source": "Census ACS 2022 B01003 block groups (bbox, multi-county), area-weighted"
   },
   "protected_area_score": {
    "kind": "real",
    "n_real": 11,
    "n_sites": 11,
    "source": "USGS PAD-US 4.1 state GDB; states=NC; shipped designation-weighted proximity curve"
   },
   "road_access_score": {
    "kind": "real",
    "n_real": 11,
    "n_sites": 11,
    "source": "OSM drive network nearest-node distance"
   },
   "road_density_km_km2": {
    "kind": "real",
    "n_real": 11,
    "n_sites": 11,
    "source": "OSM drive network (osmnx, cached) clipped per catchment"
   },
   "runoff_coeff_C": {
    "fallback_reason": "source impervious_pct was unavailable; derived value remains null",
    "kind": "real",
    "n_fallback": 3,
    "n_real": 8,
    "n_sites": 11,
    "source": "derived from real impervious_pct (C=0.05+0.009*I)"
   },
   "seasonal_cv": {
    "fallback_reason": "NHDPlus monthly EROM was unavailable or failed the drainage-area snap guard; value remains null",
    "kind": "real",
    "n_fallback": 3,
    "n_real": 8,
    "n_sites": 11,
    "source": "CV of NHDPlus EROM monthly flows per COMID"
   },
   "stream_order": {
    "kind": "real",
    "n_real": 11,
    "n_sites": 11,
    "source": "DEM stream-network confluence heuristic (pipeline)"
   },
   "superfund_score": {
    "kind": "real",
    "n_real": 11,
    "n_sites": 11,
    "source": "EPA DataMap SEMS active sites states=NC (non-archived, georeferenced), shipped 500 m inverse-distance curve"
   },
   "tourism_amenity_density": {
    "kind": "real",
    "n_real": 11,
    "n_sites": 11,
    "source": "OSM leisure/tourism features per 2 km radius"
   },
   "tri_facility_density": {
    "kind": "real",
    "n_real": 11,
    "n_sites": 11,
    "source": "EPA DataMap TRI open facilities states=NC (preferred decimal or packed-DMS recovery), per catchment"
   },
   "usgs_mean_q_cfs": {
    "fallback_reason": "NHDPlus EROM was unavailable or failed the drainage-area snap guard; value remains null",
    "kind": "real",
    "n_fallback": 3,
    "n_real": 8,
    "n_sites": 11,
    "source": "NHDPlus EROM qe_ma per COMID (snap-guarded)"
   },
   "velocity_feasibility": {
    "fallback_reason": "derived from the shipped 0.5 m/s velocity fallback",
    "kind": "real",
    "n_fallback": 3,
    "n_real": 8,
    "n_sites": 11,
    "source": "shipped step curve on the computed velocity"
   },
   "velocity_transport_favorability": {
    "fallback_reason": "EROM/DEM continuity input unavailable; shipped 0.5 m/s default used",
    "kind": "derived",
    "n_fallback": 3,
    "n_real": 8,
    "n_sites": 11,
    "source": "scored form of flow_velocity_ms inside the Flow family \u2014 peaked Gaussian exp(-((v-0.9)/0.6)^2), model.json curves.velocity_transport_favorability; construct: transport/delivery favorability, deliberately distinct from velocity_feasibility (device operability)"
   },
   "water_intake_score": {
    "kind": "real",
    "n_real": 11,
    "n_sites": 11,
    "source": "NC OneMap / NC DEQ SWAP public water supply sources (source_typ='Surface Water'), shipped exp(-d/10km) curve"
   }
  },
  "stream_mask": {
   "buffer_m": 150.0,
   "pre_mask": 11,
   "removed": 0,
   "sources": [
    "osm-overpass (all waterway ways)",
    "usgs-nhdplus flowlines"
   ]
  },
  "varying": [
   "bank_slope_score",
   "beach_dist_km",
   "catchment_area_km2",
   "ej_index",
   "estuary_dist_km",
   "flood_q10_cfs",
   "flow_velocity_ms",
   "impervious_pct",
   "npdes_points",
   "population_density",
   "protected_area_score",
   "road_access_score",
   "road_density_km_km2",
   "runoff_coeff_C",
   "seasonal_cv",
   "superfund_score",
   "tourism_amenity_density",
   "tri_facility_density",
   "usgs_mean_q_cfs",
   "velocity_feasibility",
   "water_intake_score"
  ]
 },
 "region": {
  "bbox": [
   -81.468,
   35.7618,
   -81.3807,
   35.8327
  ],
  "beach_ref": {
   "label": "Wrightsville Beach (shipped NC reference)",
   "lat": 34.21,
   "lon": -77.79
  },
  "center": [
   -81.424353,
   35.797235
  ],
  "estuary_ref": {
   "label": "Pamlico Sound (shipped NC reference)",
   "lat": 35.05,
   "lon": -76.05
  },
  "flood_method": "sir2014_hr1",
  "name": "Granite Falls, NC",
  "notes": "NC Piedmont (DEQ physiography polygon)",
  "slug": "granite-falls",
  "state": "NC",
  "utm_epsg": 32617,
  "width_curve": {
   "a": 3.12,
   "b": 0.415,
   "code": "AHI",
   "source": "Bieger et al. 2015 JAWRA Table 3, Appalachian Highlands"
  }
 },
 "type": "FeatureCollection"
}
