{
 "features": [
  {
   "geometry": {
    "coordinates": [
     -81.859819,
     36.089299
    ],
    "type": "Point"
   },
   "properties": {
    "accumulation": 73497.0,
    "bank_slope_deg": 27.6,
    "bank_slope_score": 0.5,
    "bank_slope_source": "nc-dps-lidar-dem03-cross-section",
    "beach_dist_km": 424.89,
    "bridge_proximity_bonus": 0.0,
    "catchment_area_km2": 7.3216,
    "channel_width_m": 7.13,
    "channel_width_score": 1.0,
    "composite_score": 59.8539,
    "cso_density": 0.0,
    "ej_index": 0.6952,
    "elevation_m": 1129.5204,
    "estuary_dist_km": 537.95,
    "feasibility_score": 0.0,
    "flood_q10_cfs": null,
    "flow_score": 89.2887,
    "flow_velocity_ms": 0.2451,
    "generation_score": 64.2841,
    "impact_score": 60.8215,
    "impervious_pct": 2.83,
    "land_ownership": 0.5,
    "lat": 36.0893,
    "litter_complaint_density": 0.0,
    "lon": -81.8598,
    "navigable_dist_m": null,
    "npdes_points": 1,
    "pixel_col": 167.0,
    "pixel_row": 265.0,
    "population_density": 22.6,
    "position_along": 0.5,
    "protected_area_score": 18.2802,
    "rank": 1,
    "road_access_m": 889.4,
    "road_access_score": 0.6,
    "road_density_km_km2": 0.617,
    "robustness_pct": 100.0,
    "runoff_coeff_C": 0.0755,
    "seasonal_cv": 0.3906,
    "segment_id": 0,
    "segment_length_m": 5035.9336,
    "stream_order": 1,
    "superfund_score": 0.0,
    "tourism_amenity_density": 5.093,
    "tri_facility_density": 0.0,
    "usgs_mean_q_cfs": 18.61,
    "velocity_feasibility": 0.7,
    "water_intake_score": 1.1234
   },
   "type": "Feature"
  },
  {
   "geometry": {
    "coordinates": [
     -81.869171,
     36.080603
    ],
    "type": "Point"
   },
   "properties": {
    "accumulation": 96637.0,
    "bank_slope_deg": 15.04,
    "bank_slope_score": 0.5,
    "bank_slope_source": "nc-dps-lidar-dem03-cross-section",
    "beach_dist_km": 425.18,
    "bridge_proximity_bonus": 0.0,
    "catchment_area_km2": 9.6268,
    "channel_width_m": 7.99,
    "channel_width_score": 1.0,
    "composite_score": 57.1789,
    "cso_density": 0.0,
    "ej_index": 0.6765,
    "elevation_m": 1114.1477,
    "estuary_dist_km": 538.59,
    "feasibility_score": 71.4286,
    "flood_q10_cfs": null,
    "flow_score": 89.8585,
    "flow_velocity_ms": 0.1726,
    "generation_score": 80.0,
    "impact_score": 0.0,
    "impervious_pct": 2.83,
    "land_ownership": 0.5,
    "lat": 36.0806,
    "litter_complaint_density": 0.0,
    "lon": -81.8692,
    "navigable_dist_m": null,
    "npdes_points": 0,
    "pixel_col": 84.0,
    "pixel_row": 361.0,
    "population_density": 28.0,
    "position_along": 0.8333,
    "protected_area_score": 17.7486,
    "rank": 2,
    "road_access_m": 102.3,
    "road_access_score": 1.0,
    "road_density_km_km2": 0.819,
    "robustness_pct": 100.0,
    "runoff_coeff_C": 0.0755,
    "seasonal_cv": 0.3906,
    "segment_id": 0,
    "segment_length_m": 5035.9336,
    "stream_order": 1,
    "superfund_score": 0.0,
    "tourism_amenity_density": 0.4775,
    "tri_facility_density": 0.0,
    "usgs_mean_q_cfs": 18.61,
    "velocity_feasibility": 0.7,
    "water_intake_score": 1.0726
   },
   "type": "Feature"
  },
  {
   "geometry": {
    "coordinates": [
     -81.853291,
     36.09846
    ],
    "type": "Point"
   },
   "properties": {
    "accumulation": 42628.0,
    "bank_slope_deg": 0.0,
    "bank_slope_score": 1.0,
    "bank_slope_source": "nc-dps-lidar-dem03-cross-section",
    "beach_dist_km": 424.86,
    "bridge_proximity_bonus": 0.0,
    "catchment_area_km2": 4.2465,
    "channel_width_m": 5.69,
    "channel_width_score": 1.0,
    "composite_score": 50.9762,
    "cso_density": 0.0,
    "ej_index": 0.7188,
    "elevation_m": 1154.0513,
    "estuary_dist_km": 537.56,
    "feasibility_score": 64.2857,
    "flood_q10_cfs": null,
    "flow_score": 0.0,
    "flow_velocity_ms": 0.0618,
    "generation_score": 37.7778,
    "impact_score": 100.0,
    "impervious_pct": 2.73,
    "land_ownership": 0.5,
    "lat": 36.0985,
    "litter_complaint_density": 0.0,
    "lon": -81.8533,
    "navigable_dist_m": null,
    "npdes_points": 1,
    "pixel_col": 229.0,
    "pixel_row": 164.0,
    "population_density": 25.8,
    "position_along": 0.1667,
    "protected_area_score": 18.6287,
    "rank": 3,
    "road_access_m": 291.0,
    "road_access_score": 0.8,
    "road_density_km_km2": 0.23,
    "robustness_pct": 100.0,
    "runoff_coeff_C": 0.0746,
    "seasonal_cv": 0.4422,
    "segment_id": 0,
    "segment_length_m": 5035.9336,
    "stream_order": 1,
    "superfund_score": 0.0,
    "tourism_amenity_density": 6.0479,
    "tri_facility_density": 0.0,
    "usgs_mean_q_cfs": 11.59,
    "velocity_feasibility": 0.7,
    "water_intake_score": 1.1793
   },
   "type": "Feature"
  }
 ],
 "note": "GRIME region 'Grandfather Village, NC' \u2014 real-data pipeline (DEM\u2192streams\u2192candidates\u2192stream mask (sites confined to \u00b1150 m of mapped OSM/NHD waterways)\u2192region-appropriate real parameters\u2192shipped scoring, math unchanged). Width curve: Bieger et al. 2015 JAWRA Table 3, Appalachian Highlands. Flood: not applicable here (documented fallback). NC Blue Ridge (outside SIR 2014-5030 urban coverage)",
 "provenance": {
  "candidates_pre_gate": 3,
  "constant": [
   "bridge_proximity_bonus",
   "channel_width_score",
   "cso_density",
   "flood_q10_cfs",
   "land_ownership",
   "litter_complaint_density",
   "stream_order",
   "superfund_score",
   "tri_facility_density",
   "velocity_feasibility"
  ],
  "gated_navigable": 0,
  "hard_gate_removed": 0,
  "n_parameters": 27,
  "parameters": {
   "bank_slope_score": {
    "kind": "real",
    "n_3dep_10m_fallback": 0,
    "n_nc_lidar_3_125ft": 3,
    "n_real": 3,
    "n_sites": 3,
    "source": "NC OneMap / NC DPS DEM03 statewide lidar-derived 3.125-ft (0.953 m) elevations (perpendicular 50 m transect; robust 5 m bank-rise metric); unavailable profiles use the region 10 m 3DEP DEM-gradient fallback",
    "source_mosaics": [
     "Avery_QL1_2025_03ft_CountywideRaster"
    ]
   },
   "beach_dist_km": {
    "kind": "real",
    "n_real": 3,
    "n_sites": 3,
    "source": "haversine to region ref: Wrightsville Beach (shipped NC reference)"
   },
   "bridge_proximity_bonus": {
    "kind": "real",
    "n_real": 3,
    "n_sites": 3,
    "source": "FHWA/BTS NBI (NTAD), 50 m proximity"
   },
   "catchment_area_km2": {
    "kind": "real",
    "n_real": 3,
    "n_sites": 3,
    "source": "DEM flow accumulation (pipeline)"
   },
   "channel_width_score": {
    "kind": "real",
    "n_real": 3,
    "n_sites": 3,
    "source": "Bieger 2015 AHI width curve on DEM drainage area \u2192 shipped width curve"
   },
   "cso_density": {
    "kind": "real",
    "n_real": 3,
    "n_sites": 3,
    "source": "EPA ECHO open CSO/TCS outfall PF coordinates states=NC, Cauchy proximity"
   },
   "ej_index": {
    "kind": "real",
    "n_real": 3,
    "n_sites": 3,
    "source": "Census ACS C17002+B03002 two-component demographic index, percentile-ranked within region"
   },
   "estuary_dist_km": {
    "kind": "real",
    "n_real": 3,
    "n_sites": 3,
    "source": "haversine to region ref: Pamlico Sound (shipped NC reference)"
   },
   "flood_q10_cfs": {
    "kind": "fallback",
    "n_real": 0,
    "n_sites": 3,
    "source": "flood regression not valid here (NC Blue Ridge (outside SIR 2014-5030 urban coverage)...) \u2014 NaN, dropped by constant-column handling"
   },
   "flow_velocity_ms": {
    "kind": "real",
    "n_fallback": 0,
    "n_real": 3,
    "n_sites": 3,
    "source": "Manning (region DEM/D8) blended with EROM continuity (shipped M4 logic)"
   },
   "impervious_pct": {
    "kind": "real",
    "n_real": 3,
    "n_sites": 3,
    "source": "EPA StreamCat pctimp2019 (per NHDPlus watershed)"
   },
   "land_ownership": {
    "kind": "real",
    "n_fallback": 0,
    "n_real": 3,
    "n_sites": 3,
    "source": "NC OneMap statewide parcels (NC Parcels Transformer) ownname"
   },
   "litter_complaint_density": {
    "kind": "fallback",
    "n_real": 0,
    "n_sites": 3,
    "source": "no public machine-readable litter/illegal-dumping feed for this region"
   },
   "navigable_dist_m": {
    "kind": "real",
    "n_real": 3,
    "n_sites": 3,
    "source": "USACE/BTS NWN (NTAD): no navigable segment within this bbox (+2 km) \u2014 computed absence, gate passes all sites"
   },
   "npdes_points": {
    "kind": "real",
    "n_real": 3,
    "n_sites": 3,
    "source": "EPA ECHO active NPDES outfalls states=NC (types NPD/GPC/NGP; statuses ADC/EFF/EXP), per catchment"
   },
   "population_density": {
    "kind": "real",
    "n_real": 3,
    "n_sites": 3,
    "source": "Census ACS 2022 B01003 block groups (bbox, multi-county), area-weighted"
   },
   "protected_area_score": {
    "kind": "real",
    "n_real": 3,
    "n_sites": 3,
    "source": "USGS PAD-US 4.1 state GDB; states=NC; shipped designation-weighted proximity curve"
   },
   "road_access_score": {
    "kind": "real",
    "n_real": 3,
    "n_sites": 3,
    "source": "OSM drive network nearest-node distance"
   },
   "road_density_km_km2": {
    "kind": "real",
    "n_real": 3,
    "n_sites": 3,
    "source": "OSM drive network (osmnx, cached) clipped per catchment"
   },
   "runoff_coeff_C": {
    "kind": "real",
    "n_real": 3,
    "n_sites": 3,
    "source": "derived from real impervious_pct (C=0.05+0.009*I)"
   },
   "seasonal_cv": {
    "kind": "real",
    "n_real": 3,
    "n_sites": 3,
    "source": "CV of NHDPlus EROM monthly flows per COMID"
   },
   "stream_order": {
    "kind": "real",
    "n_real": 3,
    "n_sites": 3,
    "source": "DEM stream-network confluence heuristic (pipeline)"
   },
   "superfund_score": {
    "kind": "real",
    "n_real": 3,
    "n_sites": 3,
    "source": "EPA DataMap SEMS active sites states=NC (non-archived, georeferenced), shipped 500 m inverse-distance curve"
   },
   "tourism_amenity_density": {
    "kind": "real",
    "n_real": 3,
    "n_sites": 3,
    "source": "OSM leisure/tourism features per 2 km radius"
   },
   "tri_facility_density": {
    "kind": "real",
    "n_real": 3,
    "n_sites": 3,
    "source": "EPA DataMap TRI open facilities states=NC (preferred decimal or packed-DMS recovery), per catchment"
   },
   "usgs_mean_q_cfs": {
    "kind": "real",
    "n_real": 3,
    "n_sites": 3,
    "source": "NHDPlus EROM qe_ma per COMID (snap-guarded)"
   },
   "velocity_feasibility": {
    "kind": "real",
    "n_fallback": 0,
    "n_real": 3,
    "n_sites": 3,
    "source": "shipped step curve on the computed velocity"
   },
   "velocity_transport_favorability": {
    "kind": "derived",
    "n_real": 3,
    "n_sites": 3,
    "source": "scored form of flow_velocity_ms inside the Flow family \u2014 peaked Gaussian exp(-((v-0.9)/0.6)^2), model.json curves.velocity_transport_favorability; construct: transport/delivery favorability, deliberately distinct from velocity_feasibility (device operability)"
   },
   "water_intake_score": {
    "kind": "real",
    "n_real": 3,
    "n_sites": 3,
    "source": "NC OneMap / NC DEQ SWAP public water supply sources (source_typ='Surface Water'), shipped exp(-d/10km) curve"
   }
  },
  "stream_mask": {
   "buffer_m": 150.0,
   "pre_mask": 3,
   "removed": 0,
   "sources": [
    "osm-overpass (all waterway ways)",
    "usgs-nhdplus flowlines"
   ]
  },
  "varying": [
   "bank_slope_score",
   "beach_dist_km",
   "catchment_area_km2",
   "ej_index",
   "estuary_dist_km",
   "flow_velocity_ms",
   "impervious_pct",
   "npdes_points",
   "population_density",
   "protected_area_score",
   "road_access_score",
   "road_density_km_km2",
   "runoff_coeff_C",
   "seasonal_cv",
   "tourism_amenity_density",
   "usgs_mean_q_cfs",
   "water_intake_score"
  ]
 },
 "region": {
  "bbox": [
   -81.8784,
   36.0732,
   -81.8292,
   36.1129
  ],
  "beach_ref": {
   "label": "Wrightsville Beach (shipped NC reference)",
   "lat": 34.21,
   "lon": -77.79
  },
  "center": [
   -81.853802,
   36.09303
  ],
  "estuary_ref": {
   "label": "Pamlico Sound (shipped NC reference)",
   "lat": 35.05,
   "lon": -76.05
  },
  "flood_method": "none",
  "name": "Grandfather Village, NC",
  "notes": "NC Blue Ridge (outside SIR 2014-5030 urban coverage)",
  "slug": "grandfather-village",
  "state": "NC",
  "utm_epsg": 32617,
  "width_curve": {
   "a": 3.12,
   "b": 0.415,
   "code": "AHI",
   "source": "Bieger et al. 2015 JAWRA Table 3, Appalachian Highlands"
  }
 },
 "type": "FeatureCollection"
}
