{
 "features": [
  {
   "geometry": {
    "coordinates": [
     -76.800997,
     35.138966
    ],
    "type": "Point"
   },
   "properties": {
    "accumulation": 110117.0,
    "bank_slope_deg": 0.65,
    "bank_slope_score": 1.0,
    "bank_slope_source": "nc-dps-lidar-dem03-cross-section",
    "beach_dist_km": 137.29,
    "bridge_proximity_bonus": 0.0,
    "catchment_area_km2": 10.9878,
    "channel_width_m": 5.3,
    "channel_width_score": 1.0,
    "composite_score": 64.7622,
    "cso_density": 0.0,
    "ej_index": 0.591,
    "elevation_m": 0.3898,
    "estuary_dist_km": 69.04,
    "feasibility_score": 60.4396,
    "flood_q10_cfs": 539.18,
    "flow_score": 78.2671,
    "flow_velocity_ms": 0.1333,
    "generation_score": 71.3876,
    "impact_score": 49.0441,
    "impervious_pct": 1.44,
    "land_ownership": 0.5,
    "lat": 35.139,
    "litter_complaint_density": 0.0,
    "lon": -76.801,
    "navigable_dist_m": 3471.9,
    "npdes_points": 0,
    "pixel_col": 755.0,
    "pixel_row": 429.0,
    "population_density": 18.7,
    "position_along": 0.5,
    "protected_area_score": 4.03,
    "rank": 1,
    "road_access_m": 215.3,
    "road_access_score": 0.8,
    "road_density_km_km2": 1.638,
    "robustness_pct": 100.0,
    "runoff_coeff_C": 0.063,
    "seasonal_cv": 0.5042,
    "segment_id": 7,
    "segment_length_m": 181.2245,
    "stream_order": 3,
    "superfund_score": 0.0,
    "tourism_amenity_density": 1.3528,
    "tri_facility_density": 0.0,
    "usgs_mean_q_cfs": 26.481,
    "velocity_feasibility": 0.7,
    "water_intake_score": 0.0
   },
   "type": "Feature"
  },
  {
   "geometry": {
    "coordinates": [
     -76.807978,
     35.145089
    ],
    "type": "Point"
   },
   "properties": {
    "accumulation": 45264.0,
    "bank_slope_deg": 2.41,
    "bank_slope_score": 1.0,
    "bank_slope_source": "nc-dps-lidar-dem03-cross-section",
    "beach_dist_km": 137.39,
    "bridge_proximity_bonus": 0.0,
    "catchment_area_km2": 4.5166,
    "channel_width_m": 3.84,
    "channel_width_score": 1.0,
    "composite_score": 52.6787,
    "cso_density": 0.0,
    "ej_index": 0.6861,
    "elevation_m": 2.0607,
    "estuary_dist_km": 69.76,
    "feasibility_score": 84.6154,
    "flood_q10_cfs": 305.76,
    "flow_score": 48.1686,
    "flow_velocity_ms": 0.5,
    "generation_score": 44.8173,
    "impact_score": 48.3304,
    "impervious_pct": null,
    "land_ownership": 0.5,
    "lat": 35.1451,
    "litter_complaint_density": 0.0,
    "lon": -76.808,
    "navigable_dist_m": 4391.5,
    "npdes_points": 0,
    "pixel_col": 692.0,
    "pixel_row": 358.0,
    "population_density": 23.2,
    "position_along": 0.5,
    "protected_area_score": 4.0435,
    "rank": 2,
    "road_access_m": 37.6,
    "road_access_score": 1.0,
    "road_density_km_km2": 2.62,
    "robustness_pct": 100.0,
    "runoff_coeff_C": null,
    "seasonal_cv": null,
    "segment_id": 5,
    "segment_length_m": 2716.8257,
    "stream_order": 3,
    "superfund_score": 0.0,
    "tourism_amenity_density": 0.8754,
    "tri_facility_density": 0.0,
    "usgs_mean_q_cfs": null,
    "velocity_feasibility": 1.0,
    "water_intake_score": 0.0
   },
   "type": "Feature"
  },
  {
   "geometry": {
    "coordinates": [
     -76.808011,
     35.143502
    ],
    "type": "Point"
   },
   "properties": {
    "accumulation": 32013.0,
    "bank_slope_deg": 4.21,
    "bank_slope_score": 1.0,
    "bank_slope_source": "nc-dps-lidar-dem03-cross-section",
    "beach_dist_km": 137.25,
    "bridge_proximity_bonus": 0.2,
    "catchment_area_km2": 3.1944,
    "channel_width_m": 3.38,
    "channel_width_score": 1.0,
    "composite_score": 52.637,
    "cso_density": 0.0,
    "ej_index": 0.6458,
    "elevation_m": 0.5076,
    "estuary_dist_km": 69.74,
    "feasibility_score": 100.0,
    "flood_q10_cfs": 248.35,
    "flow_score": 42.8776,
    "flow_velocity_ms": 0.5,
    "generation_score": 43.5882,
    "impact_score": 46.1371,
    "impervious_pct": null,
    "land_ownership": 0.5,
    "lat": 35.1435,
    "litter_complaint_density": 0.0,
    "lon": -76.808,
    "navigable_dist_m": 4285.2,
    "npdes_points": 0,
    "pixel_col": 692.0,
    "pixel_row": 374.0,
    "population_density": 21.2,
    "position_along": 0.5,
    "protected_area_score": 4.0524,
    "rank": 3,
    "road_access_m": 61.1,
    "road_access_score": 1.0,
    "road_density_km_km2": 2.963,
    "robustness_pct": 95.5,
    "runoff_coeff_C": null,
    "seasonal_cv": null,
    "segment_id": 6,
    "segment_length_m": 1771.1625,
    "stream_order": 3,
    "superfund_score": 0.0,
    "tourism_amenity_density": 0.8754,
    "tri_facility_density": 0.0,
    "usgs_mean_q_cfs": null,
    "velocity_feasibility": 1.0,
    "water_intake_score": 0.0
   },
   "type": "Feature"
  },
  {
   "geometry": {
    "coordinates": [
     -76.787521,
     35.156123
    ],
    "type": "Point"
   },
   "properties": {
    "accumulation": 66857.0,
    "bank_slope_deg": 3.01,
    "bank_slope_score": 1.0,
    "bank_slope_source": "nc-dps-lidar-dem03-cross-section",
    "beach_dist_km": 139.53,
    "bridge_proximity_bonus": 0.0,
    "catchment_area_km2": 6.6712,
    "channel_width_m": 4.42,
    "channel_width_score": 1.0,
    "composite_score": 51.862,
    "cso_density": 0.0,
    "ej_index": 0.8056,
    "elevation_m": 0.4473,
    "estuary_dist_km": 68.12,
    "feasibility_score": 32.967,
    "flood_q10_cfs": 390.96,
    "flow_score": 50.7628,
    "flow_velocity_ms": 0.113,
    "generation_score": 54.773,
    "impact_score": 59.3146,
    "impervious_pct": 0.5,
    "land_ownership": 0.5,
    "lat": 35.1561,
    "litter_complaint_density": 0.0,
    "lon": -76.7875,
    "navigable_dist_m": 4263.6,
    "npdes_points": 0,
    "pixel_col": 881.0,
    "pixel_row": 239.0,
    "population_density": 29.3,
    "position_along": 0.5,
    "protected_area_score": 4.1293,
    "rank": 4,
    "road_access_m": 1122.3,
    "road_access_score": 0.3,
    "road_density_km_km2": 0.399,
    "robustness_pct": 98.0,
    "runoff_coeff_C": 0.0545,
    "seasonal_cv": 0.5344,
    "segment_id": 3,
    "segment_length_m": 1521.0179,
    "stream_order": 3,
    "superfund_score": 0.0,
    "tourism_amenity_density": 1.0345,
    "tri_facility_density": 0.0,
    "usgs_mean_q_cfs": 14.271,
    "velocity_feasibility": 0.7,
    "water_intake_score": 0.0
   },
   "type": "Feature"
  },
  {
   "geometry": {
    "coordinates": [
     -76.795043,
     35.160901
    ],
    "type": "Point"
   },
   "properties": {
    "accumulation": 27272.0,
    "bank_slope_deg": 15.59,
    "bank_slope_score": 0.5,
    "bank_slope_source": "nc-dps-lidar-dem03-cross-section",
    "beach_dist_km": 139.48,
    "bridge_proximity_bonus": 0.0,
    "catchment_area_km2": 2.7213,
    "channel_width_m": 3.19,
    "channel_width_score": 1.0,
    "composite_score": 41.07,
    "cso_density": 0.0,
    "ej_index": 0.8056,
    "elevation_m": 0.8145,
    "estuary_dist_km": 68.89,
    "feasibility_score": 17.5824,
    "flood_q10_cfs": 229.26,
    "flow_score": 24.9342,
    "flow_velocity_ms": 0.0556,
    "generation_score": 57.7546,
    "impact_score": 49.5758,
    "impervious_pct": 0.7,
    "land_ownership": 0.5,
    "lat": 35.1609,
    "litter_complaint_density": 0.0,
    "lon": -76.795,
    "navigable_dist_m": 5040.5,
    "npdes_points": 0,
    "pixel_col": 813.0,
    "pixel_row": 186.0,
    "population_density": 29.3,
    "position_along": 0.5,
    "protected_area_score": 4.1734,
    "rank": 5,
    "road_access_m": 1466.5,
    "road_access_score": 0.3,
    "road_density_km_km2": 0.0,
    "robustness_pct": 50.0,
    "runoff_coeff_C": 0.0563,
    "seasonal_cv": 0.6299,
    "segment_id": 2,
    "segment_length_m": 411.6848,
    "stream_order": 3,
    "superfund_score": 0.0,
    "tourism_amenity_density": 0.2387,
    "tri_facility_density": 0.0,
    "usgs_mean_q_cfs": 4.807,
    "velocity_feasibility": 0.7,
    "water_intake_score": 0.0
   },
   "type": "Feature"
  },
  {
   "geometry": {
    "coordinates": [
     -76.794643,
     35.162697
    ],
    "type": "Point"
   },
   "properties": {
    "accumulation": 26818.0,
    "bank_slope_deg": 10.28,
    "bank_slope_score": 1.0,
    "bank_slope_source": "nc-dps-lidar-dem03-cross-section",
    "beach_dist_km": 139.66,
    "bridge_proximity_bonus": 0.0,
    "catchment_area_km2": 2.676,
    "channel_width_m": 3.17,
    "channel_width_score": 1.0,
    "composite_score": 39.7009,
    "cso_density": 0.0,
    "ej_index": 0.8056,
    "elevation_m": 0.7056,
    "estuary_dist_km": 68.89,
    "feasibility_score": 15.3846,
    "flood_q10_cfs": 226.96,
    "flow_score": 24.485,
    "flow_velocity_ms": 0.0428,
    "generation_score": 57.7546,
    "impact_score": 46.4853,
    "impervious_pct": 0.7,
    "land_ownership": 0.5,
    "lat": 35.1627,
    "litter_complaint_density": 0.0,
    "lon": -76.7946,
    "navigable_dist_m": 5203.6,
    "npdes_points": 0,
    "pixel_col": 816.0,
    "pixel_row": 166.0,
    "population_density": 29.3,
    "position_along": 0.5,
    "protected_area_score": 4.1597,
    "rank": 6,
    "road_access_m": 1667.2,
    "road_access_score": 0.3,
    "road_density_km_km2": 0.0,
    "robustness_pct": 4.0,
    "runoff_coeff_C": 0.0563,
    "seasonal_cv": 0.6299,
    "segment_id": 0,
    "segment_length_m": 879.8768,
    "stream_order": 3,
    "superfund_score": 0.0,
    "tourism_amenity_density": 0.0,
    "tri_facility_density": 0.0,
    "usgs_mean_q_cfs": 4.807,
    "velocity_feasibility": 0.3,
    "water_intake_score": 0.0
   },
   "type": "Feature"
  },
  {
   "geometry": {
    "coordinates": [
     -76.86663,
     35.120527
    ],
    "type": "Point"
   },
   "properties": {
    "accumulation": 61365.0,
    "bank_slope_deg": 1.4,
    "bank_slope_score": 1.0,
    "bank_slope_source": "nc-dps-lidar-dem03-cross-section",
    "beach_dist_km": 131.84,
    "bridge_proximity_bonus": 0.0,
    "catchment_area_km2": 6.1232,
    "channel_width_m": 4.29,
    "channel_width_score": 1.0,
    "composite_score": 39.141,
    "cso_density": 0.0,
    "ej_index": 0.4167,
    "elevation_m": 2.5373,
    "estuary_dist_km": 74.72,
    "feasibility_score": 49.4505,
    "flood_q10_cfs": 372.3,
    "flow_score": 54.4998,
    "flow_velocity_ms": 0.1078,
    "generation_score": 18.9497,
    "impact_score": 41.3786,
    "impervious_pct": 0.61,
    "land_ownership": 0.5,
    "lat": 35.1205,
    "litter_complaint_density": 0.0,
    "lon": -76.8666,
    "navigable_dist_m": 8758.4,
    "npdes_points": 0,
    "pixel_col": 148.0,
    "pixel_row": 621.0,
    "population_density": 8.9,
    "position_along": 0.75,
    "protected_area_score": 5.3705,
    "rank": 7,
    "road_access_m": 685.5,
    "road_access_score": 0.6,
    "road_density_km_km2": 0.133,
    "robustness_pct": 23.5,
    "runoff_coeff_C": 0.0555,
    "seasonal_cv": 0.4718,
    "segment_id": 8,
    "segment_length_m": 3668.6344,
    "stream_order": 3,
    "superfund_score": 0.0,
    "tourism_amenity_density": 0.2387,
    "tri_facility_density": 0.0,
    "usgs_mean_q_cfs": 20.015,
    "velocity_feasibility": 0.7,
    "water_intake_score": 0.0
   },
   "type": "Feature"
  },
  {
   "geometry": {
    "coordinates": [
     -76.783923,
     35.133778
    ],
    "type": "Point"
   },
   "properties": {
    "accumulation": 30075.0,
    "bank_slope_deg": 1.89,
    "bank_slope_score": 1.0,
    "bank_slope_source": "nc-dps-lidar-dem03-cross-section",
    "beach_dist_km": 137.9,
    "bridge_proximity_bonus": 0.0,
    "catchment_area_km2": 3.001,
    "channel_width_m": 3.31,
    "channel_width_score": 1.0,
    "composite_score": 39.0451,
    "cso_density": 0.0,
    "ej_index": 0.5439,
    "elevation_m": 0.2799,
    "estuary_dist_km": 67.42,
    "feasibility_score": 73.6264,
    "flood_q10_cfs": 239.21,
    "flow_score": 28.0714,
    "flow_velocity_ms": 0.5,
    "generation_score": 25.3577,
    "impact_score": 44.5867,
    "impervious_pct": null,
    "land_ownership": 0.5,
    "lat": 35.1338,
    "litter_complaint_density": 0.0,
    "lon": -76.7839,
    "navigable_dist_m": 1941.1,
    "npdes_points": 0,
    "pixel_col": 910.0,
    "pixel_row": 485.0,
    "population_density": 18.3,
    "position_along": 0.5,
    "protected_area_score": 3.8403,
    "rank": 8,
    "road_access_m": 275.1,
    "road_access_score": 0.8,
    "road_density_km_km2": 1.121,
    "robustness_pct": 25.5,
    "runoff_coeff_C": null,
    "seasonal_cv": null,
    "segment_id": 9,
    "segment_length_m": 110.5905,
    "stream_order": 1,
    "superfund_score": 0.0,
    "tourism_amenity_density": 1.1937,
    "tri_facility_density": 0.0,
    "usgs_mean_q_cfs": null,
    "velocity_feasibility": 1.0,
    "water_intake_score": 0.0
   },
   "type": "Feature"
  },
  {
   "geometry": {
    "coordinates": [
     -76.86534,
     35.132211
    ],
    "type": "Point"
   },
   "properties": {
    "accumulation": 25768.0,
    "bank_slope_deg": 0.99,
    "bank_slope_score": 1.0,
    "bank_slope_source": "nc-dps-lidar-dem03-cross-section",
    "beach_dist_km": 132.91,
    "bridge_proximity_bonus": 0.0,
    "catchment_area_km2": 2.5712,
    "channel_width_m": 3.13,
    "channel_width_score": 1.0,
    "composite_score": 35.8829,
    "cso_density": 0.0,
    "ej_index": 0.464,
    "elevation_m": 3.4673,
    "estuary_dist_km": 74.74,
    "feasibility_score": 73.6264,
    "flood_q10_cfs": 218.01,
    "flow_score": 40.2414,
    "flow_velocity_ms": 0.5,
    "generation_score": 7.6695,
    "impact_score": 41.5927,
    "impervious_pct": null,
    "land_ownership": 0.5,
    "lat": 35.1322,
    "litter_complaint_density": 0.0,
    "lon": -76.8653,
    "navigable_dist_m": 8742.9,
    "npdes_points": 0,
    "pixel_col": 165.0,
    "pixel_row": 493.0,
    "population_density": 8.9,
    "position_along": 0.25,
    "protected_area_score": 5.1556,
    "rank": 9,
    "road_access_m": 392.7,
    "road_access_score": 0.8,
    "road_density_km_km2": 1.039,
    "robustness_pct": 3.0,
    "runoff_coeff_C": null,
    "seasonal_cv": null,
    "segment_id": 8,
    "segment_length_m": 3668.6344,
    "stream_order": 3,
    "superfund_score": 0.0,
    "tourism_amenity_density": 0.4775,
    "tri_facility_density": 0.0,
    "usgs_mean_q_cfs": null,
    "velocity_feasibility": 1.0,
    "water_intake_score": 0.0
   },
   "type": "Feature"
  },
  {
   "geometry": {
    "coordinates": [
     -76.860425,
     35.147439
    ],
    "type": "Point"
   },
   "properties": {
    "accumulation": 70283.0,
    "bank_slope_deg": 2.59,
    "bank_slope_score": 1.0,
    "bank_slope_source": "nc-dps-lidar-dem03-cross-section",
    "beach_dist_km": 134.5,
    "bridge_proximity_bonus": 0.0,
    "catchment_area_km2": 7.0131,
    "channel_width_m": 4.5,
    "channel_width_score": 1.0,
    "composite_score": 35.6507,
    "cso_density": 0.0,
    "ej_index": 0.5989,
    "elevation_m": 4.976,
    "estuary_dist_km": 74.52,
    "feasibility_score": 60.4396,
    "flood_q10_cfs": 403.99,
    "flow_score": 27.5434,
    "flow_velocity_ms": 0.1099,
    "generation_score": 22.4187,
    "impact_score": 43.2443,
    "impervious_pct": 0.62,
    "land_ownership": 0.5,
    "lat": 35.1474,
    "litter_complaint_density": 0.0,
    "lon": -76.8604,
    "navigable_dist_m": 8732.3,
    "npdes_points": 0,
    "pixel_col": 212.0,
    "pixel_row": 325.0,
    "population_density": 8.7,
    "position_along": 0.75,
    "protected_area_score": 4.8449,
    "rank": 10,
    "road_access_m": 276.8,
    "road_access_score": 0.8,
    "road_density_km_km2": 0.637,
    "robustness_pct": 0.0,
    "runoff_coeff_C": 0.0556,
    "seasonal_cv": 0.6263,
    "segment_id": 1,
    "segment_length_m": 3244.2426,
    "stream_order": 1,
    "superfund_score": 0.0,
    "tourism_amenity_density": 0.4775,
    "tri_facility_density": 0.0,
    "usgs_mean_q_cfs": 3.294,
    "velocity_feasibility": 0.7,
    "water_intake_score": 0.0
   },
   "type": "Feature"
  },
  {
   "geometry": {
    "coordinates": [
     -76.867994,
     35.114011
    ],
    "type": "Point"
   },
   "properties": {
    "accumulation": 100371.0,
    "bank_slope_deg": 1.68,
    "bank_slope_score": 1.0,
    "bank_slope_source": "nc-dps-lidar-dem03-cross-section",
    "beach_dist_km": 131.21,
    "bridge_proximity_bonus": 0.0,
    "catchment_area_km2": 10.0153,
    "channel_width_m": 5.12,
    "channel_width_score": 1.0,
    "composite_score": 35.2332,
    "cso_density": 0.0,
    "ej_index": 0.4167,
    "elevation_m": 2.1694,
    "estuary_dist_km": 74.77,
    "feasibility_score": 32.967,
    "flood_q10_cfs": 499.78,
    "flow_score": 52.2678,
    "flow_velocity_ms": 0.1358,
    "generation_score": 17.2087,
    "impact_score": 40.1953,
    "impervious_pct": 0.57,
    "land_ownership": 0.5,
    "lat": 35.114,
    "litter_complaint_density": 0.0,
    "lon": -76.868,
    "navigable_dist_m": 8909.2,
    "npdes_points": 0,
    "pixel_col": 135.0,
    "pixel_row": 695.0,
    "population_density": 8.9,
    "position_along": 0.5,
    "protected_area_score": 5.3273,
    "rank": 11,
    "road_access_m": 1292.4,
    "road_access_score": 0.3,
    "road_density_km_km2": 0.05,
    "robustness_pct": 0.5,
    "runoff_coeff_C": 0.0551,
    "seasonal_cv": 0.6454,
    "segment_id": 12,
    "segment_length_m": 198.779,
    "stream_order": 3,
    "superfund_score": 0.0,
    "tourism_amenity_density": 0.0796,
    "tri_facility_density": 0.0,
    "usgs_mean_q_cfs": 3.173,
    "velocity_feasibility": 0.7,
    "water_intake_score": 0.0
   },
   "type": "Feature"
  },
  {
   "geometry": {
    "coordinates": [
     -76.861698,
     35.117091
    ],
    "type": "Point"
   },
   "properties": {
    "accumulation": 24915.0,
    "bank_slope_deg": 1.94,
    "bank_slope_score": 1.0,
    "bank_slope_source": "nc-dps-lidar-dem03-cross-section",
    "beach_dist_km": 131.84,
    "bridge_proximity_bonus": 0.0,
    "catchment_area_km2": 2.4861,
    "channel_width_m": 3.09,
    "channel_width_score": 1.0,
    "composite_score": 30.4863,
    "cso_density": 0.0,
    "ej_index": 0.4167,
    "elevation_m": 3.2556,
    "estuary_dist_km": 74.23,
    "feasibility_score": 49.4505,
    "flood_q10_cfs": 216.6,
    "flow_score": 22.9735,
    "flow_velocity_ms": 0.0962,
    "generation_score": 17.8366,
    "impact_score": 39.9146,
    "impervious_pct": 0.59,
    "land_ownership": 0.5,
    "lat": 35.1171,
    "litter_complaint_density": 0.0,
    "lon": -76.8617,
    "navigable_dist_m": 8315.9,
    "npdes_points": 0,
    "pixel_col": 193.0,
    "pixel_row": 658.0,
    "population_density": 8.9,
    "position_along": 0.5,
    "protected_area_score": 5.2957,
    "rank": 12,
    "road_access_m": 751.1,
    "road_access_score": 0.6,
    "road_density_km_km2": 0.057,
    "robustness_pct": 0.0,
    "runoff_coeff_C": 0.0553,
    "seasonal_cv": 0.6479,
    "segment_id": 11,
    "segment_length_m": 1851.0757,
    "stream_order": 3,
    "superfund_score": 0.0,
    "tourism_amenity_density": 0.0796,
    "tri_facility_density": 0.0,
    "usgs_mean_q_cfs": 3.095,
    "velocity_feasibility": 0.7,
    "water_intake_score": 0.0
   },
   "type": "Feature"
  },
  {
   "geometry": {
    "coordinates": [
     -76.854587,
     35.155924
    ],
    "type": "Point"
   },
   "properties": {
    "accumulation": 31824.0,
    "bank_slope_deg": 3.99,
    "bank_slope_score": 1.0,
    "bank_slope_source": "nc-dps-lidar-dem03-cross-section",
    "beach_dist_km": 135.57,
    "bridge_proximity_bonus": 0.0,
    "catchment_area_km2": 3.1755,
    "channel_width_m": 3.38,
    "channel_width_score": 1.0,
    "composite_score": 27.6094,
    "cso_density": 0.0,
    "ej_index": 0.6154,
    "elevation_m": 7.1983,
    "estuary_dist_km": 74.14,
    "feasibility_score": 49.4505,
    "flood_q10_cfs": 251.06,
    "flow_score": 12.7763,
    "flow_velocity_ms": 0.1097,
    "generation_score": 20.8758,
    "impact_score": 35.7833,
    "impervious_pct": 0.62,
    "land_ownership": 0.5,
    "lat": 35.1559,
    "litter_complaint_density": 0.0,
    "lon": -76.8546,
    "navigable_dist_m": 8625.3,
    "npdes_points": 0,
    "pixel_col": 268.0,
    "pixel_row": 232.0,
    "population_density": 9.1,
    "position_along": 0.25,
    "protected_area_score": 4.5173,
    "rank": 13,
    "road_access_m": 891.0,
    "road_access_score": 0.6,
    "road_density_km_km2": 0.314,
    "robustness_pct": 0.0,
    "runoff_coeff_C": 0.0556,
    "seasonal_cv": 0.6263,
    "segment_id": 1,
    "segment_length_m": 3244.2426,
    "stream_order": 1,
    "superfund_score": 0.0,
    "tourism_amenity_density": 0.2387,
    "tri_facility_density": 0.0,
    "usgs_mean_q_cfs": 3.294,
    "velocity_feasibility": 0.7,
    "water_intake_score": 0.0
   },
   "type": "Feature"
  }
 ],
 "note": "GRIME region 'Grantsboro, NC' \u2014 real-data pipeline (DEM\u2192streams\u2192candidates\u2192stream mask (sites confined to \u00b1150 m of mapped OSM/NHD waterways)\u2192region-appropriate real parameters\u2192shipped scoring, math unchanged). Width curve: Bieger et al. 2015 JAWRA Table 3, Atlantic Plain. Flood: SIR 2014-5030 HR4 (I24H50Y: NOAA Atlas 14). NC Coastal Plain (SIR 2014-5030 HR4; I24H50Y from NOAA Atlas 14 at region center); merged nearby towns: Alliance",
 "provenance": {
  "candidates_pre_gate": 13,
  "constant": [
   "channel_width_score",
   "cso_density",
   "land_ownership",
   "litter_complaint_density",
   "npdes_points",
   "superfund_score",
   "tri_facility_density",
   "water_intake_score"
  ],
  "gated_navigable": 0,
  "hard_gate_removed": 0,
  "n_parameters": 27,
  "parameters": {
   "bank_slope_score": {
    "kind": "real",
    "n_3dep_10m_fallback": 0,
    "n_nc_lidar_3_125ft": 13,
    "n_real": 13,
    "n_sites": 13,
    "source": "NC OneMap / NC DPS DEM03 statewide lidar-derived 3.125-ft (0.953 m) elevations (perpendicular 50 m transect; robust 5 m bank-rise metric); unavailable profiles use the region 10 m 3DEP DEM-gradient fallback",
    "source_mosaics": [
     "Pamlico_Ground_3ft"
    ]
   },
   "beach_dist_km": {
    "kind": "real",
    "n_real": 13,
    "n_sites": 13,
    "source": "haversine to region ref: Wrightsville Beach (shipped NC reference)"
   },
   "bridge_proximity_bonus": {
    "kind": "real",
    "n_real": 13,
    "n_sites": 13,
    "source": "FHWA/BTS NBI (NTAD), 50 m proximity"
   },
   "catchment_area_km2": {
    "kind": "real",
    "n_real": 13,
    "n_sites": 13,
    "source": "DEM flow accumulation (pipeline)"
   },
   "channel_width_score": {
    "kind": "real",
    "n_real": 13,
    "n_sites": 13,
    "source": "Bieger 2015 APL width curve on DEM drainage area \u2192 shipped width curve"
   },
   "cso_density": {
    "kind": "real",
    "n_real": 13,
    "n_sites": 13,
    "source": "EPA ECHO open CSO/TCS outfall PF coordinates states=NC, Cauchy proximity"
   },
   "ej_index": {
    "kind": "real",
    "n_real": 13,
    "n_sites": 13,
    "source": "Census ACS C17002+B03002 two-component demographic index, percentile-ranked within region"
   },
   "estuary_dist_km": {
    "kind": "real",
    "n_real": 13,
    "n_sites": 13,
    "source": "haversine to region ref: Pamlico Sound (shipped NC reference)"
   },
   "flood_q10_cfs": {
    "impervious_fallback_reason": "StreamCat imperviousness unavailable; the existing regression-input fallback of 0.0% impervious was used and is disclosed here",
    "kind": "real",
    "n_impervious_fallback": 4,
    "n_real": 13,
    "n_sites": 13,
    "source": "USGS SIR 2014-5030 Table 7 HR4 (NC Coastal Plain; I24H50Y from NOAA Atlas 14 at region center)"
   },
   "flow_velocity_ms": {
    "fallback_reason": "EROM/DEM continuity input unavailable; shipped 0.5 m/s default used",
    "kind": "real",
    "n_fallback": 4,
    "n_real": 9,
    "n_sites": 13,
    "source": "Manning (region DEM/D8) blended with EROM continuity (shipped M4 logic)"
   },
   "impervious_pct": {
    "fallback_reason": "NLDI/StreamCat did not return a snap-compatible catchment value; value remains null and is removed by constant-column handling",
    "kind": "real",
    "n_fallback": 4,
    "n_real": 9,
    "n_sites": 13,
    "source": "EPA StreamCat pctimp2019 (per NHDPlus watershed)"
   },
   "land_ownership": {
    "kind": "real",
    "n_fallback": 0,
    "n_real": 13,
    "n_sites": 13,
    "source": "NC OneMap statewide parcels (NC Parcels Transformer) ownname"
   },
   "litter_complaint_density": {
    "kind": "fallback",
    "n_real": 0,
    "n_sites": 13,
    "source": "no public machine-readable litter/illegal-dumping feed for this region"
   },
   "navigable_dist_m": {
    "kind": "real",
    "n_real": 13,
    "n_sites": 13,
    "source": "USACE/BTS National Waterway Network lines (NTAD, retrieved 2026-07-10), distance to nearest navigable segment"
   },
   "npdes_points": {
    "kind": "real",
    "n_real": 13,
    "n_sites": 13,
    "source": "EPA ECHO active NPDES outfalls states=NC (types NPD/GPC/NGP; statuses ADC/EFF/EXP), per catchment"
   },
   "population_density": {
    "kind": "real",
    "n_real": 13,
    "n_sites": 13,
    "source": "Census ACS 2022 B01003 block groups (bbox, multi-county), area-weighted"
   },
   "protected_area_score": {
    "kind": "real",
    "n_real": 13,
    "n_sites": 13,
    "source": "USGS PAD-US 4.1 state GDB; states=NC; shipped designation-weighted proximity curve"
   },
   "road_access_score": {
    "kind": "real",
    "n_real": 13,
    "n_sites": 13,
    "source": "OSM drive network nearest-node distance"
   },
   "road_density_km_km2": {
    "kind": "real",
    "n_real": 13,
    "n_sites": 13,
    "source": "OSM drive network (osmnx, cached) clipped per catchment"
   },
   "runoff_coeff_C": {
    "fallback_reason": "source impervious_pct was unavailable; derived value remains null",
    "kind": "real",
    "n_fallback": 4,
    "n_real": 9,
    "n_sites": 13,
    "source": "derived from real impervious_pct (C=0.05+0.009*I)"
   },
   "seasonal_cv": {
    "fallback_reason": "NHDPlus monthly EROM was unavailable or failed the drainage-area snap guard; value remains null",
    "kind": "real",
    "n_fallback": 4,
    "n_real": 9,
    "n_sites": 13,
    "source": "CV of NHDPlus EROM monthly flows per COMID"
   },
   "stream_order": {
    "kind": "real",
    "n_real": 13,
    "n_sites": 13,
    "source": "DEM stream-network confluence heuristic (pipeline)"
   },
   "superfund_score": {
    "kind": "real",
    "n_real": 13,
    "n_sites": 13,
    "source": "EPA DataMap SEMS active sites states=NC (non-archived, georeferenced), shipped 500 m inverse-distance curve"
   },
   "tourism_amenity_density": {
    "kind": "real",
    "n_real": 13,
    "n_sites": 13,
    "source": "OSM leisure/tourism features per 2 km radius"
   },
   "tri_facility_density": {
    "kind": "real",
    "n_real": 13,
    "n_sites": 13,
    "source": "EPA DataMap TRI open facilities states=NC (preferred decimal or packed-DMS recovery), per catchment"
   },
   "usgs_mean_q_cfs": {
    "fallback_reason": "NHDPlus EROM was unavailable or failed the drainage-area snap guard; value remains null",
    "kind": "real",
    "n_fallback": 4,
    "n_real": 9,
    "n_sites": 13,
    "source": "NHDPlus EROM qe_ma per COMID (snap-guarded)"
   },
   "velocity_feasibility": {
    "fallback_reason": "derived from the shipped 0.5 m/s velocity fallback",
    "kind": "real",
    "n_fallback": 4,
    "n_real": 9,
    "n_sites": 13,
    "source": "shipped step curve on the computed velocity"
   },
   "velocity_transport_favorability": {
    "fallback_reason": "EROM/DEM continuity input unavailable; shipped 0.5 m/s default used",
    "kind": "derived",
    "n_fallback": 4,
    "n_real": 9,
    "n_sites": 13,
    "source": "scored form of flow_velocity_ms inside the Flow family \u2014 peaked Gaussian exp(-((v-0.9)/0.6)^2), model.json curves.velocity_transport_favorability; construct: transport/delivery favorability, deliberately distinct from velocity_feasibility (device operability)"
   },
   "water_intake_score": {
    "kind": "real",
    "n_real": 13,
    "n_sites": 13,
    "source": "NC OneMap / NC DEQ SWAP public water supply sources (source_typ='Surface Water'), shipped exp(-d/10km) curve"
   }
  },
  "stream_mask": {
   "buffer_m": 150.0,
   "pre_mask": 15,
   "removed": 2,
   "sources": [
    "osm-overpass (all waterway ways)",
    "usgs-nhdplus flowlines"
   ]
  },
  "varying": [
   "bank_slope_score",
   "beach_dist_km",
   "bridge_proximity_bonus",
   "catchment_area_km2",
   "ej_index",
   "estuary_dist_km",
   "flood_q10_cfs",
   "flow_velocity_ms",
   "impervious_pct",
   "population_density",
   "protected_area_score",
   "road_access_score",
   "road_density_km_km2",
   "runoff_coeff_C",
   "seasonal_cv",
   "stream_order",
   "tourism_amenity_density",
   "usgs_mean_q_cfs",
   "velocity_feasibility"
  ]
 },
 "region": {
  "bbox": [
   -76.883,
   35.1136,
   -76.7803,
   35.1762
  ],
  "beach_ref": {
   "label": "Wrightsville Beach (shipped NC reference)",
   "lat": 34.21,
   "lon": -77.79
  },
  "center": [
   -76.844682,
   35.144868
  ],
  "estuary_ref": {
   "label": "Pamlico Sound (shipped NC reference)",
   "lat": 35.05,
   "lon": -76.05
  },
  "flood_method": "sir2014_hr4",
  "name": "Grantsboro, NC",
  "notes": "NC Coastal Plain (SIR 2014-5030 HR4; I24H50Y from NOAA Atlas 14 at region center); merged nearby towns: Alliance",
  "slug": "grantsboro",
  "state": "NC",
  "utm_epsg": 32618,
  "width_curve": {
   "a": 2.22,
   "b": 0.363,
   "code": "APL",
   "source": "Bieger et al. 2015 JAWRA Table 3, Atlantic Plain"
  }
 },
 "type": "FeatureCollection"
}
