{
 "features": [
  {
   "geometry": {
    "coordinates": [
     -77.942729,
     34.814623
    ],
    "type": "Point"
   },
   "properties": {
    "accumulation": 28052.0,
    "bank_slope_deg": 10.97,
    "bank_slope_score": 1.0,
    "bank_slope_source": "nc-dps-lidar-dem03-cross-section",
    "beach_dist_km": 68.67,
    "bridge_proximity_bonus": 0.0,
    "catchment_area_km2": 2.8035,
    "channel_width_m": 3.23,
    "channel_width_score": 1.0,
    "composite_score": 57.9201,
    "cso_density": 0.0,
    "ej_index": 0.8177,
    "elevation_m": 13.6821,
    "estuary_dist_km": 174.51,
    "feasibility_score": 50.0,
    "flood_q10_cfs": 228.48,
    "flow_score": 56.0343,
    "flow_velocity_ms": 0.124,
    "generation_score": 99.4207,
    "impact_score": 21.9512,
    "impervious_pct": 1.63,
    "land_ownership": 0.5,
    "lat": 34.8146,
    "litter_complaint_density": 0.0,
    "lon": -77.9427,
    "navigable_dist_m": null,
    "npdes_points": 0,
    "pixel_col": 65.0,
    "pixel_row": 365.0,
    "population_density": 57.8,
    "position_along": 0.5,
    "protected_area_score": 4.0699,
    "rank": 1,
    "road_access_m": 343.9,
    "road_access_score": 0.8,
    "road_density_km_km2": 1.484,
    "robustness_pct": 100.0,
    "runoff_coeff_C": 0.0647,
    "seasonal_cv": 0.5461,
    "segment_id": 2,
    "segment_length_m": 2216.5691,
    "stream_order": 1,
    "superfund_score": 0.0,
    "tourism_amenity_density": 0.0,
    "tri_facility_density": 0.0,
    "usgs_mean_q_cfs": 3.683,
    "velocity_feasibility": 0.7,
    "water_intake_score": 0.0
   },
   "type": "Feature"
  },
  {
   "geometry": {
    "coordinates": [
     -77.920317,
     34.815017
    ],
    "type": "Point"
   },
   "properties": {
    "accumulation": 37464.0,
    "bank_slope_deg": 6.05,
    "bank_slope_score": 1.0,
    "bank_slope_source": "nc-dps-lidar-dem03-cross-section",
    "beach_dist_km": 68.33,
    "bridge_proximity_bonus": 0.0,
    "catchment_area_km2": 3.7442,
    "channel_width_m": 3.58,
    "channel_width_score": 1.0,
    "composite_score": 51.6627,
    "cso_density": 0.0,
    "ej_index": 0.6789,
    "elevation_m": 10.3509,
    "estuary_dist_km": 172.49,
    "feasibility_score": 50.0,
    "flood_q10_cfs": 268.74,
    "flow_score": 41.1281,
    "flow_velocity_ms": 0.0567,
    "generation_score": 43.5691,
    "impact_score": 69.3666,
    "impervious_pct": 1.14,
    "land_ownership": 0.5,
    "lat": 34.815,
    "litter_complaint_density": 0.0,
    "lon": -77.9203,
    "navigable_dist_m": null,
    "npdes_points": 0,
    "pixel_col": 272.0,
    "pixel_row": 365.0,
    "population_density": 8.5,
    "position_along": 0.5,
    "protected_area_score": 4.3985,
    "rank": 2,
    "road_access_m": 485.5,
    "road_access_score": 0.8,
    "road_density_km_km2": 1.51,
    "robustness_pct": 100.0,
    "runoff_coeff_C": 0.0603,
    "seasonal_cv": 0.6128,
    "segment_id": 0,
    "segment_length_m": 2757.8294,
    "stream_order": 1,
    "superfund_score": 0.0,
    "tourism_amenity_density": 0.0,
    "tri_facility_density": 0.0,
    "usgs_mean_q_cfs": 1.741,
    "velocity_feasibility": 0.7,
    "water_intake_score": 0.007
   },
   "type": "Feature"
  },
  {
   "geometry": {
    "coordinates": [
     -77.910659,
     34.818414
    ],
    "type": "Point"
   },
   "properties": {
    "accumulation": 36557.0,
    "bank_slope_deg": 5.59,
    "bank_slope_score": 1.0,
    "bank_slope_source": "nc-dps-lidar-dem03-cross-section",
    "beach_dist_km": 68.55,
    "bridge_proximity_bonus": 0.0,
    "catchment_area_km2": 3.6535,
    "channel_width_m": 3.55,
    "channel_width_score": 1.0,
    "composite_score": 45.2296,
    "cso_density": 0.0,
    "ej_index": 0.6754,
    "elevation_m": 9.8113,
    "estuary_dist_km": 171.56,
    "feasibility_score": 50.0,
    "flood_q10_cfs": 261.51,
    "flow_score": 68.6229,
    "flow_velocity_ms": 0.0557,
    "generation_score": 0.0,
    "impact_score": 68.5796,
    "impervious_pct": 0.6,
    "land_ownership": 0.5,
    "lat": 34.8184,
    "litter_complaint_density": 0.0,
    "lon": -77.9107,
    "navigable_dist_m": null,
    "npdes_points": 0,
    "pixel_col": 359.0,
    "pixel_row": 331.0,
    "population_density": 7.3,
    "position_along": 0.5,
    "protected_area_score": 4.4371,
    "rank": 3,
    "road_access_m": 213.5,
    "road_access_score": 0.8,
    "road_density_km_km2": 0.575,
    "robustness_pct": 100.0,
    "runoff_coeff_C": 0.0554,
    "seasonal_cv": 0.551,
    "segment_id": 1,
    "segment_length_m": 1616.3314,
    "stream_order": 1,
    "superfund_score": 0.0,
    "tourism_amenity_density": 0.0,
    "tri_facility_density": 0.0,
    "usgs_mean_q_cfs": 4.38,
    "velocity_feasibility": 0.7,
    "water_intake_score": 0.0075
   },
   "type": "Feature"
  }
 ],
 "note": "GRIME region 'Greenevers, NC' \u2014 real-data pipeline (DEM\u2192streams\u2192candidates\u2192stream mask (sites confined to \u00b1150 m of mapped OSM/NHD waterways)\u2192region-appropriate real parameters\u2192shipped scoring, math unchanged). Width curve: Bieger et al. 2015 JAWRA Table 3, Atlantic Plain. Flood: SIR 2014-5030 HR4 (I24H50Y: NOAA Atlas 14). NC Coastal Plain (SIR 2014-5030 HR4; I24H50Y from NOAA Atlas 14 at region center)",
 "provenance": {
  "candidates_pre_gate": 3,
  "constant": [
   "bank_slope_score",
   "bridge_proximity_bonus",
   "channel_width_score",
   "cso_density",
   "land_ownership",
   "litter_complaint_density",
   "npdes_points",
   "road_access_score",
   "stream_order",
   "superfund_score",
   "tourism_amenity_density",
   "tri_facility_density",
   "velocity_feasibility"
  ],
  "gated_navigable": 0,
  "hard_gate_removed": 0,
  "n_parameters": 27,
  "parameters": {
   "bank_slope_score": {
    "kind": "real",
    "n_3dep_10m_fallback": 0,
    "n_nc_lidar_3_125ft": 3,
    "n_real": 3,
    "n_sites": 3,
    "source": "NC OneMap / NC DPS DEM03 statewide lidar-derived 3.125-ft (0.953 m) elevations (perpendicular 50 m transect; robust 5 m bank-rise metric); unavailable profiles use the region 10 m 3DEP DEM-gradient fallback",
    "source_mosaics": [
     "Duplin_Ground_3ft"
    ]
   },
   "beach_dist_km": {
    "kind": "real",
    "n_real": 3,
    "n_sites": 3,
    "source": "haversine to region ref: Wrightsville Beach (shipped NC reference)"
   },
   "bridge_proximity_bonus": {
    "kind": "real",
    "n_real": 3,
    "n_sites": 3,
    "source": "FHWA/BTS NBI (NTAD), 50 m proximity"
   },
   "catchment_area_km2": {
    "kind": "real",
    "n_real": 3,
    "n_sites": 3,
    "source": "DEM flow accumulation (pipeline)"
   },
   "channel_width_score": {
    "kind": "real",
    "n_real": 3,
    "n_sites": 3,
    "source": "Bieger 2015 APL width curve on DEM drainage area \u2192 shipped width curve"
   },
   "cso_density": {
    "kind": "real",
    "n_real": 3,
    "n_sites": 3,
    "source": "EPA ECHO open CSO/TCS outfall PF coordinates states=NC, Cauchy proximity"
   },
   "ej_index": {
    "kind": "real",
    "n_real": 3,
    "n_sites": 3,
    "source": "Census ACS C17002+B03002 two-component demographic index, percentile-ranked within region"
   },
   "estuary_dist_km": {
    "kind": "real",
    "n_real": 3,
    "n_sites": 3,
    "source": "haversine to region ref: Pamlico Sound (shipped NC reference)"
   },
   "flood_q10_cfs": {
    "kind": "real",
    "n_real": 3,
    "n_sites": 3,
    "source": "USGS SIR 2014-5030 Table 7 HR4 (NC Coastal Plain; I24H50Y from NOAA Atlas 14 at region center)"
   },
   "flow_velocity_ms": {
    "kind": "real",
    "n_fallback": 0,
    "n_real": 3,
    "n_sites": 3,
    "source": "Manning (region DEM/D8) blended with EROM continuity (shipped M4 logic)"
   },
   "impervious_pct": {
    "kind": "real",
    "n_real": 3,
    "n_sites": 3,
    "source": "EPA StreamCat pctimp2019 (per NHDPlus watershed)"
   },
   "land_ownership": {
    "kind": "real",
    "n_fallback": 0,
    "n_real": 3,
    "n_sites": 3,
    "source": "NC OneMap statewide parcels (NC Parcels Transformer) ownname"
   },
   "litter_complaint_density": {
    "kind": "fallback",
    "n_real": 0,
    "n_sites": 3,
    "source": "no public machine-readable litter/illegal-dumping feed for this region"
   },
   "navigable_dist_m": {
    "kind": "real",
    "n_real": 3,
    "n_sites": 3,
    "source": "USACE/BTS NWN (NTAD): no navigable segment within this bbox (+2 km) \u2014 computed absence, gate passes all sites"
   },
   "npdes_points": {
    "kind": "real",
    "n_real": 3,
    "n_sites": 3,
    "source": "EPA ECHO active NPDES outfalls states=NC (types NPD/GPC/NGP; statuses ADC/EFF/EXP), per catchment"
   },
   "population_density": {
    "kind": "real",
    "n_real": 3,
    "n_sites": 3,
    "source": "Census ACS 2022 B01003 block groups (bbox, multi-county), area-weighted"
   },
   "protected_area_score": {
    "kind": "real",
    "n_real": 3,
    "n_sites": 3,
    "source": "USGS PAD-US 4.1 state GDB; states=NC; shipped designation-weighted proximity curve"
   },
   "road_access_score": {
    "kind": "real",
    "n_real": 3,
    "n_sites": 3,
    "source": "OSM drive network nearest-node distance"
   },
   "road_density_km_km2": {
    "kind": "real",
    "n_real": 3,
    "n_sites": 3,
    "source": "OSM drive network (osmnx, cached) clipped per catchment"
   },
   "runoff_coeff_C": {
    "kind": "real",
    "n_real": 3,
    "n_sites": 3,
    "source": "derived from real impervious_pct (C=0.05+0.009*I)"
   },
   "seasonal_cv": {
    "kind": "real",
    "n_real": 3,
    "n_sites": 3,
    "source": "CV of NHDPlus EROM monthly flows per COMID"
   },
   "stream_order": {
    "kind": "real",
    "n_real": 3,
    "n_sites": 3,
    "source": "DEM stream-network confluence heuristic (pipeline)"
   },
   "superfund_score": {
    "kind": "real",
    "n_real": 3,
    "n_sites": 3,
    "source": "EPA DataMap SEMS active sites states=NC (non-archived, georeferenced), shipped 500 m inverse-distance curve"
   },
   "tourism_amenity_density": {
    "kind": "fallback",
    "n_real": 0,
    "n_sites": 3,
    "source": "OSM leisure/tourism query unavailable \u2014 documented fallback"
   },
   "tri_facility_density": {
    "kind": "real",
    "n_real": 3,
    "n_sites": 3,
    "source": "EPA DataMap TRI open facilities states=NC (preferred decimal or packed-DMS recovery), per catchment"
   },
   "usgs_mean_q_cfs": {
    "kind": "real",
    "n_real": 3,
    "n_sites": 3,
    "source": "NHDPlus EROM qe_ma per COMID (snap-guarded)"
   },
   "velocity_feasibility": {
    "kind": "real",
    "n_fallback": 0,
    "n_real": 3,
    "n_sites": 3,
    "source": "shipped step curve on the computed velocity"
   },
   "velocity_transport_favorability": {
    "kind": "derived",
    "n_real": 3,
    "n_sites": 3,
    "source": "scored form of flow_velocity_ms inside the Flow family \u2014 peaked Gaussian exp(-((v-0.9)/0.6)^2), model.json curves.velocity_transport_favorability; construct: transport/delivery favorability, deliberately distinct from velocity_feasibility (device operability)"
   },
   "water_intake_score": {
    "kind": "real",
    "n_real": 3,
    "n_sites": 3,
    "source": "NC OneMap / NC DEQ SWAP public water supply sources (source_typ='Surface Water'), shipped exp(-d/10km) curve"
   }
  },
  "stream_mask": {
   "buffer_m": 150.0,
   "pre_mask": 3,
   "removed": 0,
   "sources": [
    "osm-overpass (all waterway ways)",
    "usgs-nhdplus flowlines"
   ]
  },
  "varying": [
   "beach_dist_km",
   "catchment_area_km2",
   "ej_index",
   "estuary_dist_km",
   "flood_q10_cfs",
   "flow_velocity_ms",
   "impervious_pct",
   "population_density",
   "protected_area_score",
   "road_density_km_km2",
   "runoff_coeff_C",
   "seasonal_cv",
   "usgs_mean_q_cfs",
   "water_intake_score"
  ]
 },
 "region": {
  "bbox": [
   -77.9496,
   34.807,
   -77.9007,
   34.8472
  ],
  "beach_ref": {
   "label": "Wrightsville Beach (shipped NC reference)",
   "lat": 34.21,
   "lon": -77.79
  },
  "center": [
   -77.925135,
   34.827134
  ],
  "estuary_ref": {
   "label": "Pamlico Sound (shipped NC reference)",
   "lat": 35.05,
   "lon": -76.05
  },
  "flood_method": "sir2014_hr4",
  "name": "Greenevers, NC",
  "notes": "NC Coastal Plain (SIR 2014-5030 HR4; I24H50Y from NOAA Atlas 14 at region center)",
  "slug": "greenevers",
  "state": "NC",
  "utm_epsg": 32618,
  "width_curve": {
   "a": 2.22,
   "b": 0.363,
   "code": "APL",
   "source": "Bieger et al. 2015 JAWRA Table 3, Atlantic Plain"
  }
 },
 "type": "FeatureCollection"
}
