{
 "features": [
  {
   "geometry": {
    "coordinates": [
     -77.591266,
     36.31779
    ],
    "type": "Point"
   },
   "properties": {
    "accumulation": 54934.0,
    "bank_slope_deg": 37.1,
    "bank_slope_score": 0.2,
    "bank_slope_source": "nc-dps-lidar-dem03-cross-section",
    "beach_dist_km": 235.07,
    "bridge_proximity_bonus": 0.0,
    "catchment_area_km2": 5.4791,
    "channel_width_m": 4.12,
    "channel_width_score": 1.0,
    "composite_score": 74.8387,
    "cso_density": 0.0,
    "ej_index": 0.5247,
    "elevation_m": 11.8612,
    "estuary_dist_km": 198.11,
    "feasibility_score": 71.4286,
    "flood_q10_cfs": 258.94,
    "flow_score": 70.5265,
    "flow_velocity_ms": 0.5,
    "generation_score": 99.3903,
    "impact_score": 55.5856,
    "impervious_pct": null,
    "land_ownership": 0.5,
    "lat": 36.3178,
    "litter_complaint_density": 0.0,
    "lon": -77.5913,
    "navigable_dist_m": 1635.0,
    "npdes_points": 0,
    "pixel_col": 195.0,
    "pixel_row": 288.0,
    "population_density": 14.5,
    "position_along": 0.5,
    "protected_area_score": 16.3311,
    "rank": 1,
    "road_access_m": 416.5,
    "road_access_score": 0.8,
    "road_density_km_km2": 1.72,
    "robustness_pct": 100.0,
    "runoff_coeff_C": null,
    "seasonal_cv": null,
    "segment_id": 1,
    "segment_length_m": 5426.6157,
    "stream_order": 3,
    "superfund_score": 0.0,
    "tourism_amenity_density": 0.8754,
    "tri_facility_density": 0.0,
    "usgs_mean_q_cfs": null,
    "velocity_feasibility": 1.0,
    "water_intake_score": 0.6017
   },
   "type": "Feature"
  },
  {
   "geometry": {
    "coordinates": [
     -77.581105,
     36.324965
    ],
    "type": "Point"
   },
   "properties": {
    "accumulation": 67567.0,
    "bank_slope_deg": 16.48,
    "bank_slope_score": 0.5,
    "bank_slope_source": "nc-dps-lidar-dem03-cross-section",
    "beach_dist_km": 235.94,
    "bridge_proximity_bonus": 0.0,
    "catchment_area_km2": 6.7391,
    "channel_width_m": 4.44,
    "channel_width_score": 1.0,
    "composite_score": 51.9977,
    "cso_density": 0.0,
    "ej_index": 0.6317,
    "elevation_m": 10.3379,
    "estuary_dist_km": 198.03,
    "feasibility_score": 10.7143,
    "flood_q10_cfs": 293.21,
    "flow_score": 100.0,
    "flow_velocity_ms": 0.5,
    "generation_score": 35.7143,
    "impact_score": 48.9209,
    "impervious_pct": null,
    "land_ownership": 0.5,
    "lat": 36.325,
    "litter_complaint_density": 0.0,
    "lon": -77.5811,
    "navigable_dist_m": 528.9,
    "npdes_points": 0,
    "pixel_col": 289.0,
    "pixel_row": 213.0,
    "population_density": 12.6,
    "position_along": 0.8333,
    "protected_area_score": 14.7458,
    "rank": 2,
    "road_access_m": 580.7,
    "road_access_score": 0.6,
    "road_density_km_km2": 1.739,
    "robustness_pct": 100.0,
    "runoff_coeff_C": null,
    "seasonal_cv": null,
    "segment_id": 1,
    "segment_length_m": 5426.6157,
    "stream_order": 3,
    "superfund_score": 0.0,
    "tourism_amenity_density": 0.8754,
    "tri_facility_density": 0.0,
    "usgs_mean_q_cfs": null,
    "velocity_feasibility": 1.0,
    "water_intake_score": 0.6074
   },
   "type": "Feature"
  },
  {
   "geometry": {
    "coordinates": [
     -77.604106,
     36.323362
    ],
    "type": "Point"
   },
   "properties": {
    "accumulation": 26852.0,
    "bank_slope_deg": 7.24,
    "bank_slope_score": 1.0,
    "bank_slope_source": "nc-dps-lidar-dem03-cross-section",
    "beach_dist_km": 235.6,
    "bridge_proximity_bonus": 0.0,
    "catchment_area_km2": 2.6782,
    "channel_width_m": 3.17,
    "channel_width_score": 1.0,
    "composite_score": 39.6353,
    "cso_density": 0.0,
    "ej_index": 0.5905,
    "elevation_m": 19.494,
    "estuary_dist_km": 199.36,
    "feasibility_score": 100.0,
    "flood_q10_cfs": 168.48,
    "flow_score": 0.0,
    "flow_velocity_ms": 0.5,
    "generation_score": 23.6842,
    "impact_score": 58.4335,
    "impervious_pct": null,
    "land_ownership": 0.5,
    "lat": 36.3234,
    "litter_complaint_density": 0.0,
    "lon": -77.6041,
    "navigable_dist_m": 2181.1,
    "npdes_points": 0,
    "pixel_col": 82.0,
    "pixel_row": 227.0,
    "population_density": 13.3,
    "position_along": 0.1667,
    "protected_area_score": 16.333,
    "rank": 3,
    "road_access_m": 443.8,
    "road_access_score": 0.8,
    "road_density_km_km2": 0.626,
    "robustness_pct": 100.0,
    "runoff_coeff_C": null,
    "seasonal_cv": null,
    "segment_id": 1,
    "segment_length_m": 5426.6157,
    "stream_order": 3,
    "superfund_score": 0.0,
    "tourism_amenity_density": 0.7958,
    "tri_facility_density": 0.0,
    "usgs_mean_q_cfs": null,
    "velocity_feasibility": 1.0,
    "water_intake_score": 0.6434
   },
   "type": "Feature"
  }
 ],
 "note": "GRIME region 'Halifax, NC' \u2014 real-data pipeline (DEM\u2192streams\u2192candidates\u2192stream mask (sites confined to \u00b1150 m of mapped OSM/NHD waterways)\u2192region-appropriate real parameters\u2192shipped scoring, math unchanged). Width curve: Bieger et al. 2015 JAWRA Table 3, Atlantic Plain. Flood: SIR 2014-5030 HR4 (I24H50Y: NOAA Atlas 14). NC Coastal Plain (SIR 2014-5030 HR4; I24H50Y from NOAA Atlas 14 at region center)",
 "provenance": {
  "candidates_pre_gate": 5,
  "constant": [
   "bridge_proximity_bonus",
   "channel_width_score",
   "cso_density",
   "flow_velocity_ms",
   "impervious_pct",
   "land_ownership",
   "litter_complaint_density",
   "npdes_points",
   "runoff_coeff_C",
   "seasonal_cv",
   "stream_order",
   "superfund_score",
   "tri_facility_density",
   "usgs_mean_q_cfs",
   "velocity_feasibility"
  ],
  "gated_navigable": 2,
  "hard_gate_removed": 2,
  "n_parameters": 27,
  "parameters": {
   "bank_slope_score": {
    "kind": "real",
    "n_3dep_10m_fallback": 0,
    "n_nc_lidar_3_125ft": 5,
    "n_real": 5,
    "n_sites": 5,
    "source": "NC OneMap / NC DPS DEM03 statewide lidar-derived 3.125-ft (0.953 m) elevations (perpendicular 50 m transect; robust 5 m bank-rise metric); unavailable profiles use the region 10 m 3DEP DEM-gradient fallback",
    "source_mosaics": [
     "Halifax_Ground_3ft"
    ]
   },
   "beach_dist_km": {
    "kind": "real",
    "n_real": 5,
    "n_sites": 5,
    "source": "haversine to region ref: Wrightsville Beach (shipped NC reference)"
   },
   "bridge_proximity_bonus": {
    "kind": "real",
    "n_real": 5,
    "n_sites": 5,
    "source": "FHWA/BTS NBI (NTAD), 50 m proximity"
   },
   "catchment_area_km2": {
    "kind": "real",
    "n_real": 5,
    "n_sites": 5,
    "source": "DEM flow accumulation (pipeline)"
   },
   "channel_width_score": {
    "kind": "real",
    "n_real": 5,
    "n_sites": 5,
    "source": "Bieger 2015 APL width curve on DEM drainage area \u2192 shipped width curve"
   },
   "cso_density": {
    "kind": "real",
    "n_real": 5,
    "n_sites": 5,
    "source": "EPA ECHO open CSO/TCS outfall PF coordinates states=NC, Cauchy proximity"
   },
   "ej_index": {
    "kind": "real",
    "n_real": 5,
    "n_sites": 5,
    "source": "Census ACS C17002+B03002 two-component demographic index, percentile-ranked within region"
   },
   "estuary_dist_km": {
    "kind": "real",
    "n_real": 5,
    "n_sites": 5,
    "source": "haversine to region ref: Pamlico Sound (shipped NC reference)"
   },
   "flood_q10_cfs": {
    "impervious_fallback_reason": "StreamCat imperviousness unavailable; the existing regression-input fallback of 0.0% impervious was used and is disclosed here",
    "kind": "real",
    "n_impervious_fallback": 5,
    "n_real": 5,
    "n_sites": 5,
    "source": "USGS SIR 2014-5030 Table 7 HR4 (NC Coastal Plain; I24H50Y from NOAA Atlas 14 at region center)"
   },
   "flow_velocity_ms": {
    "kind": "fallback",
    "n_fallback": 5,
    "n_real": 0,
    "n_sites": 5,
    "reason": "EROM/DEM continuity input unavailable; shipped 0.5 m/s default used",
    "source": "Manning (region DEM/D8) blended with EROM continuity (shipped M4 logic)"
   },
   "impervious_pct": {
    "kind": "fallback",
    "n_fallback": 5,
    "n_real": 0,
    "n_sites": 5,
    "reason": "NLDI/StreamCat did not return a snap-compatible catchment value; value remains null and is removed by constant-column handling",
    "source": "EPA StreamCat pctimp2019 (per NHDPlus watershed)"
   },
   "land_ownership": {
    "fallback_reason": "no containing parcel owner returned; shipped unknown ownership 0.5 used",
    "kind": "real",
    "n_fallback": 2,
    "n_real": 3,
    "n_sites": 5,
    "source": "NC OneMap statewide parcels (NC Parcels Transformer) ownname"
   },
   "litter_complaint_density": {
    "kind": "fallback",
    "n_real": 0,
    "n_sites": 5,
    "source": "no public machine-readable litter/illegal-dumping feed for this region"
   },
   "navigable_dist_m": {
    "kind": "real",
    "n_real": 5,
    "n_sites": 5,
    "source": "USACE/BTS National Waterway Network lines (NTAD, retrieved 2026-07-10), distance to nearest navigable segment"
   },
   "npdes_points": {
    "kind": "real",
    "n_real": 5,
    "n_sites": 5,
    "source": "EPA ECHO active NPDES outfalls states=NC (types NPD/GPC/NGP; statuses ADC/EFF/EXP), per catchment"
   },
   "population_density": {
    "kind": "real",
    "n_real": 5,
    "n_sites": 5,
    "source": "Census ACS 2022 B01003 block groups (bbox, multi-county), area-weighted"
   },
   "protected_area_score": {
    "kind": "real",
    "n_real": 5,
    "n_sites": 5,
    "source": "USGS PAD-US 4.1 state GDB; states=NC; shipped designation-weighted proximity curve"
   },
   "road_access_score": {
    "kind": "real",
    "n_real": 5,
    "n_sites": 5,
    "source": "OSM drive network nearest-node distance"
   },
   "road_density_km_km2": {
    "kind": "real",
    "n_real": 5,
    "n_sites": 5,
    "source": "OSM drive network (osmnx, cached) clipped per catchment"
   },
   "runoff_coeff_C": {
    "kind": "fallback",
    "n_fallback": 5,
    "n_real": 0,
    "n_sites": 5,
    "reason": "source impervious_pct was unavailable; derived value remains null",
    "source": "derived from real impervious_pct (C=0.05+0.009*I)"
   },
   "seasonal_cv": {
    "kind": "fallback",
    "n_fallback": 5,
    "n_real": 0,
    "n_sites": 5,
    "reason": "NHDPlus monthly EROM was unavailable or failed the drainage-area snap guard; value remains null",
    "source": "CV of NHDPlus EROM monthly flows per COMID"
   },
   "stream_order": {
    "kind": "real",
    "n_real": 5,
    "n_sites": 5,
    "source": "DEM stream-network confluence heuristic (pipeline)"
   },
   "superfund_score": {
    "kind": "real",
    "n_real": 5,
    "n_sites": 5,
    "source": "EPA DataMap SEMS active sites states=NC (non-archived, georeferenced), shipped 500 m inverse-distance curve"
   },
   "tourism_amenity_density": {
    "kind": "real",
    "n_real": 5,
    "n_sites": 5,
    "source": "OSM leisure/tourism features per 2 km radius"
   },
   "tri_facility_density": {
    "kind": "real",
    "n_real": 5,
    "n_sites": 5,
    "source": "EPA DataMap TRI open facilities states=NC (preferred decimal or packed-DMS recovery), per catchment"
   },
   "usgs_mean_q_cfs": {
    "kind": "fallback",
    "n_fallback": 5,
    "n_real": 0,
    "n_sites": 5,
    "reason": "NHDPlus EROM was unavailable or failed the drainage-area snap guard; value remains null",
    "source": "NHDPlus EROM qe_ma per COMID (snap-guarded)"
   },
   "velocity_feasibility": {
    "kind": "fallback",
    "n_fallback": 5,
    "n_real": 0,
    "n_sites": 5,
    "reason": "derived from the shipped 0.5 m/s velocity fallback",
    "source": "shipped step curve on the computed velocity"
   },
   "velocity_transport_favorability": {
    "fallback_reason": "EROM/DEM continuity input unavailable; shipped 0.5 m/s default used",
    "kind": "derived",
    "n_fallback": 5,
    "n_real": 0,
    "n_sites": 5,
    "source": "scored form of flow_velocity_ms inside the Flow family \u2014 peaked Gaussian exp(-((v-0.9)/0.6)^2), model.json curves.velocity_transport_favorability; construct: transport/delivery favorability, deliberately distinct from velocity_feasibility (device operability)"
   },
   "water_intake_score": {
    "kind": "real",
    "n_real": 5,
    "n_sites": 5,
    "source": "NC OneMap / NC DEQ SWAP public water supply sources (source_typ='Surface Water'), shipped exp(-d/10km) curve"
   }
  },
  "stream_mask": {
   "buffer_m": 150.0,
   "pre_mask": 5,
   "removed": 0,
   "sources": [
    "osm-overpass (all waterway ways)",
    "usgs-nhdplus flowlines"
   ]
  },
  "varying": [
   "bank_slope_score",
   "beach_dist_km",
   "catchment_area_km2",
   "ej_index",
   "estuary_dist_km",
   "flood_q10_cfs",
   "population_density",
   "protected_area_score",
   "road_access_score",
   "road_density_km_km2",
   "tourism_amenity_density",
   "water_intake_score"
  ]
 },
 "region": {
  "bbox": [
   -77.6125,
   36.3075,
   -77.5677,
   36.3435
  ],
  "beach_ref": {
   "label": "Wrightsville Beach (shipped NC reference)",
   "lat": 34.21,
   "lon": -77.79
  },
  "center": [
   -77.590095,
   36.325495
  ],
  "estuary_ref": {
   "label": "Pamlico Sound (shipped NC reference)",
   "lat": 35.05,
   "lon": -76.05
  },
  "flood_method": "sir2014_hr4",
  "name": "Halifax, NC",
  "notes": "NC Coastal Plain (SIR 2014-5030 HR4; I24H50Y from NOAA Atlas 14 at region center)",
  "slug": "halifax",
  "state": "NC",
  "utm_epsg": 32618,
  "width_curve": {
   "a": 2.22,
   "b": 0.363,
   "code": "APL",
   "source": "Bieger et al. 2015 JAWRA Table 3, Atlantic Plain"
  }
 },
 "type": "FeatureCollection"
}
