{
 "features": [
  {
   "geometry": {
    "coordinates": [
     -78.199958,
     34.736008
    ],
    "type": "Point"
   },
   "properties": {
    "accumulation": 29645.0,
    "bank_slope_deg": 0.66,
    "bank_slope_score": 1.0,
    "bank_slope_source": "nc-dps-lidar-dem03-cross-section",
    "beach_dist_km": 69.52,
    "bridge_proximity_bonus": 0.0,
    "catchment_area_km2": 2.9624,
    "channel_width_m": 3.29,
    "channel_width_score": 1.0,
    "composite_score": 68.4189,
    "cso_density": 0.0,
    "ej_index": 0.3815,
    "elevation_m": 21.2644,
    "estuary_dist_km": 199.17,
    "feasibility_score": 100.0,
    "flood_q10_cfs": 237.54,
    "flow_score": 37.1357,
    "flow_velocity_ms": 0.0984,
    "generation_score": 91.4773,
    "impact_score": 55.6394,
    "impervious_pct": 1.88,
    "land_ownership": 0.5,
    "lat": 34.736,
    "litter_complaint_density": 0.0,
    "lon": -78.2,
    "navigable_dist_m": null,
    "npdes_points": 0,
    "pixel_col": 337.0,
    "pixel_row": 233.0,
    "population_density": 10.1,
    "position_along": 0.5,
    "protected_area_score": 2.8759,
    "rank": 1,
    "road_access_m": 229.5,
    "road_access_score": 0.8,
    "road_density_km_km2": 1.412,
    "robustness_pct": 100.0,
    "runoff_coeff_C": 0.0669,
    "seasonal_cv": 0.484,
    "segment_id": 1,
    "segment_length_m": 763.9874,
    "stream_order": 1,
    "superfund_score": 0.0,
    "tourism_amenity_density": 1.8303,
    "tri_facility_density": 0.0,
    "usgs_mean_q_cfs": 4.931,
    "velocity_feasibility": 0.7,
    "water_intake_score": 0.1072
   },
   "type": "Feature"
  },
  {
   "geometry": {
    "coordinates": [
     -78.172129,
     34.720535
    ],
    "type": "Point"
   },
   "properties": {
    "accumulation": 30423.0,
    "bank_slope_deg": 4.76,
    "bank_slope_score": 1.0,
    "bank_slope_source": "nc-dps-lidar-dem03-cross-section",
    "beach_dist_km": 66.71,
    "bridge_proximity_bonus": 0.0,
    "catchment_area_km2": 3.0401,
    "channel_width_m": 3.32,
    "channel_width_score": 1.0,
    "composite_score": 59.1652,
    "cso_density": 0.0,
    "ej_index": 0.4009,
    "elevation_m": 17.6197,
    "estuary_dist_km": 197.0,
    "feasibility_score": 100.0,
    "flood_q10_cfs": 235.12,
    "flow_score": 32.2457,
    "flow_velocity_ms": 0.0823,
    "generation_score": 59.6022,
    "impact_score": 60.7437,
    "impervious_pct": 0.77,
    "land_ownership": 0.5,
    "lat": 34.7205,
    "litter_complaint_density": 0.0,
    "lon": -78.1721,
    "navigable_dist_m": null,
    "npdes_points": 0,
    "pixel_col": 597.0,
    "pixel_row": 394.0,
    "population_density": 10.6,
    "position_along": 0.5,
    "protected_area_score": 2.4679,
    "rank": 2,
    "road_access_m": 469.5,
    "road_access_score": 0.8,
    "road_density_km_km2": 0.792,
    "robustness_pct": 100.0,
    "runoff_coeff_C": 0.0569,
    "seasonal_cv": 0.4762,
    "segment_id": 3,
    "segment_length_m": 1287.3513,
    "stream_order": 1,
    "superfund_score": 0.0,
    "tourism_amenity_density": 0.1592,
    "tri_facility_density": 0.0,
    "usgs_mean_q_cfs": 7.726,
    "velocity_feasibility": 0.7,
    "water_intake_score": 0.1191
   },
   "type": "Feature"
  },
  {
   "geometry": {
    "coordinates": [
     -78.173263,
     34.728941
    ],
    "type": "Point"
   },
   "properties": {
    "accumulation": 48382.0,
    "bank_slope_deg": 3.53,
    "bank_slope_score": 1.0,
    "bank_slope_source": "nc-dps-lidar-dem03-cross-section",
    "beach_dist_km": 67.56,
    "bridge_proximity_bonus": 0.0,
    "catchment_area_km2": 4.8347,
    "channel_width_m": 3.93,
    "channel_width_score": 1.0,
    "composite_score": 56.5846,
    "cso_density": 0.0,
    "ej_index": 0.3161,
    "elevation_m": 17.3067,
    "estuary_dist_km": 196.92,
    "feasibility_score": 100.0,
    "flood_q10_cfs": 313.76,
    "flow_score": 87.8697,
    "flow_velocity_ms": 0.0873,
    "generation_score": 31.5965,
    "impact_score": 33.7939,
    "impervious_pct": 1.2,
    "land_ownership": 0.5,
    "lat": 34.7289,
    "litter_complaint_density": 0.0,
    "lon": -78.1733,
    "navigable_dist_m": null,
    "npdes_points": 0,
    "pixel_col": 584.0,
    "pixel_row": 303.0,
    "population_density": 8.4,
    "position_along": 0.75,
    "protected_area_score": 2.5066,
    "rank": 3,
    "road_access_m": 472.7,
    "road_access_score": 0.8,
    "road_density_km_km2": 0.615,
    "robustness_pct": 100.0,
    "runoff_coeff_C": 0.0608,
    "seasonal_cv": 0.4453,
    "segment_id": 0,
    "segment_length_m": 3413.8101,
    "stream_order": 1,
    "superfund_score": 0.0,
    "tourism_amenity_density": 0.3183,
    "tri_facility_density": 0.0,
    "usgs_mean_q_cfs": 9.677,
    "velocity_feasibility": 0.7,
    "water_intake_score": 0.1092
   },
   "type": "Feature"
  },
  {
   "geometry": {
    "coordinates": [
     -78.228204,
     34.734841
    ],
    "type": "Point"
   },
   "properties": {
    "accumulation": 43668.0,
    "bank_slope_deg": 3.87,
    "bank_slope_score": 1.0,
    "bank_slope_source": "nc-dps-lidar-dem03-cross-section",
    "beach_dist_km": 70.85,
    "bridge_proximity_bonus": 0.0,
    "catchment_area_km2": 4.3636,
    "channel_width_m": 3.79,
    "channel_width_score": 1.0,
    "composite_score": 47.8994,
    "cso_density": 0.0,
    "ej_index": 0.4009,
    "elevation_m": 19.4822,
    "estuary_dist_km": 201.73,
    "feasibility_score": 60.0,
    "flood_q10_cfs": 291.55,
    "flow_score": 63.8773,
    "flow_velocity_ms": 0.0933,
    "generation_score": 52.3482,
    "impact_score": 24.0854,
    "impervious_pct": 0.69,
    "land_ownership": 0.5,
    "lat": 34.7348,
    "litter_complaint_density": 0.0,
    "lon": -78.2282,
    "navigable_dist_m": null,
    "npdes_points": 0,
    "pixel_col": 77.0,
    "pixel_row": 253.0,
    "population_density": 10.6,
    "position_along": 0.5,
    "protected_area_score": 2.346,
    "rank": 4,
    "road_access_m": 850.4,
    "road_access_score": 0.6,
    "road_density_km_km2": 0.453,
    "robustness_pct": 97.5,
    "runoff_coeff_C": 0.0562,
    "seasonal_cv": 0.4636,
    "segment_id": 2,
    "segment_length_m": 1595.524,
    "stream_order": 1,
    "superfund_score": 0.0,
    "tourism_amenity_density": 0.0796,
    "tri_facility_density": 0.0,
    "usgs_mean_q_cfs": 6.428,
    "velocity_feasibility": 0.7,
    "water_intake_score": 0.1134
   },
   "type": "Feature"
  },
  {
   "geometry": {
    "coordinates": [
     -78.193783,
     34.710164
    ],
    "type": "Point"
   },
   "properties": {
    "accumulation": 34533.0,
    "bank_slope_deg": 3.27,
    "bank_slope_score": 1.0,
    "bank_slope_source": "nc-dps-lidar-dem03-cross-section",
    "beach_dist_km": 66.81,
    "bridge_proximity_bonus": 0.0,
    "catchment_area_km2": 3.4508,
    "channel_width_m": 3.48,
    "channel_width_score": 1.0,
    "composite_score": 46.7186,
    "cso_density": 0.0,
    "ej_index": 0.4009,
    "elevation_m": 20.0176,
    "estuary_dist_km": 199.17,
    "feasibility_score": 0.0,
    "flood_q10_cfs": 253.7,
    "flow_score": 35.458,
    "flow_velocity_ms": 0.0755,
    "generation_score": 47.9167,
    "impact_score": 78.2636,
    "impervious_pct": 0.77,
    "land_ownership": 0.5,
    "lat": 34.7102,
    "litter_complaint_density": 0.0,
    "lon": -78.1938,
    "navigable_dist_m": null,
    "npdes_points": 0,
    "pixel_col": 401.0,
    "pixel_row": 518.0,
    "population_density": 10.6,
    "position_along": 0.5,
    "protected_area_score": 2.6358,
    "rank": 5,
    "road_access_m": 1170.3,
    "road_access_score": 0.3,
    "road_density_km_km2": 0.0,
    "robustness_pct": 95.0,
    "runoff_coeff_C": 0.0569,
    "seasonal_cv": 0.4762,
    "segment_id": 4,
    "segment_length_m": 1759.6067,
    "stream_order": 1,
    "superfund_score": 0.0,
    "tourism_amenity_density": 0.7958,
    "tri_facility_density": 0.0,
    "usgs_mean_q_cfs": 7.726,
    "velocity_feasibility": 0.7,
    "water_intake_score": 0.14
   },
   "type": "Feature"
  },
  {
   "geometry": {
    "coordinates": [
     -78.186624,
     34.733267
    ],
    "type": "Point"
   },
   "properties": {
    "accumulation": 30949.0,
    "bank_slope_deg": 2.73,
    "bank_slope_score": 1.0,
    "bank_slope_source": "nc-dps-lidar-dem03-cross-section",
    "beach_dist_km": 68.61,
    "bridge_proximity_bonus": 0.0,
    "catchment_area_km2": 3.0927,
    "channel_width_m": 3.34,
    "channel_width_score": 1.0,
    "composite_score": 27.9345,
    "cso_density": 0.0,
    "ej_index": 0.3379,
    "elevation_m": 19.0354,
    "estuary_dist_km": 198.03,
    "feasibility_score": 60.0,
    "flood_q10_cfs": 235.51,
    "flow_score": 1.5373,
    "flow_velocity_ms": 0.0748,
    "generation_score": 17.7226,
    "impact_score": 44.1114,
    "impervious_pct": 0.4,
    "land_ownership": 0.5,
    "lat": 34.7333,
    "litter_complaint_density": 0.0,
    "lon": -78.1866,
    "navigable_dist_m": null,
    "npdes_points": 0,
    "pixel_col": 460.0,
    "pixel_row": 260.0,
    "population_density": 9.0,
    "position_along": 0.25,
    "protected_area_score": 2.6423,
    "rank": 6,
    "road_access_m": 975.8,
    "road_access_score": 0.6,
    "road_density_km_km2": 0.508,
    "robustness_pct": 7.5,
    "runoff_coeff_C": 0.0536,
    "seasonal_cv": 0.5132,
    "segment_id": 0,
    "segment_length_m": 3413.8101,
    "stream_order": 1,
    "superfund_score": 0.0,
    "tourism_amenity_density": 1.7507,
    "tri_facility_density": 0.0,
    "usgs_mean_q_cfs": 3.46,
    "velocity_feasibility": 0.7,
    "water_intake_score": 0.1075
   },
   "type": "Feature"
  }
 ],
 "note": "GRIME region 'Harrells, NC' \u2014 real-data pipeline (DEM\u2192streams\u2192candidates\u2192stream mask (sites confined to \u00b1150 m of mapped OSM/NHD waterways)\u2192region-appropriate real parameters\u2192shipped scoring, math unchanged). Width curve: Bieger et al. 2015 JAWRA Table 3, Atlantic Plain. Flood: SIR 2014-5030 HR4 (I24H50Y: NOAA Atlas 14). NC Coastal Plain (SIR 2014-5030 HR4; I24H50Y from NOAA Atlas 14 at region center)",
 "provenance": {
  "candidates_pre_gate": 6,
  "constant": [
   "bank_slope_score",
   "bridge_proximity_bonus",
   "channel_width_score",
   "cso_density",
   "land_ownership",
   "litter_complaint_density",
   "npdes_points",
   "stream_order",
   "superfund_score",
   "tri_facility_density",
   "velocity_feasibility"
  ],
  "gated_navigable": 0,
  "hard_gate_removed": 0,
  "n_parameters": 27,
  "parameters": {
   "bank_slope_score": {
    "kind": "real",
    "n_3dep_10m_fallback": 0,
    "n_nc_lidar_3_125ft": 6,
    "n_real": 6,
    "n_sites": 6,
    "source": "NC OneMap / NC DPS DEM03 statewide lidar-derived 3.125-ft (0.953 m) elevations (perpendicular 50 m transect; robust 5 m bank-rise metric); unavailable profiles use the region 10 m 3DEP DEM-gradient fallback",
    "source_mosaics": [
     "Sampson_Ground_3ft"
    ]
   },
   "beach_dist_km": {
    "kind": "real",
    "n_real": 6,
    "n_sites": 6,
    "source": "haversine to region ref: Wrightsville Beach (shipped NC reference)"
   },
   "bridge_proximity_bonus": {
    "kind": "real",
    "n_real": 6,
    "n_sites": 6,
    "source": "FHWA/BTS NBI (NTAD), 50 m proximity"
   },
   "catchment_area_km2": {
    "kind": "real",
    "n_real": 6,
    "n_sites": 6,
    "source": "DEM flow accumulation (pipeline)"
   },
   "channel_width_score": {
    "kind": "real",
    "n_real": 6,
    "n_sites": 6,
    "source": "Bieger 2015 APL width curve on DEM drainage area \u2192 shipped width curve"
   },
   "cso_density": {
    "kind": "real",
    "n_real": 6,
    "n_sites": 6,
    "source": "EPA ECHO open CSO/TCS outfall PF coordinates states=NC, Cauchy proximity"
   },
   "ej_index": {
    "kind": "real",
    "n_real": 6,
    "n_sites": 6,
    "source": "Census ACS C17002+B03002 two-component demographic index, percentile-ranked within region"
   },
   "estuary_dist_km": {
    "kind": "real",
    "n_real": 6,
    "n_sites": 6,
    "source": "haversine to region ref: Pamlico Sound (shipped NC reference)"
   },
   "flood_q10_cfs": {
    "kind": "real",
    "n_real": 6,
    "n_sites": 6,
    "source": "USGS SIR 2014-5030 Table 7 HR4 (NC Coastal Plain; I24H50Y from NOAA Atlas 14 at region center)"
   },
   "flow_velocity_ms": {
    "kind": "real",
    "n_fallback": 0,
    "n_real": 6,
    "n_sites": 6,
    "source": "Manning (region DEM/D8) blended with EROM continuity (shipped M4 logic)"
   },
   "impervious_pct": {
    "kind": "real",
    "n_real": 6,
    "n_sites": 6,
    "source": "EPA StreamCat pctimp2019 (per NHDPlus watershed)"
   },
   "land_ownership": {
    "fallback_reason": "no containing parcel owner returned; shipped unknown ownership 0.5 used",
    "kind": "real",
    "n_fallback": 1,
    "n_real": 5,
    "n_sites": 6,
    "source": "NC OneMap statewide parcels (NC Parcels Transformer) ownname"
   },
   "litter_complaint_density": {
    "kind": "fallback",
    "n_real": 0,
    "n_sites": 6,
    "source": "no public machine-readable litter/illegal-dumping feed for this region"
   },
   "navigable_dist_m": {
    "kind": "real",
    "n_real": 6,
    "n_sites": 6,
    "source": "USACE/BTS NWN (NTAD): no navigable segment within this bbox (+2 km) \u2014 computed absence, gate passes all sites"
   },
   "npdes_points": {
    "kind": "real",
    "n_real": 6,
    "n_sites": 6,
    "source": "EPA ECHO active NPDES outfalls states=NC (types NPD/GPC/NGP; statuses ADC/EFF/EXP), per catchment"
   },
   "population_density": {
    "kind": "real",
    "n_real": 6,
    "n_sites": 6,
    "source": "Census ACS 2022 B01003 block groups (bbox, multi-county), area-weighted"
   },
   "protected_area_score": {
    "kind": "real",
    "n_real": 6,
    "n_sites": 6,
    "source": "USGS PAD-US 4.1 state GDB; states=NC; shipped designation-weighted proximity curve"
   },
   "road_access_score": {
    "kind": "real",
    "n_real": 6,
    "n_sites": 6,
    "source": "OSM drive network nearest-node distance"
   },
   "road_density_km_km2": {
    "kind": "real",
    "n_real": 6,
    "n_sites": 6,
    "source": "OSM drive network (osmnx, cached) clipped per catchment"
   },
   "runoff_coeff_C": {
    "kind": "real",
    "n_real": 6,
    "n_sites": 6,
    "source": "derived from real impervious_pct (C=0.05+0.009*I)"
   },
   "seasonal_cv": {
    "kind": "real",
    "n_real": 6,
    "n_sites": 6,
    "source": "CV of NHDPlus EROM monthly flows per COMID"
   },
   "stream_order": {
    "kind": "real",
    "n_real": 6,
    "n_sites": 6,
    "source": "DEM stream-network confluence heuristic (pipeline)"
   },
   "superfund_score": {
    "kind": "real",
    "n_real": 6,
    "n_sites": 6,
    "source": "EPA DataMap SEMS active sites states=NC (non-archived, georeferenced), shipped 500 m inverse-distance curve"
   },
   "tourism_amenity_density": {
    "kind": "real",
    "n_real": 6,
    "n_sites": 6,
    "source": "OSM leisure/tourism features per 2 km radius"
   },
   "tri_facility_density": {
    "kind": "real",
    "n_real": 6,
    "n_sites": 6,
    "source": "EPA DataMap TRI open facilities states=NC (preferred decimal or packed-DMS recovery), per catchment"
   },
   "usgs_mean_q_cfs": {
    "kind": "real",
    "n_real": 6,
    "n_sites": 6,
    "source": "NHDPlus EROM qe_ma per COMID (snap-guarded)"
   },
   "velocity_feasibility": {
    "kind": "real",
    "n_fallback": 0,
    "n_real": 6,
    "n_sites": 6,
    "source": "shipped step curve on the computed velocity"
   },
   "velocity_transport_favorability": {
    "kind": "derived",
    "n_real": 6,
    "n_sites": 6,
    "source": "scored form of flow_velocity_ms inside the Flow family \u2014 peaked Gaussian exp(-((v-0.9)/0.6)^2), model.json curves.velocity_transport_favorability; construct: transport/delivery favorability, deliberately distinct from velocity_feasibility (device operability)"
   },
   "water_intake_score": {
    "kind": "real",
    "n_real": 6,
    "n_sites": 6,
    "source": "NC OneMap / NC DEQ SWAP public water supply sources (source_typ='Surface Water'), shipped exp(-d/10km) curve"
   }
  },
  "stream_mask": {
   "buffer_m": 150.0,
   "pre_mask": 6,
   "removed": 0,
   "sources": [
    "osm-overpass (all waterway ways)",
    "usgs-nhdplus flowlines"
   ]
  },
  "varying": [
   "beach_dist_km",
   "catchment_area_km2",
   "ej_index",
   "estuary_dist_km",
   "flood_q10_cfs",
   "flow_velocity_ms",
   "impervious_pct",
   "population_density",
   "protected_area_score",
   "road_access_score",
   "road_density_km_km2",
   "runoff_coeff_C",
   "seasonal_cv",
   "tourism_amenity_density",
   "usgs_mean_q_cfs",
   "water_intake_score"
  ]
 },
 "region": {
  "bbox": [
   -78.2359,
   34.6995,
   -78.1671,
   34.7561
  ],
  "beach_ref": {
   "label": "Wrightsville Beach (shipped NC reference)",
   "lat": 34.21,
   "lon": -77.79
  },
  "center": [
   -78.201514,
   34.727835
  ],
  "estuary_ref": {
   "label": "Pamlico Sound (shipped NC reference)",
   "lat": 35.05,
   "lon": -76.05
  },
  "flood_method": "sir2014_hr4",
  "name": "Harrells, NC",
  "notes": "NC Coastal Plain (SIR 2014-5030 HR4; I24H50Y from NOAA Atlas 14 at region center)",
  "slug": "harrells",
  "state": "NC",
  "utm_epsg": 32617,
  "width_curve": {
   "a": 2.22,
   "b": 0.363,
   "code": "APL",
   "source": "Bieger et al. 2015 JAWRA Table 3, Atlantic Plain"
  }
 },
 "type": "FeatureCollection"
}
