{
 "features": [
  {
   "geometry": {
    "coordinates": [
     -83.814667,
     35.043573
    ],
    "type": "Point"
   },
   "properties": {
    "accumulation": 25353.0,
    "bank_slope_deg": 5.28,
    "bank_slope_score": 1.0,
    "bank_slope_source": "nc-dps-lidar-dem03-cross-section",
    "beach_dist_km": 558.9,
    "bridge_proximity_bonus": 0.0,
    "catchment_area_km2": 2.53,
    "channel_width_m": 4.59,
    "channel_width_score": 1.0,
    "composite_score": 61.5773,
    "cso_density": 0.0,
    "ej_index": 0.725,
    "elevation_m": 548.2466,
    "estuary_dist_km": 706.67,
    "feasibility_score": 84.6154,
    "flood_q10_cfs": null,
    "flow_score": 47.6898,
    "flow_velocity_ms": 0.5,
    "generation_score": 58.3333,
    "impact_score": 64.8753,
    "impervious_pct": null,
    "land_ownership": 0.5,
    "lat": 35.0436,
    "litter_complaint_density": 0.0,
    "lon": -83.8147,
    "navigable_dist_m": null,
    "npdes_points": 0,
    "pixel_col": 237.0,
    "pixel_row": 222.0,
    "population_density": 58.0,
    "position_along": 0.25,
    "protected_area_score": 4.2225,
    "rank": 1,
    "road_access_m": 104.4,
    "road_access_score": 1.0,
    "road_density_km_km2": 6.422,
    "robustness_pct": 100.0,
    "runoff_coeff_C": null,
    "seasonal_cv": null,
    "segment_id": 1,
    "segment_length_m": 3517.2554,
    "stream_order": 3,
    "superfund_score": 0.0,
    "tourism_amenity_density": 2.8648,
    "tri_facility_density": 0.0,
    "usgs_mean_q_cfs": null,
    "velocity_feasibility": 1.0,
    "water_intake_score": 0.7694
   },
   "type": "Feature"
  },
  {
   "geometry": {
    "coordinates": [
     -83.819745,
     35.057316
    ],
    "type": "Point"
   },
   "properties": {
    "accumulation": 20619.0,
    "bank_slope_deg": 12.89,
    "bank_slope_score": 1.0,
    "bank_slope_source": "nc-dps-lidar-dem03-cross-section",
    "beach_dist_km": 559.57,
    "bridge_proximity_bonus": 0.0,
    "catchment_area_km2": 2.0576,
    "channel_width_m": 4.21,
    "channel_width_score": 1.0,
    "composite_score": 54.9637,
    "cso_density": 0.0,
    "ej_index": 0.6013,
    "elevation_m": 543.2723,
    "estuary_dist_km": 707.07,
    "feasibility_score": 53.8462,
    "flood_q10_cfs": null,
    "flow_score": 48.8372,
    "flow_velocity_ms": 0.178,
    "generation_score": 58.3631,
    "impact_score": 57.2286,
    "impervious_pct": 0.79,
    "land_ownership": 0.5,
    "lat": 35.0573,
    "litter_complaint_density": 0.0,
    "lon": -83.8197,
    "navigable_dist_m": null,
    "npdes_points": 0,
    "pixel_col": 195.0,
    "pixel_row": 68.0,
    "population_density": 41.1,
    "position_along": 0.5,
    "protected_area_score": 4.4779,
    "rank": 2,
    "road_access_m": 149.1,
    "road_access_score": 1.0,
    "road_density_km_km2": 3.949,
    "robustness_pct": 100.0,
    "runoff_coeff_C": 0.0571,
    "seasonal_cv": 0.5103,
    "segment_id": 0,
    "segment_length_m": 191.223,
    "stream_order": 3,
    "superfund_score": 0.0,
    "tourism_amenity_density": 2.8648,
    "tri_facility_density": 0.0,
    "usgs_mean_q_cfs": 3.755,
    "velocity_feasibility": 0.7,
    "water_intake_score": 0.8716
   },
   "type": "Feature"
  },
  {
   "geometry": {
    "coordinates": [
     -83.808347,
     35.034508
    ],
    "type": "Point"
   },
   "properties": {
    "accumulation": 28163.0,
    "bank_slope_deg": 28.0,
    "bank_slope_score": 0.5,
    "bank_slope_source": "nc-dps-lidar-dem03-cross-section",
    "beach_dist_km": 558.19,
    "bridge_proximity_bonus": 0.2,
    "catchment_area_km2": 2.8105,
    "channel_width_m": 4.79,
    "channel_width_score": 1.0,
    "composite_score": 45.5561,
    "cso_density": 0.0,
    "ej_index": 0.5772,
    "elevation_m": 544.1252,
    "estuary_dist_km": 706.13,
    "feasibility_score": 84.6154,
    "flood_q10_cfs": null,
    "flow_score": 32.1103,
    "flow_velocity_ms": 0.5,
    "generation_score": 43.6771,
    "impact_score": 39.1102,
    "impervious_pct": null,
    "land_ownership": 0.5,
    "lat": 35.0345,
    "litter_complaint_density": 0.0,
    "lon": -83.8083,
    "navigable_dist_m": null,
    "npdes_points": 0,
    "pixel_col": 288.0,
    "pixel_row": 322.0,
    "population_density": 54.5,
    "position_along": 0.5,
    "protected_area_score": 3.718,
    "rank": 3,
    "road_access_m": 100.1,
    "road_access_score": 1.0,
    "road_density_km_km2": 4.77,
    "robustness_pct": 100.0,
    "runoff_coeff_C": null,
    "seasonal_cv": null,
    "segment_id": 3,
    "segment_length_m": 577.0969,
    "stream_order": 1,
    "superfund_score": 0.0,
    "tourism_amenity_density": 2.7852,
    "tri_facility_density": 0.0,
    "usgs_mean_q_cfs": null,
    "velocity_feasibility": 1.0,
    "water_intake_score": 0.7015
   },
   "type": "Feature"
  },
  {
   "geometry": {
    "coordinates": [
     -83.812676,
     35.052322
    ],
    "type": "Point"
   },
   "properties": {
    "accumulation": 58729.0,
    "bank_slope_deg": 28.66,
    "bank_slope_score": 0.5,
    "bank_slope_source": "nc-dps-lidar-dem03-cross-section",
    "beach_dist_km": 558.85,
    "bridge_proximity_bonus": 0.0,
    "catchment_area_km2": 5.8607,
    "channel_width_m": 6.5,
    "channel_width_score": 1.0,
    "composite_score": 44.0967,
    "cso_density": 0.0,
    "ej_index": 0.5623,
    "elevation_m": 541.566,
    "estuary_dist_km": 706.45,
    "feasibility_score": 69.2308,
    "flood_q10_cfs": null,
    "flow_score": 55.9965,
    "flow_velocity_ms": 0.5,
    "generation_score": 7.786,
    "impact_score": 57.924,
    "impervious_pct": null,
    "land_ownership": 0.5,
    "lat": 35.0523,
    "litter_complaint_density": 0.0,
    "lon": -83.8127,
    "navigable_dist_m": null,
    "npdes_points": 0,
    "pixel_col": 254.0,
    "pixel_row": 124.0,
    "population_density": 35.8,
    "position_along": 0.75,
    "protected_area_score": 4.325,
    "rank": 4,
    "road_access_m": 194.2,
    "road_access_score": 1.0,
    "road_density_km_km2": 3.957,
    "robustness_pct": 100.0,
    "runoff_coeff_C": null,
    "seasonal_cv": null,
    "segment_id": 1,
    "segment_length_m": 3517.2554,
    "stream_order": 3,
    "superfund_score": 0.0,
    "tourism_amenity_density": 2.8648,
    "tri_facility_density": 0.0,
    "usgs_mean_q_cfs": null,
    "velocity_feasibility": 1.0,
    "water_intake_score": 0.8215
   },
   "type": "Feature"
  },
  {
   "geometry": {
    "coordinates": [
     -83.820987,
     35.059481
    ],
    "type": "Point"
   },
   "properties": {
    "accumulation": 104716.0,
    "bank_slope_deg": 20.75,
    "bank_slope_score": 0.5,
    "bank_slope_source": "nc-dps-lidar-dem03-cross-section",
    "beach_dist_km": 559.71,
    "bridge_proximity_bonus": 0.0,
    "catchment_area_km2": 10.4499,
    "channel_width_m": 8.26,
    "channel_width_score": 1.0,
    "composite_score": 36.0476,
    "cso_density": 0.0,
    "ej_index": 0.585,
    "elevation_m": 541.0698,
    "estuary_dist_km": 707.17,
    "feasibility_score": 30.7692,
    "flood_q10_cfs": null,
    "flow_score": 67.4419,
    "flow_velocity_ms": 0.5,
    "generation_score": 5.2365,
    "impact_score": 43.3361,
    "impervious_pct": null,
    "land_ownership": 0.5,
    "lat": 35.0595,
    "litter_complaint_density": 0.0,
    "lon": -83.821,
    "navigable_dist_m": null,
    "npdes_points": 0,
    "pixel_col": 181.0,
    "pixel_row": 41.0,
    "population_density": 38.9,
    "position_along": 0.5,
    "protected_area_score": 4.4474,
    "rank": 5,
    "road_access_m": 200.2,
    "road_access_score": 0.8,
    "road_density_km_km2": 2.486,
    "robustness_pct": 100.0,
    "runoff_coeff_C": null,
    "seasonal_cv": null,
    "segment_id": 2,
    "segment_length_m": 540.5662,
    "stream_order": 3,
    "superfund_score": 0.0,
    "tourism_amenity_density": 2.3873,
    "tri_facility_density": 0.0,
    "usgs_mean_q_cfs": null,
    "velocity_feasibility": 1.0,
    "water_intake_score": 0.8897
   },
   "type": "Feature"
  }
 ],
 "note": "GRIME region 'Hayesville, NC' \u2014 real-data pipeline (DEM\u2192streams\u2192candidates\u2192stream mask (sites confined to \u00b1150 m of mapped OSM/NHD waterways)\u2192region-appropriate real parameters\u2192shipped scoring, math unchanged). Width curve: Bieger et al. 2015 JAWRA Table 3, Appalachian Highlands. Flood: not applicable here (documented fallback). NC Blue Ridge (outside SIR 2014-5030 urban coverage)",
 "provenance": {
  "candidates_pre_gate": 5,
  "constant": [
   "channel_width_score",
   "cso_density",
   "flood_q10_cfs",
   "land_ownership",
   "litter_complaint_density",
   "npdes_points",
   "superfund_score",
   "tri_facility_density"
  ],
  "gated_navigable": 0,
  "hard_gate_removed": 0,
  "n_parameters": 27,
  "parameters": {
   "bank_slope_score": {
    "kind": "real",
    "n_3dep_10m_fallback": 0,
    "n_nc_lidar_3_125ft": 5,
    "n_real": 5,
    "n_sites": 5,
    "source": "NC OneMap / NC DPS DEM03 statewide lidar-derived 3.125-ft (0.953 m) elevations (perpendicular 50 m transect; robust 5 m bank-rise metric); unavailable profiles use the region 10 m 3DEP DEM-gradient fallback",
    "source_mosaics": [
     "Clay_Ground_3ft"
    ]
   },
   "beach_dist_km": {
    "kind": "real",
    "n_real": 5,
    "n_sites": 5,
    "source": "haversine to region ref: Wrightsville Beach (shipped NC reference)"
   },
   "bridge_proximity_bonus": {
    "kind": "real",
    "n_real": 5,
    "n_sites": 5,
    "source": "FHWA/BTS NBI (NTAD), 50 m proximity"
   },
   "catchment_area_km2": {
    "kind": "real",
    "n_real": 5,
    "n_sites": 5,
    "source": "DEM flow accumulation (pipeline)"
   },
   "channel_width_score": {
    "kind": "real",
    "n_real": 5,
    "n_sites": 5,
    "source": "Bieger 2015 AHI width curve on DEM drainage area \u2192 shipped width curve"
   },
   "cso_density": {
    "kind": "real",
    "n_real": 5,
    "n_sites": 5,
    "source": "EPA ECHO open CSO/TCS outfall PF coordinates states=NC, Cauchy proximity"
   },
   "ej_index": {
    "kind": "real",
    "n_real": 5,
    "n_sites": 5,
    "source": "Census ACS C17002+B03002 two-component demographic index, percentile-ranked within region"
   },
   "estuary_dist_km": {
    "kind": "real",
    "n_real": 5,
    "n_sites": 5,
    "source": "haversine to region ref: Pamlico Sound (shipped NC reference)"
   },
   "flood_q10_cfs": {
    "impervious_fallback_reason": "StreamCat imperviousness unavailable; the existing regression-input fallback of 0.0% impervious was used and is disclosed here",
    "kind": "fallback",
    "n_impervious_fallback": 4,
    "n_real": 0,
    "n_sites": 5,
    "source": "flood regression not valid here (NC Blue Ridge (outside SIR 2014-5030 urban coverage)...) \u2014 NaN, dropped by constant-column handling"
   },
   "flow_velocity_ms": {
    "fallback_reason": "EROM/DEM continuity input unavailable; shipped 0.5 m/s default used",
    "kind": "real",
    "n_fallback": 4,
    "n_real": 1,
    "n_sites": 5,
    "source": "Manning (region DEM/D8) blended with EROM continuity (shipped M4 logic)"
   },
   "impervious_pct": {
    "fallback_reason": "NLDI/StreamCat did not return a snap-compatible catchment value; value remains null and is removed by constant-column handling",
    "kind": "real",
    "n_fallback": 4,
    "n_real": 1,
    "n_sites": 5,
    "source": "EPA StreamCat pctimp2019 (per NHDPlus watershed)"
   },
   "land_ownership": {
    "kind": "real",
    "n_fallback": 0,
    "n_real": 5,
    "n_sites": 5,
    "source": "NC OneMap statewide parcels (NC Parcels Transformer) ownname"
   },
   "litter_complaint_density": {
    "kind": "fallback",
    "n_real": 0,
    "n_sites": 5,
    "source": "no public machine-readable litter/illegal-dumping feed for this region"
   },
   "navigable_dist_m": {
    "kind": "real",
    "n_real": 5,
    "n_sites": 5,
    "source": "USACE/BTS NWN (NTAD): no navigable segment within this bbox (+2 km) \u2014 computed absence, gate passes all sites"
   },
   "npdes_points": {
    "kind": "real",
    "n_real": 5,
    "n_sites": 5,
    "source": "EPA ECHO active NPDES outfalls states=NC (types NPD/GPC/NGP; statuses ADC/EFF/EXP), per catchment"
   },
   "population_density": {
    "kind": "real",
    "n_real": 5,
    "n_sites": 5,
    "source": "Census ACS 2022 B01003 block groups (bbox, multi-county), area-weighted"
   },
   "protected_area_score": {
    "kind": "real",
    "n_real": 5,
    "n_sites": 5,
    "source": "USGS PAD-US 4.1 state GDB; states=NC; shipped designation-weighted proximity curve"
   },
   "road_access_score": {
    "kind": "real",
    "n_real": 5,
    "n_sites": 5,
    "source": "OSM drive network nearest-node distance"
   },
   "road_density_km_km2": {
    "kind": "real",
    "n_real": 5,
    "n_sites": 5,
    "source": "OSM drive network (osmnx, cached) clipped per catchment"
   },
   "runoff_coeff_C": {
    "fallback_reason": "source impervious_pct was unavailable; derived value remains null",
    "kind": "real",
    "n_fallback": 4,
    "n_real": 1,
    "n_sites": 5,
    "source": "derived from real impervious_pct (C=0.05+0.009*I)"
   },
   "seasonal_cv": {
    "fallback_reason": "NHDPlus monthly EROM was unavailable or failed the drainage-area snap guard; value remains null",
    "kind": "real",
    "n_fallback": 4,
    "n_real": 1,
    "n_sites": 5,
    "source": "CV of NHDPlus EROM monthly flows per COMID"
   },
   "stream_order": {
    "kind": "real",
    "n_real": 5,
    "n_sites": 5,
    "source": "DEM stream-network confluence heuristic (pipeline)"
   },
   "superfund_score": {
    "kind": "real",
    "n_real": 5,
    "n_sites": 5,
    "source": "EPA DataMap SEMS active sites states=NC (non-archived, georeferenced), shipped 500 m inverse-distance curve"
   },
   "tourism_amenity_density": {
    "kind": "real",
    "n_real": 5,
    "n_sites": 5,
    "source": "OSM leisure/tourism features per 2 km radius"
   },
   "tri_facility_density": {
    "kind": "real",
    "n_real": 5,
    "n_sites": 5,
    "source": "EPA DataMap TRI open facilities states=NC (preferred decimal or packed-DMS recovery), per catchment"
   },
   "usgs_mean_q_cfs": {
    "fallback_reason": "NHDPlus EROM was unavailable or failed the drainage-area snap guard; value remains null",
    "kind": "real",
    "n_fallback": 4,
    "n_real": 1,
    "n_sites": 5,
    "source": "NHDPlus EROM qe_ma per COMID (snap-guarded)"
   },
   "velocity_feasibility": {
    "fallback_reason": "derived from the shipped 0.5 m/s velocity fallback",
    "kind": "real",
    "n_fallback": 4,
    "n_real": 1,
    "n_sites": 5,
    "source": "shipped step curve on the computed velocity"
   },
   "velocity_transport_favorability": {
    "fallback_reason": "EROM/DEM continuity input unavailable; shipped 0.5 m/s default used",
    "kind": "derived",
    "n_fallback": 4,
    "n_real": 1,
    "n_sites": 5,
    "source": "scored form of flow_velocity_ms inside the Flow family \u2014 peaked Gaussian exp(-((v-0.9)/0.6)^2), model.json curves.velocity_transport_favorability; construct: transport/delivery favorability, deliberately distinct from velocity_feasibility (device operability)"
   },
   "water_intake_score": {
    "kind": "real",
    "n_real": 5,
    "n_sites": 5,
    "source": "NC OneMap / NC DEQ SWAP public water supply sources (source_typ='Surface Water'), shipped exp(-d/10km) curve"
   }
  },
  "stream_mask": {
   "buffer_m": 150.0,
   "pre_mask": 5,
   "removed": 0,
   "sources": [
    "osm-overpass (all waterway ways)",
    "usgs-nhdplus flowlines"
   ]
  },
  "varying": [
   "bank_slope_score",
   "beach_dist_km",
   "bridge_proximity_bonus",
   "catchment_area_km2",
   "ej_index",
   "estuary_dist_km",
   "flow_velocity_ms",
   "impervious_pct",
   "population_density",
   "protected_area_score",
   "road_access_score",
   "road_density_km_km2",
   "runoff_coeff_C",
   "seasonal_cv",
   "stream_order",
   "tourism_amenity_density",
   "usgs_mean_q_cfs",
   "velocity_feasibility",
   "water_intake_score"
  ]
 },
 "region": {
  "bbox": [
   -83.8399,
   35.027,
   -83.7959,
   35.063
  ],
  "beach_ref": {
   "label": "Wrightsville Beach (shipped NC reference)",
   "lat": 34.21,
   "lon": -77.79
  },
  "center": [
   -83.817935,
   35.045018
  ],
  "estuary_ref": {
   "label": "Pamlico Sound (shipped NC reference)",
   "lat": 35.05,
   "lon": -76.05
  },
  "flood_method": "none",
  "name": "Hayesville, NC",
  "notes": "NC Blue Ridge (outside SIR 2014-5030 urban coverage)",
  "slug": "hayesville",
  "state": "NC",
  "utm_epsg": 32617,
  "width_curve": {
   "a": 3.12,
   "b": 0.415,
   "code": "AHI",
   "source": "Bieger et al. 2015 JAWRA Table 3, Appalachian Highlands"
  }
 },
 "type": "FeatureCollection"
}
