{
 "features": [
  {
   "geometry": {
    "coordinates": [
     -81.199555,
     35.398838
    ],
    "type": "Point"
   },
   "properties": {
    "accumulation": 30212.0,
    "bank_slope_deg": 14.08,
    "bank_slope_score": 1.0,
    "bank_slope_source": "nc-dps-lidar-dem03-cross-section",
    "beach_dist_km": 338.18,
    "bridge_proximity_bonus": 0.0,
    "catchment_area_km2": 3.0112,
    "channel_width_m": 4.93,
    "channel_width_score": 1.0,
    "composite_score": 57.987,
    "cso_density": 0.0,
    "ej_index": 0.5141,
    "elevation_m": 204.8883,
    "estuary_dist_km": 469.31,
    "feasibility_score": 71.4286,
    "flood_q10_cfs": 454.17,
    "flow_score": 28.2337,
    "flow_velocity_ms": 0.0375,
    "generation_score": 83.6418,
    "impact_score": 50.406,
    "impervious_pct": 3.55,
    "land_ownership": 1.0,
    "lat": 35.3988,
    "litter_complaint_density": 0.0,
    "lon": -81.1996,
    "navigable_dist_m": null,
    "npdes_points": 5,
    "pixel_col": 310.0,
    "pixel_row": 189.0,
    "population_density": 114.0,
    "position_along": 0.5,
    "protected_area_score": 10.7243,
    "rank": 1,
    "road_access_m": 171.4,
    "road_access_score": 1.0,
    "road_density_km_km2": 3.8,
    "robustness_pct": 98.5,
    "runoff_coeff_C": 0.0819,
    "seasonal_cv": 0.4208,
    "segment_id": 2,
    "segment_length_m": 664.875,
    "stream_order": 3,
    "superfund_score": 0.0066,
    "tourism_amenity_density": 0.7958,
    "tri_facility_density": 0.0,
    "usgs_mean_q_cfs": 2.452,
    "velocity_feasibility": 0.3,
    "water_intake_score": 2.3495
   },
   "type": "Feature"
  },
  {
   "geometry": {
    "coordinates": [
     -81.192173,
     35.385847
    ],
    "type": "Point"
   },
   "properties": {
    "accumulation": 127512.0,
    "bank_slope_deg": 10.89,
    "bank_slope_score": 1.0,
    "bank_slope_source": "nc-dps-lidar-dem03-cross-section",
    "beach_dist_km": 337.02,
    "bridge_proximity_bonus": 0.0,
    "catchment_area_km2": 12.7089,
    "channel_width_m": 8.96,
    "channel_width_score": 1.0,
    "composite_score": 52.0136,
    "cso_density": 0.0,
    "ej_index": 0.3586,
    "elevation_m": 200.9655,
    "estuary_dist_km": 468.56,
    "feasibility_score": 60.7143,
    "flood_q10_cfs": 1168.12,
    "flow_score": 60.5845,
    "flow_velocity_ms": 0.5,
    "generation_score": 39.6221,
    "impact_score": 52.9123,
    "impervious_pct": null,
    "land_ownership": 0.5,
    "lat": 35.3858,
    "litter_complaint_density": 0.0,
    "lon": -81.1922,
    "navigable_dist_m": null,
    "npdes_points": 11,
    "pixel_col": 379.0,
    "pixel_row": 334.0,
    "population_density": 81.1,
    "position_along": 0.5,
    "protected_area_score": 11.347,
    "rank": 2,
    "road_access_m": 368.8,
    "road_access_score": 0.8,
    "road_density_km_km2": 2.589,
    "robustness_pct": 100.0,
    "runoff_coeff_C": null,
    "seasonal_cv": null,
    "segment_id": 4,
    "segment_length_m": 2997.6388,
    "stream_order": 3,
    "superfund_score": 0.0051,
    "tourism_amenity_density": 0.6366,
    "tri_facility_density": 0.0,
    "usgs_mean_q_cfs": null,
    "velocity_feasibility": 1.0,
    "water_intake_score": 2.396
   },
   "type": "Feature"
  },
  {
   "geometry": {
    "coordinates": [
     -81.178996,
     35.370504
    ],
    "type": "Point"
   },
   "properties": {
    "accumulation": 199573.0,
    "bank_slope_deg": 14.46,
    "bank_slope_score": 1.0,
    "bank_slope_source": "nc-dps-lidar-dem03-cross-section",
    "beach_dist_km": 335.28,
    "bridge_proximity_bonus": 0.0,
    "catchment_area_km2": 19.8911,
    "channel_width_m": 10.79,
    "channel_width_score": 1.0,
    "composite_score": 48.7767,
    "cso_density": 0.0,
    "ej_index": 0.3057,
    "elevation_m": 196.4857,
    "estuary_dist_km": 467.28,
    "feasibility_score": 42.8571,
    "flood_q10_cfs": 1497.09,
    "flow_score": 72.0,
    "flow_velocity_ms": 0.5,
    "generation_score": 10.0211,
    "impact_score": 71.1395,
    "impervious_pct": null,
    "land_ownership": 0.5,
    "lat": 35.3705,
    "litter_complaint_density": 0.0,
    "lon": -81.179,
    "navigable_dist_m": null,
    "npdes_points": 4,
    "pixel_col": 498.0,
    "pixel_row": 505.0,
    "population_density": 65.9,
    "position_along": 0.5,
    "protected_area_score": 13.1556,
    "rank": 3,
    "road_access_m": 599.2,
    "road_access_score": 0.6,
    "road_density_km_km2": 0.827,
    "robustness_pct": 75.0,
    "runoff_coeff_C": null,
    "seasonal_cv": null,
    "segment_id": 8,
    "segment_length_m": 1851.6037,
    "stream_order": 3,
    "superfund_score": 0.0038,
    "tourism_amenity_density": 0.1592,
    "tri_facility_density": 0.0,
    "usgs_mean_q_cfs": null,
    "velocity_feasibility": 1.0,
    "water_intake_score": 2.4774
   },
   "type": "Feature"
  },
  {
   "geometry": {
    "coordinates": [
     -81.183911,
     35.372606
    ],
    "type": "Point"
   },
   "properties": {
    "accumulation": 26115.0,
    "bank_slope_deg": 7.36,
    "bank_slope_score": 1.0,
    "bank_slope_source": "nc-dps-lidar-dem03-cross-section",
    "beach_dist_km": 335.78,
    "bridge_proximity_bonus": 0.0,
    "catchment_area_km2": 2.6028,
    "channel_width_m": 4.64,
    "channel_width_score": 1.0,
    "composite_score": 48.7021,
    "cso_density": 0.0,
    "ej_index": 0.3484,
    "elevation_m": 200.121,
    "estuary_dist_km": 467.74,
    "feasibility_score": 48.4694,
    "flood_q10_cfs": 402.54,
    "flow_score": 43.2906,
    "flow_velocity_ms": 0.0864,
    "generation_score": 35.2351,
    "impact_score": 66.7951,
    "impervious_pct": 2.93,
    "land_ownership": 0.5,
    "lat": 35.3726,
    "litter_complaint_density": 0.0,
    "lon": -81.1839,
    "navigable_dist_m": null,
    "npdes_points": 3,
    "pixel_col": 454.0,
    "pixel_row": 478.0,
    "population_density": 64.2,
    "position_along": 0.5,
    "protected_area_score": 12.9037,
    "rank": 4,
    "road_access_m": 361.0,
    "road_access_score": 0.8,
    "road_density_km_km2": 1.199,
    "robustness_pct": 94.5,
    "runoff_coeff_C": 0.0764,
    "seasonal_cv": 0.4479,
    "segment_id": 6,
    "segment_length_m": 1830.7552,
    "stream_order": 3,
    "superfund_score": 0.004,
    "tourism_amenity_density": 0.1592,
    "tri_facility_density": 0.0,
    "usgs_mean_q_cfs": 9.147,
    "velocity_feasibility": 0.7,
    "water_intake_score": 2.4588
   },
   "type": "Feature"
  },
  {
   "geometry": {
    "coordinates": [
     -81.179987,
     35.378421
    ],
    "type": "Point"
   },
   "properties": {
    "accumulation": 171329.0,
    "bank_slope_deg": 13.52,
    "bank_slope_score": 1.0,
    "bank_slope_source": "nc-dps-lidar-dem03-cross-section",
    "beach_dist_km": 335.69,
    "bridge_proximity_bonus": 0.0,
    "catchment_area_km2": 17.0761,
    "channel_width_m": 10.13,
    "channel_width_score": 1.0,
    "composite_score": 46.6588,
    "cso_density": 0.0,
    "ej_index": 0.2956,
    "elevation_m": 196.598,
    "estuary_dist_km": 467.42,
    "feasibility_score": 42.8571,
    "flood_q10_cfs": 1375.75,
    "flow_score": 67.619,
    "flow_velocity_ms": 0.5,
    "generation_score": 13.1549,
    "impact_score": 64.5966,
    "impervious_pct": null,
    "land_ownership": 0.5,
    "lat": 35.3784,
    "litter_complaint_density": 0.0,
    "lon": -81.18,
    "navigable_dist_m": null,
    "npdes_points": 4,
    "pixel_col": 489.0,
    "pixel_row": 417.0,
    "population_density": 68.6,
    "position_along": 0.5,
    "protected_area_score": 12.8794,
    "rank": 5,
    "road_access_m": 778.9,
    "road_access_score": 0.6,
    "road_density_km_km2": 1.167,
    "robustness_pct": 60.5,
    "runoff_coeff_C": null,
    "seasonal_cv": null,
    "segment_id": 7,
    "segment_length_m": 72.3063,
    "stream_order": 3,
    "superfund_score": 0.0044,
    "tourism_amenity_density": 0.3183,
    "tri_facility_density": 0.0,
    "usgs_mean_q_cfs": null,
    "velocity_feasibility": 1.0,
    "water_intake_score": 2.4347
   },
   "type": "Feature"
  },
  {
   "geometry": {
    "coordinates": [
     -81.209043,
     35.395508
    ],
    "type": "Point"
   },
   "properties": {
    "accumulation": 34772.0,
    "bank_slope_deg": 0.0,
    "bank_slope_score": 1.0,
    "bank_slope_source": "nc-dps-lidar-dem03-cross-section",
    "beach_dist_km": 338.84,
    "bridge_proximity_bonus": 0.0,
    "catchment_area_km2": 3.4657,
    "channel_width_m": 5.23,
    "channel_width_score": 1.0,
    "composite_score": 45.6536,
    "cso_density": 0.0,
    "ej_index": 0.381,
    "elevation_m": 219.9042,
    "estuary_dist_km": 470.15,
    "feasibility_score": 48.4694,
    "flood_q10_cfs": 493.83,
    "flow_score": 39.3369,
    "flow_velocity_ms": 0.186,
    "generation_score": 57.5178,
    "impact_score": 37.6453,
    "impervious_pct": 2.28,
    "land_ownership": 0.5,
    "lat": 35.3955,
    "litter_complaint_density": 0.0,
    "lon": -81.209,
    "navigable_dist_m": null,
    "npdes_points": 0,
    "pixel_col": 226.0,
    "pixel_row": 224.0,
    "population_density": 104.3,
    "position_along": 0.5,
    "protected_area_score": 10.1084,
    "rank": 6,
    "road_access_m": 375.9,
    "road_access_score": 0.8,
    "road_density_km_km2": 3.67,
    "robustness_pct": 44.0,
    "runoff_coeff_C": 0.0705,
    "seasonal_cv": 0.4274,
    "segment_id": 3,
    "segment_length_m": 1972.9454,
    "stream_order": 3,
    "superfund_score": 0.0062,
    "tourism_amenity_density": 0.7162,
    "tri_facility_density": 0.0,
    "usgs_mean_q_cfs": 5.573,
    "velocity_feasibility": 0.7,
    "water_intake_score": 2.3727
   },
   "type": "Feature"
  },
  {
   "geometry": {
    "coordinates": [
     -81.211443,
     35.37156
    ],
    "type": "Point"
   },
   "properties": {
    "accumulation": 26330.0,
    "bank_slope_deg": 18.6,
    "bank_slope_score": 0.5,
    "bank_slope_source": "nc-dps-lidar-dem03-cross-section",
    "beach_dist_km": 338.06,
    "bridge_proximity_bonus": 0.0,
    "catchment_area_km2": 2.6243,
    "channel_width_m": 4.66,
    "channel_width_score": 1.0,
    "composite_score": 38.9944,
    "cso_density": 0.0,
    "ej_index": 0.2224,
    "elevation_m": 223.6786,
    "estuary_dist_km": 470.23,
    "feasibility_score": 34.1837,
    "flood_q10_cfs": 410.89,
    "flow_score": 12.4624,
    "flow_velocity_ms": 0.0658,
    "generation_score": 71.7782,
    "impact_score": 30.7259,
    "impervious_pct": 3.75,
    "land_ownership": 0.5,
    "lat": 35.3716,
    "litter_complaint_density": 0.0,
    "lon": -81.2114,
    "navigable_dist_m": null,
    "npdes_points": 0,
    "pixel_col": 202.0,
    "pixel_row": 492.0,
    "population_density": 114.6,
    "position_along": 0.5,
    "protected_area_score": 10.2184,
    "rank": 7,
    "road_access_m": 384.7,
    "road_access_score": 0.8,
    "road_density_km_km2": 2.837,
    "robustness_pct": 22.5,
    "runoff_coeff_C": 0.0837,
    "seasonal_cv": 0.4311,
    "segment_id": 9,
    "segment_length_m": 1387.2281,
    "stream_order": 1,
    "superfund_score": 0.004,
    "tourism_amenity_density": 0.0796,
    "tri_facility_density": 0.0,
    "usgs_mean_q_cfs": 1.91,
    "velocity_feasibility": 0.7,
    "water_intake_score": 2.4525
   },
   "type": "Feature"
  },
  {
   "geometry": {
    "coordinates": [
     -81.217947,
     35.405428
    ],
    "type": "Point"
   },
   "properties": {
    "accumulation": 26655.0,
    "bank_slope_deg": 4.91,
    "bank_slope_score": 1.0,
    "bank_slope_source": "nc-dps-lidar-dem03-cross-section",
    "beach_dist_km": 340.0,
    "bridge_proximity_bonus": 0.0,
    "catchment_area_km2": 2.6567,
    "channel_width_m": 4.68,
    "channel_width_score": 1.0,
    "composite_score": 36.799,
    "cso_density": 0.0,
    "ej_index": 0.4039,
    "elevation_m": 212.2353,
    "estuary_dist_km": 471.02,
    "feasibility_score": 60.7143,
    "flood_q10_cfs": 388.37,
    "flow_score": 26.6885,
    "flow_velocity_ms": 0.5,
    "generation_score": 43.3071,
    "impact_score": 26.7588,
    "impervious_pct": null,
    "land_ownership": 0.5,
    "lat": 35.4054,
    "litter_complaint_density": 0.0,
    "lon": -81.2179,
    "navigable_dist_m": null,
    "npdes_points": 0,
    "pixel_col": 145.0,
    "pixel_row": 116.0,
    "population_density": 121.0,
    "position_along": 0.5,
    "protected_area_score": 9.9092,
    "rank": 8,
    "road_access_m": 270.8,
    "road_access_score": 0.8,
    "road_density_km_km2": 3.135,
    "robustness_pct": 4.5,
    "runoff_coeff_C": null,
    "seasonal_cv": null,
    "segment_id": 0,
    "segment_length_m": 489.6028,
    "stream_order": 1,
    "superfund_score": 0.0078,
    "tourism_amenity_density": 0.3183,
    "tri_facility_density": 0.0,
    "usgs_mean_q_cfs": null,
    "velocity_feasibility": 1.0,
    "water_intake_score": 2.3544
   },
   "type": "Feature"
  },
  {
   "geometry": {
    "coordinates": [
     -81.179151,
     35.379356
    ],
    "type": "Point"
   },
   "properties": {
    "accumulation": 24474.0,
    "bank_slope_deg": 17.22,
    "bank_slope_score": 0.5,
    "bank_slope_source": "nc-dps-lidar-dem03-cross-section",
    "beach_dist_km": 335.66,
    "bridge_proximity_bonus": 0.0,
    "catchment_area_km2": 2.4393,
    "channel_width_m": 4.52,
    "channel_width_score": 1.0,
    "composite_score": 33.4968,
    "cso_density": 0.0,
    "ej_index": 0.2361,
    "elevation_m": 199.1255,
    "estuary_dist_km": 467.35,
    "feasibility_score": 28.5714,
    "flood_q10_cfs": 364.17,
    "flow_score": 40.1682,
    "flow_velocity_ms": 0.5,
    "generation_score": 1.8706,
    "impact_score": 62.0263,
    "impervious_pct": null,
    "land_ownership": 0.5,
    "lat": 35.3794,
    "litter_complaint_density": 0.0,
    "lon": -81.1792,
    "navigable_dist_m": null,
    "npdes_points": 1,
    "pixel_col": 496.0,
    "pixel_row": 406.0,
    "population_density": 63.9,
    "position_along": 0.5,
    "protected_area_score": 12.9925,
    "rank": 9,
    "road_access_m": 774.6,
    "road_access_score": 0.6,
    "road_density_km_km2": 0.501,
    "robustness_pct": 0.5,
    "runoff_coeff_C": null,
    "seasonal_cv": null,
    "segment_id": 5,
    "segment_length_m": 343.9869,
    "stream_order": 3,
    "superfund_score": 0.0045,
    "tourism_amenity_density": 0.3183,
    "tri_facility_density": 0.0,
    "usgs_mean_q_cfs": null,
    "velocity_feasibility": 1.0,
    "water_intake_score": 2.4309
   },
   "type": "Feature"
  },
  {
   "geometry": {
    "coordinates": [
     -81.172949,
     35.399546
    ],
    "type": "Point"
   },
   "properties": {
    "accumulation": 23775.0,
    "bank_slope_deg": 24.27,
    "bank_slope_score": 0.5,
    "bank_slope_source": "nc-dps-lidar-dem03-cross-section",
    "beach_dist_km": 335.98,
    "bridge_proximity_bonus": 0.0,
    "catchment_area_km2": 2.3696,
    "channel_width_m": 4.46,
    "channel_width_score": 1.0,
    "composite_score": 25.1826,
    "cso_density": 0.0,
    "ej_index": 0.1639,
    "elevation_m": 221.6758,
    "estuary_dist_km": 466.91,
    "feasibility_score": 28.5714,
    "flood_q10_cfs": 356.3,
    "flow_score": 26.0,
    "flow_velocity_ms": 0.5,
    "generation_score": 1.2226,
    "impact_score": 46.767,
    "impervious_pct": null,
    "land_ownership": 0.5,
    "lat": 35.3995,
    "litter_complaint_density": 0.0,
    "lon": -81.1729,
    "navigable_dist_m": null,
    "npdes_points": 0,
    "pixel_col": 554.0,
    "pixel_row": 182.0,
    "population_density": 63.8,
    "position_along": 0.5,
    "protected_area_score": 13.041,
    "rank": 10,
    "road_access_m": 550.1,
    "road_access_score": 0.6,
    "road_density_km_km2": 0.743,
    "robustness_pct": 0.0,
    "runoff_coeff_C": null,
    "seasonal_cv": null,
    "segment_id": 1,
    "segment_length_m": 634.9248,
    "stream_order": 1,
    "superfund_score": 0.0068,
    "tourism_amenity_density": 0.1592,
    "tri_facility_density": 0.0,
    "usgs_mean_q_cfs": null,
    "velocity_feasibility": 1.0,
    "water_intake_score": 2.3343
   },
   "type": "Feature"
  }
 ],
 "note": "GRIME region 'High Shoals, NC' \u2014 real-data pipeline (DEM\u2192streams\u2192candidates\u2192stream mask (sites confined to \u00b1150 m of mapped OSM/NHD waterways)\u2192region-appropriate real parameters\u2192shipped scoring, math unchanged). Width curve: Bieger et al. 2015 JAWRA Table 3, Appalachian Highlands. Flood: SIR 2014-5030 HR1. NC Piedmont (DEQ physiography polygon)",
 "provenance": {
  "candidates_pre_gate": 10,
  "constant": [
   "bridge_proximity_bonus",
   "channel_width_score",
   "cso_density",
   "litter_complaint_density",
   "tri_facility_density"
  ],
  "gated_navigable": 0,
  "hard_gate_removed": 0,
  "n_parameters": 27,
  "parameters": {
   "bank_slope_score": {
    "kind": "real",
    "n_3dep_10m_fallback": 0,
    "n_nc_lidar_3_125ft": 10,
    "n_real": 10,
    "n_sites": 10,
    "source": "NC OneMap / NC DPS DEM03 statewide lidar-derived 3.125-ft (0.953 m) elevations (perpendicular 50 m transect; robust 5 m bank-rise metric); unavailable profiles use the region 10 m 3DEP DEM-gradient fallback",
    "source_mosaics": [
     "Gaston_Ground_3ft",
     "Lincoln_Ground_3ft"
    ]
   },
   "beach_dist_km": {
    "kind": "real",
    "n_real": 10,
    "n_sites": 10,
    "source": "haversine to region ref: Wrightsville Beach (shipped NC reference)"
   },
   "bridge_proximity_bonus": {
    "kind": "real",
    "n_real": 10,
    "n_sites": 10,
    "source": "FHWA/BTS NBI (NTAD), 50 m proximity"
   },
   "catchment_area_km2": {
    "kind": "real",
    "n_real": 10,
    "n_sites": 10,
    "source": "DEM flow accumulation (pipeline)"
   },
   "channel_width_score": {
    "kind": "real",
    "n_real": 10,
    "n_sites": 10,
    "source": "Bieger 2015 AHI width curve on DEM drainage area \u2192 shipped width curve"
   },
   "cso_density": {
    "kind": "real",
    "n_real": 10,
    "n_sites": 10,
    "source": "EPA ECHO open CSO/TCS outfall PF coordinates states=NC, Cauchy proximity"
   },
   "ej_index": {
    "kind": "real",
    "n_real": 10,
    "n_sites": 10,
    "source": "Census ACS C17002+B03002 two-component demographic index, percentile-ranked within region"
   },
   "estuary_dist_km": {
    "kind": "real",
    "n_real": 10,
    "n_sites": 10,
    "source": "haversine to region ref: Pamlico Sound (shipped NC reference)"
   },
   "flood_q10_cfs": {
    "impervious_fallback_reason": "StreamCat imperviousness unavailable; the existing regression-input fallback of 0.0% impervious was used and is disclosed here",
    "kind": "real",
    "n_impervious_fallback": 6,
    "n_real": 10,
    "n_sites": 10,
    "source": "USGS SIR 2014-5030 Table 7 HR1 (NC Piedmont)"
   },
   "flow_velocity_ms": {
    "fallback_reason": "EROM/DEM continuity input unavailable; shipped 0.5 m/s default used",
    "kind": "real",
    "n_fallback": 6,
    "n_real": 4,
    "n_sites": 10,
    "source": "Manning (region DEM/D8) blended with EROM continuity (shipped M4 logic)"
   },
   "impervious_pct": {
    "fallback_reason": "NLDI/StreamCat did not return a snap-compatible catchment value; value remains null and is removed by constant-column handling",
    "kind": "real",
    "n_fallback": 6,
    "n_real": 4,
    "n_sites": 10,
    "source": "EPA StreamCat pctimp2019 (per NHDPlus watershed)"
   },
   "land_ownership": {
    "fallback_reason": "no containing parcel owner returned; shipped unknown ownership 0.5 used",
    "kind": "real",
    "n_fallback": 5,
    "n_real": 5,
    "n_sites": 10,
    "source": "NC OneMap statewide parcels (NC Parcels Transformer) ownname"
   },
   "litter_complaint_density": {
    "kind": "fallback",
    "n_real": 0,
    "n_sites": 10,
    "source": "no public machine-readable litter/illegal-dumping feed for this region"
   },
   "navigable_dist_m": {
    "kind": "real",
    "n_real": 10,
    "n_sites": 10,
    "source": "USACE/BTS NWN (NTAD): no navigable segment within this bbox (+2 km) \u2014 computed absence, gate passes all sites"
   },
   "npdes_points": {
    "kind": "real",
    "n_real": 10,
    "n_sites": 10,
    "source": "EPA ECHO active NPDES outfalls states=NC (types NPD/GPC/NGP; statuses ADC/EFF/EXP), per catchment"
   },
   "population_density": {
    "kind": "real",
    "n_real": 10,
    "n_sites": 10,
    "source": "Census ACS 2022 B01003 block groups (bbox, multi-county), area-weighted"
   },
   "protected_area_score": {
    "kind": "real",
    "n_real": 10,
    "n_sites": 10,
    "source": "USGS PAD-US 4.1 state GDB; states=NC; shipped designation-weighted proximity curve"
   },
   "road_access_score": {
    "kind": "real",
    "n_real": 10,
    "n_sites": 10,
    "source": "OSM drive network nearest-node distance"
   },
   "road_density_km_km2": {
    "kind": "real",
    "n_real": 10,
    "n_sites": 10,
    "source": "OSM drive network (osmnx, cached) clipped per catchment"
   },
   "runoff_coeff_C": {
    "fallback_reason": "source impervious_pct was unavailable; derived value remains null",
    "kind": "real",
    "n_fallback": 6,
    "n_real": 4,
    "n_sites": 10,
    "source": "derived from real impervious_pct (C=0.05+0.009*I)"
   },
   "seasonal_cv": {
    "fallback_reason": "NHDPlus monthly EROM was unavailable or failed the drainage-area snap guard; value remains null",
    "kind": "real",
    "n_fallback": 6,
    "n_real": 4,
    "n_sites": 10,
    "source": "CV of NHDPlus EROM monthly flows per COMID"
   },
   "stream_order": {
    "kind": "real",
    "n_real": 10,
    "n_sites": 10,
    "source": "DEM stream-network confluence heuristic (pipeline)"
   },
   "superfund_score": {
    "kind": "real",
    "n_real": 10,
    "n_sites": 10,
    "source": "EPA DataMap SEMS active sites states=NC (non-archived, georeferenced), shipped 500 m inverse-distance curve"
   },
   "tourism_amenity_density": {
    "kind": "real",
    "n_real": 10,
    "n_sites": 10,
    "source": "OSM leisure/tourism features per 2 km radius"
   },
   "tri_facility_density": {
    "kind": "real",
    "n_real": 10,
    "n_sites": 10,
    "source": "EPA DataMap TRI open facilities states=NC (preferred decimal or packed-DMS recovery), per catchment"
   },
   "usgs_mean_q_cfs": {
    "fallback_reason": "NHDPlus EROM was unavailable or failed the drainage-area snap guard; value remains null",
    "kind": "real",
    "n_fallback": 6,
    "n_real": 4,
    "n_sites": 10,
    "source": "NHDPlus EROM qe_ma per COMID (snap-guarded)"
   },
   "velocity_feasibility": {
    "fallback_reason": "derived from the shipped 0.5 m/s velocity fallback",
    "kind": "real",
    "n_fallback": 6,
    "n_real": 4,
    "n_sites": 10,
    "source": "shipped step curve on the computed velocity"
   },
   "velocity_transport_favorability": {
    "fallback_reason": "EROM/DEM continuity input unavailable; shipped 0.5 m/s default used",
    "kind": "derived",
    "n_fallback": 6,
    "n_real": 4,
    "n_sites": 10,
    "source": "scored form of flow_velocity_ms inside the Flow family \u2014 peaked Gaussian exp(-((v-0.9)/0.6)^2), model.json curves.velocity_transport_favorability; construct: transport/delivery favorability, deliberately distinct from velocity_feasibility (device operability)"
   },
   "water_intake_score": {
    "kind": "real",
    "n_real": 10,
    "n_sites": 10,
    "source": "NC OneMap / NC DEQ SWAP public water supply sources (source_typ='Surface Water'), shipped exp(-d/10km) curve"
   }
  },
  "stream_mask": {
   "buffer_m": 150.0,
   "pre_mask": 10,
   "removed": 0,
   "sources": [
    "osm-overpass (all waterway ways)",
    "usgs-nhdplus flowlines"
   ]
  },
  "varying": [
   "bank_slope_score",
   "beach_dist_km",
   "catchment_area_km2",
   "ej_index",
   "estuary_dist_km",
   "flood_q10_cfs",
   "flow_velocity_ms",
   "impervious_pct",
   "land_ownership",
   "npdes_points",
   "population_density",
   "protected_area_score",
   "road_access_score",
   "road_density_km_km2",
   "runoff_coeff_C",
   "seasonal_cv",
   "stream_order",
   "superfund_score",
   "tourism_amenity_density",
   "usgs_mean_q_cfs",
   "velocity_feasibility",
   "water_intake_score"
  ]
 },
 "region": {
  "bbox": [
   -81.2336,
   35.3643,
   -81.1705,
   35.4157
  ],
  "beach_ref": {
   "label": "Wrightsville Beach (shipped NC reference)",
   "lat": 34.21,
   "lon": -77.79
  },
  "center": [
   -81.202072,
   35.389979
  ],
  "estuary_ref": {
   "label": "Pamlico Sound (shipped NC reference)",
   "lat": 35.05,
   "lon": -76.05
  },
  "flood_method": "sir2014_hr1",
  "name": "High Shoals, NC",
  "notes": "NC Piedmont (DEQ physiography polygon)",
  "slug": "high-shoals",
  "state": "NC",
  "utm_epsg": 32617,
  "width_curve": {
   "a": 3.12,
   "b": 0.415,
   "code": "AHI",
   "source": "Bieger et al. 2015 JAWRA Table 3, Appalachian Highlands"
  }
 },
 "type": "FeatureCollection"
}
