{
 "features": [
  {
   "geometry": {
    "coordinates": [
     -79.516541,
     35.018761
    ],
    "type": "Point"
   },
   "properties": {
    "accumulation": 145298.0,
    "bank_slope_deg": 6.75,
    "bank_slope_score": 1.0,
    "bank_slope_source": "nc-dps-lidar-dem03-cross-section",
    "beach_dist_km": 181.8,
    "bridge_proximity_bonus": 0.2,
    "catchment_area_km2": 14.49,
    "channel_width_m": 5.86,
    "channel_width_score": 1.0,
    "composite_score": 64.1079,
    "cso_density": 0.0,
    "ej_index": 0.5579,
    "elevation_m": 89.9259,
    "estuary_dist_km": 315.62,
    "feasibility_score": 100.0,
    "flood_q10_cfs": 473.61,
    "flow_score": 68.8,
    "flow_velocity_ms": 0.1151,
    "generation_score": 42.5372,
    "impact_score": 63.8225,
    "impervious_pct": 1.91,
    "land_ownership": 0.5,
    "lat": 35.0188,
    "litter_complaint_density": 0.0,
    "lon": -79.5165,
    "navigable_dist_m": null,
    "npdes_points": 1,
    "pixel_col": 634.0,
    "pixel_row": 464.0,
    "population_density": 19.3,
    "position_along": 0.5,
    "protected_area_score": 11.845,
    "rank": 1,
    "road_access_m": 848.7,
    "road_access_score": 0.6,
    "road_density_km_km2": 0.116,
    "robustness_pct": 100.0,
    "runoff_coeff_C": 0.0672,
    "seasonal_cv": 0.4557,
    "segment_id": 8,
    "segment_length_m": 776.3355,
    "stream_order": 3,
    "superfund_score": 0.032,
    "tourism_amenity_density": 0.0796,
    "tri_facility_density": 0.0,
    "usgs_mean_q_cfs": 13.788,
    "velocity_feasibility": 0.7,
    "water_intake_score": 1.0883
   },
   "type": "Feature"
  },
  {
   "geometry": {
    "coordinates": [
     -79.520384,
     35.016848
    ],
    "type": "Point"
   },
   "properties": {
    "accumulation": 117036.0,
    "bank_slope_deg": 1.95,
    "bank_slope_score": 1.0,
    "bank_slope_source": "nc-dps-lidar-dem03-cross-section",
    "beach_dist_km": 182.0,
    "bridge_proximity_bonus": 0.0,
    "catchment_area_km2": 11.6715,
    "channel_width_m": 5.42,
    "channel_width_score": 1.0,
    "composite_score": 60.2365,
    "cso_density": 0.0,
    "ej_index": 0.5525,
    "elevation_m": 91.1529,
    "estuary_dist_km": 315.98,
    "feasibility_score": 71.4286,
    "flood_q10_cfs": 425.32,
    "flow_score": 71.6597,
    "flow_velocity_ms": 0.1884,
    "generation_score": 46.9818,
    "impact_score": 58.376,
    "impervious_pct": 2.87,
    "land_ownership": 0.5,
    "lat": 35.0168,
    "litter_complaint_density": 0.0,
    "lon": -79.5204,
    "navigable_dist_m": null,
    "npdes_points": 1,
    "pixel_col": 600.0,
    "pixel_row": 489.0,
    "population_density": 18.8,
    "position_along": 0.5,
    "protected_area_score": 11.6725,
    "rank": 2,
    "road_access_m": 822.1,
    "road_access_score": 0.6,
    "road_density_km_km2": 0.105,
    "robustness_pct": 100.0,
    "runoff_coeff_C": 0.0758,
    "seasonal_cv": 0.4431,
    "segment_id": 6,
    "segment_length_m": 180.463,
    "stream_order": 3,
    "superfund_score": 0.0248,
    "tourism_amenity_density": 0.0796,
    "tri_facility_density": 0.0,
    "usgs_mean_q_cfs": 5.544,
    "velocity_feasibility": 0.7,
    "water_intake_score": 1.0851
   },
   "type": "Feature"
  },
  {
   "geometry": {
    "coordinates": [
     -79.540904,
     35.019438
    ],
    "type": "Point"
   },
   "properties": {
    "accumulation": 21770.0,
    "bank_slope_deg": 2.49,
    "bank_slope_score": 1.0,
    "bank_slope_source": "nc-dps-lidar-dem03-cross-section",
    "beach_dist_km": 183.77,
    "bridge_proximity_bonus": 0.0,
    "catchment_area_km2": 2.171,
    "channel_width_m": 2.94,
    "channel_width_score": 1.0,
    "composite_score": 55.2665,
    "cso_density": 0.0,
    "ej_index": 0.7391,
    "elevation_m": 99.1496,
    "estuary_dist_km": 317.84,
    "feasibility_score": 71.4286,
    "flood_q10_cfs": 170.99,
    "flow_score": 24.4885,
    "flow_velocity_ms": 0.1282,
    "generation_score": 71.0688,
    "impact_score": 57.0315,
    "impervious_pct": 7.11,
    "land_ownership": 0.5,
    "lat": 35.0194,
    "litter_complaint_density": 0.0,
    "lon": -79.5409,
    "navigable_dist_m": null,
    "npdes_points": 0,
    "pixel_col": 412.0,
    "pixel_row": 464.0,
    "population_density": 36.3,
    "position_along": 0.5,
    "protected_area_score": 11.2459,
    "rank": 3,
    "road_access_m": 776.0,
    "road_access_score": 0.6,
    "road_density_km_km2": 0.207,
    "robustness_pct": 100.0,
    "runoff_coeff_C": 0.114,
    "seasonal_cv": 0.4536,
    "segment_id": 2,
    "segment_length_m": 749.0937,
    "stream_order": 3,
    "superfund_score": 0.0125,
    "tourism_amenity_density": 0.0796,
    "tri_facility_density": 0.0,
    "usgs_mean_q_cfs": 1.133,
    "velocity_feasibility": 0.7,
    "water_intake_score": 1.1161
   },
   "type": "Feature"
  },
  {
   "geometry": {
    "coordinates": [
     -79.545418,
     35.017421
    ],
    "type": "Point"
   },
   "properties": {
    "accumulation": 37072.0,
    "bank_slope_deg": 6.29,
    "bank_slope_score": 1.0,
    "bank_slope_source": "nc-dps-lidar-dem03-cross-section",
    "beach_dist_km": 184.03,
    "bridge_proximity_bonus": 0.0,
    "catchment_area_km2": 3.697,
    "channel_width_m": 3.57,
    "channel_width_score": 1.0,
    "composite_score": 53.5343,
    "cso_density": 0.0,
    "ej_index": 0.722,
    "elevation_m": 101.1037,
    "estuary_dist_km": 318.26,
    "feasibility_score": 71.4286,
    "flood_q10_cfs": 212.98,
    "flow_score": 42.1874,
    "flow_velocity_ms": 0.1826,
    "generation_score": 54.8691,
    "impact_score": 52.7081,
    "impervious_pct": 2.81,
    "land_ownership": 0.5,
    "lat": 35.0174,
    "litter_complaint_density": 0.0,
    "lon": -79.5454,
    "navigable_dist_m": null,
    "npdes_points": 0,
    "pixel_col": 371.0,
    "pixel_row": 485.0,
    "population_density": 35.0,
    "position_along": 0.5,
    "protected_area_score": 11.0718,
    "rank": 4,
    "road_access_m": 655.4,
    "road_access_score": 0.6,
    "road_density_km_km2": 0.446,
    "robustness_pct": 99.5,
    "runoff_coeff_C": 0.0753,
    "seasonal_cv": 0.4451,
    "segment_id": 4,
    "segment_length_m": 1283.2133,
    "stream_order": 3,
    "superfund_score": 0.0103,
    "tourism_amenity_density": 0.0796,
    "tri_facility_density": 0.0,
    "usgs_mean_q_cfs": 2.043,
    "velocity_feasibility": 0.7,
    "water_intake_score": 1.1155
   },
   "type": "Feature"
  },
  {
   "geometry": {
    "coordinates": [
     -79.522341,
     35.018842
    ],
    "type": "Point"
   },
   "properties": {
    "accumulation": 22588.0,
    "bank_slope_deg": 0.38,
    "bank_slope_score": 1.0,
    "bank_slope_source": "nc-dps-lidar-dem03-cross-section",
    "beach_dist_km": 182.26,
    "bridge_proximity_bonus": 0.0,
    "catchment_area_km2": 2.2526,
    "channel_width_m": 2.98,
    "channel_width_score": 1.0,
    "composite_score": 47.4925,
    "cso_density": 0.0,
    "ej_index": 0.5755,
    "elevation_m": 93.1062,
    "estuary_dist_km": 316.15,
    "feasibility_score": 71.4286,
    "flood_q10_cfs": 152.8,
    "flow_score": 22.9071,
    "flow_velocity_ms": 0.1396,
    "generation_score": 42.0047,
    "impact_score": 61.4999,
    "impervious_pct": 1.32,
    "land_ownership": 0.5,
    "lat": 35.0188,
    "litter_complaint_density": 0.0,
    "lon": -79.5223,
    "navigable_dist_m": null,
    "npdes_points": 1,
    "pixel_col": 581.0,
    "pixel_row": 468.0,
    "population_density": 21.0,
    "position_along": 0.5,
    "protected_area_score": 11.7768,
    "rank": 5,
    "road_access_m": 559.4,
    "road_access_score": 0.6,
    "road_density_km_km2": 0.146,
    "robustness_pct": 45.0,
    "runoff_coeff_C": 0.0619,
    "seasonal_cv": 0.4488,
    "segment_id": 3,
    "segment_length_m": 637.5311,
    "stream_order": 3,
    "superfund_score": 0.0254,
    "tourism_amenity_density": 0.0796,
    "tri_facility_density": 0.0,
    "usgs_mean_q_cfs": 1.166,
    "velocity_feasibility": 0.7,
    "water_intake_score": 1.0965
   },
   "type": "Feature"
  },
  {
   "geometry": {
    "coordinates": [
     -79.53002,
     35.016335
    ],
    "type": "Point"
   },
   "properties": {
    "accumulation": 83897.0,
    "bank_slope_deg": 2.69,
    "bank_slope_score": 1.0,
    "bank_slope_source": "nc-dps-lidar-dem03-cross-section",
    "beach_dist_km": 182.74,
    "bridge_proximity_bonus": 0.0,
    "catchment_area_km2": 8.3667,
    "channel_width_m": 4.8,
    "channel_width_score": 1.0,
    "composite_score": 46.7228,
    "cso_density": 0.0,
    "ej_index": 0.5906,
    "elevation_m": 94.4383,
    "estuary_dist_km": 316.86,
    "feasibility_score": 0.0,
    "flood_q10_cfs": 351.44,
    "flow_score": 53.7662,
    "flow_velocity_ms": 0.1484,
    "generation_score": 55.9057,
    "impact_score": 55.0318,
    "impervious_pct": 3.26,
    "land_ownership": 0.5,
    "lat": 35.0163,
    "litter_complaint_density": 0.0,
    "lon": -79.53,
    "navigable_dist_m": null,
    "npdes_points": 1,
    "pixel_col": 512.0,
    "pixel_row": 496.0,
    "population_density": 22.9,
    "position_along": 0.5,
    "protected_area_score": 11.5296,
    "rank": 6,
    "road_access_m": 1015.3,
    "road_access_score": 0.3,
    "road_density_km_km2": 0.181,
    "robustness_pct": 55.5,
    "runoff_coeff_C": 0.0793,
    "seasonal_cv": 0.4416,
    "segment_id": 5,
    "segment_length_m": 1957.5568,
    "stream_order": 3,
    "superfund_score": 0.017,
    "tourism_amenity_density": 0.0796,
    "tri_facility_density": 0.0,
    "usgs_mean_q_cfs": 4.475,
    "velocity_feasibility": 0.7,
    "water_intake_score": 1.0957
   },
   "type": "Feature"
  },
  {
   "geometry": {
    "coordinates": [
     -79.521133,
     35.013169
    ],
    "type": "Point"
   },
   "properties": {
    "accumulation": 23018.0,
    "bank_slope_deg": 4.42,
    "bank_slope_score": 1.0,
    "bank_slope_source": "nc-dps-lidar-dem03-cross-section",
    "beach_dist_km": 181.86,
    "bridge_proximity_bonus": 0.0,
    "catchment_area_km2": 2.2955,
    "channel_width_m": 3.0,
    "channel_width_score": 1.0,
    "composite_score": 24.4737,
    "cso_density": 0.0,
    "ej_index": 0.4571,
    "elevation_m": 92.7131,
    "estuary_dist_km": 316.06,
    "feasibility_score": 0.0,
    "flood_q10_cfs": 153.96,
    "flow_score": 31.7876,
    "flow_velocity_ms": 0.1184,
    "generation_score": 5.0548,
    "impact_score": 50.0346,
    "impervious_pct": 1.16,
    "land_ownership": 0.5,
    "lat": 35.0132,
    "litter_complaint_density": 0.0,
    "lon": -79.5211,
    "navigable_dist_m": null,
    "npdes_points": 0,
    "pixel_col": 590.0,
    "pixel_row": 526.0,
    "population_density": 9.9,
    "position_along": 0.5,
    "protected_area_score": 11.6207,
    "rank": 7,
    "road_access_m": 1198.1,
    "road_access_score": 0.3,
    "road_density_km_km2": 0.0,
    "robustness_pct": 0.0,
    "runoff_coeff_C": 0.0604,
    "seasonal_cv": 0.4455,
    "segment_id": 7,
    "segment_length_m": 958.5118,
    "stream_order": 3,
    "superfund_score": 0.02,
    "tourism_amenity_density": 0.0796,
    "tri_facility_density": 0.0,
    "usgs_mean_q_cfs": 7.823,
    "velocity_feasibility": 0.7,
    "water_intake_score": 1.0702
   },
   "type": "Feature"
  },
  {
   "geometry": {
    "coordinates": [
     -79.58345,
     35.008507
    ],
    "type": "Point"
   },
   "properties": {
    "accumulation": 27909.0,
    "bank_slope_deg": 2.59,
    "bank_slope_score": 1.0,
    "bank_slope_source": "nc-dps-lidar-dem03-cross-section",
    "beach_dist_km": 186.61,
    "bridge_proximity_bonus": 0.0,
    "catchment_area_km2": 2.7833,
    "channel_width_m": 3.22,
    "channel_width_score": 1.0,
    "composite_score": 22.746,
    "cso_density": 0.0,
    "ej_index": 0.3043,
    "elevation_m": 93.7696,
    "estuary_dist_km": 321.75,
    "feasibility_score": 0.0,
    "flood_q10_cfs": 180.4,
    "flow_score": 14.8991,
    "flow_velocity_ms": 0.1174,
    "generation_score": 29.3217,
    "impact_score": 34.0825,
    "impervious_pct": 3.0,
    "land_ownership": 0.5,
    "lat": 35.0085,
    "litter_complaint_density": 0.0,
    "lon": -79.5835,
    "navigable_dist_m": null,
    "npdes_points": 0,
    "pixel_col": 21.0,
    "pixel_row": 588.0,
    "population_density": 24.6,
    "position_along": 0.5,
    "protected_area_score": 9.8446,
    "rank": 8,
    "road_access_m": 1708.2,
    "road_access_score": 0.3,
    "road_density_km_km2": 0.0,
    "robustness_pct": 0.0,
    "runoff_coeff_C": 0.077,
    "seasonal_cv": 0.439,
    "segment_id": 9,
    "segment_length_m": 375.0487,
    "stream_order": 1,
    "superfund_score": 0.0035,
    "tourism_amenity_density": 0.1592,
    "tri_facility_density": 0.0,
    "usgs_mean_q_cfs": 2.223,
    "velocity_feasibility": 0.7,
    "water_intake_score": 1.19
   },
   "type": "Feature"
  },
  {
   "geometry": {
    "coordinates": [
     -79.550295,
     35.053141
    ],
    "type": "Point"
   },
   "properties": {
    "accumulation": 29245.0,
    "bank_slope_deg": 0.63,
    "bank_slope_score": 1.0,
    "bank_slope_source": "nc-dps-lidar-dem03-cross-section",
    "beach_dist_km": 186.35,
    "bridge_proximity_bonus": 0.0,
    "catchment_area_km2": 2.9165,
    "channel_width_m": 3.27,
    "channel_width_score": 1.0,
    "composite_score": 17.6559,
    "cso_density": 0.0,
    "ej_index": 0.3261,
    "elevation_m": 96.7151,
    "estuary_dist_km": 318.61,
    "feasibility_score": 0.0,
    "flood_q10_cfs": 177.89,
    "flow_score": 19.9925,
    "flow_velocity_ms": 0.1446,
    "generation_score": 0.4444,
    "impact_score": 41.7482,
    "impervious_pct": 1.19,
    "land_ownership": 0.5,
    "lat": 35.0531,
    "litter_complaint_density": 0.0,
    "lon": -79.5503,
    "navigable_dist_m": null,
    "npdes_points": 0,
    "pixel_col": 321.0,
    "pixel_row": 86.0,
    "population_density": 4.9,
    "position_along": 0.5,
    "protected_area_score": 11.4503,
    "rank": 9,
    "road_access_m": 1569.5,
    "road_access_score": 0.3,
    "road_density_km_km2": 0.0,
    "robustness_pct": 0.0,
    "runoff_coeff_C": 0.0607,
    "seasonal_cv": 0.4362,
    "segment_id": 0,
    "segment_length_m": 2338.1613,
    "stream_order": 1,
    "superfund_score": 0.0097,
    "tourism_amenity_density": 0.0796,
    "tri_facility_density": 0.0,
    "usgs_mean_q_cfs": 2.104,
    "velocity_feasibility": 0.7,
    "water_intake_score": 1.1599
   },
   "type": "Feature"
  },
  {
   "geometry": {
    "coordinates": [
     -79.567846,
     35.050993
    ],
    "type": "Point"
   },
   "properties": {
    "accumulation": 41200.0,
    "bank_slope_deg": 0.81,
    "bank_slope_score": 1.0,
    "bank_slope_source": "nc-dps-lidar-dem03-cross-section",
    "beach_dist_km": 187.62,
    "bridge_proximity_bonus": 0.0,
    "catchment_area_km2": 4.1087,
    "channel_width_m": 3.71,
    "channel_width_score": 1.0,
    "composite_score": 11.7463,
    "cso_density": 0.0,
    "ej_index": 0.3261,
    "elevation_m": 98.6905,
    "estuary_dist_km": 320.21,
    "feasibility_score": 0.0,
    "flood_q10_cfs": 218.13,
    "flow_score": 18.4193,
    "flow_velocity_ms": 0.125,
    "generation_score": 0.0,
    "impact_score": 23.8048,
    "impervious_pct": 1.11,
    "land_ownership": 0.5,
    "lat": 35.051,
    "litter_complaint_density": 0.0,
    "lon": -79.5678,
    "navigable_dist_m": null,
    "npdes_points": 0,
    "pixel_col": 158.0,
    "pixel_row": 113.0,
    "population_density": 4.9,
    "position_along": 0.5,
    "protected_area_score": 10.7755,
    "rank": 10,
    "road_access_m": 1926.3,
    "road_access_score": 0.3,
    "road_density_km_km2": 0.0,
    "robustness_pct": 0.0,
    "runoff_coeff_C": 0.06,
    "seasonal_cv": 0.4372,
    "segment_id": 1,
    "segment_length_m": 2712.2063,
    "stream_order": 1,
    "superfund_score": 0.0058,
    "tourism_amenity_density": 0.0796,
    "tri_facility_density": 0.0,
    "usgs_mean_q_cfs": 1.87,
    "velocity_feasibility": 0.7,
    "water_intake_score": 1.1317
   },
   "type": "Feature"
  }
 ],
 "note": "GRIME region 'Hoffman, NC' \u2014 real-data pipeline (DEM\u2192streams\u2192candidates\u2192stream mask (sites confined to \u00b1150 m of mapped OSM/NHD waterways)\u2192region-appropriate real parameters\u2192shipped scoring, math unchanged). Width curve: Bieger et al. 2015 JAWRA Table 3, Atlantic Plain. Flood: SIR 2014-5030 HR4 (I24H50Y: NOAA Atlas 14). NC Coastal Plain (SIR 2014-5030 HR4; I24H50Y from NOAA Atlas 14 at region center)",
 "provenance": {
  "candidates_pre_gate": 10,
  "constant": [
   "bank_slope_score",
   "channel_width_score",
   "cso_density",
   "land_ownership",
   "litter_complaint_density",
   "tri_facility_density",
   "velocity_feasibility"
  ],
  "gated_navigable": 0,
  "hard_gate_removed": 0,
  "n_parameters": 27,
  "parameters": {
   "bank_slope_score": {
    "kind": "real",
    "n_3dep_10m_fallback": 0,
    "n_nc_lidar_3_125ft": 10,
    "n_real": 10,
    "n_sites": 10,
    "source": "NC OneMap / NC DPS DEM03 statewide lidar-derived 3.125-ft (0.953 m) elevations (perpendicular 50 m transect; robust 5 m bank-rise metric); unavailable profiles use the region 10 m 3DEP DEM-gradient fallback",
    "source_mosaics": [
     "Richmond_QL1_2024_03ft_CountywideRaster"
    ]
   },
   "beach_dist_km": {
    "kind": "real",
    "n_real": 10,
    "n_sites": 10,
    "source": "haversine to region ref: Wrightsville Beach (shipped NC reference)"
   },
   "bridge_proximity_bonus": {
    "kind": "real",
    "n_real": 10,
    "n_sites": 10,
    "source": "FHWA/BTS NBI (NTAD), 50 m proximity"
   },
   "catchment_area_km2": {
    "kind": "real",
    "n_real": 10,
    "n_sites": 10,
    "source": "DEM flow accumulation (pipeline)"
   },
   "channel_width_score": {
    "kind": "real",
    "n_real": 10,
    "n_sites": 10,
    "source": "Bieger 2015 APL width curve on DEM drainage area \u2192 shipped width curve"
   },
   "cso_density": {
    "kind": "real",
    "n_real": 10,
    "n_sites": 10,
    "source": "EPA ECHO open CSO/TCS outfall PF coordinates states=NC, Cauchy proximity"
   },
   "ej_index": {
    "kind": "real",
    "n_real": 10,
    "n_sites": 10,
    "source": "Census ACS C17002+B03002 two-component demographic index, percentile-ranked within region"
   },
   "estuary_dist_km": {
    "kind": "real",
    "n_real": 10,
    "n_sites": 10,
    "source": "haversine to region ref: Pamlico Sound (shipped NC reference)"
   },
   "flood_q10_cfs": {
    "kind": "real",
    "n_real": 10,
    "n_sites": 10,
    "source": "USGS SIR 2014-5030 Table 7 HR4 (NC Coastal Plain; I24H50Y from NOAA Atlas 14 at region center)"
   },
   "flow_velocity_ms": {
    "kind": "real",
    "n_fallback": 0,
    "n_real": 10,
    "n_sites": 10,
    "source": "Manning (region DEM/D8) blended with EROM continuity (shipped M4 logic)"
   },
   "impervious_pct": {
    "kind": "real",
    "n_real": 10,
    "n_sites": 10,
    "source": "EPA StreamCat pctimp2019 (per NHDPlus watershed)"
   },
   "land_ownership": {
    "fallback_reason": "no containing parcel owner returned; shipped unknown ownership 0.5 used",
    "kind": "real",
    "n_fallback": 1,
    "n_real": 9,
    "n_sites": 10,
    "source": "NC OneMap statewide parcels (NC Parcels Transformer) ownname"
   },
   "litter_complaint_density": {
    "kind": "fallback",
    "n_real": 0,
    "n_sites": 10,
    "source": "no public machine-readable litter/illegal-dumping feed for this region"
   },
   "navigable_dist_m": {
    "kind": "real",
    "n_real": 10,
    "n_sites": 10,
    "source": "USACE/BTS NWN (NTAD): no navigable segment within this bbox (+2 km) \u2014 computed absence, gate passes all sites"
   },
   "npdes_points": {
    "kind": "real",
    "n_real": 10,
    "n_sites": 10,
    "source": "EPA ECHO active NPDES outfalls states=NC (types NPD/GPC/NGP; statuses ADC/EFF/EXP), per catchment"
   },
   "population_density": {
    "kind": "real",
    "n_real": 10,
    "n_sites": 10,
    "source": "Census ACS 2022 B01003 block groups (bbox, multi-county), area-weighted"
   },
   "protected_area_score": {
    "kind": "real",
    "n_real": 10,
    "n_sites": 10,
    "source": "USGS PAD-US 4.1 state GDB; states=NC; shipped designation-weighted proximity curve"
   },
   "road_access_score": {
    "kind": "real",
    "n_real": 10,
    "n_sites": 10,
    "source": "OSM drive network nearest-node distance"
   },
   "road_density_km_km2": {
    "kind": "real",
    "n_real": 10,
    "n_sites": 10,
    "source": "OSM drive network (osmnx, cached) clipped per catchment"
   },
   "runoff_coeff_C": {
    "kind": "real",
    "n_real": 10,
    "n_sites": 10,
    "source": "derived from real impervious_pct (C=0.05+0.009*I)"
   },
   "seasonal_cv": {
    "kind": "real",
    "n_real": 10,
    "n_sites": 10,
    "source": "CV of NHDPlus EROM monthly flows per COMID"
   },
   "stream_order": {
    "kind": "real",
    "n_real": 10,
    "n_sites": 10,
    "source": "DEM stream-network confluence heuristic (pipeline)"
   },
   "superfund_score": {
    "kind": "real",
    "n_real": 10,
    "n_sites": 10,
    "source": "EPA DataMap SEMS active sites states=NC (non-archived, georeferenced), shipped 500 m inverse-distance curve"
   },
   "tourism_amenity_density": {
    "kind": "real",
    "n_real": 10,
    "n_sites": 10,
    "source": "OSM leisure/tourism features per 2 km radius"
   },
   "tri_facility_density": {
    "kind": "real",
    "n_real": 10,
    "n_sites": 10,
    "source": "EPA DataMap TRI open facilities states=NC (preferred decimal or packed-DMS recovery), per catchment"
   },
   "usgs_mean_q_cfs": {
    "kind": "real",
    "n_real": 10,
    "n_sites": 10,
    "source": "NHDPlus EROM qe_ma per COMID (snap-guarded)"
   },
   "velocity_feasibility": {
    "kind": "real",
    "n_fallback": 0,
    "n_real": 10,
    "n_sites": 10,
    "source": "shipped step curve on the computed velocity"
   },
   "velocity_transport_favorability": {
    "kind": "derived",
    "n_real": 10,
    "n_sites": 10,
    "source": "scored form of flow_velocity_ms inside the Flow family \u2014 peaked Gaussian exp(-((v-0.9)/0.6)^2), model.json curves.velocity_transport_favorability; construct: transport/delivery favorability, deliberately distinct from velocity_feasibility (device operability)"
   },
   "water_intake_score": {
    "kind": "real",
    "n_real": 10,
    "n_sites": 10,
    "source": "NC OneMap / NC DEQ SWAP public water supply sources (source_typ='Surface Water'), shipped exp(-d/10km) curve"
   }
  },
  "stream_mask": {
   "buffer_m": 150.0,
   "pre_mask": 10,
   "removed": 0,
   "sources": [
    "osm-overpass (all waterway ways)",
    "usgs-nhdplus flowlines"
   ]
  },
  "varying": [
   "beach_dist_km",
   "bridge_proximity_bonus",
   "catchment_area_km2",
   "ej_index",
   "estuary_dist_km",
   "flood_q10_cfs",
   "flow_velocity_ms",
   "impervious_pct",
   "npdes_points",
   "population_density",
   "protected_area_score",
   "road_access_score",
   "road_density_km_km2",
   "runoff_coeff_C",
   "seasonal_cv",
   "stream_order",
   "superfund_score",
   "tourism_amenity_density",
   "usgs_mean_q_cfs",
   "water_intake_score"
  ]
 },
 "region": {
  "bbox": [
   -79.5851,
   35.0019,
   -79.5132,
   35.0607
  ],
  "beach_ref": {
   "label": "Wrightsville Beach (shipped NC reference)",
   "lat": 34.21,
   "lon": -77.79
  },
  "center": [
   -79.549136,
   35.031323
  ],
  "estuary_ref": {
   "label": "Pamlico Sound (shipped NC reference)",
   "lat": 35.05,
   "lon": -76.05
  },
  "flood_method": "sir2014_hr4",
  "name": "Hoffman, NC",
  "notes": "NC Coastal Plain (SIR 2014-5030 HR4; I24H50Y from NOAA Atlas 14 at region center)",
  "slug": "hoffman",
  "state": "NC",
  "utm_epsg": 32617,
  "width_curve": {
   "a": 2.22,
   "b": 0.363,
   "code": "APL",
   "source": "Bieger et al. 2015 JAWRA Table 3, Atlantic Plain"
  }
 },
 "type": "FeatureCollection"
}
