{
 "features": [
  {
   "geometry": {
    "coordinates": [
     -77.563073,
     34.470128
    ],
    "type": "Point"
   },
   "properties": {
    "accumulation": 23168.0,
    "bank_slope_deg": 2.64,
    "bank_slope_score": 1.0,
    "bank_slope_source": "nc-dps-lidar-dem03-cross-section",
    "beach_dist_km": 35.65,
    "bridge_proximity_bonus": 0.0,
    "catchment_area_km2": 2.3146,
    "channel_width_m": 3.01,
    "channel_width_score": 1.0,
    "composite_score": 57.4923,
    "cso_density": 0.0,
    "ej_index": 0.3957,
    "elevation_m": 5.8689,
    "estuary_dist_km": 152.52,
    "feasibility_score": 44.6429,
    "flood_q10_cfs": 264.86,
    "flow_score": 34.1911,
    "flow_velocity_ms": 0.1212,
    "generation_score": 80.0,
    "impact_score": 60.8272,
    "impervious_pct": 6.47,
    "land_ownership": 0.5,
    "lat": 34.4701,
    "litter_complaint_density": 0.0,
    "lon": -77.5631,
    "navigable_dist_m": 3837.3,
    "npdes_points": 0,
    "pixel_col": 370.0,
    "pixel_row": 630.0,
    "population_density": 84.5,
    "position_along": 0.25,
    "protected_area_score": 5.5401,
    "rank": 1,
    "road_access_m": 364.6,
    "road_access_score": 0.8,
    "road_density_km_km2": 4.027,
    "robustness_pct": 100.0,
    "runoff_coeff_C": 0.1082,
    "seasonal_cv": 0.6337,
    "segment_id": 4,
    "segment_length_m": 3036.3205,
    "stream_order": 3,
    "superfund_score": 0.0214,
    "tourism_amenity_density": 0.557,
    "tri_facility_density": 0.0,
    "usgs_mean_q_cfs": 5.649,
    "velocity_feasibility": 0.7,
    "water_intake_score": 0.0
   },
   "type": "Feature"
  },
  {
   "geometry": {
    "coordinates": [
     -77.552113,
     34.47055
    ],
    "type": "Point"
   },
   "properties": {
    "accumulation": 55330.0,
    "bank_slope_deg": 2.51,
    "bank_slope_score": 1.0,
    "bank_slope_source": "nc-dps-lidar-dem03-cross-section",
    "beach_dist_km": 36.28,
    "bridge_proximity_bonus": 0.0,
    "catchment_area_km2": 5.5277,
    "channel_width_m": 4.13,
    "channel_width_score": 1.0,
    "composite_score": 54.6048,
    "cso_density": 0.0,
    "ej_index": 0.2175,
    "elevation_m": 1.1812,
    "estuary_dist_km": 151.59,
    "feasibility_score": 62.5,
    "flood_q10_cfs": 446.7,
    "flow_score": 46.4746,
    "flow_velocity_ms": 0.1293,
    "generation_score": 78.198,
    "impact_score": 33.8392,
    "impervious_pct": 6.47,
    "land_ownership": 0.5,
    "lat": 34.4706,
    "litter_complaint_density": 0.0,
    "lon": -77.5521,
    "navigable_dist_m": 3130.3,
    "npdes_points": 3,
    "pixel_col": 471.0,
    "pixel_row": 632.0,
    "population_density": 53.7,
    "position_along": 0.75,
    "protected_area_score": 5.3918,
    "rank": 2,
    "road_access_m": 123.1,
    "road_access_score": 1.0,
    "road_density_km_km2": 1.86,
    "robustness_pct": 100.0,
    "runoff_coeff_C": 0.1082,
    "seasonal_cv": 0.6337,
    "segment_id": 4,
    "segment_length_m": 3036.3205,
    "stream_order": 3,
    "superfund_score": 0.0205,
    "tourism_amenity_density": 0.1592,
    "tri_facility_density": 0.0,
    "usgs_mean_q_cfs": 5.649,
    "velocity_feasibility": 0.7,
    "water_intake_score": 0.0
   },
   "type": "Feature"
  },
  {
   "geometry": {
    "coordinates": [
     -77.541992,
     34.464681
    ],
    "type": "Point"
   },
   "properties": {
    "accumulation": 133474.0,
    "bank_slope_deg": 1.95,
    "bank_slope_score": 1.0,
    "bank_slope_source": "nc-dps-lidar-dem03-cross-section",
    "beach_dist_km": 36.34,
    "bridge_proximity_bonus": 0.0,
    "catchment_area_km2": 13.3347,
    "channel_width_m": 5.68,
    "channel_width_score": 1.0,
    "composite_score": 52.1008,
    "cso_density": 0.0,
    "ej_index": 0.1829,
    "elevation_m": 0.2154,
    "estuary_dist_km": 151.04,
    "feasibility_score": 0.0,
    "flood_q10_cfs": 745.35,
    "flow_score": 99.3005,
    "flow_velocity_ms": 0.1681,
    "generation_score": 69.0905,
    "impact_score": 21.8282,
    "impervious_pct": 5.75,
    "land_ownership": 0.5,
    "lat": 34.4647,
    "litter_complaint_density": 0.0,
    "lon": -77.542,
    "navigable_dist_m": 2005.5,
    "npdes_points": 3,
    "pixel_col": 562.0,
    "pixel_row": 696.0,
    "population_density": 55.3,
    "position_along": 0.5,
    "protected_area_score": 5.04,
    "rank": 3,
    "road_access_m": 1030.6,
    "road_access_score": 0.3,
    "road_density_km_km2": 0.449,
    "robustness_pct": 93.5,
    "runoff_coeff_C": 0.1018,
    "seasonal_cv": 0.5828,
    "segment_id": 5,
    "segment_length_m": 1747.4013,
    "stream_order": 3,
    "superfund_score": 0.0136,
    "tourism_amenity_density": 0.0,
    "tri_facility_density": 0.0,
    "usgs_mean_q_cfs": 11.764,
    "velocity_feasibility": 0.7,
    "water_intake_score": 0.0
   },
   "type": "Feature"
  },
  {
   "geometry": {
    "coordinates": [
     -77.545364,
     34.48258
    ],
    "type": "Point"
   },
   "properties": {
    "accumulation": 25064.0,
    "bank_slope_deg": 14.05,
    "bank_slope_score": 1.0,
    "bank_slope_source": "nc-dps-lidar-dem03-cross-section",
    "beach_dist_km": 37.72,
    "bridge_proximity_bonus": 0.0,
    "catchment_area_km2": 2.504,
    "channel_width_m": 3.1,
    "channel_width_score": 1.0,
    "composite_score": 45.4953,
    "cso_density": 0.0,
    "ej_index": 0.2138,
    "elevation_m": 6.7449,
    "estuary_dist_km": 150.46,
    "feasibility_score": 44.6429,
    "flood_q10_cfs": 273.76,
    "flow_score": 43.5383,
    "flow_velocity_ms": 0.1673,
    "generation_score": 43.9409,
    "impact_score": 49.1069,
    "impervious_pct": 5.86,
    "land_ownership": 0.5,
    "lat": 34.4826,
    "litter_complaint_density": 0.0,
    "lon": -77.5454,
    "navigable_dist_m": 3582.8,
    "npdes_points": 1,
    "pixel_col": 536.0,
    "pixel_row": 500.0,
    "population_density": 19.3,
    "position_along": 0.1667,
    "protected_area_score": 5.4735,
    "rank": 4,
    "road_access_m": 330.5,
    "road_access_score": 0.8,
    "road_density_km_km2": 1.073,
    "robustness_pct": 100.0,
    "runoff_coeff_C": 0.1027,
    "seasonal_cv": 0.6351,
    "segment_id": 3,
    "segment_length_m": 5177.9706,
    "stream_order": 3,
    "superfund_score": 0.0358,
    "tourism_amenity_density": 0.6366,
    "tri_facility_density": 0.0,
    "usgs_mean_q_cfs": 5.32,
    "velocity_feasibility": 0.7,
    "water_intake_score": 0.0
   },
   "type": "Feature"
  },
  {
   "geometry": {
    "coordinates": [
     -77.539921,
     34.469688
    ],
    "type": "Point"
   },
   "properties": {
    "accumulation": 60007.0,
    "bank_slope_deg": 1.92,
    "bank_slope_score": 1.0,
    "bank_slope_source": "nc-dps-lidar-dem03-cross-section",
    "beach_dist_km": 36.89,
    "bridge_proximity_bonus": 0.0,
    "catchment_area_km2": 5.995,
    "channel_width_m": 4.25,
    "channel_width_score": 1.0,
    "composite_score": 39.5254,
    "cso_density": 0.0,
    "ej_index": 0.1902,
    "elevation_m": 1.2893,
    "estuary_dist_km": 150.63,
    "feasibility_score": 26.7857,
    "flood_q10_cfs": 462.4,
    "flow_score": 51.2986,
    "flow_velocity_ms": 0.1528,
    "generation_score": 47.0568,
    "impact_score": 28.553,
    "impervious_pct": 5.86,
    "land_ownership": 0.5,
    "lat": 34.4697,
    "litter_complaint_density": 0.0,
    "lon": -77.5399,
    "navigable_dist_m": 2243.6,
    "npdes_points": 1,
    "pixel_col": 579.0,
    "pixel_row": 642.0,
    "population_density": 35.4,
    "position_along": 0.8333,
    "protected_area_score": 5.2049,
    "rank": 5,
    "road_access_m": 893.1,
    "road_access_score": 0.6,
    "road_density_km_km2": 0.205,
    "robustness_pct": 90.0,
    "runoff_coeff_C": 0.1027,
    "seasonal_cv": 0.6351,
    "segment_id": 3,
    "segment_length_m": 5177.9706,
    "stream_order": 3,
    "superfund_score": 0.0161,
    "tourism_amenity_density": 0.0796,
    "tri_facility_density": 0.0,
    "usgs_mean_q_cfs": 5.32,
    "velocity_feasibility": 0.7,
    "water_intake_score": 0.0
   },
   "type": "Feature"
  },
  {
   "geometry": {
    "coordinates": [
     -77.534661,
     34.478956
    ],
    "type": "Point"
   },
   "properties": {
    "accumulation": 45435.0,
    "bank_slope_deg": 1.41,
    "bank_slope_score": 1.0,
    "bank_slope_source": "nc-dps-lidar-dem03-cross-section",
    "beach_dist_km": 38.0,
    "bridge_proximity_bonus": 0.0,
    "catchment_area_km2": 4.5392,
    "channel_width_m": 3.84,
    "channel_width_score": 1.0,
    "composite_score": 35.6458,
    "cso_density": 0.0,
    "ej_index": 0.2119,
    "elevation_m": 3.5232,
    "estuary_dist_km": 149.75,
    "feasibility_score": 44.6429,
    "flood_q10_cfs": 391.27,
    "flow_score": 34.4802,
    "flow_velocity_ms": 0.0949,
    "generation_score": 35.7002,
    "impact_score": 32.0642,
    "impervious_pct": 5.86,
    "land_ownership": 0.5,
    "lat": 34.479,
    "litter_complaint_density": 0.0,
    "lon": -77.5347,
    "navigable_dist_m": 2588.3,
    "npdes_points": 0,
    "pixel_col": 634.0,
    "pixel_row": 543.0,
    "population_density": 21.8,
    "position_along": 0.5,
    "protected_area_score": 5.1446,
    "rank": 6,
    "road_access_m": 384.4,
    "road_access_score": 0.8,
    "road_density_km_km2": 0.441,
    "robustness_pct": 12.0,
    "runoff_coeff_C": 0.1027,
    "seasonal_cv": 0.6351,
    "segment_id": 3,
    "segment_length_m": 5177.9706,
    "stream_order": 3,
    "superfund_score": 0.0207,
    "tourism_amenity_density": 0.0796,
    "tri_facility_density": 0.0,
    "usgs_mean_q_cfs": 5.32,
    "velocity_feasibility": 0.7,
    "water_intake_score": 0.0
   },
   "type": "Feature"
  },
  {
   "geometry": {
    "coordinates": [
     -77.579108,
     34.509645
    ],
    "type": "Point"
   },
   "properties": {
    "accumulation": 34134.0,
    "bank_slope_deg": 3.98,
    "bank_slope_score": 1.0,
    "bank_slope_source": "nc-dps-lidar-dem03-cross-section",
    "beach_dist_km": 38.53,
    "bridge_proximity_bonus": 0.0,
    "catchment_area_km2": 3.4102,
    "channel_width_m": 3.47,
    "channel_width_score": 1.0,
    "composite_score": 29.9705,
    "cso_density": 0.0,
    "ej_index": 0.2231,
    "elevation_m": 15.0782,
    "estuary_dist_km": 152.03,
    "feasibility_score": 37.5,
    "flood_q10_cfs": 290.04,
    "flow_score": 30.9062,
    "flow_velocity_ms": 0.0963,
    "generation_score": 16.3895,
    "impact_score": 39.0068,
    "impervious_pct": 0.37,
    "land_ownership": 1.0,
    "lat": 34.5096,
    "litter_complaint_density": 0.0,
    "lon": -77.5791,
    "navigable_dist_m": 7898.0,
    "npdes_points": 2,
    "pixel_col": 230.0,
    "pixel_row": 188.0,
    "population_density": 17.6,
    "position_along": 0.25,
    "protected_area_score": 5.8017,
    "rank": 7,
    "road_access_m": 1802.2,
    "road_access_score": 0.3,
    "road_density_km_km2": 0.225,
    "robustness_pct": 4.5,
    "runoff_coeff_C": 0.0533,
    "seasonal_cv": 0.5857,
    "segment_id": 1,
    "segment_length_m": 3779.5199,
    "stream_order": 1,
    "superfund_score": 0.0801,
    "tourism_amenity_density": 0.0,
    "tri_facility_density": 0.0,
    "usgs_mean_q_cfs": 10.475,
    "velocity_feasibility": 0.7,
    "water_intake_score": 0.0
   },
   "type": "Feature"
  },
  {
   "geometry": {
    "coordinates": [
     -77.552533,
     34.517854
    ],
    "type": "Point"
   },
   "properties": {
    "accumulation": 50816.0,
    "bank_slope_deg": 3.81,
    "bank_slope_score": 1.0,
    "bank_slope_source": "nc-dps-lidar-dem03-cross-section",
    "beach_dist_km": 40.58,
    "bridge_proximity_bonus": 0.0,
    "catchment_area_km2": 5.0768,
    "channel_width_m": 4.0,
    "channel_width_score": 1.0,
    "composite_score": 24.5984,
    "cso_density": 0.0,
    "ej_index": 0.2138,
    "elevation_m": 14.6195,
    "estuary_dist_km": 149.43,
    "feasibility_score": 37.5,
    "flood_q10_cfs": 382.54,
    "flow_score": 13.5961,
    "flow_velocity_ms": 0.115,
    "generation_score": 11.7404,
    "impact_score": 40.1741,
    "impervious_pct": 2.0,
    "land_ownership": 1.0,
    "lat": 34.5179,
    "litter_complaint_density": 0.0,
    "lon": -77.5525,
    "navigable_dist_m": 6839.9,
    "npdes_points": 0,
    "pixel_col": 478.0,
    "pixel_row": 103.0,
    "population_density": 19.3,
    "position_along": 0.5,
    "protected_area_score": 5.6246,
    "rank": 8,
    "road_access_m": 1793.3,
    "road_access_score": 0.3,
    "road_density_km_km2": 0.0,
    "robustness_pct": 0.0,
    "runoff_coeff_C": 0.068,
    "seasonal_cv": 0.6618,
    "segment_id": 0,
    "segment_length_m": 2687.0756,
    "stream_order": 1,
    "superfund_score": 0.0606,
    "tourism_amenity_density": 0.0,
    "tri_facility_density": 0.0,
    "usgs_mean_q_cfs": 3.716,
    "velocity_feasibility": 0.7,
    "water_intake_score": 0.0
   },
   "type": "Feature"
  },
  {
   "geometry": {
    "coordinates": [
     -77.588598,
     34.519383
    ],
    "type": "Point"
   },
   "properties": {
    "accumulation": 61835.0,
    "bank_slope_deg": 2.13,
    "bank_slope_score": 1.0,
    "bank_slope_source": "nc-dps-lidar-dem03-cross-section",
    "beach_dist_km": 39.05,
    "bridge_proximity_bonus": 0.0,
    "catchment_area_km2": 6.1776,
    "channel_width_m": 4.3,
    "channel_width_score": 1.0,
    "composite_score": 22.7466,
    "cso_density": 0.0,
    "ej_index": 0.2507,
    "elevation_m": 13.6104,
    "estuary_dist_km": 152.39,
    "feasibility_score": 0.0,
    "flood_q10_cfs": 414.37,
    "flow_score": 39.383,
    "flow_velocity_ms": 0.098,
    "generation_score": 7.3868,
    "impact_score": 35.6159,
    "impervious_pct": 0.37,
    "land_ownership": 0.5,
    "lat": 34.5194,
    "litter_complaint_density": 0.0,
    "lon": -77.5886,
    "navigable_dist_m": 9271.7,
    "npdes_points": 1,
    "pixel_col": 147.0,
    "pixel_row": 78.0,
    "population_density": 12.5,
    "position_along": 0.75,
    "protected_area_score": 6.0715,
    "rank": 9,
    "road_access_m": 1068.8,
    "road_access_score": 0.3,
    "road_density_km_km2": 0.174,
    "robustness_pct": 0.0,
    "runoff_coeff_C": 0.0533,
    "seasonal_cv": 0.5857,
    "segment_id": 1,
    "segment_length_m": 3779.5199,
    "stream_order": 1,
    "superfund_score": 0.028,
    "tourism_amenity_density": 0.0,
    "tri_facility_density": 0.0,
    "usgs_mean_q_cfs": 10.475,
    "velocity_feasibility": 0.7,
    "water_intake_score": 0.0
   },
   "type": "Feature"
  }
 ],
 "note": "GRIME region 'Holly Ridge, NC' \u2014 real-data pipeline (DEM\u2192streams\u2192candidates\u2192stream mask (sites confined to \u00b1150 m of mapped OSM/NHD waterways)\u2192region-appropriate real parameters\u2192shipped scoring, math unchanged). Width curve: Bieger et al. 2015 JAWRA Table 3, Atlantic Plain. Flood: SIR 2014-5030 HR4 (I24H50Y: NOAA Atlas 14). NC Coastal Plain (SIR 2014-5030 HR4; I24H50Y from NOAA Atlas 14 at region center)",
 "provenance": {
  "candidates_pre_gate": 9,
  "constant": [
   "bank_slope_score",
   "bridge_proximity_bonus",
   "channel_width_score",
   "cso_density",
   "litter_complaint_density",
   "tri_facility_density",
   "velocity_feasibility",
   "water_intake_score"
  ],
  "gated_navigable": 0,
  "hard_gate_removed": 0,
  "n_parameters": 27,
  "parameters": {
   "bank_slope_score": {
    "kind": "real",
    "n_3dep_10m_fallback": 0,
    "n_nc_lidar_3_125ft": 9,
    "n_real": 9,
    "n_sites": 9,
    "source": "NC OneMap / NC DPS DEM03 statewide lidar-derived 3.125-ft (0.953 m) elevations (perpendicular 50 m transect; robust 5 m bank-rise metric); unavailable profiles use the region 10 m 3DEP DEM-gradient fallback",
    "source_mosaics": [
     "Onslow_Ground_3ft",
     "Pender_Ground_3ft"
    ]
   },
   "beach_dist_km": {
    "kind": "real",
    "n_real": 9,
    "n_sites": 9,
    "source": "haversine to region ref: Wrightsville Beach (shipped NC reference)"
   },
   "bridge_proximity_bonus": {
    "kind": "real",
    "n_real": 9,
    "n_sites": 9,
    "source": "FHWA/BTS NBI (NTAD), 50 m proximity"
   },
   "catchment_area_km2": {
    "kind": "real",
    "n_real": 9,
    "n_sites": 9,
    "source": "DEM flow accumulation (pipeline)"
   },
   "channel_width_score": {
    "kind": "real",
    "n_real": 9,
    "n_sites": 9,
    "source": "Bieger 2015 APL width curve on DEM drainage area \u2192 shipped width curve"
   },
   "cso_density": {
    "kind": "real",
    "n_real": 9,
    "n_sites": 9,
    "source": "EPA ECHO open CSO/TCS outfall PF coordinates states=NC, Cauchy proximity"
   },
   "ej_index": {
    "kind": "real",
    "n_real": 9,
    "n_sites": 9,
    "source": "Census ACS C17002+B03002 two-component demographic index, percentile-ranked within region"
   },
   "estuary_dist_km": {
    "kind": "real",
    "n_real": 9,
    "n_sites": 9,
    "source": "haversine to region ref: Pamlico Sound (shipped NC reference)"
   },
   "flood_q10_cfs": {
    "kind": "real",
    "n_real": 9,
    "n_sites": 9,
    "source": "USGS SIR 2014-5030 Table 7 HR4 (NC Coastal Plain; I24H50Y from NOAA Atlas 14 at region center)"
   },
   "flow_velocity_ms": {
    "kind": "real",
    "n_fallback": 0,
    "n_real": 9,
    "n_sites": 9,
    "source": "Manning (region DEM/D8) blended with EROM continuity (shipped M4 logic)"
   },
   "impervious_pct": {
    "kind": "real",
    "n_real": 9,
    "n_sites": 9,
    "source": "EPA StreamCat pctimp2019 (per NHDPlus watershed)"
   },
   "land_ownership": {
    "kind": "real",
    "n_fallback": 0,
    "n_real": 9,
    "n_sites": 9,
    "source": "NC OneMap statewide parcels (NC Parcels Transformer) ownname"
   },
   "litter_complaint_density": {
    "kind": "fallback",
    "n_real": 0,
    "n_sites": 9,
    "source": "no public machine-readable litter/illegal-dumping feed for this region"
   },
   "navigable_dist_m": {
    "kind": "real",
    "n_real": 9,
    "n_sites": 9,
    "source": "USACE/BTS National Waterway Network lines (NTAD, retrieved 2026-07-10), distance to nearest navigable segment"
   },
   "npdes_points": {
    "kind": "real",
    "n_real": 9,
    "n_sites": 9,
    "source": "EPA ECHO active NPDES outfalls states=NC (types NPD/GPC/NGP; statuses ADC/EFF/EXP), per catchment"
   },
   "population_density": {
    "kind": "real",
    "n_real": 9,
    "n_sites": 9,
    "source": "Census ACS 2022 B01003 block groups (bbox, multi-county), area-weighted"
   },
   "protected_area_score": {
    "kind": "real",
    "n_real": 9,
    "n_sites": 9,
    "source": "USGS PAD-US 4.1 state GDB; states=NC; shipped designation-weighted proximity curve"
   },
   "road_access_score": {
    "kind": "real",
    "n_real": 9,
    "n_sites": 9,
    "source": "OSM drive network nearest-node distance"
   },
   "road_density_km_km2": {
    "kind": "real",
    "n_real": 9,
    "n_sites": 9,
    "source": "OSM drive network (osmnx, cached) clipped per catchment"
   },
   "runoff_coeff_C": {
    "kind": "real",
    "n_real": 9,
    "n_sites": 9,
    "source": "derived from real impervious_pct (C=0.05+0.009*I)"
   },
   "seasonal_cv": {
    "kind": "real",
    "n_real": 9,
    "n_sites": 9,
    "source": "CV of NHDPlus EROM monthly flows per COMID"
   },
   "stream_order": {
    "kind": "real",
    "n_real": 9,
    "n_sites": 9,
    "source": "DEM stream-network confluence heuristic (pipeline)"
   },
   "superfund_score": {
    "kind": "real",
    "n_real": 9,
    "n_sites": 9,
    "source": "EPA DataMap SEMS active sites states=NC (non-archived, georeferenced), shipped 500 m inverse-distance curve"
   },
   "tourism_amenity_density": {
    "kind": "real",
    "n_real": 9,
    "n_sites": 9,
    "source": "OSM leisure/tourism features per 2 km radius"
   },
   "tri_facility_density": {
    "kind": "real",
    "n_real": 9,
    "n_sites": 9,
    "source": "EPA DataMap TRI open facilities states=NC (preferred decimal or packed-DMS recovery), per catchment"
   },
   "usgs_mean_q_cfs": {
    "kind": "real",
    "n_real": 9,
    "n_sites": 9,
    "source": "NHDPlus EROM qe_ma per COMID (snap-guarded)"
   },
   "velocity_feasibility": {
    "kind": "real",
    "n_fallback": 0,
    "n_real": 9,
    "n_sites": 9,
    "source": "shipped step curve on the computed velocity"
   },
   "velocity_transport_favorability": {
    "kind": "derived",
    "n_real": 9,
    "n_sites": 9,
    "source": "scored form of flow_velocity_ms inside the Flow family \u2014 peaked Gaussian exp(-((v-0.9)/0.6)^2), model.json curves.velocity_transport_favorability; construct: transport/delivery favorability, deliberately distinct from velocity_feasibility (device operability)"
   },
   "water_intake_score": {
    "kind": "real",
    "n_real": 9,
    "n_sites": 9,
    "source": "NC OneMap / NC DEQ SWAP public water supply sources (source_typ='Surface Water'), shipped exp(-d/10km) curve"
   }
  },
  "stream_mask": {
   "buffer_m": 150.0,
   "pre_mask": 10,
   "removed": 1,
   "sources": [
    "osm-overpass (all waterway ways)",
    "usgs-nhdplus flowlines"
   ]
  },
  "varying": [
   "beach_dist_km",
   "catchment_area_km2",
   "ej_index",
   "estuary_dist_km",
   "flood_q10_cfs",
   "flow_velocity_ms",
   "impervious_pct",
   "land_ownership",
   "npdes_points",
   "population_density",
   "protected_area_score",
   "road_access_score",
   "road_density_km_km2",
   "runoff_coeff_C",
   "seasonal_cv",
   "stream_order",
   "superfund_score",
   "tourism_amenity_density",
   "usgs_mean_q_cfs"
  ]
 },
 "region": {
  "bbox": [
   -77.6029,
   34.4607,
   -77.5234,
   34.5263
  ],
  "beach_ref": {
   "label": "Wrightsville Beach (shipped NC reference)",
   "lat": 34.21,
   "lon": -77.79
  },
  "center": [
   -77.56315,
   34.493482
  ],
  "estuary_ref": {
   "label": "Pamlico Sound (shipped NC reference)",
   "lat": 35.05,
   "lon": -76.05
  },
  "flood_method": "sir2014_hr4",
  "name": "Holly Ridge, NC",
  "notes": "NC Coastal Plain (SIR 2014-5030 HR4; I24H50Y from NOAA Atlas 14 at region center)",
  "slug": "holly-ridge",
  "state": "NC",
  "utm_epsg": 32618,
  "width_curve": {
   "a": 2.22,
   "b": 0.363,
   "code": "APL",
   "source": "Bieger et al. 2015 JAWRA Table 3, Atlantic Plain"
  }
 },
 "type": "FeatureCollection"
}
