{
 "features": [
  {
   "geometry": {
    "coordinates": [
     -82.825611,
     35.890277
    ],
    "type": "Point"
   },
   "properties": {
    "accumulation": 74038.0,
    "bank_slope_deg": 24.19,
    "bank_slope_score": 0.5,
    "bank_slope_source": "nc-dps-lidar-dem03-cross-section",
    "beach_dist_km": 494.92,
    "bridge_proximity_bonus": 0.0,
    "catchment_area_km2": 7.3841,
    "channel_width_m": 7.15,
    "channel_width_score": 1.0,
    "composite_score": 61.096,
    "cso_density": 0.0,
    "ej_index": 0.3824,
    "elevation_m": 403.7258,
    "estuary_dist_km": 620.53,
    "feasibility_score": 75.0,
    "flood_q10_cfs": null,
    "flow_score": 51.7423,
    "flow_velocity_ms": 0.5,
    "generation_score": 52.381,
    "impact_score": 70.6539,
    "impervious_pct": null,
    "land_ownership": 0.5,
    "lat": 35.8903,
    "litter_complaint_density": 0.0,
    "lon": -82.8256,
    "navigable_dist_m": null,
    "npdes_points": 1,
    "pixel_col": 340.0,
    "pixel_row": 341.0,
    "population_density": 10.3,
    "position_along": 0.75,
    "protected_area_score": 3.4854,
    "rank": 1,
    "road_access_m": 134.6,
    "road_access_score": 1.0,
    "road_density_km_km2": 2.271,
    "robustness_pct": 100.0,
    "runoff_coeff_C": null,
    "seasonal_cv": null,
    "segment_id": 7,
    "segment_length_m": 4403.3264,
    "stream_order": 3,
    "superfund_score": 0.0,
    "tourism_amenity_density": 3.1831,
    "tri_facility_density": 0.0,
    "usgs_mean_q_cfs": null,
    "velocity_feasibility": 1.0,
    "water_intake_score": 0.2348
   },
   "type": "Feature"
  },
  {
   "geometry": {
    "coordinates": [
     -82.82364,
     35.894564
    ],
    "type": "Point"
   },
   "properties": {
    "accumulation": 111186.0,
    "bank_slope_deg": 7.41,
    "bank_slope_score": 1.0,
    "bank_slope_source": "nc-dps-lidar-dem03-cross-section",
    "beach_dist_km": 494.93,
    "bridge_proximity_bonus": 0.0,
    "catchment_area_km2": 11.0891,
    "channel_width_m": 8.47,
    "channel_width_score": 1.0,
    "composite_score": 60.8671,
    "cso_density": 0.0,
    "ej_index": 0.3824,
    "elevation_m": 398.1038,
    "estuary_dist_km": 620.41,
    "feasibility_score": 84.6154,
    "flood_q10_cfs": null,
    "flow_score": 55.6665,
    "flow_velocity_ms": 0.5,
    "generation_score": 45.7759,
    "impact_score": 68.4178,
    "impervious_pct": null,
    "land_ownership": 0.5,
    "lat": 35.8946,
    "litter_complaint_density": 0.0,
    "lon": -82.8236,
    "navigable_dist_m": null,
    "npdes_points": 1,
    "pixel_col": 359.0,
    "pixel_row": 293.0,
    "population_density": 10.3,
    "position_along": 0.5,
    "protected_area_score": 3.3267,
    "rank": 2,
    "road_access_m": 120.1,
    "road_access_score": 1.0,
    "road_density_km_km2": 1.641,
    "robustness_pct": 100.0,
    "runoff_coeff_C": null,
    "seasonal_cv": null,
    "segment_id": 5,
    "segment_length_m": 562.0944,
    "stream_order": 3,
    "superfund_score": 0.0,
    "tourism_amenity_density": 3.1831,
    "tri_facility_density": 0.0,
    "usgs_mean_q_cfs": null,
    "velocity_feasibility": 1.0,
    "water_intake_score": 0.2354
   },
   "type": "Feature"
  },
  {
   "geometry": {
    "coordinates": [
     -82.818947,
     35.883461
    ],
    "type": "Point"
   },
   "properties": {
    "accumulation": 43572.0,
    "bank_slope_deg": 0.15,
    "bank_slope_score": 1.0,
    "bank_slope_source": "nc-dps-lidar-dem03-cross-section",
    "beach_dist_km": 494.09,
    "bridge_proximity_bonus": 0.0,
    "catchment_area_km2": 4.3456,
    "channel_width_m": 5.74,
    "channel_width_score": 1.0,
    "composite_score": 59.0074,
    "cso_density": 0.0,
    "ej_index": 0.3824,
    "elevation_m": 403.5001,
    "estuary_dist_km": 619.85,
    "feasibility_score": 62.6374,
    "flood_q10_cfs": null,
    "flow_score": 48.524,
    "flow_velocity_ms": 0.5,
    "generation_score": 35.4386,
    "impact_score": 89.4973,
    "impervious_pct": null,
    "land_ownership": 0.5,
    "lat": 35.8835,
    "litter_complaint_density": 0.0,
    "lon": -82.8189,
    "navigable_dist_m": null,
    "npdes_points": 1,
    "pixel_col": 398.0,
    "pixel_row": 419.0,
    "population_density": 10.3,
    "position_along": 0.5,
    "protected_area_score": 3.8307,
    "rank": 3,
    "road_access_m": 898.9,
    "road_access_score": 0.6,
    "road_density_km_km2": 0.655,
    "robustness_pct": 84.0,
    "runoff_coeff_C": null,
    "seasonal_cv": null,
    "segment_id": 4,
    "segment_length_m": 2345.4058,
    "stream_order": 3,
    "superfund_score": 0.0,
    "tourism_amenity_density": 3.0239,
    "tri_facility_density": 0.0,
    "usgs_mean_q_cfs": null,
    "velocity_feasibility": 1.0,
    "water_intake_score": 0.2572
   },
   "type": "Feature"
  },
  {
   "geometry": {
    "coordinates": [
     -82.826401,
     35.897933
    ],
    "type": "Point"
   },
   "properties": {
    "accumulation": 142926.0,
    "bank_slope_deg": 0.18,
    "bank_slope_score": 1.0,
    "bank_slope_source": "nc-dps-lidar-dem03-cross-section",
    "beach_dist_km": 495.29,
    "bridge_proximity_bonus": 0.0,
    "catchment_area_km2": 14.2546,
    "channel_width_m": 9.4,
    "channel_width_score": 1.0,
    "composite_score": 58.671,
    "cso_density": 0.0,
    "ej_index": 0.3824,
    "elevation_m": 397.1973,
    "estuary_dist_km": 620.71,
    "feasibility_score": 84.6154,
    "flood_q10_cfs": null,
    "flow_score": 59.0193,
    "flow_velocity_ms": 0.5,
    "generation_score": 43.0081,
    "impact_score": 61.0715,
    "impervious_pct": null,
    "land_ownership": 0.5,
    "lat": 35.8979,
    "litter_complaint_density": 0.0,
    "lon": -82.8264,
    "navigable_dist_m": null,
    "npdes_points": 1,
    "pixel_col": 333.0,
    "pixel_row": 257.0,
    "population_density": 10.3,
    "position_along": 0.5,
    "protected_area_score": 3.1648,
    "rank": 4,
    "road_access_m": 184.5,
    "road_access_score": 1.0,
    "road_density_km_km2": 1.377,
    "robustness_pct": 99.0,
    "runoff_coeff_C": null,
    "seasonal_cv": null,
    "segment_id": 6,
    "segment_length_m": 434.6904,
    "stream_order": 3,
    "superfund_score": 0.0,
    "tourism_amenity_density": 3.2627,
    "tri_facility_density": 0.0,
    "usgs_mean_q_cfs": null,
    "velocity_feasibility": 1.0,
    "water_intake_score": 0.2289
   },
   "type": "Feature"
  },
  {
   "geometry": {
    "coordinates": [
     -82.810099,
     35.888997
    ],
    "type": "Point"
   },
   "properties": {
    "accumulation": 39500.0,
    "bank_slope_deg": 28.82,
    "bank_slope_score": 0.5,
    "bank_slope_source": "nc-dps-lidar-dem03-cross-section",
    "beach_dist_km": 493.57,
    "bridge_proximity_bonus": 0.0,
    "catchment_area_km2": 3.9395,
    "channel_width_m": 5.51,
    "channel_width_score": 1.0,
    "composite_score": 58.3208,
    "cso_density": 0.0,
    "ej_index": 0.3824,
    "elevation_m": 442.5617,
    "estuary_dist_km": 619.13,
    "feasibility_score": 22.2527,
    "flood_q10_cfs": null,
    "flow_score": 50.4195,
    "flow_velocity_ms": 0.1939,
    "generation_score": 48.0699,
    "impact_score": 93.1902,
    "impervious_pct": 0.66,
    "land_ownership": 0.5,
    "lat": 35.889,
    "litter_complaint_density": 0.0,
    "lon": -82.8101,
    "navigable_dist_m": null,
    "npdes_points": 0,
    "pixel_col": 479.0,
    "pixel_row": 360.0,
    "population_density": 10.3,
    "position_along": 0.5,
    "protected_area_score": 3.7507,
    "rank": 5,
    "road_access_m": 959.1,
    "road_access_score": 0.6,
    "road_density_km_km2": 0.043,
    "robustness_pct": 70.5,
    "runoff_coeff_C": 0.0559,
    "seasonal_cv": 0.4805,
    "segment_id": 3,
    "segment_length_m": 2671.662,
    "stream_order": 3,
    "superfund_score": 0.0,
    "tourism_amenity_density": 2.2282,
    "tri_facility_density": 0.0,
    "usgs_mean_q_cfs": 3.531,
    "velocity_feasibility": 0.7,
    "water_intake_score": 0.27
   },
   "type": "Feature"
  },
  {
   "geometry": {
    "coordinates": [
     -82.829138,
     35.898071
    ],
    "type": "Point"
   },
   "properties": {
    "accumulation": 222659.0,
    "bank_slope_deg": 17.93,
    "bank_slope_score": 0.5,
    "bank_slope_source": "nc-dps-lidar-dem03-cross-section",
    "beach_dist_km": 495.53,
    "bridge_proximity_bonus": 0.0,
    "catchment_area_km2": 22.2067,
    "channel_width_m": 11.3,
    "channel_width_score": 1.0,
    "composite_score": 55.1045,
    "cso_density": 0.0,
    "ej_index": 0.3824,
    "elevation_m": 396.2608,
    "estuary_dist_km": 620.95,
    "feasibility_score": 64.011,
    "flood_q10_cfs": null,
    "flow_score": 67.4419,
    "flow_velocity_ms": 0.5,
    "generation_score": 37.9652,
    "impact_score": 57.5095,
    "impervious_pct": null,
    "land_ownership": 0.5,
    "lat": 35.8981,
    "litter_complaint_density": 0.0,
    "lon": -82.8291,
    "navigable_dist_m": null,
    "npdes_points": 1,
    "pixel_col": 308.0,
    "pixel_row": 256.0,
    "population_density": 10.3,
    "position_along": 0.5,
    "protected_area_score": 3.1563,
    "rank": 6,
    "road_access_m": 235.1,
    "road_access_score": 0.8,
    "road_density_km_km2": 0.896,
    "robustness_pct": 43.0,
    "runoff_coeff_C": null,
    "seasonal_cv": null,
    "segment_id": 8,
    "segment_length_m": 198.0207,
    "stream_order": 3,
    "superfund_score": 0.0,
    "tourism_amenity_density": 3.2627,
    "tri_facility_density": 0.0,
    "usgs_mean_q_cfs": null,
    "velocity_feasibility": 1.0,
    "water_intake_score": 0.2244
   },
   "type": "Feature"
  },
  {
   "geometry": {
    "coordinates": [
     -82.836298,
     35.880638
    ],
    "type": "Point"
   },
   "properties": {
    "accumulation": 48737.0,
    "bank_slope_deg": 32.65,
    "bank_slope_score": 0.2,
    "bank_slope_source": "nc-dps-lidar-dem03-cross-section",
    "beach_dist_km": 495.45,
    "bridge_proximity_bonus": 0.2,
    "catchment_area_km2": 4.8607,
    "channel_width_m": 6.01,
    "channel_width_score": 1.0,
    "composite_score": 47.4856,
    "cso_density": 0.0,
    "ej_index": 0.3824,
    "elevation_m": 429.1137,
    "estuary_dist_km": 621.37,
    "feasibility_score": 84.6154,
    "flood_q10_cfs": null,
    "flow_score": 49.0696,
    "flow_velocity_ms": 0.5,
    "generation_score": 10.9664,
    "impact_score": 64.12,
    "impervious_pct": null,
    "land_ownership": 0.5,
    "lat": 35.8806,
    "litter_complaint_density": 0.0,
    "lon": -82.8363,
    "navigable_dist_m": null,
    "npdes_points": 0,
    "pixel_col": 244.0,
    "pixel_row": 447.0,
    "population_density": 10.3,
    "position_along": 0.25,
    "protected_area_score": 3.7222,
    "rank": 7,
    "road_access_m": 163.2,
    "road_access_score": 1.0,
    "road_density_km_km2": 1.046,
    "robustness_pct": 3.5,
    "runoff_coeff_C": null,
    "seasonal_cv": null,
    "segment_id": 7,
    "segment_length_m": 4403.3264,
    "stream_order": 3,
    "superfund_score": 0.0,
    "tourism_amenity_density": 2.8648,
    "tri_facility_density": 0.0,
    "usgs_mean_q_cfs": null,
    "velocity_feasibility": 1.0,
    "water_intake_score": 0.2238
   },
   "type": "Feature"
  },
  {
   "geometry": {
    "coordinates": [
     -82.822551,
     35.901333
    ],
    "type": "Point"
   },
   "properties": {
    "accumulation": 24521.0,
    "bank_slope_deg": 39.94,
    "bank_slope_score": 0.2,
    "bank_slope_source": "nc-dps-lidar-dem03-cross-section",
    "beach_dist_km": 495.1,
    "bridge_proximity_bonus": 0.0,
    "catchment_area_km2": 2.4456,
    "channel_width_m": 4.52,
    "channel_width_score": 1.0,
    "composite_score": 38.4772,
    "cso_density": 0.0,
    "ej_index": 0.3824,
    "elevation_m": 444.7498,
    "estuary_dist_km": 620.41,
    "feasibility_score": 27.4725,
    "flood_q10_cfs": null,
    "flow_score": 40.8507,
    "flow_velocity_ms": 0.2206,
    "generation_score": 18.5741,
    "impact_score": 61.9048,
    "impervious_pct": 0.02,
    "land_ownership": 0.5,
    "lat": 35.9013,
    "litter_complaint_density": 0.0,
    "lon": -82.8226,
    "navigable_dist_m": null,
    "npdes_points": 0,
    "pixel_col": 369.0,
    "pixel_row": 222.0,
    "population_density": 10.3,
    "position_along": 0.5,
    "protected_area_score": 3.1381,
    "rank": 8,
    "road_access_m": 244.3,
    "road_access_score": 0.8,
    "road_density_km_km2": 1.634,
    "robustness_pct": 0.0,
    "runoff_coeff_C": 0.0502,
    "seasonal_cv": 0.4129,
    "segment_id": 2,
    "segment_length_m": 1333.6157,
    "stream_order": 3,
    "superfund_score": 0.0,
    "tourism_amenity_density": 2.8648,
    "tri_facility_density": 0.0,
    "usgs_mean_q_cfs": 2.123,
    "velocity_feasibility": 0.7,
    "water_intake_score": 0.233
   },
   "type": "Feature"
  },
  {
   "geometry": {
    "coordinates": [
     -82.842864,
     35.903492
    ],
    "type": "Point"
   },
   "properties": {
    "accumulation": 34945.0,
    "bank_slope_deg": 0.06,
    "bank_slope_score": 1.0,
    "bank_slope_source": "nc-dps-lidar-dem03-cross-section",
    "beach_dist_km": 496.9,
    "bridge_proximity_bonus": 0.0,
    "catchment_area_km2": 3.4852,
    "channel_width_m": 5.24,
    "channel_width_score": 1.0,
    "composite_score": 34.0772,
    "cso_density": 0.0,
    "ej_index": 0.3824,
    "elevation_m": 394.0213,
    "estuary_dist_km": 622.25,
    "feasibility_score": 84.6154,
    "flood_q10_cfs": null,
    "flow_score": 31.3337,
    "flow_velocity_ms": 0.5,
    "generation_score": 11.6269,
    "impact_score": 33.5446,
    "impervious_pct": null,
    "land_ownership": 0.5,
    "lat": 35.9035,
    "litter_complaint_density": 0.0,
    "lon": -82.8429,
    "navigable_dist_m": null,
    "npdes_points": 0,
    "pixel_col": 187.0,
    "pixel_row": 191.0,
    "population_density": 10.3,
    "position_along": 0.5,
    "protected_area_score": 3.032,
    "rank": 9,
    "road_access_m": 99.8,
    "road_access_score": 1.0,
    "road_density_km_km2": 1.109,
    "robustness_pct": 0.0,
    "runoff_coeff_C": null,
    "seasonal_cv": null,
    "segment_id": 1,
    "segment_length_m": 1755.1865,
    "stream_order": 1,
    "superfund_score": 0.0,
    "tourism_amenity_density": 2.6261,
    "tri_facility_density": 0.0,
    "usgs_mean_q_cfs": null,
    "velocity_feasibility": 1.0,
    "water_intake_score": 0.201
   },
   "type": "Feature"
  },
  {
   "geometry": {
    "coordinates": [
     -82.851787,
     35.914989
    ],
    "type": "Point"
   },
   "properties": {
    "accumulation": 36269.0,
    "bank_slope_deg": 0.06,
    "bank_slope_score": 1.0,
    "bank_slope_source": "nc-dps-lidar-dem03-cross-section",
    "beach_dist_km": 498.1,
    "bridge_proximity_bonus": 0.0,
    "catchment_area_km2": 3.6173,
    "channel_width_m": 5.32,
    "channel_width_score": 1.0,
    "composite_score": 14.7915,
    "cso_density": 0.0,
    "ej_index": 0.3824,
    "elevation_m": 393.2744,
    "estuary_dist_km": 623.2,
    "feasibility_score": 46.1538,
    "flood_q10_cfs": null,
    "flow_score": 31.4736,
    "flow_velocity_ms": 0.5,
    "generation_score": 0.0,
    "impact_score": 0.0,
    "impervious_pct": null,
    "land_ownership": 0.5,
    "lat": 35.915,
    "litter_complaint_density": 0.0,
    "lon": -82.8518,
    "navigable_dist_m": null,
    "npdes_points": 0,
    "pixel_col": 111.0,
    "pixel_row": 62.0,
    "population_density": 10.3,
    "position_along": 0.5,
    "protected_area_score": 2.667,
    "rank": 10,
    "road_access_m": 1503.8,
    "road_access_score": 0.3,
    "road_density_km_km2": 0.0,
    "robustness_pct": 0.0,
    "runoff_coeff_C": null,
    "seasonal_cv": null,
    "segment_id": 0,
    "segment_length_m": 1795.1333,
    "stream_order": 1,
    "superfund_score": 0.0,
    "tourism_amenity_density": 0.6366,
    "tri_facility_density": 0.0,
    "usgs_mean_q_cfs": null,
    "velocity_feasibility": 1.0,
    "water_intake_score": 0.1764
   },
   "type": "Feature"
  }
 ],
 "note": "GRIME region 'Hot Springs, NC' \u2014 real-data pipeline (DEM\u2192streams\u2192candidates\u2192stream mask (sites confined to \u00b1150 m of mapped OSM/NHD waterways)\u2192region-appropriate real parameters\u2192shipped scoring, math unchanged). Width curve: Bieger et al. 2015 JAWRA Table 3, Appalachian Highlands. Flood: not applicable here (documented fallback). NC Blue Ridge (outside SIR 2014-5030 urban coverage)",
 "provenance": {
  "candidates_pre_gate": 10,
  "constant": [
   "channel_width_score",
   "cso_density",
   "ej_index",
   "flood_q10_cfs",
   "land_ownership",
   "litter_complaint_density",
   "population_density",
   "superfund_score",
   "tri_facility_density"
  ],
  "gated_navigable": 0,
  "hard_gate_removed": 0,
  "n_parameters": 27,
  "parameters": {
   "bank_slope_score": {
    "kind": "real",
    "n_3dep_10m_fallback": 0,
    "n_nc_lidar_3_125ft": 10,
    "n_real": 10,
    "n_sites": 10,
    "source": "NC OneMap / NC DPS DEM03 statewide lidar-derived 3.125-ft (0.953 m) elevations (perpendicular 50 m transect; robust 5 m bank-rise metric); unavailable profiles use the region 10 m 3DEP DEM-gradient fallback",
    "source_mosaics": [
     "Madison_Ground_3ft"
    ]
   },
   "beach_dist_km": {
    "kind": "real",
    "n_real": 10,
    "n_sites": 10,
    "source": "haversine to region ref: Wrightsville Beach (shipped NC reference)"
   },
   "bridge_proximity_bonus": {
    "kind": "real",
    "n_real": 10,
    "n_sites": 10,
    "source": "FHWA/BTS NBI (NTAD), 50 m proximity"
   },
   "catchment_area_km2": {
    "kind": "real",
    "n_real": 10,
    "n_sites": 10,
    "source": "DEM flow accumulation (pipeline)"
   },
   "channel_width_score": {
    "kind": "real",
    "n_real": 10,
    "n_sites": 10,
    "source": "Bieger 2015 AHI width curve on DEM drainage area \u2192 shipped width curve"
   },
   "cso_density": {
    "kind": "real",
    "n_real": 10,
    "n_sites": 10,
    "source": "EPA ECHO open CSO/TCS outfall PF coordinates states=NC, Cauchy proximity"
   },
   "ej_index": {
    "kind": "real",
    "n_real": 10,
    "n_sites": 10,
    "source": "Census ACS C17002+B03002 two-component demographic index, percentile-ranked within region"
   },
   "estuary_dist_km": {
    "kind": "real",
    "n_real": 10,
    "n_sites": 10,
    "source": "haversine to region ref: Pamlico Sound (shipped NC reference)"
   },
   "flood_q10_cfs": {
    "impervious_fallback_reason": "StreamCat imperviousness unavailable; the existing regression-input fallback of 0.0% impervious was used and is disclosed here",
    "kind": "fallback",
    "n_impervious_fallback": 8,
    "n_real": 0,
    "n_sites": 10,
    "source": "flood regression not valid here (NC Blue Ridge (outside SIR 2014-5030 urban coverage)...) \u2014 NaN, dropped by constant-column handling"
   },
   "flow_velocity_ms": {
    "fallback_reason": "EROM/DEM continuity input unavailable; shipped 0.5 m/s default used",
    "kind": "real",
    "n_fallback": 8,
    "n_real": 2,
    "n_sites": 10,
    "source": "Manning (region DEM/D8) blended with EROM continuity (shipped M4 logic)"
   },
   "impervious_pct": {
    "fallback_reason": "NLDI/StreamCat did not return a snap-compatible catchment value; value remains null and is removed by constant-column handling",
    "kind": "real",
    "n_fallback": 8,
    "n_real": 2,
    "n_sites": 10,
    "source": "EPA StreamCat pctimp2019 (per NHDPlus watershed)"
   },
   "land_ownership": {
    "kind": "real",
    "n_fallback": 0,
    "n_real": 10,
    "n_sites": 10,
    "source": "NC OneMap statewide parcels (NC Parcels Transformer) ownname"
   },
   "litter_complaint_density": {
    "kind": "fallback",
    "n_real": 0,
    "n_sites": 10,
    "source": "no public machine-readable litter/illegal-dumping feed for this region"
   },
   "navigable_dist_m": {
    "kind": "real",
    "n_real": 10,
    "n_sites": 10,
    "source": "USACE/BTS NWN (NTAD): no navigable segment within this bbox (+2 km) \u2014 computed absence, gate passes all sites"
   },
   "npdes_points": {
    "kind": "real",
    "n_real": 10,
    "n_sites": 10,
    "source": "EPA ECHO active NPDES outfalls states=NC (types NPD/GPC/NGP; statuses ADC/EFF/EXP), per catchment"
   },
   "population_density": {
    "kind": "real",
    "n_real": 10,
    "n_sites": 10,
    "source": "Census ACS 2022 B01003 block groups (bbox, multi-county), area-weighted"
   },
   "protected_area_score": {
    "kind": "real",
    "n_real": 10,
    "n_sites": 10,
    "source": "USGS PAD-US 4.1 state GDB; states=NC; shipped designation-weighted proximity curve"
   },
   "road_access_score": {
    "kind": "real",
    "n_real": 10,
    "n_sites": 10,
    "source": "OSM drive network nearest-node distance"
   },
   "road_density_km_km2": {
    "kind": "real",
    "n_real": 10,
    "n_sites": 10,
    "source": "OSM drive network (osmnx, cached) clipped per catchment"
   },
   "runoff_coeff_C": {
    "fallback_reason": "source impervious_pct was unavailable; derived value remains null",
    "kind": "real",
    "n_fallback": 8,
    "n_real": 2,
    "n_sites": 10,
    "source": "derived from real impervious_pct (C=0.05+0.009*I)"
   },
   "seasonal_cv": {
    "fallback_reason": "NHDPlus monthly EROM was unavailable or failed the drainage-area snap guard; value remains null",
    "kind": "real",
    "n_fallback": 8,
    "n_real": 2,
    "n_sites": 10,
    "source": "CV of NHDPlus EROM monthly flows per COMID"
   },
   "stream_order": {
    "kind": "real",
    "n_real": 10,
    "n_sites": 10,
    "source": "DEM stream-network confluence heuristic (pipeline)"
   },
   "superfund_score": {
    "kind": "real",
    "n_real": 10,
    "n_sites": 10,
    "source": "EPA DataMap SEMS active sites states=NC (non-archived, georeferenced), shipped 500 m inverse-distance curve"
   },
   "tourism_amenity_density": {
    "kind": "real",
    "n_real": 10,
    "n_sites": 10,
    "source": "OSM leisure/tourism features per 2 km radius"
   },
   "tri_facility_density": {
    "kind": "real",
    "n_real": 10,
    "n_sites": 10,
    "source": "EPA DataMap TRI open facilities states=NC (preferred decimal or packed-DMS recovery), per catchment"
   },
   "usgs_mean_q_cfs": {
    "fallback_reason": "NHDPlus EROM was unavailable or failed the drainage-area snap guard; value remains null",
    "kind": "real",
    "n_fallback": 8,
    "n_real": 2,
    "n_sites": 10,
    "source": "NHDPlus EROM qe_ma per COMID (snap-guarded)"
   },
   "velocity_feasibility": {
    "fallback_reason": "derived from the shipped 0.5 m/s velocity fallback",
    "kind": "real",
    "n_fallback": 8,
    "n_real": 2,
    "n_sites": 10,
    "source": "shipped step curve on the computed velocity"
   },
   "velocity_transport_favorability": {
    "fallback_reason": "EROM/DEM continuity input unavailable; shipped 0.5 m/s default used",
    "kind": "derived",
    "n_fallback": 8,
    "n_real": 2,
    "n_sites": 10,
    "source": "scored form of flow_velocity_ms inside the Flow family \u2014 peaked Gaussian exp(-((v-0.9)/0.6)^2), model.json curves.velocity_transport_favorability; construct: transport/delivery favorability, deliberately distinct from velocity_feasibility (device operability)"
   },
   "water_intake_score": {
    "kind": "real",
    "n_real": 10,
    "n_sites": 10,
    "source": "NC OneMap / NC DEQ SWAP public water supply sources (source_typ='Surface Water'), shipped exp(-d/10km) curve"
   }
  },
  "stream_mask": {
   "buffer_m": 150.0,
   "pre_mask": 10,
   "removed": 0,
   "sources": [
    "osm-overpass (all waterway ways)",
    "usgs-nhdplus flowlines"
   ]
  },
  "varying": [
   "bank_slope_score",
   "beach_dist_km",
   "bridge_proximity_bonus",
   "catchment_area_km2",
   "estuary_dist_km",
   "flow_velocity_ms",
   "impervious_pct",
   "npdes_points",
   "protected_area_score",
   "road_access_score",
   "road_density_km_km2",
   "runoff_coeff_C",
   "seasonal_cv",
   "stream_order",
   "tourism_amenity_density",
   "usgs_mean_q_cfs",
   "velocity_feasibility",
   "water_intake_score"
  ]
 },
 "region": {
  "bbox": [
   -82.8628,
   35.8665,
   -82.7961,
   35.9206
  ],
  "beach_ref": {
   "label": "Wrightsville Beach (shipped NC reference)",
   "lat": 34.21,
   "lon": -77.79
  },
  "center": [
   -82.829421,
   35.893553
  ],
  "estuary_ref": {
   "label": "Pamlico Sound (shipped NC reference)",
   "lat": 35.05,
   "lon": -76.05
  },
  "flood_method": "none",
  "name": "Hot Springs, NC",
  "notes": "NC Blue Ridge (outside SIR 2014-5030 urban coverage)",
  "slug": "hot-springs",
  "state": "NC",
  "utm_epsg": 32617,
  "width_curve": {
   "a": 3.12,
   "b": 0.415,
   "code": "AHI",
   "source": "Bieger et al. 2015 JAWRA Table 3, Appalachian Highlands"
  }
 },
 "type": "FeatureCollection"
}
