{
 "features": [],
 "note": "GRIME region 'Indian Beach, NC' \u2014 real-data pipeline produced 0 deployable candidate sites. all 2 DEM candidate sites lie >150 m from any mapped OSM/NHD waterway (stream mask). This is an honest zero (the model targets small urban waterways and does not force sites where none qualify), not a failure.",
 "provenance": {
  "candidates_pre_gate": 0,
  "constant": [],
  "hard_gate_removed": 0,
  "n_parameters": 27,
  "parameters": {},
  "stream_mask": {
   "buffer_m": 150.0,
   "pre_mask": 2,
   "removed": 2,
   "sources": [
    "osm-overpass (all waterway ways)",
    "usgs-nhdplus flowlines"
   ]
  },
  "varying": [],
  "zero_reason": "all 2 DEM candidate sites lie >150 m from any mapped OSM/NHD waterway (stream mask)"
 },
 "region": {
  "bbox": [
   -76.9201,
   34.6675,
   -76.8762,
   34.7036
  ],
  "center": [
   -76.898158,
   34.685566
  ],
  "flood_method": "none",
  "name": "Indian Beach, NC",
  "notes": "NC Coastal Plain (SIR HR4 needs 24h-50y precip \u2014 not wired; flood fallback)",
  "slug": "indian-beach",
  "state": "NC",
  "utm_epsg": 32618,
  "width_curve": {
   "a": 2.22,
   "b": 0.363,
   "code": "APL",
   "source": "Bieger et al. 2015 JAWRA Table 3, Atlantic Plain"
  }
 },
 "type": "FeatureCollection"
}
