{
 "features": [
  {
   "geometry": {
    "coordinates": [
     -81.49053,
     36.41778
    ],
    "type": "Point"
   },
   "properties": {
    "accumulation": 41827.0,
    "bank_slope_deg": 18.86,
    "bank_slope_score": 0.5,
    "bank_slope_source": "nc-dps-lidar-dem03-cross-section",
    "beach_dist_km": 415.88,
    "bridge_proximity_bonus": 0.0,
    "catchment_area_km2": 4.1734,
    "channel_width_m": 5.64,
    "channel_width_score": 1.0,
    "composite_score": 70.0727,
    "cso_density": 0.0,
    "ej_index": 0.8876,
    "elevation_m": 876.6175,
    "estuary_dist_km": 513.99,
    "feasibility_score": 81.8182,
    "flood_q10_cfs": null,
    "flow_score": 42.3328,
    "flow_velocity_ms": 0.1891,
    "generation_score": 96.1457,
    "impact_score": 61.2434,
    "impervious_pct": 8.5,
    "land_ownership": 0.5,
    "lat": 36.4178,
    "litter_complaint_density": 0.0,
    "lon": -81.4905,
    "navigable_dist_m": null,
    "npdes_points": 0,
    "pixel_col": 60.0,
    "pixel_row": 286.0,
    "population_density": 137.7,
    "position_along": 0.5,
    "protected_area_score": 13.8036,
    "rank": 1,
    "road_access_m": 91.8,
    "road_access_score": 1.0,
    "road_density_km_km2": 3.743,
    "robustness_pct": 100.0,
    "runoff_coeff_C": 0.1265,
    "seasonal_cv": 0.7263,
    "segment_id": 4,
    "segment_length_m": 1721.4661,
    "stream_order": 1,
    "superfund_score": 0.0,
    "tourism_amenity_density": 1.1141,
    "tri_facility_density": 0.2396,
    "usgs_mean_q_cfs": 10.226,
    "velocity_feasibility": 0.7,
    "water_intake_score": 0.9887
   },
   "type": "Feature"
  },
  {
   "geometry": {
    "coordinates": [
     -81.443418,
     36.416446
    ],
    "type": "Point"
   },
   "properties": {
    "accumulation": 153187.0,
    "bank_slope_deg": 21.26,
    "bank_slope_score": 0.5,
    "bank_slope_source": "nc-dps-lidar-dem03-cross-section",
    "beach_dist_km": 412.36,
    "bridge_proximity_bonus": 0.0,
    "catchment_area_km2": 15.2847,
    "channel_width_m": 9.67,
    "channel_width_score": 1.0,
    "composite_score": 61.8731,
    "cso_density": 0.0,
    "ej_index": 0.4908,
    "elevation_m": 844.5125,
    "estuary_dist_km": 509.89,
    "feasibility_score": 81.8182,
    "flood_q10_cfs": null,
    "flow_score": 96.4145,
    "flow_velocity_ms": 0.2231,
    "generation_score": 19.409,
    "impact_score": 65.5801,
    "impervious_pct": 4.4,
    "land_ownership": 0.5,
    "lat": 36.4164,
    "litter_complaint_density": 0.0,
    "lon": -81.4434,
    "navigable_dist_m": null,
    "npdes_points": 0,
    "pixel_col": 484.0,
    "pixel_row": 305.0,
    "population_density": 75.5,
    "position_along": 0.5,
    "protected_area_score": 13.1828,
    "rank": 2,
    "road_access_m": 83.3,
    "road_access_score": 1.0,
    "road_density_km_km2": 1.549,
    "robustness_pct": 100.0,
    "runoff_coeff_C": 0.0896,
    "seasonal_cv": 0.6847,
    "segment_id": 3,
    "segment_length_m": 969.4599,
    "stream_order": 3,
    "superfund_score": 0.0,
    "tourism_amenity_density": 0.3979,
    "tri_facility_density": 0.0,
    "usgs_mean_q_cfs": 19.781,
    "velocity_feasibility": 0.7,
    "water_intake_score": 1.1368
   },
   "type": "Feature"
  },
  {
   "geometry": {
    "coordinates": [
     -81.459626,
     36.420946
    ],
    "type": "Point"
   },
   "properties": {
    "accumulation": 49245.0,
    "bank_slope_deg": 1.15,
    "bank_slope_score": 1.0,
    "bank_slope_source": "nc-dps-lidar-dem03-cross-section",
    "beach_dist_km": 413.83,
    "bridge_proximity_bonus": 0.0,
    "catchment_area_km2": 4.9136,
    "channel_width_m": 6.04,
    "channel_width_score": 1.0,
    "composite_score": 58.6294,
    "cso_density": 0.0,
    "ej_index": 0.403,
    "elevation_m": 871.1278,
    "estuary_dist_km": 511.43,
    "feasibility_score": 100.0,
    "flood_q10_cfs": null,
    "flow_score": 49.5754,
    "flow_velocity_ms": 0.174,
    "generation_score": 48.3163,
    "impact_score": 55.8021,
    "impervious_pct": 8.48,
    "land_ownership": 0.5,
    "lat": 36.4209,
    "litter_complaint_density": 0.0,
    "lon": -81.4596,
    "navigable_dist_m": null,
    "npdes_points": 0,
    "pixel_col": 339.0,
    "pixel_row": 253.0,
    "population_density": 82.2,
    "position_along": 0.5,
    "protected_area_score": 13.3084,
    "rank": 3,
    "road_access_m": 67.2,
    "road_access_score": 1.0,
    "road_density_km_km2": 5.02,
    "robustness_pct": 100.0,
    "runoff_coeff_C": 0.1263,
    "seasonal_cv": 0.7559,
    "segment_id": 2,
    "segment_length_m": 2660.8376,
    "stream_order": 3,
    "superfund_score": 0.0,
    "tourism_amenity_density": 1.2732,
    "tri_facility_density": 0.0,
    "usgs_mean_q_cfs": 6.756,
    "velocity_feasibility": 0.7,
    "water_intake_score": 1.0527
   },
   "type": "Feature"
  },
  {
   "geometry": {
    "coordinates": [
     -81.453637,
     36.42643
    ],
    "type": "Point"
   },
   "properties": {
    "accumulation": 43790.0,
    "bank_slope_deg": 16.79,
    "bank_slope_score": 0.5,
    "bank_slope_source": "nc-dps-lidar-dem03-cross-section",
    "beach_dist_km": 413.74,
    "bridge_proximity_bonus": 0.0,
    "catchment_area_km2": 4.3693,
    "channel_width_m": 5.75,
    "channel_width_score": 1.0,
    "composite_score": 39.658,
    "cso_density": 0.0,
    "ej_index": 0.2669,
    "elevation_m": 869.4821,
    "estuary_dist_km": 511.08,
    "feasibility_score": 68.8312,
    "flood_q10_cfs": null,
    "flow_score": 41.7923,
    "flow_velocity_ms": 0.2142,
    "generation_score": 18.6293,
    "impact_score": 44.3216,
    "impervious_pct": 1.6,
    "land_ownership": 0.5,
    "lat": 36.4264,
    "litter_complaint_density": 0.0,
    "lon": -81.4536,
    "navigable_dist_m": null,
    "npdes_points": 0,
    "pixel_col": 393.0,
    "pixel_row": 195.0,
    "population_density": 86.4,
    "position_along": 0.5,
    "protected_area_score": 13.0559,
    "rank": 4,
    "road_access_m": 413.3,
    "road_access_score": 0.8,
    "road_density_km_km2": 3.23,
    "robustness_pct": 100.0,
    "runoff_coeff_C": 0.0644,
    "seasonal_cv": 0.8007,
    "segment_id": 0,
    "segment_length_m": 2434.6425,
    "stream_order": 3,
    "superfund_score": 0.0,
    "tourism_amenity_density": 1.1141,
    "tri_facility_density": 0.0,
    "usgs_mean_q_cfs": 5.611,
    "velocity_feasibility": 0.7,
    "water_intake_score": 1.0405
   },
   "type": "Feature"
  },
  {
   "geometry": {
    "coordinates": [
     -81.496902,
     36.430161
    ],
    "type": "Point"
   },
   "properties": {
    "accumulation": 20253.0,
    "bank_slope_deg": 23.08,
    "bank_slope_score": 0.5,
    "bank_slope_source": "nc-dps-lidar-dem03-cross-section",
    "beach_dist_km": 417.14,
    "bridge_proximity_bonus": 0.0,
    "catchment_area_km2": 2.0208,
    "channel_width_m": 4.18,
    "channel_width_score": 1.0,
    "composite_score": 9.5988,
    "cso_density": 0.0,
    "ej_index": 0.8844,
    "elevation_m": 869.0132,
    "estuary_dist_km": 514.91,
    "feasibility_score": 0.0,
    "flood_q10_cfs": null,
    "flow_score": 0.0,
    "flow_velocity_ms": 0.0463,
    "generation_score": 3.3324,
    "impact_score": 28.6636,
    "impervious_pct": 0.52,
    "land_ownership": 0.5,
    "lat": 36.4302,
    "litter_complaint_density": 0.0,
    "lon": -81.4969,
    "navigable_dist_m": null,
    "npdes_points": 0,
    "pixel_col": 2.0,
    "pixel_row": 151.0,
    "population_density": 83.1,
    "position_along": 0.5,
    "protected_area_score": 13.4514,
    "rank": 5,
    "road_access_m": 1041.0,
    "road_access_score": 0.3,
    "road_density_km_km2": 0.0,
    "robustness_pct": 100.0,
    "runoff_coeff_C": 0.0547,
    "seasonal_cv": 0.8157,
    "segment_id": 1,
    "segment_length_m": 38.2417,
    "stream_order": 1,
    "superfund_score": 0.0,
    "tourism_amenity_density": 0.0,
    "tri_facility_density": 0.0,
    "usgs_mean_q_cfs": 4.347,
    "velocity_feasibility": 0.3,
    "water_intake_score": 0.9063
   },
   "type": "Feature"
  }
 ],
 "note": "GRIME region 'Jefferson, NC' \u2014 real-data pipeline (DEM\u2192streams\u2192candidates\u2192stream mask (sites confined to \u00b1150 m of mapped OSM/NHD waterways)\u2192region-appropriate real parameters\u2192shipped scoring, math unchanged). Width curve: Bieger et al. 2015 JAWRA Table 3, Appalachian Highlands. Flood: not applicable here (documented fallback). NC Blue Ridge (outside SIR 2014-5030 urban coverage)",
 "provenance": {
  "candidates_pre_gate": 5,
  "constant": [
   "bridge_proximity_bonus",
   "channel_width_score",
   "cso_density",
   "flood_q10_cfs",
   "land_ownership",
   "litter_complaint_density",
   "npdes_points",
   "superfund_score"
  ],
  "gated_navigable": 0,
  "hard_gate_removed": 0,
  "n_parameters": 27,
  "parameters": {
   "bank_slope_score": {
    "kind": "real",
    "n_3dep_10m_fallback": 0,
    "n_nc_lidar_3_125ft": 5,
    "n_real": 5,
    "n_sites": 5,
    "source": "NC OneMap / NC DPS DEM03 statewide lidar-derived 3.125-ft (0.953 m) elevations (perpendicular 50 m transect; robust 5 m bank-rise metric); unavailable profiles use the region 10 m 3DEP DEM-gradient fallback",
    "source_mosaics": [
     "Ashe_QL1_2025_03ft_CountywideRaster"
    ]
   },
   "beach_dist_km": {
    "kind": "real",
    "n_real": 5,
    "n_sites": 5,
    "source": "haversine to region ref: Wrightsville Beach (shipped NC reference)"
   },
   "bridge_proximity_bonus": {
    "kind": "real",
    "n_real": 5,
    "n_sites": 5,
    "source": "FHWA/BTS NBI (NTAD), 50 m proximity"
   },
   "catchment_area_km2": {
    "kind": "real",
    "n_real": 5,
    "n_sites": 5,
    "source": "DEM flow accumulation (pipeline)"
   },
   "channel_width_score": {
    "kind": "real",
    "n_real": 5,
    "n_sites": 5,
    "source": "Bieger 2015 AHI width curve on DEM drainage area \u2192 shipped width curve"
   },
   "cso_density": {
    "kind": "real",
    "n_real": 5,
    "n_sites": 5,
    "source": "EPA ECHO open CSO/TCS outfall PF coordinates states=NC, Cauchy proximity"
   },
   "ej_index": {
    "kind": "real",
    "n_real": 5,
    "n_sites": 5,
    "source": "Census ACS C17002+B03002 two-component demographic index, percentile-ranked within region"
   },
   "estuary_dist_km": {
    "kind": "real",
    "n_real": 5,
    "n_sites": 5,
    "source": "haversine to region ref: Pamlico Sound (shipped NC reference)"
   },
   "flood_q10_cfs": {
    "kind": "fallback",
    "n_real": 0,
    "n_sites": 5,
    "source": "flood regression not valid here (NC Blue Ridge (outside SIR 2014-5030 urban coverage)...) \u2014 NaN, dropped by constant-column handling"
   },
   "flow_velocity_ms": {
    "kind": "real",
    "n_fallback": 0,
    "n_real": 5,
    "n_sites": 5,
    "source": "Manning (region DEM/D8) blended with EROM continuity (shipped M4 logic)"
   },
   "impervious_pct": {
    "kind": "real",
    "n_real": 5,
    "n_sites": 5,
    "source": "EPA StreamCat pctimp2019 (per NHDPlus watershed)"
   },
   "land_ownership": {
    "fallback_reason": "no containing parcel owner returned; shipped unknown ownership 0.5 used",
    "kind": "real",
    "n_fallback": 1,
    "n_real": 4,
    "n_sites": 5,
    "source": "NC OneMap statewide parcels (NC Parcels Transformer) ownname"
   },
   "litter_complaint_density": {
    "kind": "fallback",
    "n_real": 0,
    "n_sites": 5,
    "source": "no public machine-readable litter/illegal-dumping feed for this region"
   },
   "navigable_dist_m": {
    "kind": "real",
    "n_real": 5,
    "n_sites": 5,
    "source": "USACE/BTS NWN (NTAD): no navigable segment within this bbox (+2 km) \u2014 computed absence, gate passes all sites"
   },
   "npdes_points": {
    "kind": "real",
    "n_real": 5,
    "n_sites": 5,
    "source": "EPA ECHO active NPDES outfalls states=NC (types NPD/GPC/NGP; statuses ADC/EFF/EXP), per catchment"
   },
   "population_density": {
    "kind": "real",
    "n_real": 5,
    "n_sites": 5,
    "source": "Census ACS 2022 B01003 block groups (bbox, multi-county), area-weighted"
   },
   "protected_area_score": {
    "kind": "real",
    "n_real": 5,
    "n_sites": 5,
    "source": "USGS PAD-US 4.1 state GDB; states=NC; shipped designation-weighted proximity curve"
   },
   "road_access_score": {
    "kind": "real",
    "n_real": 5,
    "n_sites": 5,
    "source": "OSM drive network nearest-node distance"
   },
   "road_density_km_km2": {
    "kind": "real",
    "n_real": 5,
    "n_sites": 5,
    "source": "OSM drive network (osmnx, cached) clipped per catchment"
   },
   "runoff_coeff_C": {
    "kind": "real",
    "n_real": 5,
    "n_sites": 5,
    "source": "derived from real impervious_pct (C=0.05+0.009*I)"
   },
   "seasonal_cv": {
    "kind": "real",
    "n_real": 5,
    "n_sites": 5,
    "source": "CV of NHDPlus EROM monthly flows per COMID"
   },
   "stream_order": {
    "kind": "real",
    "n_real": 5,
    "n_sites": 5,
    "source": "DEM stream-network confluence heuristic (pipeline)"
   },
   "superfund_score": {
    "kind": "real",
    "n_real": 5,
    "n_sites": 5,
    "source": "EPA DataMap SEMS active sites states=NC (non-archived, georeferenced), shipped 500 m inverse-distance curve"
   },
   "tourism_amenity_density": {
    "kind": "real",
    "n_real": 5,
    "n_sites": 5,
    "source": "OSM leisure/tourism features per 2 km radius"
   },
   "tri_facility_density": {
    "kind": "real",
    "n_real": 5,
    "n_sites": 5,
    "source": "EPA DataMap TRI open facilities states=NC (preferred decimal or packed-DMS recovery), per catchment"
   },
   "usgs_mean_q_cfs": {
    "kind": "real",
    "n_real": 5,
    "n_sites": 5,
    "source": "NHDPlus EROM qe_ma per COMID (snap-guarded)"
   },
   "velocity_feasibility": {
    "kind": "real",
    "n_fallback": 0,
    "n_real": 5,
    "n_sites": 5,
    "source": "shipped step curve on the computed velocity"
   },
   "velocity_transport_favorability": {
    "kind": "derived",
    "n_real": 5,
    "n_sites": 5,
    "source": "scored form of flow_velocity_ms inside the Flow family \u2014 peaked Gaussian exp(-((v-0.9)/0.6)^2), model.json curves.velocity_transport_favorability; construct: transport/delivery favorability, deliberately distinct from velocity_feasibility (device operability)"
   },
   "water_intake_score": {
    "kind": "real",
    "n_real": 5,
    "n_sites": 5,
    "source": "NC OneMap / NC DEQ SWAP public water supply sources (source_typ='Surface Water'), shipped exp(-d/10km) curve"
   }
  },
  "stream_mask": {
   "buffer_m": 150.0,
   "pre_mask": 5,
   "removed": 0,
   "sources": [
    "osm-overpass (all waterway ways)",
    "usgs-nhdplus flowlines"
   ]
  },
  "varying": [
   "bank_slope_score",
   "beach_dist_km",
   "catchment_area_km2",
   "ej_index",
   "estuary_dist_km",
   "flow_velocity_ms",
   "impervious_pct",
   "population_density",
   "protected_area_score",
   "road_access_score",
   "road_density_km_km2",
   "runoff_coeff_C",
   "seasonal_cv",
   "stream_order",
   "tourism_amenity_density",
   "tri_facility_density",
   "usgs_mean_q_cfs",
   "velocity_feasibility",
   "water_intake_score"
  ]
 },
 "region": {
  "bbox": [
   -81.4971,
   36.3974,
   -81.4394,
   36.4437
  ],
  "beach_ref": {
   "label": "Wrightsville Beach (shipped NC reference)",
   "lat": 34.21,
   "lon": -77.79
  },
  "center": [
   -81.468261,
   36.420551
  ],
  "estuary_ref": {
   "label": "Pamlico Sound (shipped NC reference)",
   "lat": 35.05,
   "lon": -76.05
  },
  "flood_method": "none",
  "name": "Jefferson, NC",
  "notes": "NC Blue Ridge (outside SIR 2014-5030 urban coverage)",
  "slug": "jefferson",
  "state": "NC",
  "utm_epsg": 32617,
  "width_curve": {
   "a": 3.12,
   "b": 0.415,
   "code": "AHI",
   "source": "Bieger et al. 2015 JAWRA Table 3, Appalachian Highlands"
  }
 },
 "type": "FeatureCollection"
}
