{
 "features": [
  {
   "geometry": {
    "coordinates": [
     -77.953216,
     34.954285
    ],
    "type": "Point"
   },
   "properties": {
    "accumulation": 47454.0,
    "bank_slope_deg": 1.12,
    "bank_slope_score": 1.0,
    "bank_slope_source": "nc-dps-lidar-dem03-cross-section",
    "beach_dist_km": 84.1,
    "bridge_proximity_bonus": 0.0,
    "catchment_area_km2": 4.7383,
    "channel_width_m": 3.9,
    "channel_width_score": 1.0,
    "composite_score": 59.6073,
    "cso_density": 0.0,
    "ej_index": 0.4132,
    "elevation_m": 23.495,
    "estuary_dist_km": 173.67,
    "feasibility_score": 55.5556,
    "flood_q10_cfs": 304.56,
    "flow_score": 32.1392,
    "flow_velocity_ms": 0.0821,
    "generation_score": 100.0,
    "impact_score": 44.1304,
    "impervious_pct": 3.21,
    "land_ownership": 0.5,
    "lat": 34.9543,
    "litter_complaint_density": 0.0,
    "lon": -77.9532,
    "navigable_dist_m": null,
    "npdes_points": 1,
    "pixel_col": 383.0,
    "pixel_row": 330.0,
    "population_density": 73.0,
    "position_along": 0.5,
    "protected_area_score": 2.2864,
    "rank": 1,
    "road_access_m": 127.9,
    "road_access_score": 1.0,
    "road_density_km_km2": 3.318,
    "robustness_pct": 100.0,
    "runoff_coeff_C": 0.0789,
    "seasonal_cv": 0.4686,
    "segment_id": 4,
    "segment_length_m": 2929.4081,
    "stream_order": 1,
    "superfund_score": 0.0,
    "tourism_amenity_density": 1.0345,
    "tri_facility_density": 0.0,
    "usgs_mean_q_cfs": 3.856,
    "velocity_feasibility": 0.7,
    "water_intake_score": 0.0322
   },
   "type": "Feature"
  },
  {
   "geometry": {
    "coordinates": [
     -77.968877,
     34.967413
    ],
    "type": "Point"
   },
   "properties": {
    "accumulation": 60933.0,
    "bank_slope_deg": 2.21,
    "bank_slope_score": 1.0,
    "bank_slope_source": "nc-dps-lidar-dem03-cross-section",
    "beach_dist_km": 85.8,
    "bridge_proximity_bonus": 0.0,
    "catchment_area_km2": 6.0841,
    "channel_width_m": 4.28,
    "channel_width_score": 1.0,
    "composite_score": 48.7652,
    "cso_density": 0.0,
    "ej_index": 0.5184,
    "elevation_m": 20.7697,
    "estuary_dist_km": 175.0,
    "feasibility_score": 0.0,
    "flood_q10_cfs": 342.31,
    "flow_score": 74.7821,
    "flow_velocity_ms": 0.0862,
    "generation_score": 70.937,
    "impact_score": 29.2952,
    "impervious_pct": 1.78,
    "land_ownership": 0.5,
    "lat": 34.9674,
    "litter_complaint_density": 0.0,
    "lon": -77.9689,
    "navigable_dist_m": null,
    "npdes_points": 1,
    "pixel_col": 244.0,
    "pixel_row": 180.0,
    "population_density": 66.1,
    "position_along": 0.5,
    "protected_area_score": 1.8759,
    "rank": 2,
    "road_access_m": 248.4,
    "road_access_score": 0.8,
    "road_density_km_km2": 2.817,
    "robustness_pct": 100.0,
    "runoff_coeff_C": 0.066,
    "seasonal_cv": 0.3905,
    "segment_id": 3,
    "segment_length_m": 1528.0878,
    "stream_order": 3,
    "superfund_score": 0.0,
    "tourism_amenity_density": 1.0345,
    "tri_facility_density": 0.0,
    "usgs_mean_q_cfs": 27.167,
    "velocity_feasibility": 0.7,
    "water_intake_score": 0.0345
   },
   "type": "Feature"
  },
  {
   "geometry": {
    "coordinates": [
     -77.974366,
     34.965181
    ],
    "type": "Point"
   },
   "properties": {
    "accumulation": 20086.0,
    "bank_slope_deg": 3.12,
    "bank_slope_score": 1.0,
    "bank_slope_source": "nc-dps-lidar-dem03-cross-section",
    "beach_dist_km": 85.65,
    "bridge_proximity_bonus": 0.0,
    "catchment_area_km2": 2.0056,
    "channel_width_m": 2.86,
    "channel_width_score": 1.0,
    "composite_score": 44.3212,
    "cso_density": 0.0,
    "ej_index": 0.5334,
    "elevation_m": 21.3743,
    "estuary_dist_km": 175.52,
    "feasibility_score": 100.0,
    "flood_q10_cfs": 168.68,
    "flow_score": 40.0,
    "flow_velocity_ms": 0.5,
    "generation_score": 31.2538,
    "impact_score": 33.15,
    "impervious_pct": null,
    "land_ownership": 0.5,
    "lat": 34.9652,
    "litter_complaint_density": 0.0,
    "lon": -77.9744,
    "navigable_dist_m": null,
    "npdes_points": 0,
    "pixel_col": 193.0,
    "pixel_row": 202.0,
    "population_density": 65.7,
    "position_along": 0.5,
    "protected_area_score": 1.8746,
    "rank": 3,
    "road_access_m": 175.5,
    "road_access_score": 1.0,
    "road_density_km_km2": 2.761,
    "robustness_pct": 100.0,
    "runoff_coeff_C": null,
    "seasonal_cv": null,
    "segment_id": 2,
    "segment_length_m": 192.9917,
    "stream_order": 3,
    "superfund_score": 0.0,
    "tourism_amenity_density": 1.2732,
    "tri_facility_density": 0.0,
    "usgs_mean_q_cfs": null,
    "velocity_feasibility": 1.0,
    "water_intake_score": 0.0331
   },
   "type": "Feature"
  },
  {
   "geometry": {
    "coordinates": [
     -77.951549,
     34.968962
    ],
    "type": "Point"
   },
   "properties": {
    "accumulation": 20222.0,
    "bank_slope_deg": 2.7,
    "bank_slope_score": 1.0,
    "bank_slope_source": "nc-dps-lidar-dem03-cross-section",
    "beach_dist_km": 85.68,
    "bridge_proximity_bonus": 0.0,
    "catchment_area_km2": 2.0192,
    "channel_width_m": 2.87,
    "channel_width_score": 1.0,
    "composite_score": 36.788,
    "cso_density": 0.0,
    "ej_index": 0.4355,
    "elevation_m": 19.5654,
    "estuary_dist_km": 173.42,
    "feasibility_score": 44.4444,
    "flood_q10_cfs": 169.37,
    "flow_score": 26.1157,
    "flow_velocity_ms": 0.5,
    "generation_score": 29.1728,
    "impact_score": 49.4685,
    "impervious_pct": null,
    "land_ownership": 0.5,
    "lat": 34.969,
    "litter_complaint_density": 0.0,
    "lon": -77.9515,
    "navigable_dist_m": null,
    "npdes_points": 0,
    "pixel_col": 403.0,
    "pixel_row": 168.0,
    "population_density": 68.8,
    "position_along": 0.5,
    "protected_area_score": 2.0303,
    "rank": 4,
    "road_access_m": 394.8,
    "road_access_score": 0.8,
    "road_density_km_km2": 2.378,
    "robustness_pct": 100.0,
    "runoff_coeff_C": null,
    "seasonal_cv": null,
    "segment_id": 0,
    "segment_length_m": 130.6123,
    "stream_order": 1,
    "superfund_score": 0.0,
    "tourism_amenity_density": 1.0345,
    "tri_facility_density": 0.0,
    "usgs_mean_q_cfs": null,
    "velocity_feasibility": 1.0,
    "water_intake_score": 0.0372
   },
   "type": "Feature"
  },
  {
   "geometry": {
    "coordinates": [
     -77.978866,
     34.966098
    ],
    "type": "Point"
   },
   "properties": {
    "accumulation": 27814.0,
    "bank_slope_deg": 1.06,
    "bank_slope_score": 1.0,
    "bank_slope_source": "nc-dps-lidar-dem03-cross-section",
    "beach_dist_km": 85.83,
    "bridge_proximity_bonus": 0.0,
    "catchment_area_km2": 2.7772,
    "channel_width_m": 3.22,
    "channel_width_score": 1.0,
    "composite_score": 27.512,
    "cso_density": 0.0,
    "ej_index": 0.579,
    "elevation_m": 21.6722,
    "estuary_dist_km": 175.92,
    "feasibility_score": 44.4444,
    "flood_q10_cfs": 205.09,
    "flow_score": 46.3412,
    "flow_velocity_ms": 0.5,
    "generation_score": 0.0,
    "impact_score": 30.8667,
    "impervious_pct": null,
    "land_ownership": 0.5,
    "lat": 34.9661,
    "litter_complaint_density": 0.0,
    "lon": -77.9789,
    "navigable_dist_m": null,
    "npdes_points": 0,
    "pixel_col": 152.0,
    "pixel_row": 192.0,
    "population_density": 44.4,
    "position_along": 0.5,
    "protected_area_score": 1.9026,
    "rank": 5,
    "road_access_m": 356.0,
    "road_access_score": 0.8,
    "road_density_km_km2": 2.121,
    "robustness_pct": 100.0,
    "runoff_coeff_C": null,
    "seasonal_cv": null,
    "segment_id": 1,
    "segment_length_m": 1231.0323,
    "stream_order": 3,
    "superfund_score": 0.0,
    "tourism_amenity_density": 1.1937,
    "tri_facility_density": 0.0,
    "usgs_mean_q_cfs": null,
    "velocity_feasibility": 1.0,
    "water_intake_score": 0.0328
   },
   "type": "Feature"
  }
 ],
 "note": "GRIME region 'Kenansville, NC' \u2014 real-data pipeline (DEM\u2192streams\u2192candidates\u2192stream mask (sites confined to \u00b1150 m of mapped OSM/NHD waterways)\u2192region-appropriate real parameters\u2192shipped scoring, math unchanged). Width curve: Bieger et al. 2015 JAWRA Table 3, Atlantic Plain. Flood: SIR 2014-5030 HR4 (I24H50Y: NOAA Atlas 14). NC Coastal Plain (SIR 2014-5030 HR4; I24H50Y from NOAA Atlas 14 at region center)",
 "provenance": {
  "candidates_pre_gate": 5,
  "constant": [
   "bank_slope_score",
   "bridge_proximity_bonus",
   "channel_width_score",
   "cso_density",
   "land_ownership",
   "litter_complaint_density",
   "superfund_score",
   "tri_facility_density"
  ],
  "gated_navigable": 0,
  "hard_gate_removed": 0,
  "n_parameters": 27,
  "parameters": {
   "bank_slope_score": {
    "kind": "real",
    "n_3dep_10m_fallback": 0,
    "n_nc_lidar_3_125ft": 5,
    "n_real": 5,
    "n_sites": 5,
    "source": "NC OneMap / NC DPS DEM03 statewide lidar-derived 3.125-ft (0.953 m) elevations (perpendicular 50 m transect; robust 5 m bank-rise metric); unavailable profiles use the region 10 m 3DEP DEM-gradient fallback",
    "source_mosaics": [
     "Duplin_Ground_3ft"
    ]
   },
   "beach_dist_km": {
    "kind": "real",
    "n_real": 5,
    "n_sites": 5,
    "source": "haversine to region ref: Wrightsville Beach (shipped NC reference)"
   },
   "bridge_proximity_bonus": {
    "kind": "real",
    "n_real": 5,
    "n_sites": 5,
    "source": "FHWA/BTS NBI (NTAD), 50 m proximity"
   },
   "catchment_area_km2": {
    "kind": "real",
    "n_real": 5,
    "n_sites": 5,
    "source": "DEM flow accumulation (pipeline)"
   },
   "channel_width_score": {
    "kind": "real",
    "n_real": 5,
    "n_sites": 5,
    "source": "Bieger 2015 APL width curve on DEM drainage area \u2192 shipped width curve"
   },
   "cso_density": {
    "kind": "real",
    "n_real": 5,
    "n_sites": 5,
    "source": "EPA ECHO open CSO/TCS outfall PF coordinates states=NC, Cauchy proximity"
   },
   "ej_index": {
    "kind": "real",
    "n_real": 5,
    "n_sites": 5,
    "source": "Census ACS C17002+B03002 two-component demographic index, percentile-ranked within region"
   },
   "estuary_dist_km": {
    "kind": "real",
    "n_real": 5,
    "n_sites": 5,
    "source": "haversine to region ref: Pamlico Sound (shipped NC reference)"
   },
   "flood_q10_cfs": {
    "impervious_fallback_reason": "StreamCat imperviousness unavailable; the existing regression-input fallback of 0.0% impervious was used and is disclosed here",
    "kind": "real",
    "n_impervious_fallback": 3,
    "n_real": 5,
    "n_sites": 5,
    "source": "USGS SIR 2014-5030 Table 7 HR4 (NC Coastal Plain; I24H50Y from NOAA Atlas 14 at region center)"
   },
   "flow_velocity_ms": {
    "fallback_reason": "EROM/DEM continuity input unavailable; shipped 0.5 m/s default used",
    "kind": "real",
    "n_fallback": 3,
    "n_real": 2,
    "n_sites": 5,
    "source": "Manning (region DEM/D8) blended with EROM continuity (shipped M4 logic)"
   },
   "impervious_pct": {
    "fallback_reason": "NLDI/StreamCat did not return a snap-compatible catchment value; value remains null and is removed by constant-column handling",
    "kind": "real",
    "n_fallback": 3,
    "n_real": 2,
    "n_sites": 5,
    "source": "EPA StreamCat pctimp2019 (per NHDPlus watershed)"
   },
   "land_ownership": {
    "kind": "real",
    "n_fallback": 0,
    "n_real": 5,
    "n_sites": 5,
    "source": "NC OneMap statewide parcels (NC Parcels Transformer) ownname"
   },
   "litter_complaint_density": {
    "kind": "fallback",
    "n_real": 0,
    "n_sites": 5,
    "source": "no public machine-readable litter/illegal-dumping feed for this region"
   },
   "navigable_dist_m": {
    "kind": "real",
    "n_real": 5,
    "n_sites": 5,
    "source": "USACE/BTS NWN (NTAD): no navigable segment within this bbox (+2 km) \u2014 computed absence, gate passes all sites"
   },
   "npdes_points": {
    "kind": "real",
    "n_real": 5,
    "n_sites": 5,
    "source": "EPA ECHO active NPDES outfalls states=NC (types NPD/GPC/NGP; statuses ADC/EFF/EXP), per catchment"
   },
   "population_density": {
    "kind": "real",
    "n_real": 5,
    "n_sites": 5,
    "source": "Census ACS 2022 B01003 block groups (bbox, multi-county), area-weighted"
   },
   "protected_area_score": {
    "kind": "real",
    "n_real": 5,
    "n_sites": 5,
    "source": "USGS PAD-US 4.1 state GDB; states=NC; shipped designation-weighted proximity curve"
   },
   "road_access_score": {
    "kind": "real",
    "n_real": 5,
    "n_sites": 5,
    "source": "OSM drive network nearest-node distance"
   },
   "road_density_km_km2": {
    "kind": "real",
    "n_real": 5,
    "n_sites": 5,
    "source": "OSM drive network (osmnx, cached) clipped per catchment"
   },
   "runoff_coeff_C": {
    "fallback_reason": "source impervious_pct was unavailable; derived value remains null",
    "kind": "real",
    "n_fallback": 3,
    "n_real": 2,
    "n_sites": 5,
    "source": "derived from real impervious_pct (C=0.05+0.009*I)"
   },
   "seasonal_cv": {
    "fallback_reason": "NHDPlus monthly EROM was unavailable or failed the drainage-area snap guard; value remains null",
    "kind": "real",
    "n_fallback": 3,
    "n_real": 2,
    "n_sites": 5,
    "source": "CV of NHDPlus EROM monthly flows per COMID"
   },
   "stream_order": {
    "kind": "real",
    "n_real": 5,
    "n_sites": 5,
    "source": "DEM stream-network confluence heuristic (pipeline)"
   },
   "superfund_score": {
    "kind": "real",
    "n_real": 5,
    "n_sites": 5,
    "source": "EPA DataMap SEMS active sites states=NC (non-archived, georeferenced), shipped 500 m inverse-distance curve"
   },
   "tourism_amenity_density": {
    "kind": "real",
    "n_real": 5,
    "n_sites": 5,
    "source": "OSM leisure/tourism features per 2 km radius"
   },
   "tri_facility_density": {
    "kind": "real",
    "n_real": 5,
    "n_sites": 5,
    "source": "EPA DataMap TRI open facilities states=NC (preferred decimal or packed-DMS recovery), per catchment"
   },
   "usgs_mean_q_cfs": {
    "fallback_reason": "NHDPlus EROM was unavailable or failed the drainage-area snap guard; value remains null",
    "kind": "real",
    "n_fallback": 3,
    "n_real": 2,
    "n_sites": 5,
    "source": "NHDPlus EROM qe_ma per COMID (snap-guarded)"
   },
   "velocity_feasibility": {
    "fallback_reason": "derived from the shipped 0.5 m/s velocity fallback",
    "kind": "real",
    "n_fallback": 3,
    "n_real": 2,
    "n_sites": 5,
    "source": "shipped step curve on the computed velocity"
   },
   "velocity_transport_favorability": {
    "fallback_reason": "EROM/DEM continuity input unavailable; shipped 0.5 m/s default used",
    "kind": "derived",
    "n_fallback": 3,
    "n_real": 2,
    "n_sites": 5,
    "source": "scored form of flow_velocity_ms inside the Flow family \u2014 peaked Gaussian exp(-((v-0.9)/0.6)^2), model.json curves.velocity_transport_favorability; construct: transport/delivery favorability, deliberately distinct from velocity_feasibility (device operability)"
   },
   "water_intake_score": {
    "kind": "real",
    "n_real": 5,
    "n_sites": 5,
    "source": "NC OneMap / NC DEQ SWAP public water supply sources (source_typ='Surface Water'), shipped exp(-d/10km) curve"
   }
  },
  "stream_mask": {
   "buffer_m": 150.0,
   "pre_mask": 5,
   "removed": 0,
   "sources": [
    "osm-overpass (all waterway ways)",
    "usgs-nhdplus flowlines"
   ]
  },
  "varying": [
   "beach_dist_km",
   "catchment_area_km2",
   "ej_index",
   "estuary_dist_km",
   "flood_q10_cfs",
   "flow_velocity_ms",
   "impervious_pct",
   "npdes_points",
   "population_density",
   "protected_area_score",
   "road_access_score",
   "road_density_km_km2",
   "runoff_coeff_C",
   "seasonal_cv",
   "stream_order",
   "tourism_amenity_density",
   "usgs_mean_q_cfs",
   "velocity_feasibility",
   "water_intake_score"
  ]
 },
 "region": {
  "bbox": [
   -77.9943,
   34.9366,
   -77.9377,
   34.983
  ],
  "beach_ref": {
   "label": "Wrightsville Beach (shipped NC reference)",
   "lat": 34.21,
   "lon": -77.79
  },
  "center": [
   -77.965993,
   34.959836
  ],
  "estuary_ref": {
   "label": "Pamlico Sound (shipped NC reference)",
   "lat": 35.05,
   "lon": -76.05
  },
  "flood_method": "sir2014_hr4",
  "name": "Kenansville, NC",
  "notes": "NC Coastal Plain (SIR 2014-5030 HR4; I24H50Y from NOAA Atlas 14 at region center)",
  "slug": "kenansville",
  "state": "NC",
  "utm_epsg": 32618,
  "width_curve": {
   "a": 2.22,
   "b": 0.363,
   "code": "APL",
   "source": "Bieger et al. 2015 JAWRA Table 3, Atlantic Plain"
  }
 },
 "type": "FeatureCollection"
}
