{
 "features": [
  {
   "geometry": {
    "coordinates": [
     -81.607847,
     35.361125
    ],
    "type": "Point"
   },
   "properties": {
    "accumulation": 28093.0,
    "bank_slope_deg": 9.76,
    "bank_slope_score": 1.0,
    "bank_slope_source": "nc-dps-lidar-dem03-cross-section",
    "beach_dist_km": 371.38,
    "bridge_proximity_bonus": 0.0,
    "catchment_area_km2": 2.8019,
    "channel_width_m": 4.78,
    "channel_width_score": 1.0,
    "composite_score": 67.7153,
    "cso_density": 0.0,
    "ej_index": 0.8722,
    "elevation_m": 254.6514,
    "estuary_dist_km": 506.08,
    "feasibility_score": 63.6364,
    "flood_q10_cfs": 418.16,
    "flow_score": 14.0374,
    "flow_velocity_ms": 0.1152,
    "generation_score": 97.4432,
    "impact_score": 84.7585,
    "impervious_pct": 1.93,
    "land_ownership": 0.5,
    "lat": 35.3611,
    "litter_complaint_density": 0.0,
    "lon": -81.6078,
    "navigable_dist_m": null,
    "npdes_points": 0,
    "pixel_col": 348.0,
    "pixel_row": 250.0,
    "population_density": 62.9,
    "position_along": 0.25,
    "protected_area_score": 5.5316,
    "rank": 1,
    "road_access_m": 325.4,
    "road_access_score": 0.8,
    "road_density_km_km2": 1.721,
    "robustness_pct": 100.0,
    "runoff_coeff_C": 0.0674,
    "seasonal_cv": 0.4405,
    "segment_id": 1,
    "segment_length_m": 3651.853,
    "stream_order": 1,
    "superfund_score": 0.0048,
    "tourism_amenity_density": 0.0796,
    "tri_facility_density": 0.0,
    "usgs_mean_q_cfs": 4.322,
    "velocity_feasibility": 0.7,
    "water_intake_score": 1.9835
   },
   "type": "Feature"
  },
  {
   "geometry": {
    "coordinates": [
     -81.621174,
     35.350243
    ],
    "type": "Point"
   },
   "properties": {
    "accumulation": 95728.0,
    "bank_slope_deg": 24.77,
    "bank_slope_score": 0.5,
    "bank_slope_source": "nc-dps-lidar-dem03-cross-section",
    "beach_dist_km": 372.13,
    "bridge_proximity_bonus": 0.0,
    "catchment_area_km2": 9.5478,
    "channel_width_m": 7.96,
    "channel_width_score": 1.0,
    "composite_score": 63.2618,
    "cso_density": 0.0,
    "ej_index": 0.8766,
    "elevation_m": 243.1813,
    "estuary_dist_km": 507.24,
    "feasibility_score": 52.2727,
    "flood_q10_cfs": 1016.03,
    "flow_score": 74.05,
    "flow_velocity_ms": 0.0515,
    "generation_score": 82.1501,
    "impact_score": 40.878,
    "impervious_pct": 1.37,
    "land_ownership": 0.5,
    "lat": 35.3502,
    "litter_complaint_density": 0.0,
    "lon": -81.6212,
    "navigable_dist_m": null,
    "npdes_points": 0,
    "pixel_col": 228.0,
    "pixel_row": 370.0,
    "population_density": 63.2,
    "position_along": 0.5,
    "protected_area_score": 5.2087,
    "rank": 2,
    "road_access_m": 300.9,
    "road_access_score": 0.8,
    "road_density_km_km2": 1.353,
    "robustness_pct": 100.0,
    "runoff_coeff_C": 0.0623,
    "seasonal_cv": 0.4183,
    "segment_id": 3,
    "segment_length_m": 2771.5855,
    "stream_order": 3,
    "superfund_score": 0.0054,
    "tourism_amenity_density": 0.0,
    "tri_facility_density": 0.0,
    "usgs_mean_q_cfs": 20.535,
    "velocity_feasibility": 0.7,
    "water_intake_score": 1.815
   },
   "type": "Feature"
  },
  {
   "geometry": {
    "coordinates": [
     -81.6037,
     35.347826
    ],
    "type": "Point"
   },
   "properties": {
    "accumulation": 57559.0,
    "bank_slope_deg": 20.92,
    "bank_slope_score": 0.5,
    "bank_slope_source": "nc-dps-lidar-dem03-cross-section",
    "beach_dist_km": 370.54,
    "bridge_proximity_bonus": 0.0,
    "catchment_area_km2": 5.7408,
    "channel_width_m": 6.44,
    "channel_width_score": 1.0,
    "composite_score": 46.1675,
    "cso_density": 0.0,
    "ej_index": 0.8057,
    "elevation_m": 242.8425,
    "estuary_dist_km": 505.65,
    "feasibility_score": 34.0909,
    "flood_q10_cfs": 717.95,
    "flow_score": 28.3783,
    "flow_velocity_ms": 0.1313,
    "generation_score": 58.9352,
    "impact_score": 54.2624,
    "impervious_pct": 1.93,
    "land_ownership": 0.5,
    "lat": 35.3478,
    "litter_complaint_density": 0.0,
    "lon": -81.6037,
    "navigable_dist_m": null,
    "npdes_points": 0,
    "pixel_col": 386.0,
    "pixel_row": 398.0,
    "population_density": 59.3,
    "position_along": 0.75,
    "protected_area_score": 5.1599,
    "rank": 3,
    "road_access_m": 664.4,
    "road_access_score": 0.6,
    "road_density_km_km2": 1.221,
    "robustness_pct": 100.0,
    "runoff_coeff_C": 0.0674,
    "seasonal_cv": 0.4405,
    "segment_id": 1,
    "segment_length_m": 3651.853,
    "stream_order": 1,
    "superfund_score": 0.0077,
    "tourism_amenity_density": 0.0,
    "tri_facility_density": 0.0,
    "usgs_mean_q_cfs": 4.322,
    "velocity_feasibility": 0.7,
    "water_intake_score": 1.9658
   },
   "type": "Feature"
  },
  {
   "geometry": {
    "coordinates": [
     -81.630632,
     35.360257
    ],
    "type": "Point"
   },
   "properties": {
    "accumulation": 24685.0,
    "bank_slope_deg": 20.28,
    "bank_slope_score": 0.5,
    "bank_slope_source": "nc-dps-lidar-dem03-cross-section",
    "beach_dist_km": 373.3,
    "bridge_proximity_bonus": 0.0,
    "catchment_area_km2": 2.462,
    "channel_width_m": 4.53,
    "channel_width_score": 1.0,
    "composite_score": 44.3152,
    "cso_density": 0.0,
    "ej_index": 0.8766,
    "elevation_m": 251.2365,
    "estuary_dist_km": 508.14,
    "feasibility_score": 88.6364,
    "flood_q10_cfs": 366.73,
    "flow_score": 40.0,
    "flow_velocity_ms": 0.5,
    "generation_score": 37.5,
    "impact_score": 32.5657,
    "impervious_pct": null,
    "land_ownership": 0.5,
    "lat": 35.3603,
    "litter_complaint_density": 0.0,
    "lon": -81.6306,
    "navigable_dist_m": null,
    "npdes_points": 0,
    "pixel_col": 143.0,
    "pixel_row": 256.0,
    "population_density": 63.2,
    "position_along": 0.5,
    "protected_area_score": 5.4853,
    "rank": 4,
    "road_access_m": 439.2,
    "road_access_score": 0.8,
    "road_density_km_km2": 0.39,
    "robustness_pct": 100.0,
    "runoff_coeff_C": null,
    "seasonal_cv": null,
    "segment_id": 2,
    "segment_length_m": 784.2411,
    "stream_order": 3,
    "superfund_score": 0.0037,
    "tourism_amenity_density": 0.0,
    "tri_facility_density": 0.0,
    "usgs_mean_q_cfs": null,
    "velocity_feasibility": 1.0,
    "water_intake_score": 1.7594
   },
   "type": "Feature"
  },
  {
   "geometry": {
    "coordinates": [
     -81.632674,
     35.367162
    ],
    "type": "Point"
   },
   "properties": {
    "accumulation": 34458.0,
    "bank_slope_deg": 36.95,
    "bank_slope_score": 0.2,
    "bank_slope_source": "nc-dps-lidar-dem03-cross-section",
    "beach_dist_km": 373.73,
    "bridge_proximity_bonus": 0.0,
    "catchment_area_km2": 3.4368,
    "channel_width_m": 5.21,
    "channel_width_score": 1.0,
    "composite_score": 24.8406,
    "cso_density": 0.0,
    "ej_index": 0.8417,
    "elevation_m": 250.4778,
    "estuary_dist_km": 508.36,
    "feasibility_score": 36.3636,
    "flood_q10_cfs": 471.53,
    "flow_score": 44.7359,
    "flow_velocity_ms": 0.5,
    "generation_score": 0.6887,
    "impact_score": 26.6515,
    "impervious_pct": null,
    "land_ownership": 0.5,
    "lat": 35.3672,
    "litter_complaint_density": 0.0,
    "lon": -81.6327,
    "navigable_dist_m": null,
    "npdes_points": 0,
    "pixel_col": 125.0,
    "pixel_row": 180.0,
    "population_density": 58.8,
    "position_along": 0.5,
    "protected_area_score": 5.6434,
    "rank": 5,
    "road_access_m": 1044.6,
    "road_access_score": 0.3,
    "road_density_km_km2": 0.434,
    "robustness_pct": 100.0,
    "runoff_coeff_C": null,
    "seasonal_cv": null,
    "segment_id": 0,
    "segment_length_m": 2207.4722,
    "stream_order": 3,
    "superfund_score": 0.0031,
    "tourism_amenity_density": 0.0,
    "tri_facility_density": 0.0,
    "usgs_mean_q_cfs": null,
    "velocity_feasibility": 1.0,
    "water_intake_score": 1.7748
   },
   "type": "Feature"
  }
 ],
 "note": "GRIME region 'Kingstown, NC' \u2014 real-data pipeline (DEM\u2192streams\u2192candidates\u2192stream mask (sites confined to \u00b1150 m of mapped OSM/NHD waterways)\u2192region-appropriate real parameters\u2192shipped scoring, math unchanged). Width curve: Bieger et al. 2015 JAWRA Table 3, Appalachian Highlands. Flood: SIR 2014-5030 HR1. NC Piedmont (DEQ physiography polygon)",
 "provenance": {
  "candidates_pre_gate": 5,
  "constant": [
   "bridge_proximity_bonus",
   "channel_width_score",
   "cso_density",
   "land_ownership",
   "litter_complaint_density",
   "npdes_points",
   "tri_facility_density"
  ],
  "gated_navigable": 0,
  "hard_gate_removed": 0,
  "n_parameters": 27,
  "parameters": {
   "bank_slope_score": {
    "kind": "real",
    "n_3dep_10m_fallback": 0,
    "n_nc_lidar_3_125ft": 5,
    "n_real": 5,
    "n_sites": 5,
    "source": "NC OneMap / NC DPS DEM03 statewide lidar-derived 3.125-ft (0.953 m) elevations (perpendicular 50 m transect; robust 5 m bank-rise metric); unavailable profiles use the region 10 m 3DEP DEM-gradient fallback",
    "source_mosaics": [
     "Cleveland_Ground_3ft"
    ]
   },
   "beach_dist_km": {
    "kind": "real",
    "n_real": 5,
    "n_sites": 5,
    "source": "haversine to region ref: Wrightsville Beach (shipped NC reference)"
   },
   "bridge_proximity_bonus": {
    "kind": "real",
    "n_real": 5,
    "n_sites": 5,
    "source": "FHWA/BTS NBI (NTAD), 50 m proximity"
   },
   "catchment_area_km2": {
    "kind": "real",
    "n_real": 5,
    "n_sites": 5,
    "source": "DEM flow accumulation (pipeline)"
   },
   "channel_width_score": {
    "kind": "real",
    "n_real": 5,
    "n_sites": 5,
    "source": "Bieger 2015 AHI width curve on DEM drainage area \u2192 shipped width curve"
   },
   "cso_density": {
    "kind": "real",
    "n_real": 5,
    "n_sites": 5,
    "source": "EPA ECHO open CSO/TCS outfall PF coordinates states=NC, Cauchy proximity"
   },
   "ej_index": {
    "kind": "real",
    "n_real": 5,
    "n_sites": 5,
    "source": "Census ACS C17002+B03002 two-component demographic index, percentile-ranked within region"
   },
   "estuary_dist_km": {
    "kind": "real",
    "n_real": 5,
    "n_sites": 5,
    "source": "haversine to region ref: Pamlico Sound (shipped NC reference)"
   },
   "flood_q10_cfs": {
    "impervious_fallback_reason": "StreamCat imperviousness unavailable; the existing regression-input fallback of 0.0% impervious was used and is disclosed here",
    "kind": "real",
    "n_impervious_fallback": 2,
    "n_real": 5,
    "n_sites": 5,
    "source": "USGS SIR 2014-5030 Table 7 HR1 (NC Piedmont)"
   },
   "flow_velocity_ms": {
    "fallback_reason": "EROM/DEM continuity input unavailable; shipped 0.5 m/s default used",
    "kind": "real",
    "n_fallback": 2,
    "n_real": 3,
    "n_sites": 5,
    "source": "Manning (region DEM/D8) blended with EROM continuity (shipped M4 logic)"
   },
   "impervious_pct": {
    "fallback_reason": "NLDI/StreamCat did not return a snap-compatible catchment value; value remains null and is removed by constant-column handling",
    "kind": "real",
    "n_fallback": 2,
    "n_real": 3,
    "n_sites": 5,
    "source": "EPA StreamCat pctimp2019 (per NHDPlus watershed)"
   },
   "land_ownership": {
    "kind": "real",
    "n_fallback": 0,
    "n_real": 5,
    "n_sites": 5,
    "source": "NC OneMap statewide parcels (NC Parcels Transformer) ownname"
   },
   "litter_complaint_density": {
    "kind": "fallback",
    "n_real": 0,
    "n_sites": 5,
    "source": "no public machine-readable litter/illegal-dumping feed for this region"
   },
   "navigable_dist_m": {
    "kind": "real",
    "n_real": 5,
    "n_sites": 5,
    "source": "USACE/BTS NWN (NTAD): no navigable segment within this bbox (+2 km) \u2014 computed absence, gate passes all sites"
   },
   "npdes_points": {
    "kind": "real",
    "n_real": 5,
    "n_sites": 5,
    "source": "EPA ECHO active NPDES outfalls states=NC (types NPD/GPC/NGP; statuses ADC/EFF/EXP), per catchment"
   },
   "population_density": {
    "kind": "real",
    "n_real": 5,
    "n_sites": 5,
    "source": "Census ACS 2022 B01003 block groups (bbox, multi-county), area-weighted"
   },
   "protected_area_score": {
    "kind": "real",
    "n_real": 5,
    "n_sites": 5,
    "source": "USGS PAD-US 4.1 state GDB; states=NC; shipped designation-weighted proximity curve"
   },
   "road_access_score": {
    "kind": "real",
    "n_real": 5,
    "n_sites": 5,
    "source": "OSM drive network nearest-node distance"
   },
   "road_density_km_km2": {
    "kind": "real",
    "n_real": 5,
    "n_sites": 5,
    "source": "OSM drive network (osmnx, cached) clipped per catchment"
   },
   "runoff_coeff_C": {
    "fallback_reason": "source impervious_pct was unavailable; derived value remains null",
    "kind": "real",
    "n_fallback": 2,
    "n_real": 3,
    "n_sites": 5,
    "source": "derived from real impervious_pct (C=0.05+0.009*I)"
   },
   "seasonal_cv": {
    "fallback_reason": "NHDPlus monthly EROM was unavailable or failed the drainage-area snap guard; value remains null",
    "kind": "real",
    "n_fallback": 2,
    "n_real": 3,
    "n_sites": 5,
    "source": "CV of NHDPlus EROM monthly flows per COMID"
   },
   "stream_order": {
    "kind": "real",
    "n_real": 5,
    "n_sites": 5,
    "source": "DEM stream-network confluence heuristic (pipeline)"
   },
   "superfund_score": {
    "kind": "real",
    "n_real": 5,
    "n_sites": 5,
    "source": "EPA DataMap SEMS active sites states=NC (non-archived, georeferenced), shipped 500 m inverse-distance curve"
   },
   "tourism_amenity_density": {
    "kind": "real",
    "n_real": 5,
    "n_sites": 5,
    "source": "OSM leisure/tourism features per 2 km radius"
   },
   "tri_facility_density": {
    "kind": "real",
    "n_real": 5,
    "n_sites": 5,
    "source": "EPA DataMap TRI open facilities states=NC (preferred decimal or packed-DMS recovery), per catchment"
   },
   "usgs_mean_q_cfs": {
    "fallback_reason": "NHDPlus EROM was unavailable or failed the drainage-area snap guard; value remains null",
    "kind": "real",
    "n_fallback": 2,
    "n_real": 3,
    "n_sites": 5,
    "source": "NHDPlus EROM qe_ma per COMID (snap-guarded)"
   },
   "velocity_feasibility": {
    "fallback_reason": "derived from the shipped 0.5 m/s velocity fallback",
    "kind": "real",
    "n_fallback": 2,
    "n_real": 3,
    "n_sites": 5,
    "source": "shipped step curve on the computed velocity"
   },
   "velocity_transport_favorability": {
    "fallback_reason": "EROM/DEM continuity input unavailable; shipped 0.5 m/s default used",
    "kind": "derived",
    "n_fallback": 2,
    "n_real": 3,
    "n_sites": 5,
    "source": "scored form of flow_velocity_ms inside the Flow family \u2014 peaked Gaussian exp(-((v-0.9)/0.6)^2), model.json curves.velocity_transport_favorability; construct: transport/delivery favorability, deliberately distinct from velocity_feasibility (device operability)"
   },
   "water_intake_score": {
    "kind": "real",
    "n_real": 5,
    "n_sites": 5,
    "source": "NC OneMap / NC DEQ SWAP public water supply sources (source_typ='Surface Water'), shipped exp(-d/10km) curve"
   }
  },
  "stream_mask": {
   "buffer_m": 150.0,
   "pre_mask": 5,
   "removed": 0,
   "sources": [
    "osm-overpass (all waterway ways)",
    "usgs-nhdplus flowlines"
   ]
  },
  "varying": [
   "bank_slope_score",
   "beach_dist_km",
   "catchment_area_km2",
   "ej_index",
   "estuary_dist_km",
   "flood_q10_cfs",
   "flow_velocity_ms",
   "impervious_pct",
   "population_density",
   "protected_area_score",
   "road_access_score",
   "road_density_km_km2",
   "runoff_coeff_C",
   "seasonal_cv",
   "stream_order",
   "superfund_score",
   "tourism_amenity_density",
   "usgs_mean_q_cfs",
   "velocity_feasibility",
   "water_intake_score"
  ]
 },
 "region": {
  "bbox": [
   -81.646,
   35.3409,
   -81.5941,
   35.3833
  ],
  "beach_ref": {
   "label": "Wrightsville Beach (shipped NC reference)",
   "lat": 34.21,
   "lon": -77.79
  },
  "center": [
   -81.620051,
   35.362105
  ],
  "estuary_ref": {
   "label": "Pamlico Sound (shipped NC reference)",
   "lat": 35.05,
   "lon": -76.05
  },
  "flood_method": "sir2014_hr1",
  "name": "Kingstown, NC",
  "notes": "NC Piedmont (DEQ physiography polygon)",
  "slug": "kingstown",
  "state": "NC",
  "utm_epsg": 32617,
  "width_curve": {
   "a": 3.12,
   "b": 0.415,
   "code": "AHI",
   "source": "Bieger et al. 2015 JAWRA Table 3, Appalachian Highlands"
  }
 },
 "type": "FeatureCollection"
}
