{
 "features": [
  {
   "geometry": {
    "coordinates": [
     -82.168921,
     35.42336
    ],
    "type": "Point"
   },
   "properties": {
    "accumulation": 292376.0,
    "bank_slope_deg": 14.11,
    "bank_slope_score": 1.0,
    "bank_slope_source": "nc-dps-lidar-dem03-cross-section",
    "beach_dist_km": 421.86,
    "bridge_proximity_bonus": 0.0,
    "catchment_area_km2": 29.1933,
    "channel_width_m": 12.65,
    "channel_width_score": 1.0,
    "composite_score": 52.5708,
    "cso_density": 0.0,
    "ej_index": 0.5019,
    "elevation_m": 262.5354,
    "estuary_dist_km": 557.19,
    "feasibility_score": 43.75,
    "flood_q10_cfs": null,
    "flow_score": 78.1284,
    "flow_velocity_ms": 0.2476,
    "generation_score": 45.3216,
    "impact_score": 42.9324,
    "impervious_pct": 0.67,
    "land_ownership": 0.5,
    "lat": 35.4234,
    "litter_complaint_density": 0.0,
    "lon": -82.1689,
    "navigable_dist_m": null,
    "npdes_points": 1,
    "pixel_col": 1114.0,
    "pixel_row": 932.0,
    "population_density": 20.4,
    "position_along": 0.5,
    "protected_area_score": 9.3918,
    "rank": 1,
    "road_access_m": 193.4,
    "road_access_score": 1.0,
    "road_density_km_km2": 3.845,
    "robustness_pct": 93.5,
    "runoff_coeff_C": 0.056,
    "seasonal_cv": 0.2005,
    "segment_id": 38,
    "segment_length_m": 1559.0602,
    "stream_order": 3,
    "superfund_score": 0.0009,
    "tourism_amenity_density": 0.2387,
    "tri_facility_density": 0.0,
    "usgs_mean_q_cfs": 236.326,
    "velocity_feasibility": 0.7,
    "water_intake_score": 0.8289
   },
   "type": "Feature"
  },
  {
   "geometry": {
    "coordinates": [
     -82.184581,
     35.425954
    ],
    "type": "Point"
   },
   "properties": {
    "accumulation": 243587.0,
    "bank_slope_deg": 0.0,
    "bank_slope_score": 1.0,
    "bank_slope_source": "nc-dps-lidar-dem03-cross-section",
    "beach_dist_km": 423.3,
    "bridge_proximity_bonus": 0.2,
    "catchment_area_km2": 24.3218,
    "channel_width_m": 11.73,
    "channel_width_score": 1.0,
    "composite_score": 52.5425,
    "cso_density": 0.0,
    "ej_index": 0.4396,
    "elevation_m": 298.1149,
    "estuary_dist_km": 558.62,
    "feasibility_score": 93.0556,
    "flood_q10_cfs": null,
    "flow_score": 60.825,
    "flow_velocity_ms": 0.5,
    "generation_score": 35.4728,
    "impact_score": 42.4534,
    "impervious_pct": null,
    "land_ownership": 1.0,
    "lat": 35.426,
    "litter_complaint_density": 0.0,
    "lon": -82.1846,
    "navigable_dist_m": null,
    "npdes_points": 0,
    "pixel_col": 973.0,
    "pixel_row": 902.0,
    "population_density": 21.3,
    "position_along": 0.5,
    "protected_area_score": 10.7057,
    "rank": 2,
    "road_access_m": 200.4,
    "road_access_score": 0.8,
    "road_density_km_km2": 4.46,
    "robustness_pct": 95.0,
    "runoff_coeff_C": null,
    "seasonal_cv": null,
    "segment_id": 37,
    "segment_length_m": 2257.3526,
    "stream_order": 3,
    "superfund_score": 0.0011,
    "tourism_amenity_density": 0.4775,
    "tri_facility_density": 0.0,
    "usgs_mean_q_cfs": null,
    "velocity_feasibility": 1.0,
    "water_intake_score": 0.844
   },
   "type": "Feature"
  },
  {
   "geometry": {
    "coordinates": [
     -82.160383,
     35.422398
    ],
    "type": "Point"
   },
   "properties": {
    "accumulation": 346912.0,
    "bank_slope_deg": 13.46,
    "bank_slope_score": 1.0,
    "bank_slope_source": "nc-dps-lidar-dem03-cross-section",
    "beach_dist_km": 421.09,
    "bridge_proximity_bonus": 0.0,
    "catchment_area_km2": 34.6386,
    "channel_width_m": 13.59,
    "channel_width_score": 1.0,
    "composite_score": 51.3449,
    "cso_density": 0.0,
    "ej_index": 0.5209,
    "elevation_m": 256.9086,
    "estuary_dist_km": 556.41,
    "feasibility_score": 36.8056,
    "flood_q10_cfs": null,
    "flow_score": 81.2174,
    "flow_velocity_ms": 0.2277,
    "generation_score": 41.5043,
    "impact_score": 43.5614,
    "impervious_pct": 0.7,
    "land_ownership": 0.5,
    "lat": 35.4224,
    "litter_complaint_density": 0.0,
    "lon": -82.1604,
    "navigable_dist_m": null,
    "npdes_points": 1,
    "pixel_col": 1192.0,
    "pixel_row": 946.0,
    "population_density": 19.6,
    "position_along": 0.5,
    "protected_area_score": 9.0337,
    "rank": 3,
    "road_access_m": 223.2,
    "road_access_score": 0.8,
    "road_density_km_km2": 3.061,
    "robustness_pct": 85.5,
    "runoff_coeff_C": 0.0563,
    "seasonal_cv": 0.1996,
    "segment_id": 39,
    "segment_length_m": 2581.8372,
    "stream_order": 3,
    "superfund_score": 0.0008,
    "tourism_amenity_density": 0.1592,
    "tri_facility_density": 0.0,
    "usgs_mean_q_cfs": 239.7,
    "velocity_feasibility": 0.7,
    "water_intake_score": 0.8216
   },
   "type": "Feature"
  },
  {
   "geometry": {
    "coordinates": [
     -82.168921,
     35.429184
    ],
    "type": "Point"
   },
   "properties": {
    "accumulation": 34306.0,
    "bank_slope_deg": 27.31,
    "bank_slope_score": 0.5,
    "bank_slope_source": "nc-dps-lidar-dem03-cross-section",
    "beach_dist_km": 422.05,
    "bridge_proximity_bonus": 0.0,
    "catchment_area_km2": 3.4254,
    "channel_width_m": 5.2,
    "channel_width_score": 1.0,
    "composite_score": 47.177,
    "cso_density": 0.0,
    "ej_index": 0.5791,
    "elevation_m": 261.183,
    "estuary_dist_km": 557.22,
    "feasibility_score": 61.8056,
    "flood_q10_cfs": null,
    "flow_score": 47.4228,
    "flow_velocity_ms": 0.5,
    "generation_score": 39.4489,
    "impact_score": 47.3859,
    "impervious_pct": null,
    "land_ownership": 0.5,
    "lat": 35.4292,
    "litter_complaint_density": 0.0,
    "lon": -82.1689,
    "navigable_dist_m": null,
    "npdes_points": 0,
    "pixel_col": 1114.0,
    "pixel_row": 871.0,
    "population_density": 21.3,
    "position_along": 0.5,
    "protected_area_score": 9.7149,
    "rank": 4,
    "road_access_m": 94.9,
    "road_access_score": 1.0,
    "road_density_km_km2": 6.328,
    "robustness_pct": 80.0,
    "runoff_coeff_C": null,
    "seasonal_cv": null,
    "segment_id": 28,
    "segment_length_m": 214.6898,
    "stream_order": 3,
    "superfund_score": 0.001,
    "tourism_amenity_density": 0.2387,
    "tri_facility_density": 0.0,
    "usgs_mean_q_cfs": null,
    "velocity_feasibility": 1.0,
    "water_intake_score": 0.821
   },
   "type": "Feature"
  },
  {
   "geometry": {
    "coordinates": [
     -82.177572,
     35.417788
    ],
    "type": "Point"
   },
   "properties": {
    "accumulation": 32831.0,
    "bank_slope_deg": 27.73,
    "bank_slope_score": 0.5,
    "bank_slope_source": "nc-dps-lidar-dem03-cross-section",
    "beach_dist_km": 422.42,
    "bridge_proximity_bonus": 0.0,
    "catchment_area_km2": 3.2781,
    "channel_width_m": 5.11,
    "channel_width_score": 1.0,
    "composite_score": 44.6876,
    "cso_density": 0.0,
    "ej_index": 0.5796,
    "elevation_m": 269.9298,
    "estuary_dist_km": 557.94,
    "feasibility_score": 36.8056,
    "flood_q10_cfs": null,
    "flow_score": 27.2746,
    "flow_velocity_ms": 0.1406,
    "generation_score": 58.8311,
    "impact_score": 48.9959,
    "impervious_pct": 2.09,
    "land_ownership": 0.5,
    "lat": 35.4178,
    "litter_complaint_density": 0.0,
    "lon": -82.1776,
    "navigable_dist_m": null,
    "npdes_points": 0,
    "pixel_col": 1035.0,
    "pixel_row": 994.0,
    "population_density": 22.2,
    "position_along": 0.5,
    "protected_area_score": 9.6555,
    "rank": 5,
    "road_access_m": 188.6,
    "road_access_score": 1.0,
    "road_density_km_km2": 3.465,
    "robustness_pct": 50.5,
    "runoff_coeff_C": 0.0688,
    "seasonal_cv": 0.5666,
    "segment_id": 31,
    "segment_length_m": 1212.0445,
    "stream_order": 3,
    "superfund_score": 0.0009,
    "tourism_amenity_density": 0.4775,
    "tri_facility_density": 0.0,
    "usgs_mean_q_cfs": 3.201,
    "velocity_feasibility": 0.7,
    "water_intake_score": 0.848
   },
   "type": "Feature"
  },
  {
   "geometry": {
    "coordinates": [
     -82.242399,
     35.437258
    ],
    "type": "Point"
   },
   "properties": {
    "accumulation": 118903.0,
    "bank_slope_deg": 9.22,
    "bank_slope_score": 1.0,
    "bank_slope_source": "nc-dps-lidar-dem03-cross-section",
    "beach_dist_km": 428.67,
    "bridge_proximity_bonus": 0.0,
    "catchment_area_km2": 11.8723,
    "channel_width_m": 8.71,
    "channel_width_score": 1.0,
    "composite_score": 43.5387,
    "cso_density": 0.0,
    "ej_index": 0.287,
    "elevation_m": 306.7785,
    "estuary_dist_km": 563.91,
    "feasibility_score": 68.75,
    "flood_q10_cfs": null,
    "flow_score": 52.8404,
    "flow_velocity_ms": 0.5,
    "generation_score": 21.9575,
    "impact_score": 44.7629,
    "impervious_pct": null,
    "land_ownership": 0.5,
    "lat": 35.4373,
    "litter_complaint_density": 0.0,
    "lon": -82.2424,
    "navigable_dist_m": null,
    "npdes_points": 0,
    "pixel_col": 449.0,
    "pixel_row": 772.0,
    "population_density": 18.8,
    "position_along": 0.5,
    "protected_area_score": 12.8275,
    "rank": 6,
    "road_access_m": 64.6,
    "road_access_score": 1.0,
    "road_density_km_km2": 1.743,
    "robustness_pct": 35.5,
    "runoff_coeff_C": null,
    "seasonal_cv": null,
    "segment_id": 27,
    "segment_length_m": 2581.4212,
    "stream_order": 3,
    "superfund_score": 0.0022,
    "tourism_amenity_density": 2.3873,
    "tri_facility_density": 0.0,
    "usgs_mean_q_cfs": null,
    "velocity_feasibility": 1.0,
    "water_intake_score": 0.9354
   },
   "type": "Feature"
  },
  {
   "geometry": {
    "coordinates": [
     -82.15691,
     35.450036
    ],
    "type": "Point"
   },
   "properties": {
    "accumulation": 77466.0,
    "bank_slope_deg": 6.58,
    "bank_slope_score": 1.0,
    "bank_slope_source": "nc-dps-lidar-dem03-cross-section",
    "beach_dist_km": 421.72,
    "bridge_proximity_bonus": 0.0,
    "catchment_area_km2": 7.7349,
    "channel_width_m": 7.29,
    "channel_width_score": 1.0,
    "composite_score": 42.636,
    "cso_density": 0.0,
    "ej_index": 0.554,
    "elevation_m": 328.5075,
    "estuary_dist_km": 556.24,
    "feasibility_score": 43.75,
    "flood_q10_cfs": null,
    "flow_score": 33.2511,
    "flow_velocity_ms": 0.1675,
    "generation_score": 48.2049,
    "impact_score": 44.331,
    "impervious_pct": 2.65,
    "land_ownership": 0.5,
    "lat": 35.45,
    "litter_complaint_density": 0.0,
    "lon": -82.1569,
    "navigable_dist_m": null,
    "npdes_points": 0,
    "pixel_col": 1227.0,
    "pixel_row": 641.0,
    "population_density": 16.6,
    "position_along": 0.25,
    "protected_area_score": 9.3187,
    "rank": 7,
    "road_access_m": 82.9,
    "road_access_score": 1.0,
    "road_density_km_km2": 3.753,
    "robustness_pct": 2.0,
    "runoff_coeff_C": 0.0738,
    "seasonal_cv": 0.5029,
    "segment_id": 20,
    "segment_length_m": 3074.722,
    "stream_order": 3,
    "superfund_score": 0.001,
    "tourism_amenity_density": 0.2387,
    "tri_facility_density": 0.0,
    "usgs_mean_q_cfs": 9.166,
    "velocity_feasibility": 0.7,
    "water_intake_score": 0.7929
   },
   "type": "Feature"
  },
  {
   "geometry": {
    "coordinates": [
     -82.19967,
     35.414536
    ],
    "type": "Point"
   },
   "properties": {
    "accumulation": 63770.0,
    "bank_slope_deg": 13.59,
    "bank_slope_score": 1.0,
    "bank_slope_source": "nc-dps-lidar-dem03-cross-section",
    "beach_dist_km": 424.23,
    "bridge_proximity_bonus": 0.0,
    "catchment_area_km2": 6.3673,
    "channel_width_m": 6.73,
    "channel_width_score": 1.0,
    "composite_score": 41.8312,
    "cso_density": 0.0,
    "ej_index": 0.3397,
    "elevation_m": 307.4661,
    "estuary_dist_km": 559.93,
    "feasibility_score": 55.5556,
    "flood_q10_cfs": null,
    "flow_score": 32.4316,
    "flow_velocity_ms": 0.203,
    "generation_score": 45.1428,
    "impact_score": 39.4903,
    "impervious_pct": 0.71,
    "land_ownership": 1.0,
    "lat": 35.4145,
    "litter_complaint_density": 0.0,
    "lon": -82.1997,
    "navigable_dist_m": null,
    "npdes_points": 0,
    "pixel_col": 834.0,
    "pixel_row": 1029.0,
    "population_density": 22.4,
    "position_along": 0.5,
    "protected_area_score": 11.4158,
    "rank": 8,
    "road_access_m": 332.6,
    "road_access_score": 0.8,
    "road_density_km_km2": 3.783,
    "robustness_pct": 1.5,
    "runoff_coeff_C": 0.0564,
    "seasonal_cv": 0.4704,
    "segment_id": 36,
    "segment_length_m": 4983.8109,
    "stream_order": 3,
    "superfund_score": 0.0011,
    "tourism_amenity_density": 0.4775,
    "tri_facility_density": 0.0,
    "usgs_mean_q_cfs": 6.976,
    "velocity_feasibility": 0.7,
    "water_intake_score": 0.8853
   },
   "type": "Feature"
  },
  {
   "geometry": {
    "coordinates": [
     -82.167404,
     35.450855
    ],
    "type": "Point"
   },
   "properties": {
    "accumulation": 23219.0,
    "bank_slope_deg": 20.68,
    "bank_slope_score": 0.5,
    "bank_slope_source": "nc-dps-lidar-dem03-cross-section",
    "beach_dist_km": 422.65,
    "bridge_proximity_bonus": 0.0,
    "catchment_area_km2": 2.3184,
    "channel_width_m": 4.42,
    "channel_width_score": 1.0,
    "composite_score": 41.4809,
    "cso_density": 0.0,
    "ej_index": 0.5265,
    "elevation_m": 339.9865,
    "estuary_dist_km": 557.19,
    "feasibility_score": 29.8611,
    "flood_q10_cfs": null,
    "flow_score": 25.3524,
    "flow_velocity_ms": 0.1221,
    "generation_score": 57.9078,
    "impact_score": 44.3044,
    "impervious_pct": 2.9,
    "land_ownership": 0.5,
    "lat": 35.4509,
    "litter_complaint_density": 0.0,
    "lon": -82.1674,
    "navigable_dist_m": null,
    "npdes_points": 0,
    "pixel_col": 1131.0,
    "pixel_row": 631.0,
    "population_density": 18.0,
    "position_along": 0.5,
    "protected_area_score": 10.2519,
    "rank": 9,
    "road_access_m": 214.4,
    "road_access_score": 0.8,
    "road_density_km_km2": 5.002,
    "robustness_pct": 13.5,
    "runoff_coeff_C": 0.0761,
    "seasonal_cv": 0.6384,
    "segment_id": 18,
    "segment_length_m": 1882.3682,
    "stream_order": 3,
    "superfund_score": 0.0011,
    "tourism_amenity_density": 0.2387,
    "tri_facility_density": 0.0,
    "usgs_mean_q_cfs": 2.26,
    "velocity_feasibility": 0.7,
    "water_intake_score": 0.8034
   },
   "type": "Feature"
  },
  {
   "geometry": {
    "coordinates": [
     -82.194919,
     35.424828
    ],
    "type": "Point"
   },
   "properties": {
    "accumulation": 73095.0,
    "bank_slope_deg": 0.0,
    "bank_slope_score": 1.0,
    "bank_slope_source": "nc-dps-lidar-dem03-cross-section",
    "beach_dist_km": 424.15,
    "bridge_proximity_bonus": 0.0,
    "catchment_area_km2": 7.2984,
    "channel_width_m": 7.12,
    "channel_width_score": 1.0,
    "composite_score": 41.3769,
    "cso_density": 0.0,
    "ej_index": 0.3341,
    "elevation_m": 298.2626,
    "estuary_dist_km": 559.55,
    "feasibility_score": 55.5556,
    "flood_q10_cfs": null,
    "flow_score": 29.2227,
    "flow_velocity_ms": 0.0616,
    "generation_score": 47.8178,
    "impact_score": 37.9751,
    "impervious_pct": 0.9,
    "land_ownership": 1.0,
    "lat": 35.4248,
    "litter_complaint_density": 0.0,
    "lon": -82.1949,
    "navigable_dist_m": null,
    "npdes_points": 0,
    "pixel_col": 877.0,
    "pixel_row": 913.0,
    "population_density": 21.9,
    "position_along": 0.8333,
    "protected_area_score": 11.2811,
    "rank": 10,
    "road_access_m": 213.7,
    "road_access_score": 0.8,
    "road_density_km_km2": 4.797,
    "robustness_pct": 6.0,
    "runoff_coeff_C": 0.0581,
    "seasonal_cv": 0.4547,
    "segment_id": 36,
    "segment_length_m": 4983.8109,
    "stream_order": 3,
    "superfund_score": 0.0012,
    "tourism_amenity_density": 0.557,
    "tri_facility_density": 0.0,
    "usgs_mean_q_cfs": 8.248,
    "velocity_feasibility": 0.7,
    "water_intake_score": 0.86
   },
   "type": "Feature"
  },
  {
   "geometry": {
    "coordinates": [
     -82.195101,
     35.43717
    ],
    "type": "Point"
   },
   "properties": {
    "accumulation": 137464.0,
    "bank_slope_deg": 0.0,
    "bank_slope_score": 1.0,
    "bank_slope_source": "nc-dps-lidar-dem03-cross-section",
    "beach_dist_km": 424.58,
    "bridge_proximity_bonus": 0.0,
    "catchment_area_km2": 13.7256,
    "channel_width_m": 9.25,
    "channel_width_score": 1.0,
    "composite_score": 40.8699,
    "cso_density": 0.0,
    "ej_index": 0.3404,
    "elevation_m": 298.2626,
    "estuary_dist_km": 559.63,
    "feasibility_score": 55.5556,
    "flood_q10_cfs": null,
    "flow_score": 38.0466,
    "flow_velocity_ms": 0.0762,
    "generation_score": 40.8998,
    "impact_score": 35.8498,
    "impervious_pct": 0.82,
    "land_ownership": 1.0,
    "lat": 35.4372,
    "litter_complaint_density": 0.0,
    "lon": -82.1951,
    "navigable_dist_m": null,
    "npdes_points": 0,
    "pixel_col": 877.0,
    "pixel_row": 780.0,
    "population_density": 19.9,
    "position_along": 0.8333,
    "protected_area_score": 11.3572,
    "rank": 11,
    "road_access_m": 282.5,
    "road_access_score": 0.8,
    "road_density_km_km2": 4.861,
    "robustness_pct": 0.0,
    "runoff_coeff_C": 0.0574,
    "seasonal_cv": 0.3467,
    "segment_id": 17,
    "segment_length_m": 5167.1032,
    "stream_order": 3,
    "superfund_score": 0.0013,
    "tourism_amenity_density": 0.2387,
    "tri_facility_density": 0.0,
    "usgs_mean_q_cfs": 31.225,
    "velocity_feasibility": 0.7,
    "water_intake_score": 0.8454
   },
   "type": "Feature"
  },
  {
   "geometry": {
    "coordinates": [
     -82.229203,
     35.428835
    ],
    "type": "Point"
   },
   "properties": {
    "accumulation": 112032.0,
    "bank_slope_deg": 22.72,
    "bank_slope_score": 0.5,
    "bank_slope_source": "nc-dps-lidar-dem03-cross-section",
    "beach_dist_km": 427.25,
    "bridge_proximity_bonus": 0.0,
    "catchment_area_km2": 11.1862,
    "channel_width_m": 8.5,
    "channel_width_score": 1.0,
    "composite_score": 40.6453,
    "cso_density": 0.0,
    "ej_index": 0.2714,
    "elevation_m": 303.4016,
    "estuary_dist_km": 562.67,
    "feasibility_score": 55.5556,
    "flood_q10_cfs": null,
    "flow_score": 37.0052,
    "flow_velocity_ms": 0.2117,
    "generation_score": 32.6101,
    "impact_score": 44.2588,
    "impervious_pct": 0.2,
    "land_ownership": 1.0,
    "lat": 35.4288,
    "litter_complaint_density": 0.0,
    "lon": -82.2292,
    "navigable_dist_m": null,
    "npdes_points": 0,
    "pixel_col": 568.0,
    "pixel_row": 866.0,
    "population_density": 20.6,
    "position_along": 0.5,
    "protected_area_score": 12.5919,
    "rank": 12,
    "road_access_m": 68.6,
    "road_access_score": 1.0,
    "road_density_km_km2": 3.112,
    "robustness_pct": 0.0,
    "runoff_coeff_C": 0.0518,
    "seasonal_cv": 0.427,
    "segment_id": 34,
    "segment_length_m": 1630.7216,
    "stream_order": 3,
    "superfund_score": 0.0017,
    "tourism_amenity_density": 2.3873,
    "tri_facility_density": 0.0,
    "usgs_mean_q_cfs": 14.344,
    "velocity_feasibility": 0.7,
    "water_intake_score": 0.9191
   },
   "type": "Feature"
  },
  {
   "geometry": {
    "coordinates": [
     -82.243349,
     35.419888
    ],
    "type": "Point"
   },
   "properties": {
    "accumulation": 32097.0,
    "bank_slope_deg": 28.68,
    "bank_slope_score": 0.5,
    "bank_slope_source": "nc-dps-lidar-dem03-cross-section",
    "beach_dist_km": 428.18,
    "bridge_proximity_bonus": 0.0,
    "catchment_area_km2": 3.2048,
    "channel_width_m": 5.06,
    "channel_width_score": 1.0,
    "composite_score": 40.4417,
    "cso_density": 0.0,
    "ej_index": 0.2539,
    "elevation_m": 412.2779,
    "estuary_dist_km": 563.91,
    "feasibility_score": 61.8056,
    "flood_q10_cfs": null,
    "flow_score": 34.3372,
    "flow_velocity_ms": 0.3342,
    "generation_score": 32.897,
    "impact_score": 42.3916,
    "impervious_pct": 0.03,
    "land_ownership": 0.5,
    "lat": 35.4199,
    "litter_complaint_density": 0.0,
    "lon": -82.2433,
    "navigable_dist_m": null,
    "npdes_points": 0,
    "pixel_col": 438.0,
    "pixel_row": 963.0,
    "population_density": 22.6,
    "position_along": 0.5,
    "protected_area_score": 12.76,
    "rank": 13,
    "road_access_m": 138.3,
    "road_access_score": 1.0,
    "road_density_km_km2": 1.208,
    "robustness_pct": 0.0,
    "runoff_coeff_C": 0.0503,
    "seasonal_cv": 0.5252,
    "segment_id": 30,
    "segment_length_m": 2355.4405,
    "stream_order": 3,
    "superfund_score": 0.0017,
    "tourism_amenity_density": 1.8303,
    "tri_facility_density": 0.0,
    "usgs_mean_q_cfs": 5.288,
    "velocity_feasibility": 1.0,
    "water_intake_score": 0.9635
   },
   "type": "Feature"
  },
  {
   "geometry": {
    "coordinates": [
     -82.273561,
     35.493215
    ],
    "type": "Point"
   },
   "properties": {
    "accumulation": 50114.0,
    "bank_slope_deg": 3.59,
    "bank_slope_score": 1.0,
    "bank_slope_source": "nc-dps-lidar-dem03-cross-section",
    "beach_dist_km": 433.24,
    "bridge_proximity_bonus": 0.0,
    "catchment_area_km2": 5.0038,
    "channel_width_m": 6.09,
    "channel_width_score": 1.0,
    "composite_score": 40.1834,
    "cso_density": 0.0,
    "ej_index": 0.5784,
    "elevation_m": 588.3668,
    "estuary_dist_km": 567.04,
    "feasibility_score": 68.75,
    "flood_q10_cfs": null,
    "flow_score": 48.4351,
    "flow_velocity_ms": 0.5,
    "generation_score": 1.2261,
    "impact_score": 57.9811,
    "impervious_pct": null,
    "land_ownership": 0.5,
    "lat": 35.4932,
    "litter_complaint_density": 0.0,
    "lon": -82.2736,
    "navigable_dist_m": null,
    "npdes_points": 0,
    "pixel_col": 170.0,
    "pixel_row": 147.0,
    "population_density": 12.9,
    "position_along": 0.5,
    "protected_area_score": 12.8575,
    "rank": 14,
    "road_access_m": 172.4,
    "road_access_score": 1.0,
    "road_density_km_km2": 0.576,
    "robustness_pct": 19.0,
    "runoff_coeff_C": null,
    "seasonal_cv": null,
    "segment_id": 4,
    "segment_length_m": 48.2476,
    "stream_order": 3,
    "superfund_score": 0.0134,
    "tourism_amenity_density": 0.0,
    "tri_facility_density": 0.0,
    "usgs_mean_q_cfs": null,
    "velocity_feasibility": 1.0,
    "water_intake_score": 1.0399
   },
   "type": "Feature"
  },
  {
   "geometry": {
    "coordinates": [
     -82.146132,
     35.444517
    ],
    "type": "Point"
   },
   "properties": {
    "accumulation": 103282.0,
    "bank_slope_deg": 6.2,
    "bank_slope_score": 1.0,
    "bank_slope_source": "nc-dps-lidar-dem03-cross-section",
    "beach_dist_km": 420.6,
    "bridge_proximity_bonus": 0.0,
    "catchment_area_km2": 10.3125,
    "channel_width_m": 8.22,
    "channel_width_score": 1.0,
    "composite_score": 40.0819,
    "cso_density": 0.0,
    "ej_index": 0.5527,
    "elevation_m": 322.1363,
    "estuary_dist_km": 555.23,
    "feasibility_score": 36.8056,
    "flood_q10_cfs": null,
    "flow_score": 34.6306,
    "flow_velocity_ms": 0.1594,
    "generation_score": 42.8701,
    "impact_score": 43.4746,
    "impervious_pct": 2.65,
    "land_ownership": 0.5,
    "lat": 35.4445,
    "litter_complaint_density": 0.0,
    "lon": -82.1461,
    "navigable_dist_m": null,
    "npdes_points": 0,
    "pixel_col": 1324.0,
    "pixel_row": 701.0,
    "population_density": 15.5,
    "position_along": 0.75,
    "protected_area_score": 8.5694,
    "rank": 15,
    "road_access_m": 345.8,
    "road_access_score": 0.8,
    "road_density_km_km2": 2.845,
    "robustness_pct": 0.0,
    "runoff_coeff_C": 0.0738,
    "seasonal_cv": 0.5029,
    "segment_id": 20,
    "segment_length_m": 3074.722,
    "stream_order": 3,
    "superfund_score": 0.0009,
    "tourism_amenity_density": 0.0796,
    "tri_facility_density": 0.0,
    "usgs_mean_q_cfs": 9.166,
    "velocity_feasibility": 0.7,
    "water_intake_score": 0.7927
   },
   "type": "Feature"
  },
  {
   "geometry": {
    "coordinates": [
     -82.27353,
     35.494116
    ],
    "type": "Point"
   },
   "properties": {
    "accumulation": 25250.0,
    "bank_slope_deg": 5.73,
    "bank_slope_score": 1.0,
    "bank_slope_source": "nc-dps-lidar-dem03-cross-section",
    "beach_dist_km": 433.27,
    "bridge_proximity_bonus": 0.0,
    "catchment_area_km2": 2.5212,
    "channel_width_m": 4.58,
    "channel_width_score": 1.0,
    "composite_score": 40.0017,
    "cso_density": 0.0,
    "ej_index": 0.5784,
    "elevation_m": 588.8329,
    "estuary_dist_km": 567.04,
    "feasibility_score": 68.75,
    "flood_q10_cfs": null,
    "flow_score": 46.8429,
    "flow_velocity_ms": 0.5,
    "generation_score": 1.6347,
    "impact_score": 58.2935,
    "impervious_pct": null,
    "land_ownership": 0.5,
    "lat": 35.4941,
    "litter_complaint_density": 0.0,
    "lon": -82.2735,
    "navigable_dist_m": null,
    "npdes_points": 0,
    "pixel_col": 172.0,
    "pixel_row": 139.0,
    "population_density": 12.9,
    "position_along": 0.5,
    "protected_area_score": 12.8446,
    "rank": 16,
    "road_access_m": 95.7,
    "road_access_score": 1.0,
    "road_density_km_km2": 0.768,
    "robustness_pct": 15.0,
    "runoff_coeff_C": null,
    "seasonal_cv": null,
    "segment_id": 3,
    "segment_length_m": 216.4043,
    "stream_order": 3,
    "superfund_score": 0.0138,
    "tourism_amenity_density": 0.0,
    "tri_facility_density": 0.0,
    "usgs_mean_q_cfs": null,
    "velocity_feasibility": 1.0,
    "water_intake_score": 1.0418
   },
   "type": "Feature"
  },
  {
   "geometry": {
    "coordinates": [
     -82.257543,
     35.436259
    ],
    "type": "Point"
   },
   "properties": {
    "accumulation": 21995.0,
    "bank_slope_deg": 37.51,
    "bank_slope_score": 0.2,
    "bank_slope_source": "nc-dps-lidar-dem03-cross-section",
    "beach_dist_km": 429.95,
    "bridge_proximity_bonus": 0.0,
    "catchment_area_km2": 2.1962,
    "channel_width_m": 4.32,
    "channel_width_score": 1.0,
    "composite_score": 39.8812,
    "cso_density": 0.0,
    "ej_index": 0.2601,
    "elevation_m": 446.8681,
    "estuary_dist_km": 565.27,
    "feasibility_score": 62.5,
    "flood_q10_cfs": null,
    "flow_score": 38.0782,
    "flow_velocity_ms": 0.4381,
    "generation_score": 30.185,
    "impact_score": 39.7706,
    "impervious_pct": 0.01,
    "land_ownership": 1.0,
    "lat": 35.4363,
    "litter_complaint_density": 0.0,
    "lon": -82.2575,
    "navigable_dist_m": null,
    "npdes_points": 0,
    "pixel_col": 311.0,
    "pixel_row": 779.0,
    "population_density": 21.9,
    "position_along": 0.5,
    "protected_area_score": 12.9797,
    "rank": 17,
    "road_access_m": 525.6,
    "road_access_score": 0.6,
    "road_density_km_km2": 1.053,
    "robustness_pct": 0.0,
    "runoff_coeff_C": 0.0501,
    "seasonal_cv": 0.5645,
    "segment_id": 26,
    "segment_length_m": 1048.0269,
    "stream_order": 3,
    "superfund_score": 0.0025,
    "tourism_amenity_density": 1.4324,
    "tri_facility_density": 0.0,
    "usgs_mean_q_cfs": 3.652,
    "velocity_feasibility": 1.0,
    "water_intake_score": 0.9696
   },
   "type": "Feature"
  },
  {
   "geometry": {
    "coordinates": [
     -82.193446,
     35.451857
    ],
    "type": "Point"
   },
   "properties": {
    "accumulation": 128877.0,
    "bank_slope_deg": 0.0,
    "bank_slope_score": 1.0,
    "bank_slope_source": "nc-dps-lidar-dem03-cross-section",
    "beach_dist_km": 424.93,
    "bridge_proximity_bonus": 0.0,
    "catchment_area_km2": 12.8682,
    "channel_width_m": 9.01,
    "channel_width_score": 1.0,
    "composite_score": 39.5687,
    "cso_density": 0.0,
    "ej_index": 0.3538,
    "elevation_m": 298.2626,
    "estuary_dist_km": 559.55,
    "feasibility_score": 55.5556,
    "flood_q10_cfs": null,
    "flow_score": 37.4683,
    "flow_velocity_ms": 0.0751,
    "generation_score": 33.1544,
    "impact_score": 39.74,
    "impervious_pct": 0.82,
    "land_ownership": 1.0,
    "lat": 35.4519,
    "litter_complaint_density": 0.0,
    "lon": -82.1934,
    "navigable_dist_m": null,
    "npdes_points": 0,
    "pixel_col": 893.0,
    "pixel_row": 617.0,
    "population_density": 17.3,
    "position_along": 0.5,
    "protected_area_score": 11.1409,
    "rank": 18,
    "road_access_m": 204.6,
    "road_access_score": 0.8,
    "road_density_km_km2": 5.0,
    "robustness_pct": 0.0,
    "runoff_coeff_C": 0.0574,
    "seasonal_cv": 0.3467,
    "segment_id": 17,
    "segment_length_m": 5167.1032,
    "stream_order": 3,
    "superfund_score": 0.0015,
    "tourism_amenity_density": 1.1937,
    "tri_facility_density": 0.0,
    "usgs_mean_q_cfs": 31.225,
    "velocity_feasibility": 0.7,
    "water_intake_score": 0.8422
   },
   "type": "Feature"
  },
  {
   "geometry": {
    "coordinates": [
     -82.265776,
     35.442622
    ],
    "type": "Point"
   },
   "properties": {
    "accumulation": 39453.0,
    "bank_slope_deg": 25.08,
    "bank_slope_score": 0.5,
    "bank_slope_source": "nc-dps-lidar-dem03-cross-section",
    "beach_dist_km": 430.87,
    "bridge_proximity_bonus": 0.0,
    "catchment_area_km2": 3.9393,
    "channel_width_m": 5.51,
    "channel_width_score": 1.0,
    "composite_score": 39.3754,
    "cso_density": 0.0,
    "ej_index": 0.2844,
    "elevation_m": 371.4115,
    "estuary_dist_km": 566.05,
    "feasibility_score": 61.8056,
    "flood_q10_cfs": null,
    "flow_score": 47.7524,
    "flow_velocity_ms": 0.5,
    "generation_score": 21.5827,
    "impact_score": 38.9722,
    "impervious_pct": null,
    "land_ownership": 0.5,
    "lat": 35.4426,
    "litter_complaint_density": 0.0,
    "lon": -82.2658,
    "navigable_dist_m": null,
    "npdes_points": 0,
    "pixel_col": 237.0,
    "pixel_row": 711.0,
    "population_density": 19.1,
    "position_along": 0.5,
    "protected_area_score": 13.1646,
    "rank": 19,
    "road_access_m": 67.4,
    "road_access_score": 1.0,
    "road_density_km_km2": 1.131,
    "robustness_pct": 0.0,
    "runoff_coeff_C": null,
    "seasonal_cv": null,
    "segment_id": 24,
    "segment_length_m": 2412.6763,
    "stream_order": 3,
    "superfund_score": 0.0031,
    "tourism_amenity_density": 0.8754,
    "tri_facility_density": 0.0,
    "usgs_mean_q_cfs": null,
    "velocity_feasibility": 1.0,
    "water_intake_score": 0.9824
   },
   "type": "Feature"
  },
  {
   "geometry": {
    "coordinates": [
     -82.136758,
     35.418118
    ],
    "type": "Point"
   },
   "properties": {
    "accumulation": 32459.0,
    "bank_slope_deg": 0.11,
    "bank_slope_score": 1.0,
    "bank_slope_source": "nc-dps-lidar-dem03-cross-section",
    "beach_dist_km": 418.9,
    "bridge_proximity_bonus": 0.0,
    "catchment_area_km2": 3.241,
    "channel_width_m": 5.08,
    "channel_width_score": 1.0,
    "composite_score": 38.3246,
    "cso_density": 0.0,
    "ej_index": 0.5713,
    "elevation_m": 251.2056,
    "estuary_dist_km": 554.25,
    "feasibility_score": 54.8611,
    "flood_q10_cfs": null,
    "flow_score": 31.0255,
    "flow_velocity_ms": 0.5,
    "generation_score": 28.8421,
    "impact_score": 45.6213,
    "impervious_pct": null,
    "land_ownership": 0.5,
    "lat": 35.4181,
    "litter_complaint_density": 0.0,
    "lon": -82.1368,
    "navigable_dist_m": null,
    "npdes_points": 1,
    "pixel_col": 1406.0,
    "pixel_row": 996.0,
    "population_density": 19.6,
    "position_along": 0.5,
    "protected_area_score": 7.7026,
    "rank": 20,
    "road_access_m": 808.5,
    "road_access_score": 0.6,
    "road_density_km_km2": 0.683,
    "robustness_pct": 0.0,
    "runoff_coeff_C": null,
    "seasonal_cv": null,
    "segment_id": 29,
    "segment_length_m": 1112.4145,
    "stream_order": 1,
    "superfund_score": 0.0007,
    "tourism_amenity_density": 0.0796,
    "tri_facility_density": 0.0,
    "usgs_mean_q_cfs": null,
    "velocity_feasibility": 1.0,
    "water_intake_score": 0.81
   },
   "type": "Feature"
  },
  {
   "geometry": {
    "coordinates": [
     -82.288384,
     35.478179
    ],
    "type": "Point"
   },
   "properties": {
    "accumulation": 83720.0,
    "bank_slope_deg": 33.44,
    "bank_slope_score": 0.2,
    "bank_slope_source": "nc-dps-lidar-dem03-cross-section",
    "beach_dist_km": 434.01,
    "bridge_proximity_bonus": 0.0,
    "catchment_area_km2": 8.3593,
    "channel_width_m": 7.53,
    "channel_width_score": 1.0,
    "composite_score": 38.0072,
    "cso_density": 0.0,
    "ej_index": 0.4254,
    "elevation_m": 519.7951,
    "estuary_dist_km": 568.29,
    "feasibility_score": 43.75,
    "flood_q10_cfs": null,
    "flow_score": 50.5872,
    "flow_velocity_ms": 0.5,
    "generation_score": 12.8427,
    "impact_score": 49.8169,
    "impervious_pct": null,
    "land_ownership": 0.5,
    "lat": 35.4782,
    "litter_complaint_density": 0.0,
    "lon": -82.2884,
    "navigable_dist_m": null,
    "npdes_points": 1,
    "pixel_col": 34.0,
    "pixel_row": 314.0,
    "population_density": 14.4,
    "position_along": 0.75,
    "protected_area_score": 13.646,
    "rank": 21,
    "road_access_m": 577.5,
    "road_access_score": 0.6,
    "road_density_km_km2": 0.722,
    "robustness_pct": 0.0,
    "runoff_coeff_C": null,
    "seasonal_cv": null,
    "segment_id": 5,
    "segment_length_m": 3446.1557,
    "stream_order": 3,
    "superfund_score": 0.0119,
    "tourism_amenity_density": 0.0796,
    "tri_facility_density": 0.0,
    "usgs_mean_q_cfs": null,
    "velocity_feasibility": 1.0,
    "water_intake_score": 1.0501
   },
   "type": "Feature"
  },
  {
   "geometry": {
    "coordinates": [
     -82.288869,
     35.458967
    ],
    "type": "Point"
   },
   "properties": {
    "accumulation": 74166.0,
    "bank_slope_deg": 25.42,
    "bank_slope_score": 0.5,
    "bank_slope_source": "nc-dps-lidar-dem03-cross-section",
    "beach_dist_km": 433.41,
    "bridge_proximity_bonus": 0.0,
    "catchment_area_km2": 7.4054,
    "channel_width_m": 7.16,
    "channel_width_score": 1.0,
    "composite_score": 37.8455,
    "cso_density": 0.0,
    "ej_index": 0.2853,
    "elevation_m": 463.154,
    "estuary_dist_km": 568.22,
    "feasibility_score": 54.8611,
    "flood_q10_cfs": null,
    "flow_score": 33.6964,
    "flow_velocity_ms": 0.5,
    "generation_score": 30.6159,
    "impact_score": 40.025,
    "impervious_pct": null,
    "land_ownership": 0.5,
    "lat": 35.459,
    "litter_complaint_density": 0.0,
    "lon": -82.2889,
    "navigable_dist_m": null,
    "npdes_points": 3,
    "pixel_col": 28.0,
    "pixel_row": 527.0,
    "population_density": 15.7,
    "position_along": 0.8333,
    "protected_area_score": 13.6601,
    "rank": 22,
    "road_access_m": 404.3,
    "road_access_score": 0.8,
    "road_density_km_km2": 0.919,
    "robustness_pct": 0.0,
    "runoff_coeff_C": null,
    "seasonal_cv": null,
    "segment_id": 13,
    "segment_length_m": 4520.0208,
    "stream_order": 1,
    "superfund_score": 0.0059,
    "tourism_amenity_density": 0.4775,
    "tri_facility_density": 0.0,
    "usgs_mean_q_cfs": null,
    "velocity_feasibility": 1.0,
    "water_intake_score": 1.0402
   },
   "type": "Feature"
  },
  {
   "geometry": {
    "coordinates": [
     -82.243628,
     35.408326
    ],
    "type": "Point"
   },
   "properties": {
    "accumulation": 27539.0,
    "bank_slope_deg": 49.03,
    "bank_slope_score": 0.1,
    "bank_slope_source": "nc-dps-lidar-dem03-cross-section",
    "beach_dist_km": 427.83,
    "bridge_proximity_bonus": 0.0,
    "catchment_area_km2": 2.7497,
    "channel_width_m": 4.75,
    "channel_width_score": 1.0,
    "composite_score": 37.5731,
    "cso_density": 0.0,
    "ej_index": 0.2711,
    "elevation_m": 487.548,
    "estuary_dist_km": 563.88,
    "feasibility_score": 50.6944,
    "flood_q10_cfs": null,
    "flow_score": 39.0899,
    "flow_velocity_ms": 0.411,
    "generation_score": 30.3751,
    "impact_score": 36.9463,
    "impervious_pct": 0.12,
    "land_ownership": 1.0,
    "lat": 35.4083,
    "litter_complaint_density": 0.0,
    "lon": -82.2436,
    "navigable_dist_m": null,
    "npdes_points": 0,
    "pixel_col": 434.0,
    "pixel_row": 1093.0,
    "population_density": 22.3,
    "position_along": 0.25,
    "protected_area_score": 12.0229,
    "rank": 23,
    "road_access_m": 1263.7,
    "road_access_score": 0.3,
    "road_density_km_km2": 0.0,
    "robustness_pct": 0.0,
    "runoff_coeff_C": 0.0511,
    "seasonal_cv": 0.4801,
    "segment_id": 33,
    "segment_length_m": 3093.9967,
    "stream_order": 3,
    "superfund_score": 0.0014,
    "tourism_amenity_density": 0.3979,
    "tri_facility_density": 0.0,
    "usgs_mean_q_cfs": 8.066,
    "velocity_feasibility": 1.0,
    "water_intake_score": 0.9842
   },
   "type": "Feature"
  },
  {
   "geometry": {
    "coordinates": [
     -82.208261,
     35.40582
    ],
    "type": "Point"
   },
   "properties": {
    "accumulation": 50214.0,
    "bank_slope_deg": 9.38,
    "bank_slope_score": 1.0,
    "bank_slope_source": "nc-dps-lidar-dem03-cross-section",
    "beach_dist_km": 424.69,
    "bridge_proximity_bonus": 0.0,
    "catchment_area_km2": 5.0138,
    "channel_width_m": 6.09,
    "channel_width_score": 1.0,
    "composite_score": 37.4329,
    "cso_density": 0.0,
    "ej_index": 0.3514,
    "elevation_m": 325.8216,
    "estuary_dist_km": 560.67,
    "feasibility_score": 43.75,
    "flood_q10_cfs": null,
    "flow_score": 28.0223,
    "flow_velocity_ms": 0.1358,
    "generation_score": 38.4685,
    "impact_score": 41.0808,
    "impervious_pct": 0.31,
    "land_ownership": 0.5,
    "lat": 35.4058,
    "litter_complaint_density": 0.0,
    "lon": -82.2083,
    "navigable_dist_m": null,
    "npdes_points": 1,
    "pixel_col": 755.0,
    "pixel_row": 1124.0,
    "population_density": 21.0,
    "position_along": 0.1667,
    "protected_area_score": 11.4535,
    "rank": 24,
    "road_access_m": 123.0,
    "road_access_score": 1.0,
    "road_density_km_km2": 1.59,
    "robustness_pct": 0.0,
    "runoff_coeff_C": 0.0528,
    "seasonal_cv": 0.5089,
    "segment_id": 36,
    "segment_length_m": 4983.8109,
    "stream_order": 3,
    "superfund_score": 0.0011,
    "tourism_amenity_density": 0.3979,
    "tri_facility_density": 0.0,
    "usgs_mean_q_cfs": 4.94,
    "velocity_feasibility": 0.7,
    "water_intake_score": 0.9194
   },
   "type": "Feature"
  },
  {
   "geometry": {
    "coordinates": [
     -82.27734,
     35.487358
    ],
    "type": "Point"
   },
   "properties": {
    "accumulation": 55364.0,
    "bank_slope_deg": 21.0,
    "bank_slope_score": 0.5,
    "bank_slope_source": "nc-dps-lidar-dem03-cross-section",
    "beach_dist_km": 433.37,
    "bridge_proximity_bonus": 0.0,
    "catchment_area_km2": 5.528,
    "channel_width_m": 6.34,
    "channel_width_score": 1.0,
    "composite_score": 37.1107,
    "cso_density": 0.0,
    "ej_index": 0.5784,
    "elevation_m": 584.0988,
    "estuary_dist_km": 567.34,
    "feasibility_score": 47.9167,
    "flood_q10_cfs": null,
    "flow_score": 48.7713,
    "flow_velocity_ms": 0.5,
    "generation_score": 1.3772,
    "impact_score": 57.7241,
    "impervious_pct": null,
    "land_ownership": 0.5,
    "lat": 35.4874,
    "litter_complaint_density": 0.0,
    "lon": -82.2773,
    "navigable_dist_m": null,
    "npdes_points": 0,
    "pixel_col": 135.0,
    "pixel_row": 213.0,
    "population_density": 12.9,
    "position_along": 0.25,
    "protected_area_score": 13.129,
    "rank": 25,
    "road_access_m": 906.9,
    "road_access_score": 0.6,
    "road_density_km_km2": 0.647,
    "robustness_pct": 3.0,
    "runoff_coeff_C": null,
    "seasonal_cv": null,
    "segment_id": 5,
    "segment_length_m": 3446.1557,
    "stream_order": 3,
    "superfund_score": 0.0128,
    "tourism_amenity_density": 0.0,
    "tri_facility_density": 0.0,
    "usgs_mean_q_cfs": null,
    "velocity_feasibility": 1.0,
    "water_intake_score": 1.037
   },
   "type": "Feature"
  },
  {
   "geometry": {
    "coordinates": [
     -82.134779,
     35.445615
    ],
    "type": "Point"
   },
   "properties": {
    "accumulation": 139465.0,
    "bank_slope_deg": 26.08,
    "bank_slope_score": 0.5,
    "bank_slope_source": "nc-dps-lidar-dem03-cross-section",
    "beach_dist_km": 419.66,
    "bridge_proximity_bonus": 0.0,
    "catchment_area_km2": 13.9253,
    "channel_width_m": 9.31,
    "channel_width_score": 1.0,
    "composite_score": 36.7717,
    "cso_density": 0.0,
    "ej_index": 0.5482,
    "elevation_m": 317.9406,
    "estuary_dist_km": 554.21,
    "feasibility_score": 29.8611,
    "flood_q10_cfs": null,
    "flow_score": 34.9055,
    "flow_velocity_ms": 0.0675,
    "generation_score": 36.2373,
    "impact_score": 42.3164,
    "impervious_pct": 2.56,
    "land_ownership": 0.5,
    "lat": 35.4456,
    "litter_complaint_density": 0.0,
    "lon": -82.1348,
    "navigable_dist_m": null,
    "npdes_points": 0,
    "pixel_col": 1428.0,
    "pixel_row": 691.0,
    "population_density": 14.5,
    "position_along": 0.5,
    "protected_area_score": 7.9091,
    "rank": 26,
    "road_access_m": 255.7,
    "road_access_score": 0.8,
    "road_density_km_km2": 1.641,
    "robustness_pct": 0.0,
    "runoff_coeff_C": 0.073,
    "seasonal_cv": 0.4799,
    "segment_id": 22,
    "segment_length_m": 827.7778,
    "stream_order": 3,
    "superfund_score": 0.0008,
    "tourism_amenity_density": 0.0,
    "tri_facility_density": 0.0,
    "usgs_mean_q_cfs": 11.993,
    "velocity_feasibility": 0.7,
    "water_intake_score": 0.7842
   },
   "type": "Feature"
  },
  {
   "geometry": {
    "coordinates": [
     -82.141243,
     35.448555
    ],
    "type": "Point"
   },
   "properties": {
    "accumulation": 22822.0,
    "bank_slope_deg": 19.46,
    "bank_slope_score": 0.5,
    "bank_slope_source": "nc-dps-lidar-dem03-cross-section",
    "beach_dist_km": 420.31,
    "bridge_proximity_bonus": 0.0,
    "catchment_area_km2": 2.2787,
    "channel_width_m": 4.39,
    "channel_width_score": 1.0,
    "composite_score": 36.3233,
    "cso_density": 0.0,
    "ej_index": 0.547,
    "elevation_m": 323.2477,
    "estuary_dist_km": 554.81,
    "feasibility_score": 29.8611,
    "flood_q10_cfs": null,
    "flow_score": 25.9969,
    "flow_velocity_ms": 0.1444,
    "generation_score": 41.8154,
    "impact_score": 42.6676,
    "impervious_pct": 3.07,
    "land_ownership": 0.5,
    "lat": 35.4486,
    "litter_complaint_density": 0.0,
    "lon": -82.1412,
    "navigable_dist_m": null,
    "npdes_points": 0,
    "pixel_col": 1369.0,
    "pixel_row": 659.0,
    "population_density": 14.2,
    "position_along": 0.5,
    "protected_area_score": 8.2943,
    "rank": 27,
    "road_access_m": 303.3,
    "road_access_score": 0.8,
    "road_density_km_km2": 2.096,
    "robustness_pct": 0.0,
    "runoff_coeff_C": 0.0776,
    "seasonal_cv": 0.6461,
    "segment_id": 21,
    "segment_length_m": 761.9699,
    "stream_order": 3,
    "superfund_score": 0.0008,
    "tourism_amenity_density": 0.0796,
    "tri_facility_density": 0.0,
    "usgs_mean_q_cfs": 2.094,
    "velocity_feasibility": 0.7,
    "water_intake_score": 0.7872
   },
   "type": "Feature"
  },
  {
   "geometry": {
    "coordinates": [
     -82.236104,
     35.418961
    ],
    "type": "Point"
   },
   "properties": {
    "accumulation": 54917.0,
    "bank_slope_deg": 30.4,
    "bank_slope_score": 0.2,
    "bank_slope_source": "nc-dps-lidar-dem03-cross-section",
    "beach_dist_km": 427.53,
    "bridge_proximity_bonus": 0.0,
    "catchment_area_km2": 5.4834,
    "channel_width_m": 6.32,
    "channel_width_score": 1.0,
    "composite_score": 36.2243,
    "cso_density": 0.0,
    "ej_index": 0.2539,
    "elevation_m": 359.959,
    "estuary_dist_km": 563.25,
    "feasibility_score": 32.6389,
    "flood_q10_cfs": null,
    "flow_score": 34.6208,
    "flow_velocity_ms": 0.2833,
    "generation_score": 33.9445,
    "impact_score": 41.6329,
    "impervious_pct": 0.12,
    "land_ownership": 0.5,
    "lat": 35.419,
    "litter_complaint_density": 0.0,
    "lon": -82.2361,
    "navigable_dist_m": null,
    "npdes_points": 0,
    "pixel_col": 502.0,
    "pixel_row": 973.0,
    "population_density": 22.6,
    "position_along": 0.75,
    "protected_area_score": 12.52,
    "rank": 28,
    "road_access_m": 63.2,
    "road_access_score": 1.0,
    "road_density_km_km2": 1.241,
    "robustness_pct": 0.0,
    "runoff_coeff_C": 0.0511,
    "seasonal_cv": 0.4801,
    "segment_id": 33,
    "segment_length_m": 3093.9967,
    "stream_order": 3,
    "superfund_score": 0.0016,
    "tourism_amenity_density": 1.7507,
    "tri_facility_density": 0.0,
    "usgs_mean_q_cfs": 8.066,
    "velocity_feasibility": 0.7,
    "water_intake_score": 0.9498
   },
   "type": "Feature"
  },
  {
   "geometry": {
    "coordinates": [
     -82.191993,
     35.465295
    ],
    "type": "Point"
   },
   "properties": {
    "accumulation": 107387.0,
    "bank_slope_deg": 12.86,
    "bank_slope_score": 1.0,
    "bank_slope_source": "nc-dps-lidar-dem03-cross-section",
    "beach_dist_km": 425.26,
    "bridge_proximity_bonus": 0.0,
    "catchment_area_km2": 10.7224,
    "channel_width_m": 8.35,
    "channel_width_score": 1.0,
    "composite_score": 36.0376,
    "cso_density": 0.0,
    "ej_index": 0.3882,
    "elevation_m": 313.2836,
    "estuary_dist_km": 559.5,
    "feasibility_score": 43.75,
    "flood_q10_cfs": null,
    "flow_score": 39.2838,
    "flow_velocity_ms": 0.2718,
    "generation_score": 23.3776,
    "impact_score": 42.1363,
    "impervious_pct": 0.31,
    "land_ownership": 0.5,
    "lat": 35.4653,
    "litter_complaint_density": 0.0,
    "lon": -82.192,
    "navigable_dist_m": null,
    "npdes_points": 0,
    "pixel_col": 909.0,
    "pixel_row": 468.0,
    "population_density": 15.4,
    "position_along": 0.1667,
    "protected_area_score": 11.2948,
    "rank": 29,
    "road_access_m": 66.4,
    "road_access_score": 1.0,
    "road_density_km_km2": 5.769,
    "robustness_pct": 0.0,
    "runoff_coeff_C": 0.0528,
    "seasonal_cv": 0.4222,
    "segment_id": 17,
    "segment_length_m": 5167.1032,
    "stream_order": 3,
    "superfund_score": 0.0017,
    "tourism_amenity_density": 1.1141,
    "tri_facility_density": 0.0,
    "usgs_mean_q_cfs": 13.811,
    "velocity_feasibility": 0.7,
    "water_intake_score": 0.85
   },
   "type": "Feature"
  },
  {
   "geometry": {
    "coordinates": [
     -82.163311,
     35.454159
    ],
    "type": "Point"
   },
   "properties": {
    "accumulation": 20611.0,
    "bank_slope_deg": 12.32,
    "bank_slope_score": 1.0,
    "bank_slope_source": "nc-dps-lidar-dem03-cross-section",
    "beach_dist_km": 422.41,
    "bridge_proximity_bonus": 0.0,
    "catchment_area_km2": 2.058,
    "channel_width_m": 4.21,
    "channel_width_score": 1.0,
    "composite_score": 35.9768,
    "cso_density": 0.0,
    "ej_index": 0.5446,
    "elevation_m": 336.4774,
    "estuary_dist_km": 556.84,
    "feasibility_score": 43.75,
    "flood_q10_cfs": null,
    "flow_score": 24.8995,
    "flow_velocity_ms": 0.146,
    "generation_score": 32.3259,
    "impact_score": 44.9722,
    "impervious_pct": 1.48,
    "land_ownership": 0.5,
    "lat": 35.4542,
    "litter_complaint_density": 0.0,
    "lon": -82.1633,
    "navigable_dist_m": null,
    "npdes_points": 0,
    "pixel_col": 1169.0,
    "pixel_row": 595.0,
    "population_density": 15.0,
    "position_along": 0.5,
    "protected_area_score": 10.0418,
    "rank": 30,
    "road_access_m": 124.2,
    "road_access_score": 1.0,
    "road_density_km_km2": 4.586,
    "robustness_pct": 0.0,
    "runoff_coeff_C": 0.0633,
    "seasonal_cv": 0.6323,
    "segment_id": 19,
    "segment_length_m": 532.4385,
    "stream_order": 3,
    "superfund_score": 0.0011,
    "tourism_amenity_density": 0.2387,
    "tri_facility_density": 0.0,
    "usgs_mean_q_cfs": 2.376,
    "velocity_feasibility": 0.7,
    "water_intake_score": 0.7985
   },
   "type": "Feature"
  },
  {
   "geometry": {
    "coordinates": [
     -82.278724,
     35.462645
    ],
    "type": "Point"
   },
   "properties": {
    "accumulation": 46485.0,
    "bank_slope_deg": 23.68,
    "bank_slope_score": 0.5,
    "bank_slope_source": "nc-dps-lidar-dem03-cross-section",
    "beach_dist_km": 432.65,
    "bridge_proximity_bonus": 0.0,
    "catchment_area_km2": 4.6414,
    "channel_width_m": 5.9,
    "channel_width_score": 1.0,
    "composite_score": 35.193,
    "cso_density": 0.0,
    "ej_index": 0.295,
    "elevation_m": 587.1694,
    "estuary_dist_km": 567.33,
    "feasibility_score": 54.8611,
    "flood_q10_cfs": null,
    "flow_score": 25.3729,
    "flow_velocity_ms": 0.426,
    "generation_score": 28.9935,
    "impact_score": 39.7417,
    "impervious_pct": 0.4,
    "land_ownership": 0.5,
    "lat": 35.4626,
    "litter_complaint_density": 0.0,
    "lon": -82.2787,
    "navigable_dist_m": null,
    "npdes_points": 2,
    "pixel_col": 119.0,
    "pixel_row": 486.0,
    "population_density": 15.5,
    "position_along": 0.5,
    "protected_area_score": 13.4221,
    "rank": 31,
    "road_access_m": 464.5,
    "road_access_score": 0.8,
    "road_density_km_km2": 1.539,
    "robustness_pct": 0.0,
    "runoff_coeff_C": 0.0536,
    "seasonal_cv": 0.4657,
    "segment_id": 13,
    "segment_length_m": 4520.0208,
    "stream_order": 1,
    "superfund_score": 0.0059,
    "tourism_amenity_density": 0.4775,
    "tri_facility_density": 0.0,
    "usgs_mean_q_cfs": 8.813,
    "velocity_feasibility": 1.0,
    "water_intake_score": 1.0149
   },
   "type": "Feature"
  },
  {
   "geometry": {
    "coordinates": [
     -82.256347,
     35.501349
    ],
    "type": "Point"
   },
   "properties": {
    "accumulation": 68827.0,
    "bank_slope_deg": 21.51,
    "bank_slope_score": 0.5,
    "bank_slope_source": "nc-dps-lidar-dem03-cross-section",
    "beach_dist_km": 432.04,
    "bridge_proximity_bonus": 0.0,
    "catchment_area_km2": 6.8723,
    "channel_width_m": 6.94,
    "channel_width_score": 1.0,
    "composite_score": 34.482,
    "cso_density": 0.0,
    "ej_index": 0.5784,
    "elevation_m": 660.1099,
    "estuary_dist_km": 565.53,
    "feasibility_score": 47.9167,
    "flood_q10_cfs": null,
    "flow_score": 39.8611,
    "flow_velocity_ms": 0.3464,
    "generation_score": 2.9825,
    "impact_score": 54.7815,
    "impervious_pct": 0.2,
    "land_ownership": 0.5,
    "lat": 35.5013,
    "litter_complaint_density": 0.0,
    "lon": -82.2563,
    "navigable_dist_m": null,
    "npdes_points": 0,
    "pixel_col": 327.0,
    "pixel_row": 57.0,
    "population_density": 12.9,
    "position_along": 0.5,
    "protected_area_score": 12.2565,
    "rank": 32,
    "road_access_m": 634.8,
    "road_access_score": 0.6,
    "road_density_km_km2": 0.381,
    "robustness_pct": 0.0,
    "runoff_coeff_C": 0.0518,
    "seasonal_cv": 0.4275,
    "segment_id": 7,
    "segment_length_m": 1303.6906,
    "stream_order": 3,
    "superfund_score": 0.0086,
    "tourism_amenity_density": 0.0,
    "tri_facility_density": 0.0,
    "usgs_mean_q_cfs": 11.72,
    "velocity_feasibility": 1.0,
    "water_intake_score": 1.0221
   },
   "type": "Feature"
  },
  {
   "geometry": {
    "coordinates": [
     -82.203416,
     35.470447
    ],
    "type": "Point"
   },
   "properties": {
    "accumulation": 77074.0,
    "bank_slope_deg": 38.05,
    "bank_slope_score": 0.2,
    "bank_slope_source": "nc-dps-lidar-dem03-cross-section",
    "beach_dist_km": 426.42,
    "bridge_proximity_bonus": 0.0,
    "catchment_area_km2": 7.6957,
    "channel_width_m": 7.28,
    "channel_width_score": 1.0,
    "composite_score": 33.9562,
    "cso_density": 0.0,
    "ej_index": 0.3361,
    "elevation_m": 361.1965,
    "estuary_dist_km": 560.56,
    "feasibility_score": 50.6944,
    "flood_q10_cfs": null,
    "flow_score": 38.7642,
    "flow_velocity_ms": 0.3241,
    "generation_score": 16.2321,
    "impact_score": 39.3045,
    "impervious_pct": 0.06,
    "land_ownership": 0.5,
    "lat": 35.4704,
    "litter_complaint_density": 0.0,
    "lon": -82.2034,
    "navigable_dist_m": null,
    "npdes_points": 0,
    "pixel_col": 807.0,
    "pixel_row": 408.0,
    "population_density": 14.5,
    "position_along": 0.5,
    "protected_area_score": 11.7239,
    "rank": 33,
    "road_access_m": 251.5,
    "road_access_score": 0.8,
    "road_density_km_km2": 4.995,
    "robustness_pct": 0.0,
    "runoff_coeff_C": 0.0505,
    "seasonal_cv": 0.446,
    "segment_id": 16,
    "segment_length_m": 1277.1422,
    "stream_order": 3,
    "superfund_score": 0.002,
    "tourism_amenity_density": 0.9549,
    "tri_facility_density": 0.0,
    "usgs_mean_q_cfs": 10.78,
    "velocity_feasibility": 1.0,
    "water_intake_score": 0.8709
   },
   "type": "Feature"
  },
  {
   "geometry": {
    "coordinates": [
     -82.186487,
     35.481621
    ],
    "type": "Point"
   },
   "properties": {
    "accumulation": 74638.0,
    "bank_slope_deg": 23.37,
    "bank_slope_score": 0.5,
    "bank_slope_source": "nc-dps-lidar-dem03-cross-section",
    "beach_dist_km": 425.35,
    "bridge_proximity_bonus": 0.0,
    "catchment_area_km2": 7.4525,
    "channel_width_m": 7.18,
    "channel_width_score": 1.0,
    "composite_score": 33.7175,
    "cso_density": 0.0,
    "ej_index": 0.4323,
    "elevation_m": 341.1815,
    "estuary_dist_km": 559.1,
    "feasibility_score": 55.5556,
    "flood_q10_cfs": null,
    "flow_score": 35.9515,
    "flow_velocity_ms": 0.2727,
    "generation_score": 13.5476,
    "impact_score": 41.1066,
    "impervious_pct": 0.18,
    "land_ownership": 1.0,
    "lat": 35.4816,
    "litter_complaint_density": 0.0,
    "lon": -82.1865,
    "navigable_dist_m": null,
    "npdes_points": 0,
    "pixel_col": 961.0,
    "pixel_row": 287.0,
    "population_density": 14.4,
    "position_along": 0.5,
    "protected_area_score": 10.9951,
    "rank": 34,
    "road_access_m": 162.8,
    "road_access_score": 1.0,
    "road_density_km_km2": 3.267,
    "robustness_pct": 0.0,
    "runoff_coeff_C": 0.0516,
    "seasonal_cv": 0.4611,
    "segment_id": 10,
    "segment_length_m": 1767.1865,
    "stream_order": 3,
    "superfund_score": 0.0017,
    "tourism_amenity_density": 0.2387,
    "tri_facility_density": 0.0,
    "usgs_mean_q_cfs": 9.442,
    "velocity_feasibility": 0.7,
    "water_intake_score": 0.8597
   },
   "type": "Feature"
  },
  {
   "geometry": {
    "coordinates": [
     -82.187124,
     35.488266
    ],
    "type": "Point"
   },
   "properties": {
    "accumulation": 22569.0,
    "bank_slope_deg": 26.14,
    "bank_slope_score": 0.5,
    "bank_slope_source": "nc-dps-lidar-dem03-cross-section",
    "beach_dist_km": 425.63,
    "bridge_proximity_bonus": 0.0,
    "catchment_area_km2": 2.2535,
    "channel_width_m": 4.37,
    "channel_width_score": 1.0,
    "composite_score": 33.0023,
    "cso_density": 0.0,
    "ej_index": 0.3779,
    "elevation_m": 383.3492,
    "estuary_dist_km": 559.19,
    "feasibility_score": 73.6111,
    "flood_q10_cfs": null,
    "flow_score": 31.2033,
    "flow_velocity_ms": 0.3026,
    "generation_score": 8.6863,
    "impact_score": 38.5132,
    "impervious_pct": 0.06,
    "land_ownership": 1.0,
    "lat": 35.4883,
    "litter_complaint_density": 0.0,
    "lon": -82.1871,
    "navigable_dist_m": null,
    "npdes_points": 0,
    "pixel_col": 958.0,
    "pixel_row": 211.0,
    "population_density": 14.5,
    "position_along": 0.5,
    "protected_area_score": 10.8893,
    "rank": 35,
    "road_access_m": 437.2,
    "road_access_score": 0.8,
    "road_density_km_km2": 1.45,
    "robustness_pct": 0.0,
    "runoff_coeff_C": 0.0505,
    "seasonal_cv": 0.5712,
    "segment_id": 9,
    "segment_length_m": 979.3784,
    "stream_order": 3,
    "superfund_score": 0.0018,
    "tourism_amenity_density": 0.1592,
    "tri_facility_density": 0.0,
    "usgs_mean_q_cfs": 3.157,
    "velocity_feasibility": 1.0,
    "water_intake_score": 0.8787
   },
   "type": "Feature"
  },
  {
   "geometry": {
    "coordinates": [
     -82.209275,
     35.472198
    ],
    "type": "Point"
   },
   "properties": {
    "accumulation": 20077.0,
    "bank_slope_deg": 23.02,
    "bank_slope_score": 0.5,
    "bank_slope_source": "nc-dps-lidar-dem03-cross-section",
    "beach_dist_km": 426.99,
    "bridge_proximity_bonus": 0.0,
    "catchment_area_km2": 2.0047,
    "channel_width_m": 4.16,
    "channel_width_score": 1.0,
    "composite_score": 31.9418,
    "cso_density": 0.0,
    "ej_index": 0.3245,
    "elevation_m": 395.7899,
    "estuary_dist_km": 561.1,
    "feasibility_score": 73.6111,
    "flood_q10_cfs": null,
    "flow_score": 31.2385,
    "flow_velocity_ms": 0.3112,
    "generation_score": 6.0638,
    "impact_score": 37.5713,
    "impervious_pct": 0.0,
    "land_ownership": 1.0,
    "lat": 35.4722,
    "litter_complaint_density": 0.0,
    "lon": -82.2093,
    "navigable_dist_m": null,
    "npdes_points": 0,
    "pixel_col": 754.0,
    "pixel_row": 385.0,
    "population_density": 14.5,
    "position_along": 0.5,
    "protected_area_score": 11.8476,
    "rank": 36,
    "road_access_m": 302.0,
    "road_access_score": 0.8,
    "road_density_km_km2": 0.524,
    "robustness_pct": 0.0,
    "runoff_coeff_C": 0.05,
    "seasonal_cv": 0.5788,
    "segment_id": 15,
    "segment_length_m": 86.5029,
    "stream_order": 3,
    "superfund_score": 0.0023,
    "tourism_amenity_density": 0.6366,
    "tri_facility_density": 0.0,
    "usgs_mean_q_cfs": 2.961,
    "velocity_feasibility": 1.0,
    "water_intake_score": 0.8818
   },
   "type": "Feature"
  },
  {
   "geometry": {
    "coordinates": [
     -82.215601,
     35.47537
    ],
    "type": "Point"
   },
   "properties": {
    "accumulation": 44513.0,
    "bank_slope_deg": 23.9,
    "bank_slope_score": 0.5,
    "bank_slope_source": "nc-dps-lidar-dem03-cross-section",
    "beach_dist_km": 427.64,
    "bridge_proximity_bonus": 0.0,
    "catchment_area_km2": 4.4445,
    "channel_width_m": 5.79,
    "channel_width_score": 1.0,
    "composite_score": 31.7248,
    "cso_density": 0.0,
    "ej_index": 0.3245,
    "elevation_m": 436.1611,
    "estuary_dist_km": 561.69,
    "feasibility_score": 66.6667,
    "flood_q10_cfs": null,
    "flow_score": 36.5501,
    "flow_velocity_ms": 0.3398,
    "generation_score": 5.8808,
    "impact_score": 36.0768,
    "impervious_pct": 0.03,
    "land_ownership": 1.0,
    "lat": 35.4754,
    "litter_complaint_density": 0.0,
    "lon": -82.2156,
    "navigable_dist_m": null,
    "npdes_points": 0,
    "pixel_col": 698.0,
    "pixel_row": 352.0,
    "population_density": 14.5,
    "position_along": 0.5,
    "protected_area_score": 11.7845,
    "rank": 37,
    "road_access_m": 934.4,
    "road_access_score": 0.6,
    "road_density_km_km2": 0.285,
    "robustness_pct": 0.0,
    "runoff_coeff_C": 0.0503,
    "seasonal_cv": 0.4761,
    "segment_id": 12,
    "segment_length_m": 1800.2985,
    "stream_order": 3,
    "superfund_score": 0.0026,
    "tourism_amenity_density": 0.3183,
    "tri_facility_density": 0.0,
    "usgs_mean_q_cfs": 7.758,
    "velocity_feasibility": 1.0,
    "water_intake_score": 0.8956
   },
   "type": "Feature"
  },
  {
   "geometry": {
    "coordinates": [
     -82.19891,
     35.471303
    ],
    "type": "Point"
   },
   "properties": {
    "accumulation": 24184.0,
    "bank_slope_deg": 15.56,
    "bank_slope_score": 0.5,
    "bank_slope_source": "nc-dps-lidar-dem03-cross-section",
    "beach_dist_km": 426.06,
    "bridge_proximity_bonus": 0.0,
    "catchment_area_km2": 2.4147,
    "channel_width_m": 4.5,
    "channel_width_score": 1.0,
    "composite_score": 31.2637,
    "cso_density": 0.0,
    "ej_index": 0.329,
    "elevation_m": 345.2406,
    "estuary_dist_km": 560.16,
    "feasibility_score": 36.8056,
    "flood_q10_cfs": null,
    "flow_score": 28.4852,
    "flow_velocity_ms": 0.245,
    "generation_score": 23.3524,
    "impact_score": 38.7197,
    "impervious_pct": 0.16,
    "land_ownership": 0.5,
    "lat": 35.4713,
    "litter_complaint_density": 0.0,
    "lon": -82.1989,
    "navigable_dist_m": null,
    "npdes_points": 0,
    "pixel_col": 849.0,
    "pixel_row": 400.0,
    "population_density": 14.5,
    "position_along": 0.5,
    "protected_area_score": 11.5638,
    "rank": 38,
    "road_access_m": 111.0,
    "road_access_score": 1.0,
    "road_density_km_km2": 7.83,
    "robustness_pct": 0.0,
    "runoff_coeff_C": 0.0514,
    "seasonal_cv": 0.5912,
    "segment_id": 14,
    "segment_length_m": 365.9963,
    "stream_order": 3,
    "superfund_score": 0.0019,
    "tourism_amenity_density": 0.9549,
    "tri_facility_density": 0.0,
    "usgs_mean_q_cfs": 2.861,
    "velocity_feasibility": 0.7,
    "water_intake_score": 0.8649
   },
   "type": "Feature"
  },
  {
   "geometry": {
    "coordinates": [
     -82.246582,
     35.498928
    ],
    "type": "Point"
   },
   "properties": {
    "accumulation": 21599.0,
    "bank_slope_deg": 32.91,
    "bank_slope_score": 0.2,
    "bank_slope_source": "nc-dps-lidar-dem03-cross-section",
    "beach_dist_km": 431.12,
    "bridge_proximity_bonus": 0.0,
    "catchment_area_km2": 2.1566,
    "channel_width_m": 4.29,
    "channel_width_score": 1.0,
    "composite_score": 30.3626,
    "cso_density": 0.0,
    "ej_index": 0.5784,
    "elevation_m": 734.4922,
    "estuary_dist_km": 564.64,
    "feasibility_score": 33.3333,
    "flood_q10_cfs": null,
    "flow_score": 34.869,
    "flow_velocity_ms": 0.329,
    "generation_score": 2.3887,
    "impact_score": 53.0958,
    "impervious_pct": 0.22,
    "land_ownership": 0.5,
    "lat": 35.4989,
    "litter_complaint_density": 0.0,
    "lon": -82.2466,
    "navigable_dist_m": null,
    "npdes_points": 0,
    "pixel_col": 415.0,
    "pixel_row": 87.0,
    "population_density": 12.9,
    "position_along": 0.5,
    "protected_area_score": 12.0677,
    "rank": 39,
    "road_access_m": 1493.1,
    "road_access_score": 0.3,
    "road_density_km_km2": 0.0,
    "robustness_pct": 0.0,
    "runoff_coeff_C": 0.052,
    "seasonal_cv": 0.4681,
    "segment_id": 2,
    "segment_length_m": 1026.9159,
    "stream_order": 3,
    "superfund_score": 0.0063,
    "tourism_amenity_density": 0.0796,
    "tri_facility_density": 0.0,
    "usgs_mean_q_cfs": 7.847,
    "velocity_feasibility": 1.0,
    "water_intake_score": 0.9959
   },
   "type": "Feature"
  },
  {
   "geometry": {
    "coordinates": [
     -82.267135,
     35.467757
    ],
    "type": "Point"
   },
   "properties": {
    "accumulation": 36901.0,
    "bank_slope_deg": 23.43,
    "bank_slope_score": 0.5,
    "bank_slope_source": "nc-dps-lidar-dem03-cross-section",
    "beach_dist_km": 431.83,
    "bridge_proximity_bonus": 0.0,
    "catchment_area_km2": 3.6845,
    "channel_width_m": 5.36,
    "channel_width_score": 1.0,
    "composite_score": 30.0948,
    "cso_density": 0.0,
    "ej_index": 0.4295,
    "elevation_m": 862.1798,
    "estuary_dist_km": 566.31,
    "feasibility_score": 36.8056,
    "flood_q10_cfs": null,
    "flow_score": 14.179,
    "flow_velocity_ms": 0.1954,
    "generation_score": 24.9276,
    "impact_score": 45.1699,
    "impervious_pct": 0.4,
    "land_ownership": 0.5,
    "lat": 35.4678,
    "litter_complaint_density": 0.0,
    "lon": -82.2671,
    "navigable_dist_m": null,
    "npdes_points": 2,
    "pixel_col": 226.0,
    "pixel_row": 432.0,
    "population_density": 14.1,
    "position_along": 0.1667,
    "protected_area_score": 13.0857,
    "rank": 40,
    "road_access_m": 145.0,
    "road_access_score": 1.0,
    "road_density_km_km2": 1.663,
    "robustness_pct": 0.0,
    "runoff_coeff_C": 0.0536,
    "seasonal_cv": 0.4657,
    "segment_id": 13,
    "segment_length_m": 4520.0208,
    "stream_order": 1,
    "superfund_score": 0.0057,
    "tourism_amenity_density": 0.2387,
    "tri_facility_density": 0.0,
    "usgs_mean_q_cfs": 8.813,
    "velocity_feasibility": 0.7,
    "water_intake_score": 0.9898
   },
   "type": "Feature"
  },
  {
   "geometry": {
    "coordinates": [
     -82.227111,
     35.442805
    ],
    "type": "Point"
   },
   "properties": {
    "accumulation": 45372.0,
    "bank_slope_deg": 37.1,
    "bank_slope_score": 0.2,
    "bank_slope_source": "nc-dps-lidar-dem03-cross-section",
    "beach_dist_km": 427.53,
    "bridge_proximity_bonus": 0.0,
    "catchment_area_km2": 4.5303,
    "channel_width_m": 5.84,
    "channel_width_score": 1.0,
    "composite_score": 29.5908,
    "cso_density": 0.0,
    "ej_index": 0.3167,
    "elevation_m": 340.0037,
    "estuary_dist_km": 562.55,
    "feasibility_score": 50.6944,
    "flood_q10_cfs": null,
    "flow_score": 18.8946,
    "flow_velocity_ms": 0.3098,
    "generation_score": 14.7865,
    "impact_score": 42.7569,
    "impervious_pct": 0.22,
    "land_ownership": 0.5,
    "lat": 35.4428,
    "litter_complaint_density": 0.0,
    "lon": -82.2271,
    "navigable_dist_m": null,
    "npdes_points": 0,
    "pixel_col": 587.0,
    "pixel_row": 714.0,
    "population_density": 15.4,
    "position_along": 0.5,
    "protected_area_score": 12.2644,
    "rank": 41,
    "road_access_m": 336.4,
    "road_access_score": 0.8,
    "road_density_km_km2": 2.192,
    "robustness_pct": 0.0,
    "runoff_coeff_C": 0.052,
    "seasonal_cv": 0.4855,
    "segment_id": 23,
    "segment_length_m": 1803.7273,
    "stream_order": 1,
    "superfund_score": 0.002,
    "tourism_amenity_density": 1.9099,
    "tri_facility_density": 0.0,
    "usgs_mean_q_cfs": 7.847,
    "velocity_feasibility": 1.0,
    "water_intake_score": 0.9006
   },
   "type": "Feature"
  },
  {
   "geometry": {
    "coordinates": [
     -82.18206,
     35.489707
    ],
    "type": "Point"
   },
   "properties": {
    "accumulation": 23327.0,
    "bank_slope_deg": 21.82,
    "bank_slope_score": 0.5,
    "bank_slope_source": "nc-dps-lidar-dem03-cross-section",
    "beach_dist_km": 425.25,
    "bridge_proximity_bonus": 0.0,
    "catchment_area_km2": 2.3292,
    "channel_width_m": 4.43,
    "channel_width_score": 1.0,
    "composite_score": 28.8938,
    "cso_density": 0.0,
    "ej_index": 0.4392,
    "elevation_m": 366.7362,
    "estuary_dist_km": 558.75,
    "feasibility_score": 36.8056,
    "flood_q10_cfs": null,
    "flow_score": 28.5079,
    "flow_velocity_ms": 0.2182,
    "generation_score": 12.424,
    "impact_score": 41.7294,
    "impervious_pct": 0.31,
    "land_ownership": 0.5,
    "lat": 35.4897,
    "litter_complaint_density": 0.0,
    "lon": -82.1821,
    "navigable_dist_m": null,
    "npdes_points": 0,
    "pixel_col": 1002.0,
    "pixel_row": 198.0,
    "population_density": 14.4,
    "position_along": 0.5,
    "protected_area_score": 10.664,
    "rank": 42,
    "road_access_m": 53.6,
    "road_access_score": 1.0,
    "road_density_km_km2": 2.076,
    "robustness_pct": 0.0,
    "runoff_coeff_C": 0.0528,
    "seasonal_cv": 0.5417,
    "segment_id": 8,
    "segment_length_m": 569.9836,
    "stream_order": 3,
    "superfund_score": 0.0017,
    "tourism_amenity_density": 0.1592,
    "tri_facility_density": 0.0,
    "usgs_mean_q_cfs": 4.106,
    "velocity_feasibility": 0.7,
    "water_intake_score": 0.8747
   },
   "type": "Feature"
  },
  {
   "geometry": {
    "coordinates": [
     -82.139726,
     35.500811
    ],
    "type": "Point"
   },
   "properties": {
    "accumulation": 42472.0,
    "bank_slope_deg": 17.34,
    "bank_slope_score": 0.5,
    "bank_slope_source": "nc-dps-lidar-dem03-cross-section",
    "beach_dist_km": 422.0,
    "bridge_proximity_bonus": 0.0,
    "catchment_area_km2": 4.2408,
    "channel_width_m": 5.68,
    "channel_width_score": 1.0,
    "composite_score": 27.3648,
    "cso_density": 0.0,
    "ej_index": 0.5142,
    "elevation_m": 327.4997,
    "estuary_dist_km": 554.99,
    "feasibility_score": 36.8056,
    "flood_q10_cfs": null,
    "flow_score": 18.3984,
    "flow_velocity_ms": 0.1375,
    "generation_score": 15.6642,
    "impact_score": 41.8171,
    "impervious_pct": 0.4,
    "land_ownership": 0.5,
    "lat": 35.5008,
    "litter_complaint_density": 0.0,
    "lon": -82.1397,
    "navigable_dist_m": null,
    "npdes_points": 0,
    "pixel_col": 1390.0,
    "pixel_row": 76.0,
    "population_density": 15.8,
    "position_along": 0.5,
    "protected_area_score": 7.7619,
    "rank": 43,
    "road_access_m": 198.3,
    "road_access_score": 1.0,
    "road_density_km_km2": 1.105,
    "robustness_pct": 0.0,
    "runoff_coeff_C": 0.0536,
    "seasonal_cv": 0.3234,
    "segment_id": 0,
    "segment_length_m": 1915.3583,
    "stream_order": 1,
    "superfund_score": 0.001,
    "tourism_amenity_density": 0.0796,
    "tri_facility_density": 0.0,
    "usgs_mean_q_cfs": 39.49,
    "velocity_feasibility": 0.7,
    "water_intake_score": 0.8431
   },
   "type": "Feature"
  },
  {
   "geometry": {
    "coordinates": [
     -82.248508,
     35.495244
    ],
    "type": "Point"
   },
   "properties": {
    "accumulation": 27485.0,
    "bank_slope_deg": 25.54,
    "bank_slope_score": 0.5,
    "bank_slope_source": "nc-dps-lidar-dem03-cross-section",
    "beach_dist_km": 431.16,
    "bridge_proximity_bonus": 0.0,
    "catchment_area_km2": 2.7443,
    "channel_width_m": 4.74,
    "channel_width_score": 1.0,
    "composite_score": 26.559,
    "cso_density": 0.0,
    "ej_index": 0.5784,
    "elevation_m": 714.5754,
    "estuary_dist_km": 564.79,
    "feasibility_score": 12.5,
    "flood_q10_cfs": null,
    "flow_score": 32.3089,
    "flow_velocity_ms": 0.2643,
    "generation_score": 2.3887,
    "impact_score": 52.9672,
    "impervious_pct": 0.22,
    "land_ownership": 0.5,
    "lat": 35.4952,
    "litter_complaint_density": 0.0,
    "lon": -82.2485,
    "navigable_dist_m": null,
    "npdes_points": 0,
    "pixel_col": 398.0,
    "pixel_row": 125.0,
    "population_density": 12.9,
    "position_along": 0.5,
    "protected_area_score": 12.1964,
    "rank": 44,
    "road_access_m": 1403.4,
    "road_access_score": 0.3,
    "road_density_km_km2": 0.0,
    "robustness_pct": 0.0,
    "runoff_coeff_C": 0.052,
    "seasonal_cv": 0.4681,
    "segment_id": 6,
    "segment_length_m": 974.9453,
    "stream_order": 3,
    "superfund_score": 0.0064,
    "tourism_amenity_density": 0.0796,
    "tri_facility_density": 0.0,
    "usgs_mean_q_cfs": 7.847,
    "velocity_feasibility": 0.7,
    "water_intake_score": 0.9908
   },
   "type": "Feature"
  },
  {
   "geometry": {
    "coordinates": [
     -82.203021,
     35.437657
    ],
    "type": "Point"
   },
   "properties": {
    "accumulation": 21012.0,
    "bank_slope_deg": 35.58,
    "bank_slope_score": 0.2,
    "bank_slope_source": "nc-dps-lidar-dem03-cross-section",
    "beach_dist_km": 425.28,
    "bridge_proximity_bonus": 0.0,
    "catchment_area_km2": 2.098,
    "channel_width_m": 4.24,
    "channel_width_score": 1.0,
    "composite_score": 26.5336,
    "cso_density": 0.0,
    "ej_index": 0.3123,
    "elevation_m": 302.4738,
    "estuary_dist_km": 560.35,
    "feasibility_score": 32.6389,
    "flood_q10_cfs": null,
    "flow_score": 10.4236,
    "flow_velocity_ms": 0.2139,
    "generation_score": 28.7483,
    "impact_score": 34.6911,
    "impervious_pct": 1.0,
    "land_ownership": 0.5,
    "lat": 35.4377,
    "litter_complaint_density": 0.0,
    "lon": -82.203,
    "navigable_dist_m": null,
    "npdes_points": 0,
    "pixel_col": 807.0,
    "pixel_row": 773.0,
    "population_density": 15.9,
    "position_along": 0.5,
    "protected_area_score": 11.6649,
    "rank": 45,
    "road_access_m": 13.3,
    "road_access_score": 1.0,
    "road_density_km_km2": 4.046,
    "robustness_pct": 0.0,
    "runoff_coeff_C": 0.059,
    "seasonal_cv": 0.6432,
    "segment_id": 25,
    "segment_length_m": 426.9551,
    "stream_order": 1,
    "superfund_score": 0.0015,
    "tourism_amenity_density": 0.2387,
    "tri_facility_density": 0.0,
    "usgs_mean_q_cfs": 2.029,
    "velocity_feasibility": 0.7,
    "water_intake_score": 0.8566
   },
   "type": "Feature"
  },
  {
   "geometry": {
    "coordinates": [
     -82.179932,
     35.499035
    ],
    "type": "Point"
   },
   "properties": {
    "accumulation": 27884.0,
    "bank_slope_deg": 22.41,
    "bank_slope_score": 0.5,
    "bank_slope_source": "nc-dps-lidar-dem03-cross-section",
    "beach_dist_km": 425.39,
    "bridge_proximity_bonus": 0.0,
    "catchment_area_km2": 2.7842,
    "channel_width_m": 4.77,
    "channel_width_score": 1.0,
    "composite_score": 24.3167,
    "cso_density": 0.0,
    "ej_index": 0.4003,
    "elevation_m": 404.1655,
    "estuary_dist_km": 558.61,
    "feasibility_score": 29.8611,
    "flood_q10_cfs": null,
    "flow_score": 14.1022,
    "flow_velocity_ms": 0.2467,
    "generation_score": 14.4381,
    "impact_score": 39.9353,
    "impervious_pct": 0.56,
    "land_ownership": 0.5,
    "lat": 35.499,
    "litter_complaint_density": 0.0,
    "lon": -82.1799,
    "navigable_dist_m": null,
    "npdes_points": 0,
    "pixel_col": 1024.0,
    "pixel_row": 92.0,
    "population_density": 14.4,
    "position_along": 0.5,
    "protected_area_score": 10.4489,
    "rank": 46,
    "road_access_m": 209.6,
    "road_access_score": 0.8,
    "road_density_km_km2": 1.747,
    "robustness_pct": 0.0,
    "runoff_coeff_C": 0.055,
    "seasonal_cv": 0.5292,
    "segment_id": 1,
    "segment_length_m": 2913.7172,
    "stream_order": 1,
    "superfund_score": 0.0017,
    "tourism_amenity_density": 0.0796,
    "tri_facility_density": 0.0,
    "usgs_mean_q_cfs": 4.262,
    "velocity_feasibility": 0.7,
    "water_intake_score": 0.8929
   },
   "type": "Feature"
  },
  {
   "geometry": {
    "coordinates": [
     -82.141102,
     35.478787
    ],
    "type": "Point"
   },
   "properties": {
    "accumulation": 41042.0,
    "bank_slope_deg": 25.76,
    "bank_slope_score": 0.5,
    "bank_slope_source": "nc-dps-lidar-dem03-cross-section",
    "beach_dist_km": 421.35,
    "bridge_proximity_bonus": 0.0,
    "catchment_area_km2": 4.098,
    "channel_width_m": 5.6,
    "channel_width_score": 1.0,
    "composite_score": 24.2593,
    "cso_density": 0.0,
    "ej_index": 0.547,
    "elevation_m": 334.4271,
    "estuary_dist_km": 554.98,
    "feasibility_score": 36.8056,
    "flood_q10_cfs": null,
    "flow_score": 12.2242,
    "flow_velocity_ms": 0.1902,
    "generation_score": 10.5326,
    "impact_score": 41.7421,
    "impervious_pct": 0.32,
    "land_ownership": 0.5,
    "lat": 35.4788,
    "litter_complaint_density": 0.0,
    "lon": -82.1411,
    "navigable_dist_m": null,
    "npdes_points": 0,
    "pixel_col": 1374.0,
    "pixel_row": 322.0,
    "population_density": 14.2,
    "position_along": 0.5,
    "protected_area_score": 7.8243,
    "rank": 47,
    "road_access_m": 171.6,
    "road_access_score": 1.0,
    "road_density_km_km2": 1.427,
    "robustness_pct": 0.0,
    "runoff_coeff_C": 0.0529,
    "seasonal_cv": 0.5508,
    "segment_id": 11,
    "segment_length_m": 2764.5412,
    "stream_order": 1,
    "superfund_score": 0.001,
    "tourism_amenity_density": 0.0796,
    "tri_facility_density": 0.0,
    "usgs_mean_q_cfs": 4.73,
    "velocity_feasibility": 0.7,
    "water_intake_score": 0.8046
   },
   "type": "Feature"
  },
  {
   "geometry": {
    "coordinates": [
     -82.150502,
     35.397431
    ],
    "type": "Point"
   },
   "properties": {
    "accumulation": 31414.0,
    "bank_slope_deg": 20.47,
    "bank_slope_score": 0.5,
    "bank_slope_source": "nc-dps-lidar-dem03-cross-section",
    "beach_dist_km": 419.41,
    "bridge_proximity_bonus": 0.0,
    "catchment_area_km2": 3.1366,
    "channel_width_m": 5.01,
    "channel_width_score": 1.0,
    "composite_score": 23.4576,
    "cso_density": 0.0,
    "ej_index": 0.405,
    "elevation_m": 298.6969,
    "estuary_dist_km": 555.4,
    "feasibility_score": 12.5,
    "flood_q10_cfs": null,
    "flow_score": 9.6727,
    "flow_velocity_ms": 0.1306,
    "generation_score": 24.2423,
    "impact_score": 39.6393,
    "impervious_pct": 0.78,
    "land_ownership": 0.5,
    "lat": 35.3974,
    "litter_complaint_density": 0.0,
    "lon": -82.1505,
    "navigable_dist_m": null,
    "npdes_points": 0,
    "pixel_col": 1277.0,
    "pixel_row": 1226.0,
    "population_density": 18.0,
    "position_along": 0.5,
    "protected_area_score": 8.3391,
    "rank": 48,
    "road_access_m": 1199.1,
    "road_access_score": 0.3,
    "road_density_km_km2": 0.0,
    "robustness_pct": 0.0,
    "runoff_coeff_C": 0.057,
    "seasonal_cv": 0.5616,
    "segment_id": 35,
    "segment_length_m": 1889.936,
    "stream_order": 1,
    "superfund_score": 0.0006,
    "tourism_amenity_density": 0.0,
    "tri_facility_density": 0.0,
    "usgs_mean_q_cfs": 3.679,
    "velocity_feasibility": 0.7,
    "water_intake_score": 0.8624
   },
   "type": "Feature"
  },
  {
   "geometry": {
    "coordinates": [
     -82.28944,
     35.409343
    ],
    "type": "Point"
   },
   "properties": {
    "accumulation": 22378.0,
    "bank_slope_deg": 32.17,
    "bank_slope_score": 0.2,
    "bank_slope_source": "nc-dps-lidar-dem03-cross-section",
    "beach_dist_km": 431.84,
    "bridge_proximity_bonus": 0.0,
    "catchment_area_km2": 2.2344,
    "channel_width_m": 4.36,
    "channel_width_score": 1.0,
    "composite_score": 21.1246,
    "cso_density": 0.0,
    "ej_index": 0.2853,
    "elevation_m": 694.0947,
    "estuary_dist_km": 568.04,
    "feasibility_score": 1.3889,
    "flood_q10_cfs": null,
    "flow_score": 17.6522,
    "flow_velocity_ms": 0.273,
    "generation_score": 12.2429,
    "impact_score": 42.768,
    "impervious_pct": 0.33,
    "land_ownership": 0.5,
    "lat": 35.4093,
    "litter_complaint_density": 0.0,
    "lon": -82.2894,
    "navigable_dist_m": null,
    "npdes_points": 0,
    "pixel_col": 16.0,
    "pixel_row": 1074.0,
    "population_density": 15.7,
    "position_along": 0.5,
    "protected_area_score": 13.8892,
    "rank": 49,
    "road_access_m": 4208.1,
    "road_access_score": 0.1,
    "road_density_km_km2": 0.0,
    "robustness_pct": 0.0,
    "runoff_coeff_C": 0.053,
    "seasonal_cv": 0.425,
    "segment_id": 32,
    "segment_length_m": 558.2767,
    "stream_order": 1,
    "superfund_score": 0.0018,
    "tourism_amenity_density": 0.0796,
    "tri_facility_density": 0.0,
    "usgs_mean_q_cfs": 14.482,
    "velocity_feasibility": 0.7,
    "water_intake_score": 1.1131
   },
   "type": "Feature"
  }
 ],
 "note": "GRIME region 'Lake Lure, NC' \u2014 real-data pipeline (DEM\u2192streams\u2192candidates\u2192stream mask (sites confined to \u00b1150 m of mapped OSM/NHD waterways)\u2192region-appropriate real parameters\u2192shipped scoring, math unchanged). Width curve: Bieger et al. 2015 JAWRA Table 3, Appalachian Highlands. Flood: not applicable here (documented fallback). NC Blue Ridge (outside SIR 2014-5030 urban coverage); merged nearby towns: Chimney Rock Village",
 "provenance": {
  "candidates_pre_gate": 49,
  "constant": [
   "channel_width_score",
   "cso_density",
   "flood_q10_cfs",
   "litter_complaint_density",
   "tri_facility_density"
  ],
  "gated_navigable": 0,
  "hard_gate_removed": 0,
  "n_parameters": 27,
  "parameters": {
   "bank_slope_score": {
    "kind": "real",
    "n_3dep_10m_fallback": 0,
    "n_nc_lidar_3_125ft": 49,
    "n_real": 49,
    "n_sites": 49,
    "source": "NC OneMap / NC DPS DEM03 statewide lidar-derived 3.125-ft (0.953 m) elevations (perpendicular 50 m transect; robust 5 m bank-rise metric); unavailable profiles use the region 10 m 3DEP DEM-gradient fallback",
    "source_mosaics": [
     "Buncombe_QL1_2025_03ft_CountywideRaster",
     "Henderson_QL1_2025_03ft_CountywideRaster",
     "Polk_Ground_3ft",
     "Rutherford_QL1_2025_03ft_CountywideRaster"
    ]
   },
   "beach_dist_km": {
    "kind": "real",
    "n_real": 49,
    "n_sites": 49,
    "source": "haversine to region ref: Wrightsville Beach (shipped NC reference)"
   },
   "bridge_proximity_bonus": {
    "kind": "real",
    "n_real": 49,
    "n_sites": 49,
    "source": "FHWA/BTS NBI (NTAD), 50 m proximity"
   },
   "catchment_area_km2": {
    "kind": "real",
    "n_real": 49,
    "n_sites": 49,
    "source": "DEM flow accumulation (pipeline)"
   },
   "channel_width_score": {
    "kind": "real",
    "n_real": 49,
    "n_sites": 49,
    "source": "Bieger 2015 AHI width curve on DEM drainage area \u2192 shipped width curve"
   },
   "cso_density": {
    "kind": "real",
    "n_real": 49,
    "n_sites": 49,
    "source": "EPA ECHO open CSO/TCS outfall PF coordinates states=NC, Cauchy proximity"
   },
   "ej_index": {
    "kind": "real",
    "n_real": 49,
    "n_sites": 49,
    "source": "Census ACS C17002+B03002 two-component demographic index, percentile-ranked within region"
   },
   "estuary_dist_km": {
    "kind": "real",
    "n_real": 49,
    "n_sites": 49,
    "source": "haversine to region ref: Pamlico Sound (shipped NC reference)"
   },
   "flood_q10_cfs": {
    "impervious_fallback_reason": "StreamCat imperviousness unavailable; the existing regression-input fallback of 0.0% impervious was used and is disclosed here",
    "kind": "fallback",
    "n_impervious_fallback": 10,
    "n_real": 0,
    "n_sites": 49,
    "source": "flood regression not valid here (NC Blue Ridge (outside SIR 2014-5030 urban coverage); merged...) \u2014 NaN, dropped by constant-column handling"
   },
   "flow_velocity_ms": {
    "fallback_reason": "EROM/DEM continuity input unavailable; shipped 0.5 m/s default used",
    "kind": "real",
    "n_fallback": 10,
    "n_real": 39,
    "n_sites": 49,
    "source": "Manning (region DEM/D8) blended with EROM continuity (shipped M4 logic)"
   },
   "impervious_pct": {
    "fallback_reason": "NLDI/StreamCat did not return a snap-compatible catchment value; value remains null and is removed by constant-column handling",
    "kind": "real",
    "n_fallback": 10,
    "n_real": 39,
    "n_sites": 49,
    "source": "EPA StreamCat pctimp2019 (per NHDPlus watershed)"
   },
   "land_ownership": {
    "fallback_reason": "no containing parcel owner returned; shipped unknown ownership 0.5 used",
    "kind": "real",
    "n_fallback": 1,
    "n_real": 48,
    "n_sites": 49,
    "source": "NC OneMap statewide parcels (NC Parcels Transformer) ownname"
   },
   "litter_complaint_density": {
    "kind": "fallback",
    "n_real": 0,
    "n_sites": 49,
    "source": "no public machine-readable litter/illegal-dumping feed for this region"
   },
   "navigable_dist_m": {
    "kind": "real",
    "n_real": 49,
    "n_sites": 49,
    "source": "USACE/BTS NWN (NTAD): no navigable segment within this bbox (+2 km) \u2014 computed absence, gate passes all sites"
   },
   "npdes_points": {
    "kind": "real",
    "n_real": 49,
    "n_sites": 49,
    "source": "EPA ECHO active NPDES outfalls states=NC (types NPD/GPC/NGP; statuses ADC/EFF/EXP), per catchment"
   },
   "population_density": {
    "kind": "real",
    "n_real": 49,
    "n_sites": 49,
    "source": "Census ACS 2022 B01003 block groups (bbox, multi-county), area-weighted"
   },
   "protected_area_score": {
    "kind": "real",
    "n_real": 49,
    "n_sites": 49,
    "source": "USGS PAD-US 4.1 state GDB; states=NC; shipped designation-weighted proximity curve"
   },
   "road_access_score": {
    "kind": "real",
    "n_real": 49,
    "n_sites": 49,
    "source": "OSM drive network nearest-node distance"
   },
   "road_density_km_km2": {
    "kind": "real",
    "n_real": 49,
    "n_sites": 49,
    "source": "OSM drive network (osmnx, cached) clipped per catchment"
   },
   "runoff_coeff_C": {
    "fallback_reason": "source impervious_pct was unavailable; derived value remains null",
    "kind": "real",
    "n_fallback": 10,
    "n_real": 39,
    "n_sites": 49,
    "source": "derived from real impervious_pct (C=0.05+0.009*I)"
   },
   "seasonal_cv": {
    "fallback_reason": "NHDPlus monthly EROM was unavailable or failed the drainage-area snap guard; value remains null",
    "kind": "real",
    "n_fallback": 10,
    "n_real": 39,
    "n_sites": 49,
    "source": "CV of NHDPlus EROM monthly flows per COMID"
   },
   "stream_order": {
    "kind": "real",
    "n_real": 49,
    "n_sites": 49,
    "source": "DEM stream-network confluence heuristic (pipeline)"
   },
   "superfund_score": {
    "kind": "real",
    "n_real": 49,
    "n_sites": 49,
    "source": "EPA DataMap SEMS active sites states=NC (non-archived, georeferenced), shipped 500 m inverse-distance curve"
   },
   "tourism_amenity_density": {
    "kind": "real",
    "n_real": 49,
    "n_sites": 49,
    "source": "OSM leisure/tourism features per 2 km radius"
   },
   "tri_facility_density": {
    "kind": "real",
    "n_real": 49,
    "n_sites": 49,
    "source": "EPA DataMap TRI open facilities states=NC (preferred decimal or packed-DMS recovery), per catchment"
   },
   "usgs_mean_q_cfs": {
    "fallback_reason": "NHDPlus EROM was unavailable or failed the drainage-area snap guard; value remains null",
    "kind": "real",
    "n_fallback": 10,
    "n_real": 39,
    "n_sites": 49,
    "source": "NHDPlus EROM qe_ma per COMID (snap-guarded)"
   },
   "velocity_feasibility": {
    "fallback_reason": "derived from the shipped 0.5 m/s velocity fallback",
    "kind": "real",
    "n_fallback": 10,
    "n_real": 39,
    "n_sites": 49,
    "source": "shipped step curve on the computed velocity"
   },
   "velocity_transport_favorability": {
    "fallback_reason": "EROM/DEM continuity input unavailable; shipped 0.5 m/s default used",
    "kind": "derived",
    "n_fallback": 10,
    "n_real": 39,
    "n_sites": 49,
    "source": "scored form of flow_velocity_ms inside the Flow family \u2014 peaked Gaussian exp(-((v-0.9)/0.6)^2), model.json curves.velocity_transport_favorability; construct: transport/delivery favorability, deliberately distinct from velocity_feasibility (device operability)"
   },
   "water_intake_score": {
    "kind": "real",
    "n_real": 49,
    "n_sites": 49,
    "source": "NC OneMap / NC DEQ SWAP public water supply sources (source_typ='Surface Water'), shipped exp(-d/10km) curve"
   }
  },
  "stream_mask": {
   "buffer_m": 150.0,
   "pre_mask": 49,
   "removed": 0,
   "sources": [
    "osm-overpass (all waterway ways)",
    "usgs-nhdplus flowlines"
   ]
  },
  "varying": [
   "bank_slope_score",
   "beach_dist_km",
   "bridge_proximity_bonus",
   "catchment_area_km2",
   "ej_index",
   "estuary_dist_km",
   "flow_velocity_ms",
   "impervious_pct",
   "land_ownership",
   "npdes_points",
   "population_density",
   "protected_area_score",
   "road_access_score",
   "road_density_km_km2",
   "runoff_coeff_C",
   "seasonal_cv",
   "stream_order",
   "superfund_score",
   "tourism_amenity_density",
   "usgs_mean_q_cfs",
   "velocity_feasibility",
   "water_intake_score"
  ]
 },
 "region": {
  "bbox": [
   -82.2909,
   35.3905,
   -82.1312,
   35.5063
  ],
  "beach_ref": {
   "label": "Wrightsville Beach (shipped NC reference)",
   "lat": 34.21,
   "lon": -77.79
  },
  "center": [
   -82.2022,
   35.448384
  ],
  "estuary_ref": {
   "label": "Pamlico Sound (shipped NC reference)",
   "lat": 35.05,
   "lon": -76.05
  },
  "flood_method": "none",
  "name": "Lake Lure, NC",
  "notes": "NC Blue Ridge (outside SIR 2014-5030 urban coverage); merged nearby towns: Chimney Rock Village",
  "slug": "lake-lure",
  "state": "NC",
  "utm_epsg": 32617,
  "width_curve": {
   "a": 3.12,
   "b": 0.415,
   "code": "AHI",
   "source": "Bieger et al. 2015 JAWRA Table 3, Appalachian Highlands"
  }
 },
 "type": "FeatureCollection"
}
