{
 "features": [
  {
   "geometry": {
    "coordinates": [
     -81.49402,
     36.485632
    ],
    "type": "Point"
   },
   "properties": {
    "accumulation": 115981.0,
    "bank_slope_deg": 18.02,
    "bank_slope_score": 0.5,
    "bank_slope_source": "nc-dps-lidar-dem03-cross-section",
    "beach_dist_km": 420.52,
    "bridge_proximity_bonus": 0.0,
    "catchment_area_km2": 11.5534,
    "channel_width_m": 8.61,
    "channel_width_score": 1.0,
    "composite_score": 60.2735,
    "cso_density": 0.0,
    "ej_index": 0.6199,
    "elevation_m": 800.4665,
    "estuary_dist_km": 516.37,
    "feasibility_score": 54.5455,
    "flood_q10_cfs": null,
    "flow_score": 61.1111,
    "flow_velocity_ms": 0.5,
    "generation_score": 33.5827,
    "impact_score": 89.1304,
    "impervious_pct": null,
    "land_ownership": 0.5,
    "lat": 36.4856,
    "litter_complaint_density": 0.0,
    "lon": -81.494,
    "navigable_dist_m": null,
    "npdes_points": 0,
    "pixel_col": 344.0,
    "pixel_row": 355.0,
    "population_density": 35.5,
    "position_along": 0.75,
    "protected_area_score": 10.7498,
    "rank": 1,
    "road_access_m": 320.8,
    "road_access_score": 0.8,
    "road_density_km_km2": 0.748,
    "robustness_pct": 100.0,
    "runoff_coeff_C": null,
    "seasonal_cv": null,
    "segment_id": 2,
    "segment_length_m": 3977.7772,
    "stream_order": 3,
    "superfund_score": 0.0,
    "tourism_amenity_density": 0.3183,
    "tri_facility_density": 0.0866,
    "usgs_mean_q_cfs": null,
    "velocity_feasibility": 1.0,
    "water_intake_score": 0.5925
   },
   "type": "Feature"
  },
  {
   "geometry": {
    "coordinates": [
     -81.506445,
     36.501363
    ],
    "type": "Point"
   },
   "properties": {
    "accumulation": 26819.0,
    "bank_slope_deg": 26.34,
    "bank_slope_score": 0.5,
    "bank_slope_source": "nc-dps-lidar-dem03-cross-section",
    "beach_dist_km": 422.44,
    "bridge_proximity_bonus": 0.0,
    "catchment_area_km2": 2.6716,
    "channel_width_m": 4.69,
    "channel_width_score": 1.0,
    "composite_score": 54.9378,
    "cso_density": 0.0,
    "ej_index": 0.4685,
    "elevation_m": 817.135,
    "estuary_dist_km": 517.93,
    "feasibility_score": 63.6364,
    "flood_q10_cfs": null,
    "flow_score": 38.8889,
    "flow_velocity_ms": 0.147,
    "generation_score": 83.0721,
    "impact_score": 35.8282,
    "impervious_pct": 0.67,
    "land_ownership": 0.5,
    "lat": 36.5014,
    "litter_complaint_density": 0.0,
    "lon": -81.5064,
    "navigable_dist_m": null,
    "npdes_points": 0,
    "pixel_col": 230.0,
    "pixel_row": 182.0,
    "population_density": 30.1,
    "position_along": 0.5,
    "protected_area_score": 9.8911,
    "rank": 2,
    "road_access_m": 114.6,
    "road_access_score": 1.0,
    "road_density_km_km2": 2.63,
    "robustness_pct": 100.0,
    "runoff_coeff_C": 0.056,
    "seasonal_cv": 0.9349,
    "segment_id": 0,
    "segment_length_m": 1228.1654,
    "stream_order": 3,
    "superfund_score": 0.0,
    "tourism_amenity_density": 0.6366,
    "tri_facility_density": 0.3743,
    "usgs_mean_q_cfs": 5.126,
    "velocity_feasibility": 0.7,
    "water_intake_score": 0.5026
   },
   "type": "Feature"
  },
  {
   "geometry": {
    "coordinates": [
     -81.507752,
     36.491324
    ],
    "type": "Point"
   },
   "properties": {
    "accumulation": 87416.0,
    "bank_slope_deg": 40.42,
    "bank_slope_score": 0.2,
    "bank_slope_source": "nc-dps-lidar-dem03-cross-section",
    "beach_dist_km": 421.88,
    "bridge_proximity_bonus": 0.0,
    "catchment_area_km2": 8.7079,
    "channel_width_m": 7.66,
    "channel_width_score": 1.0,
    "composite_score": 46.2904,
    "cso_density": 0.0,
    "ej_index": 0.5262,
    "elevation_m": 804.6639,
    "estuary_dist_km": 517.73,
    "feasibility_score": 36.3636,
    "flood_q10_cfs": null,
    "flow_score": 53.1018,
    "flow_velocity_ms": 0.5,
    "generation_score": 29.637,
    "impact_score": 62.2311,
    "impervious_pct": null,
    "land_ownership": 0.5,
    "lat": 36.4913,
    "litter_complaint_density": 0.0,
    "lon": -81.5078,
    "navigable_dist_m": null,
    "npdes_points": 0,
    "pixel_col": 221.0,
    "pixel_row": 293.0,
    "population_density": 31.2,
    "position_along": 0.25,
    "protected_area_score": 10.4285,
    "rank": 3,
    "road_access_m": 258.4,
    "road_access_score": 0.8,
    "road_density_km_km2": 1.677,
    "robustness_pct": 100.0,
    "runoff_coeff_C": null,
    "seasonal_cv": null,
    "segment_id": 2,
    "segment_length_m": 3977.7772,
    "stream_order": 3,
    "superfund_score": 0.0,
    "tourism_amenity_density": 0.6366,
    "tri_facility_density": 0.1148,
    "usgs_mean_q_cfs": null,
    "velocity_feasibility": 1.0,
    "water_intake_score": 0.549
   },
   "type": "Feature"
  },
  {
   "geometry": {
    "coordinates": [
     -81.518108,
     36.505235
    ],
    "type": "Point"
   },
   "properties": {
    "accumulation": 38112.0,
    "bank_slope_deg": 29.65,
    "bank_slope_score": 0.5,
    "bank_slope_source": "nc-dps-lidar-dem03-cross-section",
    "beach_dist_km": 423.54,
    "bridge_proximity_bonus": 0.0,
    "catchment_area_km2": 3.7965,
    "channel_width_m": 5.43,
    "channel_width_score": 1.0,
    "composite_score": 32.4419,
    "cso_density": 0.0,
    "ej_index": 0.5017,
    "elevation_m": 808.717,
    "estuary_dist_km": 519.06,
    "feasibility_score": 100.0,
    "flood_q10_cfs": null,
    "flow_score": 39.2774,
    "flow_velocity_ms": 0.5,
    "generation_score": 10.2486,
    "impact_score": 15.16,
    "impervious_pct": null,
    "land_ownership": 0.5,
    "lat": 36.5052,
    "litter_complaint_density": 0.0,
    "lon": -81.5181,
    "navigable_dist_m": null,
    "npdes_points": 0,
    "pixel_col": 129.0,
    "pixel_row": 136.0,
    "population_density": 26.8,
    "position_along": 0.5,
    "protected_area_score": 9.3941,
    "rank": 4,
    "road_access_m": 174.4,
    "road_access_score": 1.0,
    "road_density_km_km2": 2.021,
    "robustness_pct": 100.0,
    "runoff_coeff_C": null,
    "seasonal_cv": null,
    "segment_id": 1,
    "segment_length_m": 2168.6024,
    "stream_order": 3,
    "superfund_score": 0.0,
    "tourism_amenity_density": 0.6366,
    "tri_facility_density": 0.0,
    "usgs_mean_q_cfs": null,
    "velocity_feasibility": 1.0,
    "water_intake_score": 0.462
   },
   "type": "Feature"
  }
 ],
 "note": "GRIME region 'Lansing, NC' \u2014 real-data pipeline (DEM\u2192streams\u2192candidates\u2192stream mask (sites confined to \u00b1150 m of mapped OSM/NHD waterways)\u2192region-appropriate real parameters\u2192shipped scoring, math unchanged). Width curve: Bieger et al. 2015 JAWRA Table 3, Appalachian Highlands. Flood: not applicable here (documented fallback). NC Blue Ridge (outside SIR 2014-5030 urban coverage)",
 "provenance": {
  "candidates_pre_gate": 4,
  "constant": [
   "bridge_proximity_bonus",
   "channel_width_score",
   "cso_density",
   "flood_q10_cfs",
   "land_ownership",
   "litter_complaint_density",
   "npdes_points",
   "stream_order",
   "superfund_score"
  ],
  "gated_navigable": 0,
  "hard_gate_removed": 0,
  "n_parameters": 27,
  "parameters": {
   "bank_slope_score": {
    "kind": "real",
    "n_3dep_10m_fallback": 0,
    "n_nc_lidar_3_125ft": 4,
    "n_real": 4,
    "n_sites": 4,
    "source": "NC OneMap / NC DPS DEM03 statewide lidar-derived 3.125-ft (0.953 m) elevations (perpendicular 50 m transect; robust 5 m bank-rise metric); unavailable profiles use the region 10 m 3DEP DEM-gradient fallback",
    "source_mosaics": [
     "Ashe_QL1_2025_03ft_CountywideRaster"
    ]
   },
   "beach_dist_km": {
    "kind": "real",
    "n_real": 4,
    "n_sites": 4,
    "source": "haversine to region ref: Wrightsville Beach (shipped NC reference)"
   },
   "bridge_proximity_bonus": {
    "kind": "real",
    "n_real": 4,
    "n_sites": 4,
    "source": "FHWA/BTS NBI (NTAD), 50 m proximity"
   },
   "catchment_area_km2": {
    "kind": "real",
    "n_real": 4,
    "n_sites": 4,
    "source": "DEM flow accumulation (pipeline)"
   },
   "channel_width_score": {
    "kind": "real",
    "n_real": 4,
    "n_sites": 4,
    "source": "Bieger 2015 AHI width curve on DEM drainage area \u2192 shipped width curve"
   },
   "cso_density": {
    "kind": "real",
    "n_real": 4,
    "n_sites": 4,
    "source": "EPA ECHO open CSO/TCS outfall PF coordinates states=NC, Cauchy proximity"
   },
   "ej_index": {
    "kind": "real",
    "n_real": 4,
    "n_sites": 4,
    "source": "Census ACS C17002+B03002 two-component demographic index, percentile-ranked within region"
   },
   "estuary_dist_km": {
    "kind": "real",
    "n_real": 4,
    "n_sites": 4,
    "source": "haversine to region ref: Pamlico Sound (shipped NC reference)"
   },
   "flood_q10_cfs": {
    "impervious_fallback_reason": "StreamCat imperviousness unavailable; the existing regression-input fallback of 0.0% impervious was used and is disclosed here",
    "kind": "fallback",
    "n_impervious_fallback": 3,
    "n_real": 0,
    "n_sites": 4,
    "source": "flood regression not valid here (NC Blue Ridge (outside SIR 2014-5030 urban coverage)...) \u2014 NaN, dropped by constant-column handling"
   },
   "flow_velocity_ms": {
    "fallback_reason": "EROM/DEM continuity input unavailable; shipped 0.5 m/s default used",
    "kind": "real",
    "n_fallback": 3,
    "n_real": 1,
    "n_sites": 4,
    "source": "Manning (region DEM/D8) blended with EROM continuity (shipped M4 logic)"
   },
   "impervious_pct": {
    "fallback_reason": "NLDI/StreamCat did not return a snap-compatible catchment value; value remains null and is removed by constant-column handling",
    "kind": "real",
    "n_fallback": 3,
    "n_real": 1,
    "n_sites": 4,
    "source": "EPA StreamCat pctimp2019 (per NHDPlus watershed)"
   },
   "land_ownership": {
    "fallback_reason": "no containing parcel owner returned; shipped unknown ownership 0.5 used",
    "kind": "real",
    "n_fallback": 2,
    "n_real": 2,
    "n_sites": 4,
    "source": "NC OneMap statewide parcels (NC Parcels Transformer) ownname"
   },
   "litter_complaint_density": {
    "kind": "fallback",
    "n_real": 0,
    "n_sites": 4,
    "source": "no public machine-readable litter/illegal-dumping feed for this region"
   },
   "navigable_dist_m": {
    "kind": "real",
    "n_real": 4,
    "n_sites": 4,
    "source": "USACE/BTS NWN (NTAD): no navigable segment within this bbox (+2 km) \u2014 computed absence, gate passes all sites"
   },
   "npdes_points": {
    "kind": "real",
    "n_real": 4,
    "n_sites": 4,
    "source": "EPA ECHO active NPDES outfalls states=NC (types NPD/GPC/NGP; statuses ADC/EFF/EXP), per catchment"
   },
   "population_density": {
    "kind": "real",
    "n_real": 4,
    "n_sites": 4,
    "source": "Census ACS 2022 B01003 block groups (bbox, multi-county), area-weighted"
   },
   "protected_area_score": {
    "kind": "real",
    "n_real": 4,
    "n_sites": 4,
    "source": "USGS PAD-US 4.1 state GDB; states=NC; shipped designation-weighted proximity curve"
   },
   "road_access_score": {
    "kind": "real",
    "n_real": 4,
    "n_sites": 4,
    "source": "OSM drive network nearest-node distance"
   },
   "road_density_km_km2": {
    "kind": "real",
    "n_real": 4,
    "n_sites": 4,
    "source": "OSM drive network (osmnx, cached) clipped per catchment"
   },
   "runoff_coeff_C": {
    "fallback_reason": "source impervious_pct was unavailable; derived value remains null",
    "kind": "real",
    "n_fallback": 3,
    "n_real": 1,
    "n_sites": 4,
    "source": "derived from real impervious_pct (C=0.05+0.009*I)"
   },
   "seasonal_cv": {
    "fallback_reason": "NHDPlus monthly EROM was unavailable or failed the drainage-area snap guard; value remains null",
    "kind": "real",
    "n_fallback": 3,
    "n_real": 1,
    "n_sites": 4,
    "source": "CV of NHDPlus EROM monthly flows per COMID"
   },
   "stream_order": {
    "kind": "real",
    "n_real": 4,
    "n_sites": 4,
    "source": "DEM stream-network confluence heuristic (pipeline)"
   },
   "superfund_score": {
    "kind": "real",
    "n_real": 4,
    "n_sites": 4,
    "source": "EPA DataMap SEMS active sites states=NC (non-archived, georeferenced), shipped 500 m inverse-distance curve"
   },
   "tourism_amenity_density": {
    "kind": "real",
    "n_real": 4,
    "n_sites": 4,
    "source": "OSM leisure/tourism features per 2 km radius"
   },
   "tri_facility_density": {
    "kind": "real",
    "n_real": 4,
    "n_sites": 4,
    "source": "EPA DataMap TRI open facilities states=NC (preferred decimal or packed-DMS recovery), per catchment"
   },
   "usgs_mean_q_cfs": {
    "fallback_reason": "NHDPlus EROM was unavailable or failed the drainage-area snap guard; value remains null",
    "kind": "real",
    "n_fallback": 3,
    "n_real": 1,
    "n_sites": 4,
    "source": "NHDPlus EROM qe_ma per COMID (snap-guarded)"
   },
   "velocity_feasibility": {
    "fallback_reason": "derived from the shipped 0.5 m/s velocity fallback",
    "kind": "real",
    "n_fallback": 3,
    "n_real": 1,
    "n_sites": 4,
    "source": "shipped step curve on the computed velocity"
   },
   "velocity_transport_favorability": {
    "fallback_reason": "EROM/DEM continuity input unavailable; shipped 0.5 m/s default used",
    "kind": "derived",
    "n_fallback": 3,
    "n_real": 1,
    "n_sites": 4,
    "source": "scored form of flow_velocity_ms inside the Flow family \u2014 peaked Gaussian exp(-((v-0.9)/0.6)^2), model.json curves.velocity_transport_favorability; construct: transport/delivery favorability, deliberately distinct from velocity_feasibility (device operability)"
   },
   "water_intake_score": {
    "kind": "real",
    "n_real": 4,
    "n_sites": 4,
    "source": "NC OneMap / NC DEQ SWAP public water supply sources (source_typ='Surface Water'), shipped exp(-d/10km) curve"
   }
  },
  "stream_mask": {
   "buffer_m": 150.0,
   "pre_mask": 4,
   "removed": 0,
   "sources": [
    "osm-overpass (all waterway ways)",
    "usgs-nhdplus flowlines"
   ]
  },
  "varying": [
   "bank_slope_score",
   "beach_dist_km",
   "catchment_area_km2",
   "ej_index",
   "estuary_dist_km",
   "flow_velocity_ms",
   "impervious_pct",
   "population_density",
   "protected_area_score",
   "road_access_score",
   "road_density_km_km2",
   "runoff_coeff_C",
   "seasonal_cv",
   "tourism_amenity_density",
   "tri_facility_density",
   "usgs_mean_q_cfs",
   "velocity_feasibility",
   "water_intake_score"
  ]
 },
 "region": {
  "bbox": [
   -81.5321,
   36.4815,
   -81.4872,
   36.5175
  ],
  "beach_ref": {
   "label": "Wrightsville Beach (shipped NC reference)",
   "lat": 34.21,
   "lon": -77.79
  },
  "center": [
   -81.509641,
   36.49947
  ],
  "estuary_ref": {
   "label": "Pamlico Sound (shipped NC reference)",
   "lat": 35.05,
   "lon": -76.05
  },
  "flood_method": "none",
  "name": "Lansing, NC",
  "notes": "NC Blue Ridge (outside SIR 2014-5030 urban coverage)",
  "slug": "lansing",
  "state": "NC",
  "utm_epsg": 32617,
  "width_curve": {
   "a": 3.12,
   "b": 0.415,
   "code": "AHI",
   "source": "Bieger et al. 2015 JAWRA Table 3, Appalachian Highlands"
  }
 },
 "type": "FeatureCollection"
}
