{
 "features": [
  {
   "geometry": {
    "coordinates": [
     -78.813473,
     35.407576
    ],
    "type": "Point"
   },
   "properties": {
    "accumulation": 276007.0,
    "bank_slope_deg": 2.36,
    "bank_slope_score": 1.0,
    "bank_slope_source": "nc-dps-lidar-dem03-cross-section",
    "beach_dist_km": 162.68,
    "bridge_proximity_bonus": 0.0,
    "catchment_area_km2": 27.559,
    "channel_width_m": 7.4,
    "channel_width_score": 1.0,
    "composite_score": 62.1961,
    "cso_density": 0.0,
    "ej_index": 0.4359,
    "elevation_m": 34.6776,
    "estuary_dist_km": 254.13,
    "feasibility_score": 100.0,
    "flood_q10_cfs": 666.44,
    "flow_score": 55.1313,
    "flow_velocity_ms": 0.5,
    "generation_score": 40.6267,
    "impact_score": 70.7509,
    "impervious_pct": null,
    "land_ownership": 1.0,
    "lat": 35.4076,
    "litter_complaint_density": 0.0,
    "lon": -78.8135,
    "navigable_dist_m": null,
    "npdes_points": 19,
    "pixel_col": 490.0,
    "pixel_row": 565.0,
    "population_density": 96.2,
    "position_along": 0.5,
    "protected_area_score": 4.6802,
    "rank": 1,
    "road_access_m": 226.6,
    "road_access_score": 0.8,
    "road_density_km_km2": 3.077,
    "robustness_pct": 100.0,
    "runoff_coeff_C": null,
    "seasonal_cv": null,
    "segment_id": 14,
    "segment_length_m": 805.0767,
    "stream_order": 3,
    "superfund_score": 0.1236,
    "tourism_amenity_density": 1.2732,
    "tri_facility_density": 0.0363,
    "usgs_mean_q_cfs": null,
    "velocity_feasibility": 1.0,
    "water_intake_score": 1.5692
   },
   "type": "Feature"
  },
  {
   "geometry": {
    "coordinates": [
     -78.802022,
     35.402658
    ],
    "type": "Point"
   },
   "properties": {
    "accumulation": 352037.0,
    "bank_slope_deg": 0.0,
    "bank_slope_score": 1.0,
    "bank_slope_source": "nc-dps-lidar-dem03-cross-section",
    "beach_dist_km": 161.63,
    "bridge_proximity_bonus": 0.0,
    "catchment_area_km2": 35.1505,
    "channel_width_m": 8.08,
    "channel_width_score": 1.0,
    "composite_score": 60.0872,
    "cso_density": 0.0,
    "ej_index": 0.4193,
    "elevation_m": 34.4343,
    "estuary_dist_km": 253.02,
    "feasibility_score": 100.0,
    "flood_q10_cfs": 771.26,
    "flow_score": 58.9035,
    "flow_velocity_ms": 0.5,
    "generation_score": 33.8452,
    "impact_score": 67.3594,
    "impervious_pct": null,
    "land_ownership": 1.0,
    "lat": 35.4027,
    "litter_complaint_density": 0.0,
    "lon": -78.802,
    "navigable_dist_m": null,
    "npdes_points": 18,
    "pixel_col": 595.0,
    "pixel_row": 617.0,
    "population_density": 75.8,
    "position_along": 0.5,
    "protected_area_score": 4.8108,
    "rank": 2,
    "road_access_m": 291.5,
    "road_access_score": 0.8,
    "road_density_km_km2": 2.68,
    "robustness_pct": 100.0,
    "runoff_coeff_C": null,
    "seasonal_cv": null,
    "segment_id": 15,
    "segment_length_m": 1732.0712,
    "stream_order": 3,
    "superfund_score": 0.0777,
    "tourism_amenity_density": 1.2732,
    "tri_facility_density": 0.0284,
    "usgs_mean_q_cfs": null,
    "velocity_feasibility": 1.0,
    "water_intake_score": 1.4744
   },
   "type": "Feature"
  },
  {
   "geometry": {
    "coordinates": [
     -78.819513,
     35.41127
    ],
    "type": "Point"
   },
   "properties": {
    "accumulation": 240666.0,
    "bank_slope_deg": 0.0,
    "bank_slope_score": 1.0,
    "bank_slope_source": "nc-dps-lidar-dem03-cross-section",
    "beach_dist_km": 163.33,
    "bridge_proximity_bonus": 0.0,
    "catchment_area_km2": 24.0302,
    "channel_width_m": 7.04,
    "channel_width_score": 1.0,
    "composite_score": 57.9577,
    "cso_density": 0.0,
    "ej_index": 0.4406,
    "elevation_m": 34.796,
    "estuary_dist_km": 254.73,
    "feasibility_score": 85.7143,
    "flood_q10_cfs": 613.81,
    "flow_score": 53.3204,
    "flow_velocity_ms": 0.5,
    "generation_score": 40.2453,
    "impact_score": 65.6562,
    "impervious_pct": null,
    "land_ownership": 1.0,
    "lat": 35.4113,
    "litter_complaint_density": 0.0,
    "lon": -78.8195,
    "navigable_dist_m": null,
    "npdes_points": 18,
    "pixel_col": 434.0,
    "pixel_row": 524.0,
    "population_density": 107.4,
    "position_along": 0.5,
    "protected_area_score": 4.5389,
    "rank": 3,
    "road_access_m": 652.7,
    "road_access_score": 0.6,
    "road_density_km_km2": 3.264,
    "robustness_pct": 96.0,
    "runoff_coeff_C": null,
    "seasonal_cv": null,
    "segment_id": 12,
    "segment_length_m": 679.3139,
    "stream_order": 3,
    "superfund_score": 0.0892,
    "tourism_amenity_density": 1.2732,
    "tri_facility_density": 0.0,
    "usgs_mean_q_cfs": null,
    "velocity_feasibility": 1.0,
    "water_intake_score": 1.5943
   },
   "type": "Feature"
  },
  {
   "geometry": {
    "coordinates": [
     -78.823323,
     35.415912
    ],
    "type": "Point"
   },
   "properties": {
    "accumulation": 182319.0,
    "bank_slope_deg": 15.54,
    "bank_slope_score": 0.5,
    "bank_slope_source": "nc-dps-lidar-dem03-cross-section",
    "beach_dist_km": 163.95,
    "bridge_proximity_bonus": 0.0,
    "catchment_area_km2": 18.2044,
    "channel_width_m": 6.36,
    "channel_width_score": 1.0,
    "composite_score": 52.94,
    "cso_density": 0.0,
    "ej_index": 0.429,
    "elevation_m": 35.2161,
    "estuary_dist_km": 255.14,
    "feasibility_score": 85.7143,
    "flood_q10_cfs": 519.56,
    "flow_score": 50.2225,
    "flow_velocity_ms": 0.5,
    "generation_score": 34.9058,
    "impact_score": 56.8518,
    "impervious_pct": null,
    "land_ownership": 1.0,
    "lat": 35.4159,
    "litter_complaint_density": 0.0,
    "lon": -78.8233,
    "navigable_dist_m": null,
    "npdes_points": 10,
    "pixel_col": 398.0,
    "pixel_row": 474.0,
    "population_density": 113.9,
    "position_along": 0.5,
    "protected_area_score": 4.5231,
    "rank": 4,
    "road_access_m": 345.6,
    "road_access_score": 0.8,
    "road_density_km_km2": 3.242,
    "robustness_pct": 47.5,
    "runoff_coeff_C": null,
    "seasonal_cv": null,
    "segment_id": 8,
    "segment_length_m": 671.33,
    "stream_order": 3,
    "superfund_score": 0.053,
    "tourism_amenity_density": 1.1141,
    "tri_facility_density": 0.0,
    "usgs_mean_q_cfs": null,
    "velocity_feasibility": 1.0,
    "water_intake_score": 1.5449
   },
   "type": "Feature"
  },
  {
   "geometry": {
    "coordinates": [
     -78.778507,
     35.399589
    ],
    "type": "Point"
   },
   "properties": {
    "accumulation": 606868.0,
    "bank_slope_deg": 11.15,
    "bank_slope_score": 1.0,
    "bank_slope_source": "nc-dps-lidar-dem03-cross-section",
    "beach_dist_km": 160.13,
    "bridge_proximity_bonus": 0.0,
    "catchment_area_km2": 60.5951,
    "channel_width_m": 9.85,
    "channel_width_score": 1.0,
    "composite_score": 52.8099,
    "cso_density": 0.0,
    "ej_index": 0.4089,
    "elevation_m": 32.9321,
    "estuary_dist_km": 250.86,
    "feasibility_score": 78.5714,
    "flood_q10_cfs": 1069.55,
    "flow_score": 70.7666,
    "flow_velocity_ms": 0.5,
    "generation_score": 29.2569,
    "impact_score": 48.5183,
    "impervious_pct": null,
    "land_ownership": 0.5,
    "lat": 35.3996,
    "litter_complaint_density": 0.0,
    "lon": -78.7785,
    "navigable_dist_m": null,
    "npdes_points": 16,
    "pixel_col": 810.0,
    "pixel_row": 645.0,
    "population_density": 89.0,
    "position_along": 0.25,
    "protected_area_score": 4.4614,
    "rank": 5,
    "road_access_m": 486.6,
    "road_access_score": 0.8,
    "road_density_km_km2": 1.518,
    "robustness_pct": 52.0,
    "runoff_coeff_C": null,
    "seasonal_cv": null,
    "segment_id": 23,
    "segment_length_m": 4248.5241,
    "stream_order": 3,
    "superfund_score": 0.0225,
    "tourism_amenity_density": 0.2387,
    "tri_facility_density": 0.0165,
    "usgs_mean_q_cfs": null,
    "velocity_feasibility": 1.0,
    "water_intake_score": 1.3427
   },
   "type": "Feature"
  },
  {
   "geometry": {
    "coordinates": [
     -78.790646,
     35.39837
    ],
    "type": "Point"
   },
   "properties": {
    "accumulation": 472125.0,
    "bank_slope_deg": 0.0,
    "bank_slope_score": 1.0,
    "bank_slope_source": "nc-dps-lidar-dem03-cross-section",
    "beach_dist_km": 160.65,
    "bridge_proximity_bonus": 0.0,
    "catchment_area_km2": 47.1412,
    "channel_width_m": 8.99,
    "channel_width_score": 1.0,
    "composite_score": 52.7311,
    "cso_density": 0.0,
    "ej_index": 0.4141,
    "elevation_m": 34.0891,
    "estuary_dist_km": 251.93,
    "feasibility_score": 85.7143,
    "flood_q10_cfs": 919.89,
    "flow_score": 64.6125,
    "flow_velocity_ms": 0.5,
    "generation_score": 27.0474,
    "impact_score": 52.0221,
    "impervious_pct": null,
    "land_ownership": 1.0,
    "lat": 35.3984,
    "litter_complaint_density": 0.0,
    "lon": -78.7906,
    "navigable_dist_m": null,
    "npdes_points": 15,
    "pixel_col": 700.0,
    "pixel_row": 661.0,
    "population_density": 69.6,
    "position_along": 0.5,
    "protected_area_score": 4.5411,
    "rank": 6,
    "road_access_m": 845.6,
    "road_access_score": 0.6,
    "road_density_km_km2": 2.003,
    "robustness_pct": 59.5,
    "runoff_coeff_C": null,
    "seasonal_cv": null,
    "segment_id": 16,
    "segment_length_m": 730.5746,
    "stream_order": 3,
    "superfund_score": 0.0382,
    "tourism_amenity_density": 0.3183,
    "tri_facility_density": 0.0212,
    "usgs_mean_q_cfs": null,
    "velocity_feasibility": 1.0,
    "water_intake_score": 1.3988
   },
   "type": "Feature"
  },
  {
   "geometry": {
    "coordinates": [
     -78.82161,
     35.409472
    ],
    "type": "Point"
   },
   "properties": {
    "accumulation": 22847.0,
    "bank_slope_deg": 2.0,
    "bank_slope_score": 1.0,
    "bank_slope_source": "nc-dps-lidar-dem03-cross-section",
    "beach_dist_km": 163.27,
    "bridge_proximity_bonus": 0.0,
    "catchment_area_km2": 2.2812,
    "channel_width_m": 2.99,
    "channel_width_score": 1.0,
    "composite_score": 50.5159,
    "cso_density": 0.0,
    "ej_index": 0.503,
    "elevation_m": 35.7678,
    "estuary_dist_km": 254.89,
    "feasibility_score": 50.0,
    "flood_q10_cfs": 194.5,
    "flow_score": 24.5101,
    "flow_velocity_ms": 0.0419,
    "generation_score": 55.9216,
    "impact_score": 67.0395,
    "impervious_pct": 11.37,
    "land_ownership": 0.5,
    "lat": 35.4095,
    "litter_complaint_density": 0.0,
    "lon": -78.8216,
    "navigable_dist_m": null,
    "npdes_points": 1,
    "pixel_col": 416.0,
    "pixel_row": 542.0,
    "population_density": 145.3,
    "position_along": 0.5,
    "protected_area_score": 4.4362,
    "rank": 7,
    "road_access_m": 393.7,
    "road_access_score": 0.8,
    "road_density_km_km2": 2.55,
    "robustness_pct": 39.0,
    "runoff_coeff_C": 0.1523,
    "seasonal_cv": 0.448,
    "segment_id": 13,
    "segment_length_m": 1177.9318,
    "stream_order": 3,
    "superfund_score": 0.1114,
    "tourism_amenity_density": 1.1937,
    "tri_facility_density": 0.0,
    "usgs_mean_q_cfs": 1.557,
    "velocity_feasibility": 0.3,
    "water_intake_score": 1.5915
   },
   "type": "Feature"
  },
  {
   "geometry": {
    "coordinates": [
     -78.829706,
     35.41178
    ],
    "type": "Point"
   },
   "properties": {
    "accumulation": 51969.0,
    "bank_slope_deg": 8.53,
    "bank_slope_score": 1.0,
    "bank_slope_source": "nc-dps-lidar-dem03-cross-section",
    "beach_dist_km": 163.91,
    "bridge_proximity_bonus": 0.0,
    "catchment_area_km2": 5.189,
    "channel_width_m": 4.04,
    "channel_width_score": 1.0,
    "composite_score": 47.2757,
    "cso_density": 0.0,
    "ej_index": 0.5771,
    "elevation_m": 38.628,
    "estuary_dist_km": 255.65,
    "feasibility_score": 66.3265,
    "flood_q10_cfs": 262.28,
    "flow_score": 29.5293,
    "flow_velocity_ms": 0.1476,
    "generation_score": 41.0196,
    "impact_score": 58.7949,
    "impervious_pct": 3.01,
    "land_ownership": 0.5,
    "lat": 35.4118,
    "litter_complaint_density": 0.0,
    "lon": -78.8297,
    "navigable_dist_m": null,
    "npdes_points": 1,
    "pixel_col": 341.0,
    "pixel_row": 520.0,
    "population_density": 161.6,
    "position_along": 0.75,
    "protected_area_score": 4.388,
    "rank": 8,
    "road_access_m": 241.1,
    "road_access_score": 0.8,
    "road_density_km_km2": 2.679,
    "robustness_pct": 1.5,
    "runoff_coeff_C": 0.0771,
    "seasonal_cv": 0.4702,
    "segment_id": 11,
    "segment_length_m": 3623.0173,
    "stream_order": 3,
    "superfund_score": 0.0671,
    "tourism_amenity_density": 1.0345,
    "tri_facility_density": 0.0,
    "usgs_mean_q_cfs": 3.706,
    "velocity_feasibility": 0.7,
    "water_intake_score": 1.5232
   },
   "type": "Feature"
  },
  {
   "geometry": {
    "coordinates": [
     -78.762734,
     35.389973
    ],
    "type": "Point"
   },
   "properties": {
    "accumulation": 634422.0,
    "bank_slope_deg": 0.0,
    "bank_slope_score": 1.0,
    "bank_slope_source": "nc-dps-lidar-dem03-cross-section",
    "beach_dist_km": 158.44,
    "bridge_proximity_bonus": 0.0,
    "catchment_area_km2": 63.3464,
    "channel_width_m": 10.01,
    "channel_width_score": 1.0,
    "composite_score": 47.0954,
    "cso_density": 0.0,
    "ej_index": 0.4333,
    "elevation_m": 31.8394,
    "estuary_dist_km": 249.3,
    "feasibility_score": 64.2857,
    "flood_q10_cfs": 1098.45,
    "flow_score": 72.0,
    "flow_velocity_ms": 0.5,
    "generation_score": 16.2103,
    "impact_score": 48.6315,
    "impervious_pct": null,
    "land_ownership": 1.0,
    "lat": 35.39,
    "litter_complaint_density": 0.0,
    "lon": -78.7627,
    "navigable_dist_m": null,
    "npdes_points": 6,
    "pixel_col": 955.0,
    "pixel_row": 750.0,
    "population_density": 89.3,
    "position_along": 0.75,
    "protected_area_score": 4.3198,
    "rank": 9,
    "road_access_m": 1015.5,
    "road_access_score": 0.3,
    "road_density_km_km2": 0.546,
    "robustness_pct": 4.0,
    "runoff_coeff_C": null,
    "seasonal_cv": null,
    "segment_id": 23,
    "segment_length_m": 4248.5241,
    "stream_order": 3,
    "superfund_score": 0.0185,
    "tourism_amenity_density": 0.2387,
    "tri_facility_density": 0.0,
    "usgs_mean_q_cfs": null,
    "velocity_feasibility": 1.0,
    "water_intake_score": 1.2752
   },
   "type": "Feature"
  },
  {
   "geometry": {
    "coordinates": [
     -78.799216,
     35.405596
    ],
    "type": "Point"
   },
   "properties": {
    "accumulation": 107271.0,
    "bank_slope_deg": 9.4,
    "bank_slope_score": 1.0,
    "bank_slope_source": "nc-dps-lidar-dem03-cross-section",
    "beach_dist_km": 161.75,
    "bridge_proximity_bonus": 0.0,
    "catchment_area_km2": 10.7109,
    "channel_width_m": 5.25,
    "channel_width_score": 1.0,
    "composite_score": 45.2817,
    "cso_density": 0.0,
    "ej_index": 0.3357,
    "elevation_m": 35.9076,
    "estuary_dist_km": 252.82,
    "feasibility_score": 66.3265,
    "flood_q10_cfs": 404.79,
    "flow_score": 36.8807,
    "flow_velocity_ms": 0.1942,
    "generation_score": 24.6267,
    "impact_score": 62.4151,
    "impervious_pct": 2.96,
    "land_ownership": 0.5,
    "lat": 35.4056,
    "litter_complaint_density": 0.0,
    "lon": -78.7992,
    "navigable_dist_m": null,
    "npdes_points": 6,
    "pixel_col": 617.0,
    "pixel_row": 584.0,
    "population_density": 58.7,
    "position_along": 0.875,
    "protected_area_score": 4.8618,
    "rank": 10,
    "road_access_m": 219.7,
    "road_access_score": 0.8,
    "road_density_km_km2": 2.451,
    "robustness_pct": 0.0,
    "runoff_coeff_C": 0.0766,
    "seasonal_cv": 0.4778,
    "segment_id": 3,
    "segment_length_m": 7333.542,
    "stream_order": 3,
    "superfund_score": 0.0554,
    "tourism_amenity_density": 1.1937,
    "tri_facility_density": 0.0,
    "usgs_mean_q_cfs": 4.995,
    "velocity_feasibility": 0.7,
    "water_intake_score": 1.465
   },
   "type": "Feature"
  },
  {
   "geometry": {
    "coordinates": [
     -78.760497,
     35.403214
    ],
    "type": "Point"
   },
   "properties": {
    "accumulation": 89167.0,
    "bank_slope_deg": 5.66,
    "bank_slope_score": 1.0,
    "bank_slope_source": "nc-dps-lidar-dem03-cross-section",
    "beach_dist_km": 159.54,
    "bridge_proximity_bonus": 0.0,
    "catchment_area_km2": 8.9032,
    "channel_width_m": 4.91,
    "channel_width_score": 1.0,
    "composite_score": 44.3444,
    "cso_density": 0.0,
    "ej_index": 0.3542,
    "elevation_m": 41.7119,
    "estuary_dist_km": 249.31,
    "feasibility_score": 87.7551,
    "flood_q10_cfs": 363.03,
    "flow_score": 33.2307,
    "flow_velocity_ms": 0.1687,
    "generation_score": 26.0554,
    "impact_score": 50.1895,
    "impervious_pct": 3.05,
    "land_ownership": 1.0,
    "lat": 35.4032,
    "litter_complaint_density": 0.0,
    "lon": -78.7605,
    "navigable_dist_m": null,
    "npdes_points": 1,
    "pixel_col": 971.0,
    "pixel_row": 603.0,
    "population_density": 120.9,
    "position_along": 0.875,
    "protected_area_score": 4.7796,
    "rank": 11,
    "road_access_m": 452.7,
    "road_access_score": 0.8,
    "road_density_km_km2": 0.841,
    "robustness_pct": 0.5,
    "runoff_coeff_C": 0.0774,
    "seasonal_cv": 0.4898,
    "segment_id": 1,
    "segment_length_m": 6391.2899,
    "stream_order": 1,
    "superfund_score": 0.0148,
    "tourism_amenity_density": 0.2387,
    "tri_facility_density": 0.0,
    "usgs_mean_q_cfs": 11.528,
    "velocity_feasibility": 0.7,
    "water_intake_score": 1.2634
   },
   "type": "Feature"
  },
  {
   "geometry": {
    "coordinates": [
     -78.817609,
     35.41384
    ],
    "type": "Point"
   },
   "properties": {
    "accumulation": 31262.0,
    "bank_slope_deg": 0.68,
    "bank_slope_score": 1.0,
    "bank_slope_source": "nc-dps-lidar-dem03-cross-section",
    "beach_dist_km": 163.46,
    "bridge_proximity_bonus": 0.0,
    "catchment_area_km2": 3.1215,
    "channel_width_m": 3.36,
    "channel_width_score": 1.0,
    "composite_score": 43.2169,
    "cso_density": 0.0,
    "ej_index": 0.3157,
    "elevation_m": 36.173,
    "estuary_dist_km": 254.6,
    "feasibility_score": 64.2857,
    "flood_q10_cfs": 180.24,
    "flow_score": 40.8002,
    "flow_velocity_ms": 0.5,
    "generation_score": 19.5863,
    "impact_score": 58.3271,
    "impervious_pct": null,
    "land_ownership": 0.5,
    "lat": 35.4138,
    "litter_complaint_density": 0.0,
    "lon": -78.8176,
    "navigable_dist_m": null,
    "npdes_points": 2,
    "pixel_col": 449.0,
    "pixel_row": 496.0,
    "population_density": 100.1,
    "position_along": 0.5,
    "protected_area_score": 4.5701,
    "rank": 12,
    "road_access_m": 795.9,
    "road_access_score": 0.6,
    "road_density_km_km2": 1.687,
    "robustness_pct": 0.0,
    "runoff_coeff_C": null,
    "seasonal_cv": null,
    "segment_id": 10,
    "segment_length_m": 2975.517,
    "stream_order": 3,
    "superfund_score": 0.0659,
    "tourism_amenity_density": 1.2732,
    "tri_facility_density": 0.0,
    "usgs_mean_q_cfs": null,
    "velocity_feasibility": 1.0,
    "water_intake_score": 1.5685
   },
   "type": "Feature"
  },
  {
   "geometry": {
    "coordinates": [
     -78.828301,
     35.422533
    ],
    "type": "Point"
   },
   "properties": {
    "accumulation": 92036.0,
    "bank_slope_deg": 0.0,
    "bank_slope_score": 1.0,
    "bank_slope_source": "nc-dps-lidar-dem03-cross-section",
    "beach_dist_km": 164.81,
    "bridge_proximity_bonus": 0.0,
    "catchment_area_km2": 9.1897,
    "channel_width_m": 4.97,
    "channel_width_score": 1.0,
    "composite_score": 43.086,
    "cso_density": 0.0,
    "ej_index": 0.4256,
    "elevation_m": 35.0742,
    "estuary_dist_km": 255.7,
    "feasibility_score": 85.7143,
    "flood_q10_cfs": 344.66,
    "flow_score": 45.0014,
    "flow_velocity_ms": 0.5,
    "generation_score": 23.2865,
    "impact_score": 39.9753,
    "impervious_pct": null,
    "land_ownership": 1.0,
    "lat": 35.4225,
    "litter_complaint_density": 0.0,
    "lon": -78.8283,
    "navigable_dist_m": null,
    "npdes_points": 4,
    "pixel_col": 351.0,
    "pixel_row": 402.0,
    "population_density": 115.4,
    "position_along": 0.5,
    "protected_area_score": 4.506,
    "rank": 13,
    "road_access_m": 529.9,
    "road_access_score": 0.6,
    "road_density_km_km2": 1.486,
    "robustness_pct": 0.0,
    "runoff_coeff_C": null,
    "seasonal_cv": null,
    "segment_id": 7,
    "segment_length_m": 1177.3435,
    "stream_order": 3,
    "superfund_score": 0.0294,
    "tourism_amenity_density": 0.0,
    "tri_facility_density": 0.0,
    "usgs_mean_q_cfs": null,
    "velocity_feasibility": 1.0,
    "water_intake_score": 1.4749
   },
   "type": "Feature"
  },
  {
   "geometry": {
    "coordinates": [
     -78.808271,
     35.381966
    ],
    "type": "Point"
   },
   "properties": {
    "accumulation": 29110.0,
    "bank_slope_deg": 1.49,
    "bank_slope_score": 1.0,
    "bank_slope_source": "nc-dps-lidar-dem03-cross-section",
    "beach_dist_km": 160.08,
    "bridge_proximity_bonus": 0.0,
    "catchment_area_km2": 2.9066,
    "channel_width_m": 3.27,
    "channel_width_score": 1.0,
    "composite_score": 42.1238,
    "cso_density": 0.0,
    "ej_index": 0.6508,
    "elevation_m": 50.4672,
    "estuary_dist_km": 253.27,
    "feasibility_score": 66.3265,
    "flood_q10_cfs": 184.81,
    "flow_score": 23.7087,
    "flow_velocity_ms": 0.1281,
    "generation_score": 35.1203,
    "impact_score": 52.3719,
    "impervious_pct": 2.92,
    "land_ownership": 0.5,
    "lat": 35.382,
    "litter_complaint_density": 0.0,
    "lon": -78.8083,
    "navigable_dist_m": null,
    "npdes_points": 0,
    "pixel_col": 543.0,
    "pixel_row": 848.0,
    "population_density": 43.4,
    "position_along": 0.5,
    "protected_area_score": 4.1416,
    "rank": 14,
    "road_access_m": 392.6,
    "road_access_score": 0.8,
    "road_density_km_km2": 1.267,
    "robustness_pct": 0.0,
    "runoff_coeff_C": 0.0763,
    "seasonal_cv": 0.4499,
    "segment_id": 20,
    "segment_length_m": 2168.0158,
    "stream_order": 3,
    "superfund_score": 0.0657,
    "tourism_amenity_density": 0.2387,
    "tri_facility_density": 0.344,
    "usgs_mean_q_cfs": 1.673,
    "velocity_feasibility": 0.7,
    "water_intake_score": 1.3565
   },
   "type": "Feature"
  },
  {
   "geometry": {
    "coordinates": [
     -78.763482,
     35.414347
    ],
    "type": "Point"
   },
   "properties": {
    "accumulation": 66438.0,
    "bank_slope_deg": 1.31,
    "bank_slope_score": 1.0,
    "bank_slope_source": "nc-dps-lidar-dem03-cross-section",
    "beach_dist_km": 160.72,
    "bridge_proximity_bonus": 0.0,
    "catchment_area_km2": 6.6338,
    "channel_width_m": 4.41,
    "channel_width_score": 1.0,
    "composite_score": 41.3701,
    "cso_density": 0.0,
    "ej_index": 0.3347,
    "elevation_m": 48.6362,
    "estuary_dist_km": 249.76,
    "feasibility_score": 66.3265,
    "flood_q10_cfs": 304.24,
    "flow_score": 31.6191,
    "flow_velocity_ms": 0.1659,
    "generation_score": 29.4464,
    "impact_score": 48.9413,
    "impervious_pct": 3.05,
    "land_ownership": 0.5,
    "lat": 35.4143,
    "litter_complaint_density": 0.0,
    "lon": -78.7635,
    "navigable_dist_m": null,
    "npdes_points": 1,
    "pixel_col": 942.0,
    "pixel_row": 480.0,
    "population_density": 124.5,
    "position_along": 0.625,
    "protected_area_score": 4.9731,
    "rank": 15,
    "road_access_m": 467.9,
    "road_access_score": 0.8,
    "road_density_km_km2": 1.517,
    "robustness_pct": 0.0,
    "runoff_coeff_C": 0.0774,
    "seasonal_cv": 0.4898,
    "segment_id": 1,
    "segment_length_m": 6391.2899,
    "stream_order": 1,
    "superfund_score": 0.0127,
    "tourism_amenity_density": 0.1592,
    "tri_facility_density": 0.0,
    "usgs_mean_q_cfs": 11.528,
    "velocity_feasibility": 0.7,
    "water_intake_score": 1.2601
   },
   "type": "Feature"
  },
  {
   "geometry": {
    "coordinates": [
     -78.804911,
     35.384668
    ],
    "type": "Point"
   },
   "properties": {
    "accumulation": 23265.0,
    "bank_slope_deg": 1.67,
    "bank_slope_score": 1.0,
    "bank_slope_source": "nc-dps-lidar-dem03-cross-section",
    "beach_dist_km": 160.15,
    "bridge_proximity_bonus": 0.0,
    "catchment_area_km2": 2.323,
    "channel_width_m": 3.01,
    "channel_width_score": 1.0,
    "composite_score": 39.7373,
    "cso_density": 0.0,
    "ej_index": 0.5574,
    "elevation_m": 50.2569,
    "estuary_dist_km": 253.01,
    "feasibility_score": 52.0408,
    "flood_q10_cfs": 197.63,
    "flow_score": 25.4788,
    "flow_velocity_ms": 0.1118,
    "generation_score": 30.8694,
    "impact_score": 54.3354,
    "impervious_pct": 11.59,
    "land_ownership": 0.5,
    "lat": 35.3847,
    "litter_complaint_density": 0.0,
    "lon": -78.8049,
    "navigable_dist_m": null,
    "npdes_points": 0,
    "pixel_col": 573.0,
    "pixel_row": 817.0,
    "population_density": 41.2,
    "position_along": 0.5,
    "protected_area_score": 4.1257,
    "rank": 16,
    "road_access_m": 545.5,
    "road_access_score": 0.6,
    "road_density_km_km2": 1.282,
    "robustness_pct": 0.0,
    "runoff_coeff_C": 0.1543,
    "seasonal_cv": 0.4417,
    "segment_id": 17,
    "segment_length_m": 1320.2506,
    "stream_order": 3,
    "superfund_score": 0.0681,
    "tourism_amenity_density": 0.7958,
    "tri_facility_density": 0.0,
    "usgs_mean_q_cfs": 1.128,
    "velocity_feasibility": 0.7,
    "water_intake_score": 1.3734
   },
   "type": "Feature"
  },
  {
   "geometry": {
    "coordinates": [
     -78.787633,
     35.391352
    ],
    "type": "Point"
   },
   "properties": {
    "accumulation": 120732.0,
    "bank_slope_deg": 4.73,
    "bank_slope_score": 1.0,
    "bank_slope_source": "nc-dps-lidar-dem03-cross-section",
    "beach_dist_km": 159.85,
    "bridge_proximity_bonus": 0.0,
    "catchment_area_km2": 12.055,
    "channel_width_m": 5.48,
    "channel_width_score": 1.0,
    "composite_score": 38.9892,
    "cso_density": 0.0,
    "ej_index": 0.4242,
    "elevation_m": 36.6044,
    "estuary_dist_km": 251.56,
    "feasibility_score": 66.3265,
    "flood_q10_cfs": 452.4,
    "flow_score": 39.108,
    "flow_velocity_ms": 0.2118,
    "generation_score": 15.5446,
    "impact_score": 48.6661,
    "impervious_pct": 4.69,
    "land_ownership": 0.5,
    "lat": 35.3914,
    "litter_complaint_density": 0.0,
    "lon": -78.7876,
    "navigable_dist_m": null,
    "npdes_points": 2,
    "pixel_col": 728.0,
    "pixel_row": 736.0,
    "population_density": 44.1,
    "position_along": 0.5,
    "protected_area_score": 4.4522,
    "rank": 17,
    "road_access_m": 382.5,
    "road_access_score": 0.8,
    "road_density_km_km2": 0.727,
    "robustness_pct": 0.0,
    "runoff_coeff_C": 0.0922,
    "seasonal_cv": 0.4766,
    "segment_id": 22,
    "segment_length_m": 1948.182,
    "stream_order": 3,
    "superfund_score": 0.0323,
    "tourism_amenity_density": 0.0796,
    "tri_facility_density": 0.0,
    "usgs_mean_q_cfs": 4.968,
    "velocity_feasibility": 0.7,
    "water_intake_score": 1.3633
   },
   "type": "Feature"
  },
  {
   "geometry": {
    "coordinates": [
     -78.788526,
     35.414407
    ],
    "type": "Point"
   },
   "properties": {
    "accumulation": 91124.0,
    "bank_slope_deg": 3.72,
    "bank_slope_score": 1.0,
    "bank_slope_source": "nc-dps-lidar-dem03-cross-section",
    "beach_dist_km": 162.0,
    "bridge_proximity_bonus": 0.0,
    "catchment_area_km2": 9.0986,
    "channel_width_m": 4.95,
    "channel_width_score": 1.0,
    "composite_score": 38.2163,
    "cso_density": 0.0,
    "ej_index": 0.236,
    "elevation_m": 48.0552,
    "estuary_dist_km": 252.0,
    "feasibility_score": 66.3265,
    "flood_q10_cfs": 367.02,
    "flow_score": 35.4348,
    "flow_velocity_ms": 0.1804,
    "generation_score": 22.6236,
    "impact_score": 42.0718,
    "impervious_pct": 2.96,
    "land_ownership": 0.5,
    "lat": 35.4144,
    "litter_complaint_density": 0.0,
    "lon": -78.7885,
    "navigable_dist_m": null,
    "npdes_points": 6,
    "pixel_col": 711.0,
    "pixel_row": 483.0,
    "population_density": 60.5,
    "position_along": 0.625,
    "protected_area_score": 4.6479,
    "rank": 18,
    "road_access_m": 398.5,
    "road_access_score": 0.8,
    "road_density_km_km2": 1.867,
    "robustness_pct": 0.0,
    "runoff_coeff_C": 0.0766,
    "seasonal_cv": 0.4778,
    "segment_id": 3,
    "segment_length_m": 7333.542,
    "stream_order": 3,
    "superfund_score": 0.0236,
    "tourism_amenity_density": 0.1592,
    "tri_facility_density": 0.0,
    "usgs_mean_q_cfs": 4.995,
    "velocity_feasibility": 0.7,
    "water_intake_score": 1.3927
   },
   "type": "Feature"
  },
  {
   "geometry": {
    "coordinates": [
     -78.835381,
     35.429389
    ],
    "type": "Point"
   },
   "properties": {
    "accumulation": 22318.0,
    "bank_slope_deg": 0.0,
    "bank_slope_score": 1.0,
    "bank_slope_source": "nc-dps-lidar-dem03-cross-section",
    "beach_dist_km": 165.8,
    "bridge_proximity_bonus": 0.0,
    "catchment_area_km2": 2.2284,
    "channel_width_m": 2.97,
    "channel_width_score": 1.0,
    "composite_score": 36.9687,
    "cso_density": 0.0,
    "ej_index": 0.5219,
    "elevation_m": 35.4218,
    "estuary_dist_km": 256.45,
    "feasibility_score": 85.7143,
    "flood_q10_cfs": 147.22,
    "flow_score": 40.0522,
    "flow_velocity_ms": 0.5,
    "generation_score": 14.6329,
    "impact_score": 32.3622,
    "impervious_pct": null,
    "land_ownership": 1.0,
    "lat": 35.4294,
    "litter_complaint_density": 0.0,
    "lon": -78.8354,
    "navigable_dist_m": null,
    "npdes_points": 0,
    "pixel_col": 285.0,
    "pixel_row": 327.0,
    "population_density": 104.2,
    "position_along": 0.5,
    "protected_area_score": 4.251,
    "rank": 19,
    "road_access_m": 548.1,
    "road_access_score": 0.6,
    "road_density_km_km2": 0.663,
    "robustness_pct": 0.0,
    "runoff_coeff_C": null,
    "seasonal_cv": null,
    "segment_id": 6,
    "segment_length_m": 861.8966,
    "stream_order": 3,
    "superfund_score": 0.0178,
    "tourism_amenity_density": 0.0,
    "tri_facility_density": 0.0,
    "usgs_mean_q_cfs": null,
    "velocity_feasibility": 1.0,
    "water_intake_score": 1.406
   },
   "type": "Feature"
  },
  {
   "geometry": {
    "coordinates": [
     -78.768702,
     35.42487
    ],
    "type": "Point"
   },
   "properties": {
    "accumulation": 50872.0,
    "bank_slope_deg": 2.51,
    "bank_slope_score": 1.0,
    "bank_slope_source": "nc-dps-lidar-dem03-cross-section",
    "beach_dist_km": 161.96,
    "bridge_proximity_bonus": 0.0,
    "catchment_area_km2": 5.0795,
    "channel_width_m": 4.0,
    "channel_width_score": 1.0,
    "composite_score": 36.9035,
    "cso_density": 0.0,
    "ej_index": 0.2901,
    "elevation_m": 53.109,
    "estuary_dist_km": 250.4,
    "feasibility_score": 66.3265,
    "flood_q10_cfs": 259.18,
    "flow_score": 29.3569,
    "flow_velocity_ms": 0.1234,
    "generation_score": 26.0327,
    "impact_score": 39.3518,
    "impervious_pct": 3.05,
    "land_ownership": 0.5,
    "lat": 35.4249,
    "litter_complaint_density": 0.0,
    "lon": -78.7687,
    "navigable_dist_m": null,
    "npdes_points": 1,
    "pixel_col": 892.0,
    "pixel_row": 364.0,
    "population_density": 98.5,
    "position_along": 0.375,
    "protected_area_score": 4.7553,
    "rank": 20,
    "road_access_m": 342.8,
    "road_access_score": 0.8,
    "road_density_km_km2": 1.889,
    "robustness_pct": 0.0,
    "runoff_coeff_C": 0.0774,
    "seasonal_cv": 0.4898,
    "segment_id": 1,
    "segment_length_m": 6391.2899,
    "stream_order": 1,
    "superfund_score": 0.0112,
    "tourism_amenity_density": 0.0,
    "tri_facility_density": 0.0,
    "usgs_mean_q_cfs": 11.528,
    "velocity_feasibility": 0.7,
    "water_intake_score": 1.2578
   },
   "type": "Feature"
  },
  {
   "geometry": {
    "coordinates": [
     -78.775237,
     35.419333
    ],
    "type": "Point"
   },
   "properties": {
    "accumulation": 63170.0,
    "bank_slope_deg": 4.64,
    "bank_slope_score": 1.0,
    "bank_slope_source": "nc-dps-lidar-dem03-cross-section",
    "beach_dist_km": 161.78,
    "bridge_proximity_bonus": 0.0,
    "catchment_area_km2": 6.3075,
    "channel_width_m": 4.33,
    "channel_width_score": 1.0,
    "composite_score": 36.1508,
    "cso_density": 0.0,
    "ej_index": 0.252,
    "elevation_m": 59.4822,
    "estuary_dist_km": 250.89,
    "feasibility_score": 66.3265,
    "flood_q10_cfs": 296.47,
    "flow_score": 30.3207,
    "flow_velocity_ms": 0.1564,
    "generation_score": 21.5011,
    "impact_score": 40.5712,
    "impervious_pct": 3.24,
    "land_ownership": 0.5,
    "lat": 35.4193,
    "litter_complaint_density": 0.0,
    "lon": -78.7752,
    "navigable_dist_m": null,
    "npdes_points": 2,
    "pixel_col": 833.0,
    "pixel_row": 427.0,
    "population_density": 64.5,
    "position_along": 0.375,
    "protected_area_score": 4.7436,
    "rank": 21,
    "road_access_m": 461.9,
    "road_access_score": 0.8,
    "road_density_km_km2": 2.052,
    "robustness_pct": 0.0,
    "runoff_coeff_C": 0.0792,
    "seasonal_cv": 0.4679,
    "segment_id": 3,
    "segment_length_m": 7333.542,
    "stream_order": 3,
    "superfund_score": 0.0143,
    "tourism_amenity_density": 0.0796,
    "tri_facility_density": 0.0,
    "usgs_mean_q_cfs": 3.491,
    "velocity_feasibility": 0.7,
    "water_intake_score": 1.3067
   },
   "type": "Feature"
  },
  {
   "geometry": {
    "coordinates": [
     -78.823868,
     35.423683
    ],
    "type": "Point"
   },
   "properties": {
    "accumulation": 75753.0,
    "bank_slope_deg": 17.73,
    "bank_slope_score": 0.5,
    "bank_slope_source": "nc-dps-lidar-dem03-cross-section",
    "beach_dist_km": 164.68,
    "bridge_proximity_bonus": 0.0,
    "catchment_area_km2": 7.5639,
    "channel_width_m": 4.63,
    "channel_width_score": 1.0,
    "composite_score": 35.777,
    "cso_density": 0.0,
    "ej_index": 0.3445,
    "elevation_m": 35.195,
    "estuary_dist_km": 255.32,
    "feasibility_score": 50.0,
    "flood_q10_cfs": 306.64,
    "flow_score": 43.9646,
    "flow_velocity_ms": 0.5,
    "generation_score": 20.2247,
    "impact_score": 37.3946,
    "impervious_pct": null,
    "land_ownership": 0.5,
    "lat": 35.4237,
    "litter_complaint_density": 0.0,
    "lon": -78.8239,
    "navigable_dist_m": null,
    "npdes_points": 3,
    "pixel_col": 390.0,
    "pixel_row": 388.0,
    "population_density": 97.3,
    "position_along": 0.5,
    "protected_area_score": 4.4326,
    "rank": 22,
    "road_access_m": 641.4,
    "road_access_score": 0.6,
    "road_density_km_km2": 1.776,
    "robustness_pct": 0.0,
    "runoff_coeff_C": null,
    "seasonal_cv": null,
    "segment_id": 5,
    "segment_length_m": 1433.5964,
    "stream_order": 3,
    "superfund_score": 0.0285,
    "tourism_amenity_density": 0.0796,
    "tri_facility_density": 0.0,
    "usgs_mean_q_cfs": null,
    "velocity_feasibility": 1.0,
    "water_intake_score": 1.4797
   },
   "type": "Feature"
  },
  {
   "geometry": {
    "coordinates": [
     -78.795906,
     35.386035
    ],
    "type": "Point"
   },
   "properties": {
    "accumulation": 72971.0,
    "bank_slope_deg": 3.85,
    "bank_slope_score": 1.0,
    "bank_slope_source": "nc-dps-lidar-dem03-cross-section",
    "beach_dist_km": 159.8,
    "bridge_proximity_bonus": 0.0,
    "catchment_area_km2": 7.2861,
    "channel_width_m": 4.56,
    "channel_width_score": 1.0,
    "composite_score": 35.6041,
    "cso_density": 0.0,
    "ej_index": 0.4977,
    "elevation_m": 43.73,
    "estuary_dist_km": 252.22,
    "feasibility_score": 52.0408,
    "flood_q10_cfs": 334.38,
    "flow_score": 33.971,
    "flow_velocity_ms": 0.1439,
    "generation_score": 15.7108,
    "impact_score": 48.6401,
    "impervious_pct": 4.69,
    "land_ownership": 0.5,
    "lat": 35.386,
    "litter_complaint_density": 0.0,
    "lon": -78.7959,
    "navigable_dist_m": null,
    "npdes_points": 2,
    "pixel_col": 655.0,
    "pixel_row": 798.0,
    "population_density": 39.9,
    "position_along": 0.5,
    "protected_area_score": 4.2829,
    "rank": 23,
    "road_access_m": 553.1,
    "road_access_score": 0.6,
    "road_density_km_km2": 0.966,
    "robustness_pct": 0.0,
    "runoff_coeff_C": 0.0922,
    "seasonal_cv": 0.4766,
    "segment_id": 21,
    "segment_length_m": 1446.0134,
    "stream_order": 3,
    "superfund_score": 0.0437,
    "tourism_amenity_density": 0.0796,
    "tri_facility_density": 0.0,
    "usgs_mean_q_cfs": 4.968,
    "velocity_feasibility": 0.7,
    "water_intake_score": 1.365
   },
   "type": "Feature"
  },
  {
   "geometry": {
    "coordinates": [
     -78.823991,
     35.433296
    ],
    "type": "Point"
   },
   "properties": {
    "accumulation": 40802.0,
    "bank_slope_deg": 4.02,
    "bank_slope_score": 1.0,
    "bank_slope_source": "nc-dps-lidar-dem03-cross-section",
    "beach_dist_km": 165.56,
    "bridge_proximity_bonus": 0.0,
    "catchment_area_km2": 4.074,
    "channel_width_m": 3.7,
    "channel_width_score": 1.0,
    "composite_score": 33.645,
    "cso_density": 0.0,
    "ej_index": 0.2438,
    "elevation_m": 37.4066,
    "estuary_dist_km": 255.49,
    "feasibility_score": 78.5714,
    "flood_q10_cfs": 211.49,
    "flow_score": 41.5397,
    "flow_velocity_ms": 0.5,
    "generation_score": 14.081,
    "impact_score": 24.1668,
    "impervious_pct": null,
    "land_ownership": 0.5,
    "lat": 35.4333,
    "litter_complaint_density": 0.0,
    "lon": -78.824,
    "navigable_dist_m": null,
    "npdes_points": 4,
    "pixel_col": 384.0,
    "pixel_row": 280.0,
    "population_density": 60.3,
    "position_along": 0.75,
    "protected_area_score": 4.2822,
    "rank": 24,
    "road_access_m": 426.9,
    "road_access_score": 0.8,
    "road_density_km_km2": 1.783,
    "robustness_pct": 0.0,
    "runoff_coeff_C": null,
    "seasonal_cv": null,
    "segment_id": 0,
    "segment_length_m": 3322.828,
    "stream_order": 3,
    "superfund_score": 0.0164,
    "tourism_amenity_density": 0.0,
    "tri_facility_density": 0.0,
    "usgs_mean_q_cfs": null,
    "velocity_feasibility": 1.0,
    "water_intake_score": 1.4077
   },
   "type": "Feature"
  },
  {
   "geometry": {
    "coordinates": [
     -78.841015,
     35.43445
    ],
    "type": "Point"
   },
   "properties": {
    "accumulation": 60940.0,
    "bank_slope_deg": 0.0,
    "bank_slope_score": 1.0,
    "bank_slope_source": "nc-dps-lidar-dem03-cross-section",
    "beach_dist_km": 166.56,
    "bridge_proximity_bonus": 0.0,
    "catchment_area_km2": 6.0848,
    "channel_width_m": 4.28,
    "channel_width_score": 1.0,
    "composite_score": 33.644,
    "cso_density": 0.0,
    "ej_index": 0.4286,
    "elevation_m": 35.712,
    "estuary_dist_km": 257.04,
    "feasibility_score": 85.7143,
    "flood_q10_cfs": 269.08,
    "flow_score": 42.9776,
    "flow_velocity_ms": 0.5,
    "generation_score": 9.2492,
    "impact_score": 24.2257,
    "impervious_pct": null,
    "land_ownership": 1.0,
    "lat": 35.4345,
    "litter_complaint_density": 0.0,
    "lon": -78.841,
    "navigable_dist_m": null,
    "npdes_points": 1,
    "pixel_col": 233.0,
    "pixel_row": 272.0,
    "population_density": 72.1,
    "position_along": 0.5,
    "protected_area_score": 4.2778,
    "rank": 25,
    "road_access_m": 607.6,
    "road_access_score": 0.6,
    "road_density_km_km2": 0.629,
    "robustness_pct": 0.0,
    "runoff_coeff_C": null,
    "seasonal_cv": null,
    "segment_id": 2,
    "segment_length_m": 2408.0781,
    "stream_order": 3,
    "superfund_score": 0.013,
    "tourism_amenity_density": 0.0,
    "tri_facility_density": 0.0,
    "usgs_mean_q_cfs": null,
    "velocity_feasibility": 1.0,
    "water_intake_score": 1.3615
   },
   "type": "Feature"
  },
  {
   "geometry": {
    "coordinates": [
     -78.790774,
     35.383835
    ],
    "type": "Point"
   },
   "properties": {
    "accumulation": 20845.0,
    "bank_slope_deg": 5.95,
    "bank_slope_score": 1.0,
    "bank_slope_source": "nc-dps-lidar-dem03-cross-section",
    "beach_dist_km": 159.33,
    "bridge_proximity_bonus": 0.0,
    "catchment_area_km2": 2.0814,
    "channel_width_m": 2.9,
    "channel_width_score": 1.0,
    "composite_score": 33.2632,
    "cso_density": 0.0,
    "ej_index": 0.4776,
    "elevation_m": 42.1723,
    "estuary_dist_km": 251.72,
    "feasibility_score": 52.0408,
    "flood_q10_cfs": 157.59,
    "flow_score": 29.0933,
    "flow_velocity_ms": 0.1148,
    "generation_score": 14.295,
    "impact_score": 46.3173,
    "impervious_pct": 4.69,
    "land_ownership": 0.5,
    "lat": 35.3838,
    "litter_complaint_density": 0.0,
    "lon": -78.7908,
    "navigable_dist_m": null,
    "npdes_points": 0,
    "pixel_col": 702.0,
    "pixel_row": 820.0,
    "population_density": 39.3,
    "position_along": 0.5,
    "protected_area_score": 4.2533,
    "rank": 26,
    "road_access_m": 673.3,
    "road_access_score": 0.6,
    "road_density_km_km2": 1.045,
    "robustness_pct": 0.0,
    "runoff_coeff_C": 0.0922,
    "seasonal_cv": 0.4766,
    "segment_id": 18,
    "segment_length_m": 478.3389,
    "stream_order": 3,
    "superfund_score": 0.0324,
    "tourism_amenity_density": 0.0,
    "tri_facility_density": 0.0,
    "usgs_mean_q_cfs": 4.968,
    "velocity_feasibility": 0.7,
    "water_intake_score": 1.3416
   },
   "type": "Feature"
  },
  {
   "geometry": {
    "coordinates": [
     -78.844072,
     35.415976
    ],
    "type": "Point"
   },
   "properties": {
    "accumulation": 32567.0,
    "bank_slope_deg": 12.04,
    "bank_slope_score": 1.0,
    "bank_slope_source": "nc-dps-lidar-dem03-cross-section",
    "beach_dist_km": 165.05,
    "bridge_proximity_bonus": 0.0,
    "catchment_area_km2": 3.2518,
    "channel_width_m": 3.41,
    "channel_width_score": 1.0,
    "composite_score": 32.9442,
    "cso_density": 0.0,
    "ej_index": 0.5303,
    "elevation_m": 53.6049,
    "estuary_dist_km": 257.01,
    "feasibility_score": 52.0408,
    "flood_q10_cfs": 197.83,
    "flow_score": 26.4977,
    "flow_velocity_ms": 0.1381,
    "generation_score": 28.7577,
    "impact_score": 32.9543,
    "impervious_pct": 2.95,
    "land_ownership": 0.5,
    "lat": 35.416,
    "litter_complaint_density": 0.0,
    "lon": -78.8441,
    "navigable_dist_m": null,
    "npdes_points": 0,
    "pixel_col": 210.0,
    "pixel_row": 477.0,
    "population_density": 135.2,
    "position_along": 0.25,
    "protected_area_score": 4.2567,
    "rank": 27,
    "road_access_m": 627.9,
    "road_access_score": 0.6,
    "road_density_km_km2": 1.099,
    "robustness_pct": 0.0,
    "runoff_coeff_C": 0.0766,
    "seasonal_cv": 0.4648,
    "segment_id": 11,
    "segment_length_m": 3623.0173,
    "stream_order": 3,
    "superfund_score": 0.0275,
    "tourism_amenity_density": 0.0,
    "tri_facility_density": 0.0,
    "usgs_mean_q_cfs": 2.998,
    "velocity_feasibility": 0.7,
    "water_intake_score": 1.3951
   },
   "type": "Feature"
  },
  {
   "geometry": {
    "coordinates": [
     -78.781707,
     35.432181
    ],
    "type": "Point"
   },
   "properties": {
    "accumulation": 47139.0,
    "bank_slope_deg": 6.86,
    "bank_slope_score": 1.0,
    "bank_slope_source": "nc-dps-lidar-dem03-cross-section",
    "beach_dist_km": 163.29,
    "bridge_proximity_bonus": 0.0,
    "catchment_area_km2": 4.7068,
    "channel_width_m": 3.9,
    "channel_width_score": 1.0,
    "composite_score": 32.0668,
    "cso_density": 0.0,
    "ej_index": 0.1859,
    "elevation_m": 65.9096,
    "estuary_dist_km": 251.69,
    "feasibility_score": 66.3265,
    "flood_q10_cfs": 248.69,
    "flow_score": 28.0703,
    "flow_velocity_ms": 0.1153,
    "generation_score": 21.6445,
    "impact_score": 28.6896,
    "impervious_pct": 3.24,
    "land_ownership": 0.5,
    "lat": 35.4322,
    "litter_complaint_density": 0.0,
    "lon": -78.7817,
    "navigable_dist_m": null,
    "npdes_points": 1,
    "pixel_col": 771.0,
    "pixel_row": 285.0,
    "population_density": 61.6,
    "position_along": 0.125,
    "protected_area_score": 4.4852,
    "rank": 28,
    "road_access_m": 218.6,
    "road_access_score": 0.8,
    "road_density_km_km2": 2.426,
    "robustness_pct": 0.0,
    "runoff_coeff_C": 0.0792,
    "seasonal_cv": 0.4679,
    "segment_id": 3,
    "segment_length_m": 7333.542,
    "stream_order": 3,
    "superfund_score": 0.0115,
    "tourism_amenity_density": 0.0,
    "tri_facility_density": 0.0,
    "usgs_mean_q_cfs": 3.491,
    "velocity_feasibility": 0.7,
    "water_intake_score": 1.292
   },
   "type": "Feature"
  },
  {
   "geometry": {
    "coordinates": [
     -78.821367,
     35.443859
    ],
    "type": "Point"
   },
   "properties": {
    "accumulation": 33288.0,
    "bank_slope_deg": 2.72,
    "bank_slope_score": 1.0,
    "bank_slope_source": "nc-dps-lidar-dem03-cross-section",
    "beach_dist_km": 166.39,
    "bridge_proximity_bonus": 0.0,
    "catchment_area_km2": 3.3238,
    "channel_width_m": 3.43,
    "channel_width_score": 1.0,
    "composite_score": 30.5046,
    "cso_density": 0.0,
    "ej_index": 0.1898,
    "elevation_m": 40.4165,
    "estuary_dist_km": 255.44,
    "feasibility_score": 78.5714,
    "flood_q10_cfs": 187.16,
    "flow_score": 40.9614,
    "flow_velocity_ms": 0.5,
    "generation_score": 12.6258,
    "impact_score": 15.636,
    "impervious_pct": null,
    "land_ownership": 0.5,
    "lat": 35.4439,
    "litter_complaint_density": 0.0,
    "lon": -78.8214,
    "navigable_dist_m": null,
    "npdes_points": 0,
    "pixel_col": 405.0,
    "pixel_row": 164.0,
    "population_density": 80.0,
    "position_along": 0.25,
    "protected_area_score": 4.2024,
    "rank": 29,
    "road_access_m": 434.2,
    "road_access_score": 0.8,
    "road_density_km_km2": 1.301,
    "robustness_pct": 0.0,
    "runoff_coeff_C": null,
    "seasonal_cv": null,
    "segment_id": 0,
    "segment_length_m": 3322.828,
    "stream_order": 3,
    "superfund_score": 0.0105,
    "tourism_amenity_density": 0.0,
    "tri_facility_density": 0.0,
    "usgs_mean_q_cfs": null,
    "velocity_feasibility": 1.0,
    "water_intake_score": 1.3405
   },
   "type": "Feature"
  },
  {
   "geometry": {
    "coordinates": [
     -78.765898,
     35.43474
    ],
    "type": "Point"
   },
   "properties": {
    "accumulation": 35584.0,
    "bank_slope_deg": 5.41,
    "bank_slope_score": 1.0,
    "bank_slope_source": "nc-dps-lidar-dem03-cross-section",
    "beach_dist_km": 162.73,
    "bridge_proximity_bonus": 0.0,
    "catchment_area_km2": 3.553,
    "channel_width_m": 3.52,
    "channel_width_score": 1.0,
    "composite_score": 29.7254,
    "cso_density": 0.0,
    "ej_index": 0.2038,
    "elevation_m": 57.3707,
    "estuary_dist_km": 250.32,
    "feasibility_score": 52.0408,
    "flood_q10_cfs": 209.13,
    "flow_score": 28.0519,
    "flow_velocity_ms": 0.1186,
    "generation_score": 21.5442,
    "impact_score": 28.1434,
    "impervious_pct": 3.05,
    "land_ownership": 0.5,
    "lat": 35.4347,
    "litter_complaint_density": 0.0,
    "lon": -78.7659,
    "navigable_dist_m": null,
    "npdes_points": 1,
    "pixel_col": 913.0,
    "pixel_row": 254.0,
    "population_density": 77.2,
    "position_along": 0.125,
    "protected_area_score": 4.4885,
    "rank": 30,
    "road_access_m": 551.3,
    "road_access_score": 0.6,
    "road_density_km_km2": 1.772,
    "robustness_pct": 0.0,
    "runoff_coeff_C": 0.0774,
    "seasonal_cv": 0.4898,
    "segment_id": 1,
    "segment_length_m": 6391.2899,
    "stream_order": 1,
    "superfund_score": 0.0086,
    "tourism_amenity_density": 0.0,
    "tri_facility_density": 0.0,
    "usgs_mean_q_cfs": 11.528,
    "velocity_feasibility": 0.7,
    "water_intake_score": 1.2111
   },
   "type": "Feature"
  },
  {
   "geometry": {
    "coordinates": [
     -78.848443,
     35.375307
    ],
    "type": "Point"
   },
   "properties": {
    "accumulation": 40151.0,
    "bank_slope_deg": 9.28,
    "bank_slope_score": 1.0,
    "bank_slope_source": "nc-dps-lidar-dem03-cross-section",
    "beach_dist_km": 161.65,
    "bridge_proximity_bonus": 0.0,
    "catchment_area_km2": 4.009,
    "channel_width_m": 3.67,
    "channel_width_score": 1.0,
    "composite_score": 28.0365,
    "cso_density": 0.0,
    "ej_index": 0.6407,
    "elevation_m": 49.1323,
    "estuary_dist_km": 256.79,
    "feasibility_score": 66.3265,
    "flood_q10_cfs": 223.65,
    "flow_score": 11.8385,
    "flow_velocity_ms": 0.136,
    "generation_score": 23.5587,
    "impact_score": 26.8677,
    "impervious_pct": 2.82,
    "land_ownership": 0.5,
    "lat": 35.3753,
    "litter_complaint_density": 0.0,
    "lon": -78.8484,
    "navigable_dist_m": null,
    "npdes_points": 0,
    "pixel_col": 176.0,
    "pixel_row": 928.0,
    "population_density": 123.5,
    "position_along": 0.5,
    "protected_area_score": 3.946,
    "rank": 31,
    "road_access_m": 444.4,
    "road_access_score": 0.8,
    "road_density_km_km2": 0.425,
    "robustness_pct": 0.0,
    "runoff_coeff_C": 0.0754,
    "seasonal_cv": 0.4585,
    "segment_id": 19,
    "segment_length_m": 2007.4265,
    "stream_order": 1,
    "superfund_score": 0.0219,
    "tourism_amenity_density": 0.0796,
    "tri_facility_density": 0.0,
    "usgs_mean_q_cfs": 2.323,
    "velocity_feasibility": 0.7,
    "water_intake_score": 1.1893
   },
   "type": "Feature"
  },
  {
   "geometry": {
    "coordinates": [
     -78.820819,
     35.430902
    ],
    "type": "Point"
   },
   "properties": {
    "accumulation": 21506.0,
    "bank_slope_deg": 3.35,
    "bank_slope_score": 1.0,
    "bank_slope_source": "nc-dps-lidar-dem03-cross-section",
    "beach_dist_km": 165.18,
    "bridge_proximity_bonus": 0.0,
    "catchment_area_km2": 2.1474,
    "channel_width_m": 2.93,
    "channel_width_score": 1.0,
    "composite_score": 27.8549,
    "cso_density": 0.0,
    "ej_index": 0.188,
    "elevation_m": 36.8233,
    "estuary_dist_km": 255.17,
    "feasibility_score": 66.3265,
    "flood_q10_cfs": 146.61,
    "flow_score": 19.6466,
    "flow_velocity_ms": 0.061,
    "generation_score": 15.4627,
    "impact_score": 27.8515,
    "impervious_pct": 0.78,
    "land_ownership": 0.5,
    "lat": 35.4309,
    "litter_complaint_density": 0.0,
    "lon": -78.8208,
    "navigable_dist_m": null,
    "npdes_points": 2,
    "pixel_col": 416.0,
    "pixel_row": 307.0,
    "population_density": 64.7,
    "position_along": 0.5,
    "protected_area_score": 4.5055,
    "rank": 32,
    "road_access_m": 368.0,
    "road_access_score": 0.8,
    "road_density_km_km2": 1.894,
    "robustness_pct": 0.0,
    "runoff_coeff_C": 0.057,
    "seasonal_cv": 0.4402,
    "segment_id": 4,
    "segment_length_m": 652.3494,
    "stream_order": 3,
    "superfund_score": 0.0188,
    "tourism_amenity_density": 0.0,
    "tri_facility_density": 0.0,
    "usgs_mean_q_cfs": 1.057,
    "velocity_feasibility": 0.7,
    "water_intake_score": 1.4272
   },
   "type": "Feature"
  },
  {
   "geometry": {
    "coordinates": [
     -78.840613,
     35.430622
    ],
    "type": "Point"
   },
   "properties": {
    "accumulation": 23015.0,
    "bank_slope_deg": 29.53,
    "bank_slope_score": 0.5,
    "bank_slope_source": "nc-dps-lidar-dem03-cross-section",
    "beach_dist_km": 166.19,
    "bridge_proximity_bonus": 0.0,
    "catchment_area_km2": 2.298,
    "channel_width_m": 3.0,
    "channel_width_score": 1.0,
    "composite_score": 23.0433,
    "cso_density": 0.0,
    "ej_index": 0.544,
    "elevation_m": 36.6552,
    "estuary_dist_km": 256.94,
    "feasibility_score": 37.7551,
    "flood_q10_cfs": 160.43,
    "flow_score": 8.4458,
    "flow_velocity_ms": 0.1355,
    "generation_score": 22.0394,
    "impact_score": 28.8557,
    "impervious_pct": 2.9,
    "land_ownership": 0.5,
    "lat": 35.4306,
    "litter_complaint_density": 0.0,
    "lon": -78.8406,
    "navigable_dist_m": null,
    "npdes_points": 0,
    "pixel_col": 238.0,
    "pixel_row": 313.0,
    "population_density": 122.1,
    "position_along": 0.5,
    "protected_area_score": 4.1667,
    "rank": 33,
    "road_access_m": 773.4,
    "road_access_score": 0.6,
    "road_density_km_km2": 0.068,
    "robustness_pct": 0.0,
    "runoff_coeff_C": 0.0761,
    "seasonal_cv": 0.4406,
    "segment_id": 9,
    "segment_length_m": 1189.3445,
    "stream_order": 1,
    "superfund_score": 0.0153,
    "tourism_amenity_density": 0.0,
    "tri_facility_density": 0.0,
    "usgs_mean_q_cfs": 1.097,
    "velocity_feasibility": 0.7,
    "water_intake_score": 1.38
   },
   "type": "Feature"
  }
 ],
 "note": "GRIME region 'Lillington, NC' \u2014 real-data pipeline (DEM\u2192streams\u2192candidates\u2192stream mask (sites confined to \u00b1150 m of mapped OSM/NHD waterways)\u2192region-appropriate real parameters\u2192shipped scoring, math unchanged). Width curve: Bieger et al. 2015 JAWRA Table 3, Atlantic Plain. Flood: SIR 2014-5030 HR4 (I24H50Y: NOAA Atlas 14). NC Coastal Plain (SIR 2014-5030 HR4; I24H50Y from NOAA Atlas 14 at region center)",
 "provenance": {
  "candidates_pre_gate": 33,
  "constant": [
   "bridge_proximity_bonus",
   "channel_width_score",
   "cso_density",
   "litter_complaint_density"
  ],
  "gated_navigable": 0,
  "hard_gate_removed": 0,
  "n_parameters": 27,
  "parameters": {
   "bank_slope_score": {
    "kind": "real",
    "n_3dep_10m_fallback": 0,
    "n_nc_lidar_3_125ft": 33,
    "n_real": 33,
    "n_sites": 33,
    "source": "NC OneMap / NC DPS DEM03 statewide lidar-derived 3.125-ft (0.953 m) elevations (perpendicular 50 m transect; robust 5 m bank-rise metric); unavailable profiles use the region 10 m 3DEP DEM-gradient fallback",
    "source_mosaics": [
     "Harnett_QL1_2024_03ft_CountywideRaster"
    ]
   },
   "beach_dist_km": {
    "kind": "real",
    "n_real": 33,
    "n_sites": 33,
    "source": "haversine to region ref: Wrightsville Beach (shipped NC reference)"
   },
   "bridge_proximity_bonus": {
    "kind": "real",
    "n_real": 33,
    "n_sites": 33,
    "source": "FHWA/BTS NBI (NTAD), 50 m proximity"
   },
   "catchment_area_km2": {
    "kind": "real",
    "n_real": 33,
    "n_sites": 33,
    "source": "DEM flow accumulation (pipeline)"
   },
   "channel_width_score": {
    "kind": "real",
    "n_real": 33,
    "n_sites": 33,
    "source": "Bieger 2015 APL width curve on DEM drainage area \u2192 shipped width curve"
   },
   "cso_density": {
    "kind": "real",
    "n_real": 33,
    "n_sites": 33,
    "source": "EPA ECHO open CSO/TCS outfall PF coordinates states=NC, Cauchy proximity"
   },
   "ej_index": {
    "kind": "real",
    "n_real": 33,
    "n_sites": 33,
    "source": "Census ACS C17002+B03002 two-component demographic index, percentile-ranked within region"
   },
   "estuary_dist_km": {
    "kind": "real",
    "n_real": 33,
    "n_sites": 33,
    "source": "haversine to region ref: Pamlico Sound (shipped NC reference)"
   },
   "flood_q10_cfs": {
    "impervious_fallback_reason": "StreamCat imperviousness unavailable; the existing regression-input fallback of 0.0% impervious was used and is disclosed here",
    "kind": "real",
    "n_impervious_fallback": 14,
    "n_real": 33,
    "n_sites": 33,
    "source": "USGS SIR 2014-5030 Table 7 HR4 (NC Coastal Plain; I24H50Y from NOAA Atlas 14 at region center)"
   },
   "flow_velocity_ms": {
    "fallback_reason": "EROM/DEM continuity input unavailable; shipped 0.5 m/s default used",
    "kind": "real",
    "n_fallback": 14,
    "n_real": 19,
    "n_sites": 33,
    "source": "Manning (region DEM/D8) blended with EROM continuity (shipped M4 logic)"
   },
   "impervious_pct": {
    "fallback_reason": "NLDI/StreamCat did not return a snap-compatible catchment value; value remains null and is removed by constant-column handling",
    "kind": "real",
    "n_fallback": 14,
    "n_real": 19,
    "n_sites": 33,
    "source": "EPA StreamCat pctimp2019 (per NHDPlus watershed)"
   },
   "land_ownership": {
    "kind": "real",
    "n_fallback": 0,
    "n_real": 33,
    "n_sites": 33,
    "source": "NC OneMap statewide parcels (NC Parcels Transformer) ownname"
   },
   "litter_complaint_density": {
    "kind": "fallback",
    "n_real": 0,
    "n_sites": 33,
    "source": "no public machine-readable litter/illegal-dumping feed for this region"
   },
   "navigable_dist_m": {
    "kind": "real",
    "n_real": 33,
    "n_sites": 33,
    "source": "USACE/BTS NWN (NTAD): no navigable segment within this bbox (+2 km) \u2014 computed absence, gate passes all sites"
   },
   "npdes_points": {
    "kind": "real",
    "n_real": 33,
    "n_sites": 33,
    "source": "EPA ECHO active NPDES outfalls states=NC (types NPD/GPC/NGP; statuses ADC/EFF/EXP), per catchment"
   },
   "population_density": {
    "kind": "real",
    "n_real": 33,
    "n_sites": 33,
    "source": "Census ACS 2022 B01003 block groups (bbox, multi-county), area-weighted"
   },
   "protected_area_score": {
    "kind": "real",
    "n_real": 33,
    "n_sites": 33,
    "source": "USGS PAD-US 4.1 state GDB; states=NC; shipped designation-weighted proximity curve"
   },
   "road_access_score": {
    "kind": "real",
    "n_real": 33,
    "n_sites": 33,
    "source": "OSM drive network nearest-node distance"
   },
   "road_density_km_km2": {
    "kind": "real",
    "n_real": 33,
    "n_sites": 33,
    "source": "OSM drive network (osmnx, cached) clipped per catchment"
   },
   "runoff_coeff_C": {
    "fallback_reason": "source impervious_pct was unavailable; derived value remains null",
    "kind": "real",
    "n_fallback": 14,
    "n_real": 19,
    "n_sites": 33,
    "source": "derived from real impervious_pct (C=0.05+0.009*I)"
   },
   "seasonal_cv": {
    "fallback_reason": "NHDPlus monthly EROM was unavailable or failed the drainage-area snap guard; value remains null",
    "kind": "real",
    "n_fallback": 14,
    "n_real": 19,
    "n_sites": 33,
    "source": "CV of NHDPlus EROM monthly flows per COMID"
   },
   "stream_order": {
    "kind": "real",
    "n_real": 33,
    "n_sites": 33,
    "source": "DEM stream-network confluence heuristic (pipeline)"
   },
   "superfund_score": {
    "kind": "real",
    "n_real": 33,
    "n_sites": 33,
    "source": "EPA DataMap SEMS active sites states=NC (non-archived, georeferenced), shipped 500 m inverse-distance curve"
   },
   "tourism_amenity_density": {
    "kind": "real",
    "n_real": 33,
    "n_sites": 33,
    "source": "OSM leisure/tourism features per 2 km radius"
   },
   "tri_facility_density": {
    "kind": "real",
    "n_real": 33,
    "n_sites": 33,
    "source": "EPA DataMap TRI open facilities states=NC (preferred decimal or packed-DMS recovery), per catchment"
   },
   "usgs_mean_q_cfs": {
    "fallback_reason": "NHDPlus EROM was unavailable or failed the drainage-area snap guard; value remains null",
    "kind": "real",
    "n_fallback": 14,
    "n_real": 19,
    "n_sites": 33,
    "source": "NHDPlus EROM qe_ma per COMID (snap-guarded)"
   },
   "velocity_feasibility": {
    "fallback_reason": "derived from the shipped 0.5 m/s velocity fallback",
    "kind": "real",
    "n_fallback": 14,
    "n_real": 19,
    "n_sites": 33,
    "source": "shipped step curve on the computed velocity"
   },
   "velocity_transport_favorability": {
    "fallback_reason": "EROM/DEM continuity input unavailable; shipped 0.5 m/s default used",
    "kind": "derived",
    "n_fallback": 14,
    "n_real": 19,
    "n_sites": 33,
    "source": "scored form of flow_velocity_ms inside the Flow family \u2014 peaked Gaussian exp(-((v-0.9)/0.6)^2), model.json curves.velocity_transport_favorability; construct: transport/delivery favorability, deliberately distinct from velocity_feasibility (device operability)"
   },
   "water_intake_score": {
    "kind": "real",
    "n_real": 33,
    "n_sites": 33,
    "source": "NC OneMap / NC DEQ SWAP public water supply sources (source_typ='Surface Water'), shipped exp(-d/10km) curve"
   }
  },
  "stream_mask": {
   "buffer_m": 150.0,
   "pre_mask": 33,
   "removed": 0,
   "sources": [
    "osm-overpass (all waterway ways)",
    "usgs-nhdplus flowlines"
   ]
  },
  "varying": [
   "bank_slope_score",
   "beach_dist_km",
   "catchment_area_km2",
   "ej_index",
   "estuary_dist_km",
   "flood_q10_cfs",
   "flow_velocity_ms",
   "impervious_pct",
   "land_ownership",
   "npdes_points",
   "population_density",
   "protected_area_score",
   "road_access_score",
   "road_density_km_km2",
   "runoff_coeff_C",
   "seasonal_cv",
   "stream_order",
   "superfund_score",
   "tourism_amenity_density",
   "tri_facility_density",
   "usgs_mean_q_cfs",
   "velocity_feasibility",
   "water_intake_score"
  ]
 },
 "region": {
  "bbox": [
   -78.8659,
   35.3689,
   -78.7575,
   35.4573
  ],
  "beach_ref": {
   "label": "Wrightsville Beach (shipped NC reference)",
   "lat": 34.21,
   "lon": -77.79
  },
  "center": [
   -78.811703,
   35.41308
  ],
  "estuary_ref": {
   "label": "Pamlico Sound (shipped NC reference)",
   "lat": 35.05,
   "lon": -76.05
  },
  "flood_method": "sir2014_hr4",
  "name": "Lillington, NC",
  "notes": "NC Coastal Plain (SIR 2014-5030 HR4; I24H50Y from NOAA Atlas 14 at region center)",
  "slug": "lillington",
  "state": "NC",
  "utm_epsg": 32617,
  "width_curve": {
   "a": 2.22,
   "b": 0.363,
   "code": "APL",
   "source": "Bieger et al. 2015 JAWRA Table 3, Atlantic Plain"
  }
 },
 "type": "FeatureCollection"
}
