{
 "features": [
  {
   "geometry": {
    "coordinates": [
     -77.907263,
     36.420643
    ],
    "type": "Point"
   },
   "properties": {
    "accumulation": 23078.0,
    "bank_slope_deg": 2.6,
    "bank_slope_score": 1.0,
    "bank_slope_source": "nc-dps-lidar-dem03-cross-section",
    "beach_dist_km": 246.04,
    "bridge_proximity_bonus": 0.0,
    "catchment_area_km2": 2.3052,
    "channel_width_m": 4.41,
    "channel_width_score": 1.0,
    "composite_score": 79.3889,
    "cso_density": 0.0,
    "ej_index": 0.6145,
    "elevation_m": 99.7558,
    "estuary_dist_km": 226.55,
    "feasibility_score": 100.0,
    "flood_q10_cfs": 378.89,
    "flow_score": 39.825,
    "flow_velocity_ms": 0.0983,
    "generation_score": 87.1296,
    "impact_score": 94.3124,
    "impervious_pct": 4.7,
    "land_ownership": 0.5,
    "lat": 36.4206,
    "litter_complaint_density": 0.0,
    "lon": -77.9073,
    "navigable_dist_m": null,
    "npdes_points": 0,
    "pixel_col": 236.0,
    "pixel_row": 360.0,
    "population_density": 22.2,
    "position_along": 0.5,
    "protected_area_score": 7.555,
    "rank": 1,
    "road_access_m": 338.0,
    "road_access_score": 0.8,
    "road_density_km_km2": 2.621,
    "robustness_pct": 100.0,
    "runoff_coeff_C": 0.0923,
    "seasonal_cv": 0.4326,
    "segment_id": 1,
    "segment_length_m": 967.1414,
    "stream_order": 1,
    "superfund_score": 0.0,
    "tourism_amenity_density": 0.2387,
    "tri_facility_density": 0.0,
    "usgs_mean_q_cfs": 2.854,
    "velocity_feasibility": 0.7,
    "water_intake_score": 0.3321
   },
   "type": "Feature"
  },
  {
   "geometry": {
    "coordinates": [
     -77.932618,
     36.419201
    ],
    "type": "Point"
   },
   "properties": {
    "accumulation": 28385.0,
    "bank_slope_deg": 9.74,
    "bank_slope_score": 1.0,
    "bank_slope_source": "nc-dps-lidar-dem03-cross-section",
    "beach_dist_km": 245.99,
    "bridge_proximity_bonus": 0.0,
    "catchment_area_km2": 2.8353,
    "channel_width_m": 4.81,
    "channel_width_score": 1.0,
    "composite_score": 40.7589,
    "cso_density": 0.0,
    "ej_index": 0.6818,
    "elevation_m": 83.9436,
    "estuary_dist_km": 228.14,
    "feasibility_score": 0.0,
    "flood_q10_cfs": 419.39,
    "flow_score": 93.0233,
    "flow_velocity_ms": 0.1135,
    "generation_score": 0.0,
    "impact_score": 58.3436,
    "impervious_pct": 1.59,
    "land_ownership": 0.5,
    "lat": 36.4192,
    "litter_complaint_density": 0.0,
    "lon": -77.9326,
    "navigable_dist_m": null,
    "npdes_points": 0,
    "pixel_col": 7.0,
    "pixel_row": 369.0,
    "population_density": 4.3,
    "position_along": 0.5,
    "protected_area_score": 7.8038,
    "rank": 2,
    "road_access_m": 1346.6,
    "road_access_score": 0.3,
    "road_density_km_km2": 0.0,
    "robustness_pct": 100.0,
    "runoff_coeff_C": 0.0643,
    "seasonal_cv": 0.4295,
    "segment_id": 2,
    "segment_length_m": 531.8273,
    "stream_order": 1,
    "superfund_score": 0.0,
    "tourism_amenity_density": 0.0,
    "tri_facility_density": 0.0,
    "usgs_mean_q_cfs": 2.898,
    "velocity_feasibility": 0.7,
    "water_intake_score": 0.2839
   },
   "type": "Feature"
  },
  {
   "geometry": {
    "coordinates": [
     -77.926982,
     36.450394
    ],
    "type": "Point"
   },
   "properties": {
    "accumulation": 23455.0,
    "bank_slope_deg": 8.9,
    "bank_slope_score": 1.0,
    "bank_slope_source": "nc-dps-lidar-dem03-cross-section",
    "beach_dist_km": 249.43,
    "bridge_proximity_bonus": 0.0,
    "catchment_area_km2": 2.3428,
    "channel_width_m": 4.44,
    "channel_width_score": 1.0,
    "composite_score": 25.2564,
    "cso_density": 0.0,
    "ej_index": 0.2045,
    "elevation_m": 67.1033,
    "estuary_dist_km": 230.07,
    "feasibility_score": 0.0,
    "flood_q10_cfs": 392.99,
    "flow_score": 19.0595,
    "flow_velocity_ms": 0.1024,
    "generation_score": 61.3594,
    "impact_score": 6.9457,
    "impervious_pct": 6.09,
    "land_ownership": 0.5,
    "lat": 36.4504,
    "litter_complaint_density": 0.0,
    "lon": -77.927,
    "navigable_dist_m": null,
    "npdes_points": 0,
    "pixel_col": 71.0,
    "pixel_row": 20.0,
    "population_density": 13.7,
    "position_along": 0.5,
    "protected_area_score": 6.2242,
    "rank": 3,
    "road_access_m": 1433.0,
    "road_access_score": 0.3,
    "road_density_km_km2": 0.0,
    "robustness_pct": 100.0,
    "runoff_coeff_C": 0.1048,
    "seasonal_cv": 0.4534,
    "segment_id": 0,
    "segment_length_m": 431.8846,
    "stream_order": 1,
    "superfund_score": 0.0,
    "tourism_amenity_density": 0.0,
    "tri_facility_density": 0.0,
    "usgs_mean_q_cfs": 1.289,
    "velocity_feasibility": 0.7,
    "water_intake_score": 0.2979
   },
   "type": "Feature"
  }
 ],
 "note": "GRIME region 'Littleton, NC' \u2014 real-data pipeline (DEM\u2192streams\u2192candidates\u2192stream mask (sites confined to \u00b1150 m of mapped OSM/NHD waterways)\u2192region-appropriate real parameters\u2192shipped scoring, math unchanged). Width curve: Bieger et al. 2015 JAWRA Table 3, Appalachian Highlands. Flood: SIR 2014-5030 HR1. NC Piedmont (DEQ physiography polygon)",
 "provenance": {
  "candidates_pre_gate": 3,
  "constant": [
   "bank_slope_score",
   "bridge_proximity_bonus",
   "channel_width_score",
   "cso_density",
   "land_ownership",
   "litter_complaint_density",
   "npdes_points",
   "stream_order",
   "superfund_score",
   "tri_facility_density",
   "velocity_feasibility"
  ],
  "gated_navigable": 0,
  "hard_gate_removed": 0,
  "n_parameters": 27,
  "parameters": {
   "bank_slope_score": {
    "kind": "real",
    "n_3dep_10m_fallback": 0,
    "n_nc_lidar_3_125ft": 3,
    "n_real": 3,
    "n_sites": 3,
    "source": "NC OneMap / NC DPS DEM03 statewide lidar-derived 3.125-ft (0.953 m) elevations (perpendicular 50 m transect; robust 5 m bank-rise metric); unavailable profiles use the region 10 m 3DEP DEM-gradient fallback",
    "source_mosaics": [
     "Warren_Ground_3ft"
    ]
   },
   "beach_dist_km": {
    "kind": "real",
    "n_real": 3,
    "n_sites": 3,
    "source": "haversine to region ref: Wrightsville Beach (shipped NC reference)"
   },
   "bridge_proximity_bonus": {
    "kind": "real",
    "n_real": 3,
    "n_sites": 3,
    "source": "FHWA/BTS NBI (NTAD), 50 m proximity"
   },
   "catchment_area_km2": {
    "kind": "real",
    "n_real": 3,
    "n_sites": 3,
    "source": "DEM flow accumulation (pipeline)"
   },
   "channel_width_score": {
    "kind": "real",
    "n_real": 3,
    "n_sites": 3,
    "source": "Bieger 2015 AHI width curve on DEM drainage area \u2192 shipped width curve"
   },
   "cso_density": {
    "kind": "real",
    "n_real": 3,
    "n_sites": 3,
    "source": "EPA ECHO open CSO/TCS outfall PF coordinates states=NC, Cauchy proximity"
   },
   "ej_index": {
    "kind": "real",
    "n_real": 3,
    "n_sites": 3,
    "source": "Census ACS C17002+B03002 two-component demographic index, percentile-ranked within region"
   },
   "estuary_dist_km": {
    "kind": "real",
    "n_real": 3,
    "n_sites": 3,
    "source": "haversine to region ref: Pamlico Sound (shipped NC reference)"
   },
   "flood_q10_cfs": {
    "kind": "real",
    "n_real": 3,
    "n_sites": 3,
    "source": "USGS SIR 2014-5030 Table 7 HR1 (NC Piedmont)"
   },
   "flow_velocity_ms": {
    "kind": "real",
    "n_fallback": 0,
    "n_real": 3,
    "n_sites": 3,
    "source": "Manning (region DEM/D8) blended with EROM continuity (shipped M4 logic)"
   },
   "impervious_pct": {
    "kind": "real",
    "n_real": 3,
    "n_sites": 3,
    "source": "EPA StreamCat pctimp2019 (per NHDPlus watershed)"
   },
   "land_ownership": {
    "kind": "real",
    "n_fallback": 0,
    "n_real": 3,
    "n_sites": 3,
    "source": "NC OneMap statewide parcels (NC Parcels Transformer) ownname"
   },
   "litter_complaint_density": {
    "kind": "fallback",
    "n_real": 0,
    "n_sites": 3,
    "source": "no public machine-readable litter/illegal-dumping feed for this region"
   },
   "navigable_dist_m": {
    "kind": "real",
    "n_real": 3,
    "n_sites": 3,
    "source": "USACE/BTS NWN (NTAD): no navigable segment within this bbox (+2 km) \u2014 computed absence, gate passes all sites"
   },
   "npdes_points": {
    "kind": "real",
    "n_real": 3,
    "n_sites": 3,
    "source": "EPA ECHO active NPDES outfalls states=NC (types NPD/GPC/NGP; statuses ADC/EFF/EXP), per catchment"
   },
   "population_density": {
    "kind": "real",
    "n_real": 3,
    "n_sites": 3,
    "source": "Census ACS 2022 B01003 block groups (bbox, multi-county), area-weighted"
   },
   "protected_area_score": {
    "kind": "real",
    "n_real": 3,
    "n_sites": 3,
    "source": "USGS PAD-US 4.1 state GDB; states=NC; shipped designation-weighted proximity curve"
   },
   "road_access_score": {
    "kind": "real",
    "n_real": 3,
    "n_sites": 3,
    "source": "OSM drive network nearest-node distance"
   },
   "road_density_km_km2": {
    "kind": "real",
    "n_real": 3,
    "n_sites": 3,
    "source": "OSM drive network (osmnx, cached) clipped per catchment"
   },
   "runoff_coeff_C": {
    "kind": "real",
    "n_real": 3,
    "n_sites": 3,
    "source": "derived from real impervious_pct (C=0.05+0.009*I)"
   },
   "seasonal_cv": {
    "kind": "real",
    "n_real": 3,
    "n_sites": 3,
    "source": "CV of NHDPlus EROM monthly flows per COMID"
   },
   "stream_order": {
    "kind": "real",
    "n_real": 3,
    "n_sites": 3,
    "source": "DEM stream-network confluence heuristic (pipeline)"
   },
   "superfund_score": {
    "kind": "real",
    "n_real": 3,
    "n_sites": 3,
    "source": "EPA DataMap SEMS active sites states=NC (non-archived, georeferenced), shipped 500 m inverse-distance curve"
   },
   "tourism_amenity_density": {
    "kind": "real",
    "n_real": 3,
    "n_sites": 3,
    "source": "OSM leisure/tourism features per 2 km radius"
   },
   "tri_facility_density": {
    "kind": "real",
    "n_real": 3,
    "n_sites": 3,
    "source": "EPA DataMap TRI open facilities states=NC (preferred decimal or packed-DMS recovery), per catchment"
   },
   "usgs_mean_q_cfs": {
    "kind": "real",
    "n_real": 3,
    "n_sites": 3,
    "source": "NHDPlus EROM qe_ma per COMID (snap-guarded)"
   },
   "velocity_feasibility": {
    "kind": "real",
    "n_fallback": 0,
    "n_real": 3,
    "n_sites": 3,
    "source": "shipped step curve on the computed velocity"
   },
   "velocity_transport_favorability": {
    "kind": "derived",
    "n_real": 3,
    "n_sites": 3,
    "source": "scored form of flow_velocity_ms inside the Flow family \u2014 peaked Gaussian exp(-((v-0.9)/0.6)^2), model.json curves.velocity_transport_favorability; construct: transport/delivery favorability, deliberately distinct from velocity_feasibility (device operability)"
   },
   "water_intake_score": {
    "kind": "real",
    "n_real": 3,
    "n_sites": 3,
    "source": "NC OneMap / NC DEQ SWAP public water supply sources (source_typ='Surface Water'), shipped exp(-d/10km) curve"
   }
  },
  "stream_mask": {
   "buffer_m": 150.0,
   "pre_mask": 3,
   "removed": 0,
   "sources": [
    "osm-overpass (all waterway ways)",
    "usgs-nhdplus flowlines"
   ]
  },
  "varying": [
   "beach_dist_km",
   "catchment_area_km2",
   "ej_index",
   "estuary_dist_km",
   "flood_q10_cfs",
   "flow_velocity_ms",
   "impervious_pct",
   "population_density",
   "protected_area_score",
   "road_access_score",
   "road_density_km_km2",
   "runoff_coeff_C",
   "seasonal_cv",
   "tourism_amenity_density",
   "usgs_mean_q_cfs",
   "water_intake_score"
  ]
 },
 "region": {
  "bbox": [
   -77.9334,
   36.4163,
   -77.8886,
   36.4523
  ],
  "beach_ref": {
   "label": "Wrightsville Beach (shipped NC reference)",
   "lat": 34.21,
   "lon": -77.79
  },
  "center": [
   -77.911002,
   36.434316
  ],
  "estuary_ref": {
   "label": "Pamlico Sound (shipped NC reference)",
   "lat": 35.05,
   "lon": -76.05
  },
  "flood_method": "sir2014_hr1",
  "name": "Littleton, NC",
  "notes": "NC Piedmont (DEQ physiography polygon)",
  "slug": "littleton",
  "state": "NC",
  "utm_epsg": 32618,
  "width_curve": {
   "a": 3.12,
   "b": 0.415,
   "code": "AHI",
   "source": "Bieger et al. 2015 JAWRA Table 3, Appalachian Highlands"
  }
 },
 "type": "FeatureCollection"
}
