{
 "features": [
  {
   "geometry": {
    "coordinates": [
     -80.993988,
     35.977688
    ],
    "type": "Point"
   },
   "properties": {
    "accumulation": 26687.0,
    "bank_slope_deg": 13.49,
    "bank_slope_score": 1.0,
    "bank_slope_source": "nc-dps-lidar-dem03-cross-section",
    "beach_dist_km": 351.55,
    "bridge_proximity_bonus": 0.0,
    "catchment_area_km2": 2.6581,
    "channel_width_m": 4.68,
    "channel_width_score": 1.0,
    "composite_score": 69.7854,
    "cso_density": 0.0,
    "ej_index": 0.5402,
    "elevation_m": 321.1249,
    "estuary_dist_km": 459.16,
    "feasibility_score": 100.0,
    "flood_q10_cfs": 404.2,
    "flow_score": 93.5221,
    "flow_velocity_ms": 0.1429,
    "generation_score": 62.5,
    "impact_score": 42.1828,
    "impervious_pct": 2.26,
    "land_ownership": 0.5,
    "lat": 35.9777,
    "litter_complaint_density": 0.0,
    "lon": -80.994,
    "navigable_dist_m": null,
    "npdes_points": 0,
    "pixel_col": 5.0,
    "pixel_row": 334.0,
    "population_density": 18.1,
    "position_along": 0.5,
    "protected_area_score": 2.5288,
    "rank": 1,
    "road_access_m": 218.2,
    "road_access_score": 0.8,
    "road_density_km_km2": 1.741,
    "robustness_pct": 100.0,
    "runoff_coeff_C": 0.0703,
    "seasonal_cv": 0.4283,
    "segment_id": 1,
    "segment_length_m": 270.8838,
    "stream_order": 1,
    "superfund_score": 0.0082,
    "tourism_amenity_density": 0.3979,
    "tri_facility_density": 0.0,
    "usgs_mean_q_cfs": 3.079,
    "velocity_feasibility": 0.7,
    "water_intake_score": 0.7242
   },
   "type": "Feature"
  },
  {
   "geometry": {
    "coordinates": [
     -80.953066,
     35.974496
    ],
    "type": "Point"
   },
   "properties": {
    "accumulation": 28119.0,
    "bank_slope_deg": 19.7,
    "bank_slope_score": 0.5,
    "bank_slope_source": "nc-dps-lidar-dem03-cross-section",
    "beach_dist_km": 348.27,
    "bridge_proximity_bonus": 0.0,
    "catchment_area_km2": 2.8008,
    "channel_width_m": 4.78,
    "channel_width_score": 1.0,
    "composite_score": 53.8107,
    "cso_density": 0.0,
    "ej_index": 0.373,
    "elevation_m": 326.4895,
    "estuary_dist_km": 455.48,
    "feasibility_score": 42.8571,
    "flood_q10_cfs": 407.34,
    "flow_score": 47.8446,
    "flow_velocity_ms": 0.134,
    "generation_score": 44.0694,
    "impact_score": 74.0005,
    "impervious_pct": 0.45,
    "land_ownership": 0.5,
    "lat": 35.9745,
    "litter_complaint_density": 0.0,
    "lon": -80.9531,
    "navigable_dist_m": null,
    "npdes_points": 0,
    "pixel_col": 379.0,
    "pixel_row": 371.0,
    "population_density": 27.4,
    "position_along": 0.5,
    "protected_area_score": 2.7589,
    "rank": 2,
    "road_access_m": 558.7,
    "road_access_score": 0.6,
    "road_density_km_km2": 0.187,
    "robustness_pct": 100.0,
    "runoff_coeff_C": 0.0541,
    "seasonal_cv": 0.4446,
    "segment_id": 2,
    "segment_length_m": 836.452,
    "stream_order": 1,
    "superfund_score": 0.0653,
    "tourism_amenity_density": 0.0796,
    "tri_facility_density": 0.0,
    "usgs_mean_q_cfs": 2.325,
    "velocity_feasibility": 0.7,
    "water_intake_score": 0.7684
   },
   "type": "Feature"
  },
  {
   "geometry": {
    "coordinates": [
     -80.973049,
     36.004071
    ],
    "type": "Point"
   },
   "properties": {
    "accumulation": 22800.0,
    "bank_slope_deg": 8.35,
    "bank_slope_score": 1.0,
    "bank_slope_source": "nc-dps-lidar-dem03-cross-section",
    "beach_dist_km": 351.59,
    "bridge_proximity_bonus": 0.0,
    "catchment_area_km2": 2.271,
    "channel_width_m": 4.39,
    "channel_width_score": 1.0,
    "composite_score": 12.9355,
    "cso_density": 0.0,
    "ej_index": 0.5413,
    "elevation_m": 317.4561,
    "estuary_dist_km": 457.91,
    "feasibility_score": 28.5714,
    "flood_q10_cfs": 346.52,
    "flow_score": 7.2588,
    "flow_velocity_ms": 0.1375,
    "generation_score": 0.0,
    "impact_score": 22.7835,
    "impervious_pct": 0.24,
    "land_ownership": 0.5,
    "lat": 36.0041,
    "litter_complaint_density": 0.0,
    "lon": -80.973,
    "navigable_dist_m": null,
    "npdes_points": 0,
    "pixel_col": 196.0,
    "pixel_row": 38.0,
    "population_density": 18.1,
    "position_along": 0.5,
    "protected_area_score": 2.3837,
    "rank": 3,
    "road_access_m": 1796.1,
    "road_access_score": 0.3,
    "road_density_km_km2": 0.0,
    "robustness_pct": 100.0,
    "runoff_coeff_C": 0.0522,
    "seasonal_cv": 0.4565,
    "segment_id": 0,
    "segment_length_m": 937.5508,
    "stream_order": 1,
    "superfund_score": 0.0084,
    "tourism_amenity_density": 0.0,
    "tri_facility_density": 0.0,
    "usgs_mean_q_cfs": 2.142,
    "velocity_feasibility": 0.7,
    "water_intake_score": 0.6991
   },
   "type": "Feature"
  }
 ],
 "note": "GRIME region 'Love Valley, NC' \u2014 real-data pipeline (DEM\u2192streams\u2192candidates\u2192stream mask (sites confined to \u00b1150 m of mapped OSM/NHD waterways)\u2192region-appropriate real parameters\u2192shipped scoring, math unchanged). Width curve: Bieger et al. 2015 JAWRA Table 3, Appalachian Highlands. Flood: SIR 2014-5030 HR1. NC Piedmont (DEQ physiography polygon)",
 "provenance": {
  "candidates_pre_gate": 3,
  "constant": [
   "bridge_proximity_bonus",
   "channel_width_score",
   "cso_density",
   "land_ownership",
   "litter_complaint_density",
   "npdes_points",
   "stream_order",
   "tri_facility_density",
   "velocity_feasibility"
  ],
  "gated_navigable": 0,
  "hard_gate_removed": 0,
  "n_parameters": 27,
  "parameters": {
   "bank_slope_score": {
    "kind": "real",
    "n_3dep_10m_fallback": 0,
    "n_nc_lidar_3_125ft": 3,
    "n_real": 3,
    "n_sites": 3,
    "source": "NC OneMap / NC DPS DEM03 statewide lidar-derived 3.125-ft (0.953 m) elevations (perpendicular 50 m transect; robust 5 m bank-rise metric); unavailable profiles use the region 10 m 3DEP DEM-gradient fallback",
    "source_mosaics": [
     "Alexander_Ground_3ft",
     "Iredell_Ground_3ft"
    ]
   },
   "beach_dist_km": {
    "kind": "real",
    "n_real": 3,
    "n_sites": 3,
    "source": "haversine to region ref: Wrightsville Beach (shipped NC reference)"
   },
   "bridge_proximity_bonus": {
    "kind": "real",
    "n_real": 3,
    "n_sites": 3,
    "source": "FHWA/BTS NBI (NTAD), 50 m proximity"
   },
   "catchment_area_km2": {
    "kind": "real",
    "n_real": 3,
    "n_sites": 3,
    "source": "DEM flow accumulation (pipeline)"
   },
   "channel_width_score": {
    "kind": "real",
    "n_real": 3,
    "n_sites": 3,
    "source": "Bieger 2015 AHI width curve on DEM drainage area \u2192 shipped width curve"
   },
   "cso_density": {
    "kind": "real",
    "n_real": 3,
    "n_sites": 3,
    "source": "EPA ECHO open CSO/TCS outfall PF coordinates states=NC, Cauchy proximity"
   },
   "ej_index": {
    "kind": "real",
    "n_real": 3,
    "n_sites": 3,
    "source": "Census ACS C17002+B03002 two-component demographic index, percentile-ranked within region"
   },
   "estuary_dist_km": {
    "kind": "real",
    "n_real": 3,
    "n_sites": 3,
    "source": "haversine to region ref: Pamlico Sound (shipped NC reference)"
   },
   "flood_q10_cfs": {
    "kind": "real",
    "n_real": 3,
    "n_sites": 3,
    "source": "USGS SIR 2014-5030 Table 7 HR1 (NC Piedmont)"
   },
   "flow_velocity_ms": {
    "kind": "real",
    "n_fallback": 0,
    "n_real": 3,
    "n_sites": 3,
    "source": "Manning (region DEM/D8) blended with EROM continuity (shipped M4 logic)"
   },
   "impervious_pct": {
    "kind": "real",
    "n_real": 3,
    "n_sites": 3,
    "source": "EPA StreamCat pctimp2019 (per NHDPlus watershed)"
   },
   "land_ownership": {
    "kind": "real",
    "n_fallback": 0,
    "n_real": 3,
    "n_sites": 3,
    "source": "NC OneMap statewide parcels (NC Parcels Transformer) ownname"
   },
   "litter_complaint_density": {
    "kind": "fallback",
    "n_real": 0,
    "n_sites": 3,
    "source": "no public machine-readable litter/illegal-dumping feed for this region"
   },
   "navigable_dist_m": {
    "kind": "real",
    "n_real": 3,
    "n_sites": 3,
    "source": "USACE/BTS NWN (NTAD): no navigable segment within this bbox (+2 km) \u2014 computed absence, gate passes all sites"
   },
   "npdes_points": {
    "kind": "real",
    "n_real": 3,
    "n_sites": 3,
    "source": "EPA ECHO active NPDES outfalls states=NC (types NPD/GPC/NGP; statuses ADC/EFF/EXP), per catchment"
   },
   "population_density": {
    "kind": "real",
    "n_real": 3,
    "n_sites": 3,
    "source": "Census ACS 2022 B01003 block groups (bbox, multi-county), area-weighted"
   },
   "protected_area_score": {
    "kind": "real",
    "n_real": 3,
    "n_sites": 3,
    "source": "USGS PAD-US 4.1 state GDB; states=NC; shipped designation-weighted proximity curve"
   },
   "road_access_score": {
    "kind": "real",
    "n_real": 3,
    "n_sites": 3,
    "source": "OSM drive network nearest-node distance"
   },
   "road_density_km_km2": {
    "kind": "real",
    "n_real": 3,
    "n_sites": 3,
    "source": "OSM drive network (osmnx, cached) clipped per catchment"
   },
   "runoff_coeff_C": {
    "kind": "real",
    "n_real": 3,
    "n_sites": 3,
    "source": "derived from real impervious_pct (C=0.05+0.009*I)"
   },
   "seasonal_cv": {
    "kind": "real",
    "n_real": 3,
    "n_sites": 3,
    "source": "CV of NHDPlus EROM monthly flows per COMID"
   },
   "stream_order": {
    "kind": "real",
    "n_real": 3,
    "n_sites": 3,
    "source": "DEM stream-network confluence heuristic (pipeline)"
   },
   "superfund_score": {
    "kind": "real",
    "n_real": 3,
    "n_sites": 3,
    "source": "EPA DataMap SEMS active sites states=NC (non-archived, georeferenced), shipped 500 m inverse-distance curve"
   },
   "tourism_amenity_density": {
    "kind": "real",
    "n_real": 3,
    "n_sites": 3,
    "source": "OSM leisure/tourism features per 2 km radius"
   },
   "tri_facility_density": {
    "kind": "real",
    "n_real": 3,
    "n_sites": 3,
    "source": "EPA DataMap TRI open facilities states=NC (preferred decimal or packed-DMS recovery), per catchment"
   },
   "usgs_mean_q_cfs": {
    "kind": "real",
    "n_real": 3,
    "n_sites": 3,
    "source": "NHDPlus EROM qe_ma per COMID (snap-guarded)"
   },
   "velocity_feasibility": {
    "kind": "real",
    "n_fallback": 0,
    "n_real": 3,
    "n_sites": 3,
    "source": "shipped step curve on the computed velocity"
   },
   "velocity_transport_favorability": {
    "kind": "derived",
    "n_real": 3,
    "n_sites": 3,
    "source": "scored form of flow_velocity_ms inside the Flow family \u2014 peaked Gaussian exp(-((v-0.9)/0.6)^2), model.json curves.velocity_transport_favorability; construct: transport/delivery favorability, deliberately distinct from velocity_feasibility (device operability)"
   },
   "water_intake_score": {
    "kind": "real",
    "n_real": 3,
    "n_sites": 3,
    "source": "NC OneMap / NC DEQ SWAP public water supply sources (source_typ='Surface Water'), shipped exp(-d/10km) curve"
   }
  },
  "stream_mask": {
   "buffer_m": 150.0,
   "pre_mask": 3,
   "removed": 0,
   "sources": [
    "osm-overpass (all waterway ways)",
    "usgs-nhdplus flowlines"
   ]
  },
  "varying": [
   "bank_slope_score",
   "beach_dist_km",
   "catchment_area_km2",
   "ej_index",
   "estuary_dist_km",
   "flood_q10_cfs",
   "flow_velocity_ms",
   "impervious_pct",
   "population_density",
   "protected_area_score",
   "road_access_score",
   "road_density_km_km2",
   "runoff_coeff_C",
   "seasonal_cv",
   "superfund_score",
   "tourism_amenity_density",
   "usgs_mean_q_cfs",
   "water_intake_score"
  ]
 },
 "region": {
  "bbox": [
   -80.9948,
   35.9717,
   -80.9503,
   36.0077
  ],
  "beach_ref": {
   "label": "Wrightsville Beach (shipped NC reference)",
   "lat": 34.21,
   "lon": -77.79
  },
  "center": [
   -80.972558,
   35.989719
  ],
  "estuary_ref": {
   "label": "Pamlico Sound (shipped NC reference)",
   "lat": 35.05,
   "lon": -76.05
  },
  "flood_method": "sir2014_hr1",
  "name": "Love Valley, NC",
  "notes": "NC Piedmont (DEQ physiography polygon)",
  "slug": "love-valley",
  "state": "NC",
  "utm_epsg": 32617,
  "width_curve": {
   "a": 3.12,
   "b": 0.415,
   "code": "AHI",
   "source": "Bieger et al. 2015 JAWRA Table 3, Appalachian Highlands"
  }
 },
 "type": "FeatureCollection"
}
