{
 "features": [
  {
   "geometry": {
    "coordinates": [
     -83.037946,
     35.52117
    ],
    "type": "Point"
   },
   "properties": {
    "accumulation": 265328.0,
    "bank_slope_deg": 13.93,
    "bank_slope_score": 1.0,
    "bank_slope_source": "nc-dps-lidar-dem03-cross-section",
    "beach_dist_km": 500.43,
    "bridge_proximity_bonus": 0.0,
    "catchment_area_km2": 26.4975,
    "channel_width_m": 12.16,
    "channel_width_score": 1.0,
    "composite_score": 64.7164,
    "cso_density": 0.0,
    "ej_index": 0.4648,
    "elevation_m": 838.8074,
    "estuary_dist_km": 636.3,
    "feasibility_score": 50.0,
    "flood_q10_cfs": null,
    "flow_score": 78.3779,
    "flow_velocity_ms": 0.2651,
    "generation_score": 59.1706,
    "impact_score": 66.2359,
    "impervious_pct": 1.56,
    "land_ownership": 0.5,
    "lat": 35.5212,
    "litter_complaint_density": 0.0,
    "lon": -83.0379,
    "navigable_dist_m": null,
    "npdes_points": 1,
    "pixel_col": 560.0,
    "pixel_row": 396.0,
    "population_density": 93.9,
    "position_along": 0.5,
    "protected_area_score": 8.649,
    "rank": 1,
    "road_access_m": 107.5,
    "road_access_score": 1.0,
    "road_density_km_km2": 4.571,
    "robustness_pct": 100.0,
    "runoff_coeff_C": 0.064,
    "seasonal_cv": 0.3423,
    "segment_id": 8,
    "segment_length_m": 1649.4389,
    "stream_order": 3,
    "superfund_score": 0.0153,
    "tourism_amenity_density": 1.1937,
    "tri_facility_density": 0.0,
    "usgs_mean_q_cfs": 95.406,
    "velocity_feasibility": 0.7,
    "water_intake_score": 1.9052
   },
   "type": "Feature"
  },
  {
   "geometry": {
    "coordinates": [
     -83.026157,
     35.5405
    ],
    "type": "Point"
   },
   "properties": {
    "accumulation": 354189.0,
    "bank_slope_deg": 13.37,
    "bank_slope_score": 1.0,
    "bank_slope_source": "nc-dps-lidar-dem03-cross-section",
    "beach_dist_km": 499.97,
    "bridge_proximity_bonus": 0.0,
    "catchment_area_km2": 35.3717,
    "channel_width_m": 13.7,
    "channel_width_score": 1.0,
    "composite_score": 60.7908,
    "cso_density": 0.0,
    "ej_index": 0.4521,
    "elevation_m": 813.1497,
    "estuary_dist_km": 635.34,
    "feasibility_score": 50.0,
    "flood_q10_cfs": null,
    "flow_score": 86.2348,
    "flow_velocity_ms": 0.2602,
    "generation_score": 50.9633,
    "impact_score": 54.8105,
    "impervious_pct": 1.84,
    "land_ownership": 0.5,
    "lat": 35.5405,
    "litter_complaint_density": 0.0,
    "lon": -83.0262,
    "navigable_dist_m": null,
    "npdes_points": 1,
    "pixel_col": 667.0,
    "pixel_row": 181.0,
    "population_density": 83.7,
    "position_along": 0.5,
    "protected_area_score": 9.1949,
    "rank": 2,
    "road_access_m": 80.2,
    "road_access_score": 1.0,
    "road_density_km_km2": 2.071,
    "robustness_pct": 96.0,
    "runoff_coeff_C": 0.0666,
    "seasonal_cv": 0.3566,
    "segment_id": 10,
    "segment_length_m": 1586.7599,
    "stream_order": 3,
    "superfund_score": 0.0098,
    "tourism_amenity_density": 0.0796,
    "tri_facility_density": 0.0,
    "usgs_mean_q_cfs": 105.863,
    "velocity_feasibility": 0.7,
    "water_intake_score": 1.6723
   },
   "type": "Feature"
  },
  {
   "geometry": {
    "coordinates": [
     -83.029147,
     35.529536
    ],
    "type": "Point"
   },
   "properties": {
    "accumulation": 314028.0,
    "bank_slope_deg": 24.37,
    "bank_slope_score": 0.5,
    "bank_slope_source": "nc-dps-lidar-dem03-cross-section",
    "beach_dist_km": 499.91,
    "bridge_proximity_bonus": 0.0,
    "catchment_area_km2": 31.361,
    "channel_width_m": 13.04,
    "channel_width_score": 1.0,
    "composite_score": 56.3323,
    "cso_density": 0.0,
    "ej_index": 0.4484,
    "elevation_m": 824.7939,
    "estuary_dist_km": 635.55,
    "feasibility_score": 0.0,
    "flood_q10_cfs": null,
    "flow_score": 83.9934,
    "flow_velocity_ms": 0.2681,
    "generation_score": 56.8091,
    "impact_score": 60.9708,
    "impervious_pct": 1.75,
    "land_ownership": 0.5,
    "lat": 35.5295,
    "litter_complaint_density": 0.0,
    "lon": -83.0291,
    "navigable_dist_m": null,
    "npdes_points": 1,
    "pixel_col": 640.0,
    "pixel_row": 302.0,
    "population_density": 93.7,
    "position_along": 0.5,
    "protected_area_score": 9.034,
    "rank": 3,
    "road_access_m": 79.8,
    "road_access_score": 1.0,
    "road_density_km_km2": 2.92,
    "robustness_pct": 86.5,
    "runoff_coeff_C": 0.0658,
    "seasonal_cv": 0.3507,
    "segment_id": 9,
    "segment_length_m": 1372.6386,
    "stream_order": 3,
    "superfund_score": 0.0129,
    "tourism_amenity_density": 0.3979,
    "tri_facility_density": 0.0,
    "usgs_mean_q_cfs": 101.225,
    "velocity_feasibility": 0.7,
    "water_intake_score": 1.7814
   },
   "type": "Feature"
  },
  {
   "geometry": {
    "coordinates": [
     -83.048827,
     35.519647
    ],
    "type": "Point"
   },
   "properties": {
    "accumulation": 217142.0,
    "bank_slope_deg": 18.8,
    "bank_slope_score": 0.5,
    "bank_slope_source": "nc-dps-lidar-dem03-cross-section",
    "beach_dist_km": 501.33,
    "bridge_proximity_bonus": 0.0,
    "catchment_area_km2": 21.6853,
    "channel_width_m": 11.19,
    "channel_width_score": 1.0,
    "composite_score": 54.97,
    "cso_density": 0.0,
    "ej_index": 0.4943,
    "elevation_m": 849.7386,
    "estuary_dist_km": 637.27,
    "feasibility_score": 0.0,
    "flood_q10_cfs": null,
    "flow_score": 69.8124,
    "flow_velocity_ms": 0.2457,
    "generation_score": 61.1129,
    "impact_score": 63.9434,
    "impervious_pct": 1.49,
    "land_ownership": 0.5,
    "lat": 35.5196,
    "litter_complaint_density": 0.0,
    "lon": -83.0488,
    "navigable_dist_m": null,
    "npdes_points": 1,
    "pixel_col": 461.0,
    "pixel_row": 410.0,
    "population_density": 91.0,
    "position_along": 0.5,
    "protected_area_score": 8.2839,
    "rank": 4,
    "road_access_m": 174.1,
    "road_access_score": 1.0,
    "road_density_km_km2": 6.035,
    "robustness_pct": 90.0,
    "runoff_coeff_C": 0.0634,
    "seasonal_cv": 0.3389,
    "segment_id": 7,
    "segment_length_m": 598.3018,
    "stream_order": 3,
    "superfund_score": 0.0141,
    "tourism_amenity_density": 1.3528,
    "tri_facility_density": 0.0,
    "usgs_mean_q_cfs": 91.736,
    "velocity_feasibility": 0.7,
    "water_intake_score": 2.0059
   },
   "type": "Feature"
  },
  {
   "geometry": {
    "coordinates": [
     -83.059612,
     35.518189
    ],
    "type": "Point"
   },
   "properties": {
    "accumulation": 168502.0,
    "bank_slope_deg": 16.63,
    "bank_slope_score": 0.5,
    "bank_slope_source": "nc-dps-lidar-dem03-cross-section",
    "beach_dist_km": 502.23,
    "bridge_proximity_bonus": 0.0,
    "catchment_area_km2": 16.8278,
    "channel_width_m": 10.07,
    "channel_width_score": 1.0,
    "composite_score": 52.1609,
    "cso_density": 0.0,
    "ej_index": 0.5129,
    "elevation_m": 861.5778,
    "estuary_dist_km": 638.24,
    "feasibility_score": 0.0,
    "flood_q10_cfs": null,
    "flow_score": 70.7393,
    "flow_velocity_ms": 0.2706,
    "generation_score": 53.1282,
    "impact_score": 61.7922,
    "impervious_pct": 1.46,
    "land_ownership": 0.5,
    "lat": 35.5182,
    "litter_complaint_density": 0.0,
    "lon": -83.0596,
    "navigable_dist_m": null,
    "npdes_points": 1,
    "pixel_col": 362.0,
    "pixel_row": 425.0,
    "population_density": 76.9,
    "position_along": 0.5,
    "protected_area_score": 8.0014,
    "rank": 5,
    "road_access_m": 37.3,
    "road_access_score": 1.0,
    "road_density_km_km2": 5.633,
    "robustness_pct": 52.0,
    "runoff_coeff_C": 0.0631,
    "seasonal_cv": 0.3341,
    "segment_id": 6,
    "segment_length_m": 1647.4302,
    "stream_order": 3,
    "superfund_score": 0.0128,
    "tourism_amenity_density": 1.512,
    "tri_facility_density": 0.0,
    "usgs_mean_q_cfs": 87.719,
    "velocity_feasibility": 0.7,
    "water_intake_score": 2.1169
   },
   "type": "Feature"
  },
  {
   "geometry": {
    "coordinates": [
     -83.048297,
     35.521625
    ],
    "type": "Point"
   },
   "properties": {
    "accumulation": 31361.0,
    "bank_slope_deg": 16.62,
    "bank_slope_score": 0.5,
    "bank_slope_source": "nc-dps-lidar-dem03-cross-section",
    "beach_dist_km": 501.34,
    "bridge_proximity_bonus": 0.0,
    "catchment_area_km2": 3.1319,
    "channel_width_m": 5.01,
    "channel_width_score": 1.0,
    "composite_score": 49.1526,
    "cso_density": 0.0,
    "ej_index": 0.5089,
    "elevation_m": 858.5339,
    "estuary_dist_km": 637.24,
    "feasibility_score": 0.0,
    "flood_q10_cfs": null,
    "flow_score": 27.3148,
    "flow_velocity_ms": 0.26,
    "generation_score": 76.6072,
    "impact_score": 64.4725,
    "impervious_pct": 2.17,
    "land_ownership": 0.5,
    "lat": 35.5216,
    "litter_complaint_density": 0.0,
    "lon": -83.0483,
    "navigable_dist_m": null,
    "npdes_points": 1,
    "pixel_col": 466.0,
    "pixel_row": 389.0,
    "population_density": 100.8,
    "position_along": 0.5,
    "protected_area_score": 8.3618,
    "rank": 6,
    "road_access_m": 9.0,
    "road_access_score": 1.0,
    "road_density_km_km2": 6.851,
    "robustness_pct": 23.5,
    "runoff_coeff_C": 0.0695,
    "seasonal_cv": 0.4001,
    "segment_id": 2,
    "segment_length_m": 510.7866,
    "stream_order": 3,
    "superfund_score": 0.0135,
    "tourism_amenity_density": 1.3528,
    "tri_facility_density": 0.0,
    "usgs_mean_q_cfs": 2.387,
    "velocity_feasibility": 0.7,
    "water_intake_score": 1.9884
   },
   "type": "Feature"
  },
  {
   "geometry": {
    "coordinates": [
     -83.031096,
     35.536253
    ],
    "type": "Point"
   },
   "properties": {
    "accumulation": 28878.0,
    "bank_slope_deg": 2.17,
    "bank_slope_score": 1.0,
    "bank_slope_source": "nc-dps-lidar-dem03-cross-section",
    "beach_dist_km": 500.28,
    "bridge_proximity_bonus": 0.2,
    "catchment_area_km2": 2.884,
    "channel_width_m": 4.84,
    "channel_width_score": 1.0,
    "composite_score": 47.4268,
    "cso_density": 0.0,
    "ej_index": 0.4541,
    "elevation_m": 823.8492,
    "estuary_dist_km": 635.76,
    "feasibility_score": 100.0,
    "flood_q10_cfs": null,
    "flow_score": 8.6092,
    "flow_velocity_ms": 0.1827,
    "generation_score": 44.9305,
    "impact_score": 55.9846,
    "impervious_pct": 1.94,
    "land_ownership": 0.5,
    "lat": 35.5363,
    "litter_complaint_density": 0.0,
    "lon": -83.0311,
    "navigable_dist_m": null,
    "npdes_points": 0,
    "pixel_col": 625.0,
    "pixel_row": 231.0,
    "population_density": 81.8,
    "position_along": 0.5,
    "protected_area_score": 9.0203,
    "rank": 7,
    "road_access_m": 22.6,
    "road_access_score": 1.0,
    "road_density_km_km2": 6.838,
    "robustness_pct": 31.5,
    "runoff_coeff_C": 0.0675,
    "seasonal_cv": 0.4229,
    "segment_id": 0,
    "segment_length_m": 498.3684,
    "stream_order": 3,
    "superfund_score": 0.0106,
    "tourism_amenity_density": 0.3183,
    "tri_facility_density": 0.0,
    "usgs_mean_q_cfs": 2.664,
    "velocity_feasibility": 0.7,
    "water_intake_score": 1.7402
   },
   "type": "Feature"
  },
  {
   "geometry": {
    "coordinates": [
     -83.030262,
     35.521299
    ],
    "type": "Point"
   },
   "properties": {
    "accumulation": 22203.0,
    "bank_slope_deg": 20.59,
    "bank_slope_score": 0.5,
    "bank_slope_source": "nc-dps-lidar-dem03-cross-section",
    "beach_dist_km": 499.76,
    "bridge_proximity_bonus": 0.0,
    "catchment_area_km2": 2.2173,
    "channel_width_m": 4.34,
    "channel_width_score": 1.0,
    "composite_score": 46.4189,
    "cso_density": 0.0,
    "ej_index": 0.4771,
    "elevation_m": 839.0193,
    "estuary_dist_km": 635.6,
    "feasibility_score": 0.0,
    "flood_q10_cfs": null,
    "flow_score": 13.242,
    "flow_velocity_ms": 0.2073,
    "generation_score": 75.2836,
    "impact_score": 68.411,
    "impervious_pct": 2.75,
    "land_ownership": 0.5,
    "lat": 35.5213,
    "litter_complaint_density": 0.0,
    "lon": -83.0303,
    "navigable_dist_m": null,
    "npdes_points": 0,
    "pixel_col": 628.0,
    "pixel_row": 393.0,
    "population_density": 129.0,
    "position_along": 0.5,
    "protected_area_score": 8.9596,
    "rank": 8,
    "road_access_m": 45.6,
    "road_access_score": 1.0,
    "road_density_km_km2": 6.272,
    "robustness_pct": 12.0,
    "runoff_coeff_C": 0.0747,
    "seasonal_cv": 0.4391,
    "segment_id": 3,
    "segment_length_m": 665.8304,
    "stream_order": 3,
    "superfund_score": 0.0164,
    "tourism_amenity_density": 0.4775,
    "tri_facility_density": 0.0,
    "usgs_mean_q_cfs": 2.782,
    "velocity_feasibility": 0.7,
    "water_intake_score": 1.8466
   },
   "type": "Feature"
  },
  {
   "geometry": {
    "coordinates": [
     -83.075775,
     35.513219
    ],
    "type": "Point"
   },
   "properties": {
    "accumulation": 107906.0,
    "bank_slope_deg": 22.12,
    "bank_slope_score": 0.5,
    "bank_slope_source": "nc-dps-lidar-dem03-cross-section",
    "beach_dist_km": 503.49,
    "bridge_proximity_bonus": 0.0,
    "catchment_area_km2": 10.7762,
    "channel_width_m": 8.37,
    "channel_width_score": 1.0,
    "composite_score": 41.825,
    "cso_density": 0.0,
    "ej_index": 0.5328,
    "elevation_m": 881.576,
    "estuary_dist_km": 639.68,
    "feasibility_score": 0.0,
    "flood_q10_cfs": null,
    "flow_score": 60.1784,
    "flow_velocity_ms": 0.2508,
    "generation_score": 27.0603,
    "impact_score": 62.2077,
    "impervious_pct": 1.32,
    "land_ownership": 0.5,
    "lat": 35.5132,
    "litter_complaint_density": 0.0,
    "lon": -83.0758,
    "navigable_dist_m": null,
    "npdes_points": 0,
    "pixel_col": 215.0,
    "pixel_row": 478.0,
    "population_density": 63.5,
    "position_along": 0.75,
    "protected_area_score": 7.6535,
    "rank": 9,
    "road_access_m": 71.3,
    "road_access_score": 1.0,
    "road_density_km_km2": 6.286,
    "robustness_pct": 0.0,
    "runoff_coeff_C": 0.0619,
    "seasonal_cv": 0.3255,
    "segment_id": 1,
    "segment_length_m": 4449.0658,
    "stream_order": 3,
    "superfund_score": 0.0117,
    "tourism_amenity_density": 2.1486,
    "tri_facility_density": 0.0,
    "usgs_mean_q_cfs": 79.425,
    "velocity_feasibility": 0.7,
    "water_intake_score": 2.3028
   },
   "type": "Feature"
  },
  {
   "geometry": {
    "coordinates": [
     -83.052076,
     35.518074
    ],
    "type": "Point"
   },
   "properties": {
    "accumulation": 21007.0,
    "bank_slope_deg": 2.7,
    "bank_slope_score": 1.0,
    "bank_slope_source": "nc-dps-lidar-dem03-cross-section",
    "beach_dist_km": 501.57,
    "bridge_proximity_bonus": 0.0,
    "catchment_area_km2": 2.0979,
    "channel_width_m": 4.24,
    "channel_width_score": 1.0,
    "composite_score": 39.2198,
    "cso_density": 0.0,
    "ej_index": 0.547,
    "elevation_m": 855.1161,
    "estuary_dist_km": 637.56,
    "feasibility_score": 50.0,
    "flood_q10_cfs": null,
    "flow_score": 6.2389,
    "flow_velocity_ms": 0.191,
    "generation_score": 32.5562,
    "impact_score": 67.9775,
    "impervious_pct": 1.09,
    "land_ownership": 0.5,
    "lat": 35.5181,
    "litter_complaint_density": 0.0,
    "lon": -83.0521,
    "navigable_dist_m": null,
    "npdes_points": 0,
    "pixel_col": 431.0,
    "pixel_row": 426.0,
    "population_density": 84.9,
    "position_along": 0.5,
    "protected_area_score": 8.2815,
    "rank": 10,
    "road_access_m": 182.7,
    "road_access_score": 1.0,
    "road_density_km_km2": 5.805,
    "robustness_pct": 8.5,
    "runoff_coeff_C": 0.0598,
    "seasonal_cv": 0.4266,
    "segment_id": 4,
    "segment_length_m": 241.2606,
    "stream_order": 3,
    "superfund_score": 0.0141,
    "tourism_amenity_density": 1.4324,
    "tri_facility_density": 0.0,
    "usgs_mean_q_cfs": 2.396,
    "velocity_feasibility": 0.7,
    "water_intake_score": 2.0448
   },
   "type": "Feature"
  },
  {
   "geometry": {
    "coordinates": [
     -83.066374,
     35.515378
    ],
    "type": "Point"
   },
   "properties": {
    "accumulation": 20131.0,
    "bank_slope_deg": 18.9,
    "bank_slope_score": 0.5,
    "bank_slope_source": "nc-dps-lidar-dem03-cross-section",
    "beach_dist_km": 502.74,
    "bridge_proximity_bonus": 0.0,
    "catchment_area_km2": 2.0104,
    "channel_width_m": 4.17,
    "channel_width_score": 1.0,
    "composite_score": 25.6745,
    "cso_density": 0.0,
    "ej_index": 0.4561,
    "elevation_m": 875.8593,
    "estuary_dist_km": 638.84,
    "feasibility_score": 0.0,
    "flood_q10_cfs": null,
    "flow_score": 12.2422,
    "flow_velocity_ms": 0.2435,
    "generation_score": 17.3079,
    "impact_score": 58.072,
    "impervious_pct": 0.14,
    "land_ownership": 0.5,
    "lat": 35.5154,
    "litter_complaint_density": 0.0,
    "lon": -83.0664,
    "navigable_dist_m": null,
    "npdes_points": 0,
    "pixel_col": 300.0,
    "pixel_row": 456.0,
    "population_density": 64.9,
    "position_along": 0.5,
    "protected_area_score": 7.841,
    "rank": 11,
    "road_access_m": 64.2,
    "road_access_score": 1.0,
    "road_density_km_km2": 7.93,
    "robustness_pct": 0.0,
    "runoff_coeff_C": 0.0513,
    "seasonal_cv": 0.4343,
    "segment_id": 5,
    "segment_length_m": 187.1545,
    "stream_order": 3,
    "superfund_score": 0.0126,
    "tourism_amenity_density": 1.9099,
    "tri_facility_density": 0.0,
    "usgs_mean_q_cfs": 1.968,
    "velocity_feasibility": 0.7,
    "water_intake_score": 2.1889
   },
   "type": "Feature"
  },
  {
   "geometry": {
    "coordinates": [
     -83.088516,
     35.526999
    ],
    "type": "Point"
   },
   "properties": {
    "accumulation": 29200.0,
    "bank_slope_deg": 23.62,
    "bank_slope_score": 0.5,
    "bank_slope_source": "nc-dps-lidar-dem03-cross-section",
    "beach_dist_km": 505.01,
    "bridge_proximity_bonus": 0.0,
    "catchment_area_km2": 2.9161,
    "channel_width_m": 4.86,
    "channel_width_score": 1.0,
    "composite_score": 23.1376,
    "cso_density": 0.0,
    "ej_index": 0.287,
    "elevation_m": 964.5558,
    "estuary_dist_km": 640.9,
    "feasibility_score": 0.0,
    "flood_q10_cfs": null,
    "flow_score": 38.1379,
    "flow_velocity_ms": 0.2925,
    "generation_score": 16.0365,
    "impact_score": 29.3074,
    "impervious_pct": 0.92,
    "land_ownership": 0.5,
    "lat": 35.527,
    "litter_complaint_density": 0.0,
    "lon": -83.0885,
    "navigable_dist_m": null,
    "npdes_points": 0,
    "pixel_col": 101.0,
    "pixel_row": 323.0,
    "population_density": 68.0,
    "position_along": 0.25,
    "protected_area_score": 7.1446,
    "rank": 12,
    "road_access_m": 122.6,
    "road_access_score": 1.0,
    "road_density_km_km2": 3.482,
    "robustness_pct": 0.0,
    "runoff_coeff_C": 0.0583,
    "seasonal_cv": 0.3454,
    "segment_id": 1,
    "segment_length_m": 4449.0658,
    "stream_order": 3,
    "superfund_score": 0.0078,
    "tourism_amenity_density": 1.5915,
    "tri_facility_density": 0.0,
    "usgs_mean_q_cfs": 6.348,
    "velocity_feasibility": 0.7,
    "water_intake_score": 2.3314
   },
   "type": "Feature"
  }
 ],
 "note": "GRIME region 'Maggie Valley, NC' \u2014 real-data pipeline (DEM\u2192streams\u2192candidates\u2192stream mask (sites confined to \u00b1150 m of mapped OSM/NHD waterways)\u2192region-appropriate real parameters\u2192shipped scoring, math unchanged). Width curve: Bieger et al. 2015 JAWRA Table 3, Appalachian Highlands. Flood: not applicable here (documented fallback). NC Blue Ridge (outside SIR 2014-5030 urban coverage)",
 "provenance": {
  "candidates_pre_gate": 12,
  "constant": [
   "channel_width_score",
   "cso_density",
   "flood_q10_cfs",
   "land_ownership",
   "litter_complaint_density",
   "road_access_score",
   "stream_order",
   "tri_facility_density",
   "velocity_feasibility"
  ],
  "gated_navigable": 0,
  "hard_gate_removed": 0,
  "n_parameters": 27,
  "parameters": {
   "bank_slope_score": {
    "kind": "real",
    "n_3dep_10m_fallback": 0,
    "n_nc_lidar_3_125ft": 12,
    "n_real": 12,
    "n_sites": 12,
    "source": "NC OneMap / NC DPS DEM03 statewide lidar-derived 3.125-ft (0.953 m) elevations (perpendicular 50 m transect; robust 5 m bank-rise metric); unavailable profiles use the region 10 m 3DEP DEM-gradient fallback",
    "source_mosaics": [
     "Haywood_QL1_2025_03ft_CountywideRaster"
    ]
   },
   "beach_dist_km": {
    "kind": "real",
    "n_real": 12,
    "n_sites": 12,
    "source": "haversine to region ref: Wrightsville Beach (shipped NC reference)"
   },
   "bridge_proximity_bonus": {
    "kind": "real",
    "n_real": 12,
    "n_sites": 12,
    "source": "FHWA/BTS NBI (NTAD), 50 m proximity"
   },
   "catchment_area_km2": {
    "kind": "real",
    "n_real": 12,
    "n_sites": 12,
    "source": "DEM flow accumulation (pipeline)"
   },
   "channel_width_score": {
    "kind": "real",
    "n_real": 12,
    "n_sites": 12,
    "source": "Bieger 2015 AHI width curve on DEM drainage area \u2192 shipped width curve"
   },
   "cso_density": {
    "kind": "real",
    "n_real": 12,
    "n_sites": 12,
    "source": "EPA ECHO open CSO/TCS outfall PF coordinates states=NC, Cauchy proximity"
   },
   "ej_index": {
    "kind": "real",
    "n_real": 12,
    "n_sites": 12,
    "source": "Census ACS C17002+B03002 two-component demographic index, percentile-ranked within region"
   },
   "estuary_dist_km": {
    "kind": "real",
    "n_real": 12,
    "n_sites": 12,
    "source": "haversine to region ref: Pamlico Sound (shipped NC reference)"
   },
   "flood_q10_cfs": {
    "kind": "fallback",
    "n_real": 0,
    "n_sites": 12,
    "source": "flood regression not valid here (NC Blue Ridge (outside SIR 2014-5030 urban coverage)...) \u2014 NaN, dropped by constant-column handling"
   },
   "flow_velocity_ms": {
    "kind": "real",
    "n_fallback": 0,
    "n_real": 12,
    "n_sites": 12,
    "source": "Manning (region DEM/D8) blended with EROM continuity (shipped M4 logic)"
   },
   "impervious_pct": {
    "kind": "real",
    "n_real": 12,
    "n_sites": 12,
    "source": "EPA StreamCat pctimp2019 (per NHDPlus watershed)"
   },
   "land_ownership": {
    "fallback_reason": "no containing parcel owner returned; shipped unknown ownership 0.5 used",
    "kind": "real",
    "n_fallback": 2,
    "n_real": 10,
    "n_sites": 12,
    "source": "NC OneMap statewide parcels (NC Parcels Transformer) ownname"
   },
   "litter_complaint_density": {
    "kind": "fallback",
    "n_real": 0,
    "n_sites": 12,
    "source": "no public machine-readable litter/illegal-dumping feed for this region"
   },
   "navigable_dist_m": {
    "kind": "real",
    "n_real": 12,
    "n_sites": 12,
    "source": "USACE/BTS NWN (NTAD): no navigable segment within this bbox (+2 km) \u2014 computed absence, gate passes all sites"
   },
   "npdes_points": {
    "kind": "real",
    "n_real": 12,
    "n_sites": 12,
    "source": "EPA ECHO active NPDES outfalls states=NC (types NPD/GPC/NGP; statuses ADC/EFF/EXP), per catchment"
   },
   "population_density": {
    "kind": "real",
    "n_real": 12,
    "n_sites": 12,
    "source": "Census ACS 2022 B01003 block groups (bbox, multi-county), area-weighted"
   },
   "protected_area_score": {
    "kind": "real",
    "n_real": 12,
    "n_sites": 12,
    "source": "USGS PAD-US 4.1 state GDB; states=NC; shipped designation-weighted proximity curve"
   },
   "road_access_score": {
    "kind": "real",
    "n_real": 12,
    "n_sites": 12,
    "source": "OSM drive network nearest-node distance"
   },
   "road_density_km_km2": {
    "kind": "real",
    "n_real": 12,
    "n_sites": 12,
    "source": "OSM drive network (osmnx, cached) clipped per catchment"
   },
   "runoff_coeff_C": {
    "kind": "real",
    "n_real": 12,
    "n_sites": 12,
    "source": "derived from real impervious_pct (C=0.05+0.009*I)"
   },
   "seasonal_cv": {
    "kind": "real",
    "n_real": 12,
    "n_sites": 12,
    "source": "CV of NHDPlus EROM monthly flows per COMID"
   },
   "stream_order": {
    "kind": "real",
    "n_real": 12,
    "n_sites": 12,
    "source": "DEM stream-network confluence heuristic (pipeline)"
   },
   "superfund_score": {
    "kind": "real",
    "n_real": 12,
    "n_sites": 12,
    "source": "EPA DataMap SEMS active sites states=NC (non-archived, georeferenced), shipped 500 m inverse-distance curve"
   },
   "tourism_amenity_density": {
    "kind": "real",
    "n_real": 12,
    "n_sites": 12,
    "source": "OSM leisure/tourism features per 2 km radius"
   },
   "tri_facility_density": {
    "kind": "real",
    "n_real": 12,
    "n_sites": 12,
    "source": "EPA DataMap TRI open facilities states=NC (preferred decimal or packed-DMS recovery), per catchment"
   },
   "usgs_mean_q_cfs": {
    "kind": "real",
    "n_real": 12,
    "n_sites": 12,
    "source": "NHDPlus EROM qe_ma per COMID (snap-guarded)"
   },
   "velocity_feasibility": {
    "kind": "real",
    "n_fallback": 0,
    "n_real": 12,
    "n_sites": 12,
    "source": "shipped step curve on the computed velocity"
   },
   "velocity_transport_favorability": {
    "kind": "derived",
    "n_real": 12,
    "n_sites": 12,
    "source": "scored form of flow_velocity_ms inside the Flow family \u2014 peaked Gaussian exp(-((v-0.9)/0.6)^2), model.json curves.velocity_transport_favorability; construct: transport/delivery favorability, deliberately distinct from velocity_feasibility (device operability)"
   },
   "water_intake_score": {
    "kind": "real",
    "n_real": 12,
    "n_sites": 12,
    "source": "NC OneMap / NC DEQ SWAP public water supply sources (source_typ='Surface Water'), shipped exp(-d/10km) curve"
   }
  },
  "stream_mask": {
   "buffer_m": 150.0,
   "pre_mask": 12,
   "removed": 0,
   "sources": [
    "osm-overpass (all waterway ways)",
    "usgs-nhdplus flowlines"
   ]
  },
  "varying": [
   "bank_slope_score",
   "beach_dist_km",
   "bridge_proximity_bonus",
   "catchment_area_km2",
   "ej_index",
   "estuary_dist_km",
   "flow_velocity_ms",
   "impervious_pct",
   "npdes_points",
   "population_density",
   "protected_area_score",
   "road_density_km_km2",
   "runoff_coeff_C",
   "seasonal_cv",
   "superfund_score",
   "tourism_amenity_density",
   "usgs_mean_q_cfs",
   "water_intake_score"
  ]
 },
 "region": {
  "bbox": [
   -83.0988,
   35.4958,
   -83.025,
   35.5558
  ],
  "beach_ref": {
   "label": "Wrightsville Beach (shipped NC reference)",
   "lat": 34.21,
   "lon": -77.79
  },
  "center": [
   -83.061907,
   35.525762
  ],
  "estuary_ref": {
   "label": "Pamlico Sound (shipped NC reference)",
   "lat": 35.05,
   "lon": -76.05
  },
  "flood_method": "none",
  "name": "Maggie Valley, NC",
  "notes": "NC Blue Ridge (outside SIR 2014-5030 urban coverage)",
  "slug": "maggie-valley",
  "state": "NC",
  "utm_epsg": 32617,
  "width_curve": {
   "a": 3.12,
   "b": 0.415,
   "code": "AHI",
   "source": "Bieger et al. 2015 JAWRA Table 3, Appalachian Highlands"
  }
 },
 "type": "FeatureCollection"
}
