{
 "features": [
  {
   "geometry": {
    "coordinates": [
     -82.536471,
     35.812586
    ],
    "type": "Point"
   },
   "properties": {
    "accumulation": 65846.0,
    "bank_slope_deg": 21.39,
    "bank_slope_score": 0.5,
    "bank_slope_source": "nc-dps-lidar-dem03-cross-section",
    "beach_dist_km": 467.5,
    "bridge_proximity_bonus": 0.0,
    "catchment_area_km2": 6.5641,
    "channel_width_m": 6.81,
    "channel_width_score": 1.0,
    "composite_score": 61.691,
    "cso_density": 0.0,
    "ej_index": 0.3747,
    "elevation_m": 637.2249,
    "estuary_dist_km": 593.66,
    "feasibility_score": 71.4286,
    "flood_q10_cfs": null,
    "flow_score": 34.8182,
    "flow_velocity_ms": 0.1162,
    "generation_score": 70.5777,
    "impact_score": 70.3295,
    "impervious_pct": 6.77,
    "land_ownership": 0.5,
    "lat": 35.8126,
    "litter_complaint_density": 0.0,
    "lon": -82.5365,
    "navigable_dist_m": null,
    "npdes_points": 0,
    "pixel_col": 369.0,
    "pixel_row": 437.0,
    "population_density": 143.2,
    "position_along": 0.75,
    "protected_area_score": 7.5268,
    "rank": 1,
    "road_access_m": 17.1,
    "road_access_score": 1.0,
    "road_density_km_km2": 3.018,
    "robustness_pct": 100.0,
    "runoff_coeff_C": 0.1109,
    "seasonal_cv": 0.7261,
    "segment_id": 3,
    "segment_length_m": 3451.9768,
    "stream_order": 1,
    "superfund_score": 0.0,
    "tourism_amenity_density": 0.2387,
    "tri_facility_density": 0.0,
    "usgs_mean_q_cfs": 2.817,
    "velocity_feasibility": 0.7,
    "water_intake_score": 1.7926
   },
   "type": "Feature"
  },
  {
   "geometry": {
    "coordinates": [
     -82.563753,
     35.823202
    ],
    "type": "Point"
   },
   "properties": {
    "accumulation": 65180.0,
    "bank_slope_deg": 9.77,
    "bank_slope_score": 1.0,
    "bank_slope_source": "nc-dps-lidar-dem03-cross-section",
    "beach_dist_km": 470.22,
    "bridge_proximity_bonus": 0.0,
    "catchment_area_km2": 6.4978,
    "channel_width_m": 6.78,
    "channel_width_score": 1.0,
    "composite_score": 57.7844,
    "cso_density": 0.0,
    "ej_index": 0.4465,
    "elevation_m": 657.2313,
    "estuary_dist_km": 596.24,
    "feasibility_score": 100.0,
    "flood_q10_cfs": null,
    "flow_score": 85.4646,
    "flow_velocity_ms": 0.1712,
    "generation_score": 38.7261,
    "impact_score": 32.6681,
    "impervious_pct": 2.62,
    "land_ownership": 0.5,
    "lat": 35.8232,
    "litter_complaint_density": 0.0,
    "lon": -82.5638,
    "navigable_dist_m": null,
    "npdes_points": 1,
    "pixel_col": 123.0,
    "pixel_row": 316.0,
    "population_density": 82.4,
    "position_along": 0.25,
    "protected_area_score": 6.6915,
    "rank": 2,
    "road_access_m": 128.0,
    "road_access_score": 1.0,
    "road_density_km_km2": 2.68,
    "robustness_pct": 99.5,
    "runoff_coeff_C": 0.0736,
    "seasonal_cv": 0.6079,
    "segment_id": 2,
    "segment_length_m": 3318.1649,
    "stream_order": 3,
    "superfund_score": 0.0,
    "tourism_amenity_density": 2.3873,
    "tri_facility_density": 0.0,
    "usgs_mean_q_cfs": 5.623,
    "velocity_feasibility": 0.7,
    "water_intake_score": 1.6319
   },
   "type": "Feature"
  },
  {
   "geometry": {
    "coordinates": [
     -82.553509,
     35.828623
    ],
    "type": "Point"
   },
   "properties": {
    "accumulation": 23411.0,
    "bank_slope_deg": 0.46,
    "bank_slope_score": 1.0,
    "bank_slope_source": "nc-dps-lidar-dem03-cross-section",
    "beach_dist_km": 469.57,
    "bridge_proximity_bonus": 0.0,
    "catchment_area_km2": 2.3338,
    "channel_width_m": 4.44,
    "channel_width_score": 1.0,
    "composite_score": 56.3253,
    "cso_density": 0.0,
    "ej_index": 0.4874,
    "elevation_m": 678.984,
    "estuary_dist_km": 595.39,
    "feasibility_score": 100.0,
    "flood_q10_cfs": null,
    "flow_score": 43.0337,
    "flow_velocity_ms": 0.1138,
    "generation_score": 55.0459,
    "impact_score": 46.8436,
    "impervious_pct": 3.47,
    "land_ownership": 0.5,
    "lat": 35.8286,
    "litter_complaint_density": 0.0,
    "lon": -82.5535,
    "navigable_dist_m": null,
    "npdes_points": 1,
    "pixel_col": 216.0,
    "pixel_row": 257.0,
    "population_density": 83.8,
    "position_along": 0.5,
    "protected_area_score": 6.6682,
    "rank": 3,
    "road_access_m": 78.6,
    "road_access_score": 1.0,
    "road_density_km_km2": 5.618,
    "robustness_pct": 100.0,
    "runoff_coeff_C": 0.0812,
    "seasonal_cv": 0.559,
    "segment_id": 0,
    "segment_length_m": 1050.6184,
    "stream_order": 3,
    "superfund_score": 0.0,
    "tourism_amenity_density": 2.6261,
    "tri_facility_density": 0.0,
    "usgs_mean_q_cfs": 2.866,
    "velocity_feasibility": 0.7,
    "water_intake_score": 1.6569
   },
   "type": "Feature"
  },
  {
   "geometry": {
    "coordinates": [
     -82.527569,
     35.822897
    ],
    "type": "Point"
   },
   "properties": {
    "accumulation": 28719.0,
    "bank_slope_deg": 5.09,
    "bank_slope_score": 1.0,
    "bank_slope_source": "nc-dps-lidar-dem03-cross-section",
    "beach_dist_km": 467.16,
    "bridge_proximity_bonus": 0.0,
    "catchment_area_km2": 2.863,
    "channel_width_m": 4.83,
    "channel_width_score": 1.0,
    "composite_score": 54.0294,
    "cso_density": 0.0,
    "ej_index": 0.4213,
    "elevation_m": 658.3896,
    "estuary_dist_km": 592.99,
    "feasibility_score": 100.0,
    "flood_q10_cfs": null,
    "flow_score": 10.2822,
    "flow_velocity_ms": 0.1043,
    "generation_score": 52.2415,
    "impact_score": 69.288,
    "impervious_pct": 4.78,
    "land_ownership": 0.5,
    "lat": 35.8229,
    "litter_complaint_density": 0.0,
    "lon": -82.5276,
    "navigable_dist_m": null,
    "npdes_points": 0,
    "pixel_col": 451.0,
    "pixel_row": 324.0,
    "population_density": 124.4,
    "position_along": 0.25,
    "protected_area_score": 7.1463,
    "rank": 4,
    "road_access_m": 79.4,
    "road_access_score": 1.0,
    "road_density_km_km2": 3.443,
    "robustness_pct": 92.0,
    "runoff_coeff_C": 0.093,
    "seasonal_cv": 0.7098,
    "segment_id": 3,
    "segment_length_m": 3451.9768,
    "stream_order": 1,
    "superfund_score": 0.0,
    "tourism_amenity_density": 0.3183,
    "tri_facility_density": 0.0,
    "usgs_mean_q_cfs": 1.621,
    "velocity_feasibility": 0.7,
    "water_intake_score": 1.7651
   },
   "type": "Feature"
  },
  {
   "geometry": {
    "coordinates": [
     -82.556228,
     35.828715
    ],
    "type": "Point"
   },
   "properties": {
    "accumulation": 24231.0,
    "bank_slope_deg": 8.36,
    "bank_slope_score": 1.0,
    "bank_slope_source": "nc-dps-lidar-dem03-cross-section",
    "beach_dist_km": 469.8,
    "bridge_proximity_bonus": 0.0,
    "catchment_area_km2": 2.4156,
    "channel_width_m": 4.5,
    "channel_width_score": 1.0,
    "composite_score": 43.6973,
    "cso_density": 0.0,
    "ej_index": 0.5043,
    "elevation_m": 670.5098,
    "estuary_dist_km": 595.63,
    "feasibility_score": 64.2857,
    "flood_q10_cfs": null,
    "flow_score": 35.8105,
    "flow_velocity_ms": 0.1241,
    "generation_score": 39.3228,
    "impact_score": 44.3498,
    "impervious_pct": 1.9,
    "land_ownership": 0.5,
    "lat": 35.8287,
    "litter_complaint_density": 0.0,
    "lon": -82.5562,
    "navigable_dist_m": null,
    "npdes_points": 1,
    "pixel_col": 192.0,
    "pixel_row": 255.0,
    "population_density": 75.3,
    "position_along": 0.5,
    "protected_area_score": 6.6122,
    "rank": 5,
    "road_access_m": 200.1,
    "road_access_score": 0.8,
    "road_density_km_km2": 4.864,
    "robustness_pct": 56.0,
    "runoff_coeff_C": 0.0671,
    "seasonal_cv": 0.5713,
    "segment_id": 1,
    "segment_length_m": 403.9296,
    "stream_order": 3,
    "superfund_score": 0.0,
    "tourism_amenity_density": 2.6261,
    "tri_facility_density": 0.0,
    "usgs_mean_q_cfs": 1.567,
    "velocity_feasibility": 0.7,
    "water_intake_score": 1.6439
   },
   "type": "Feature"
  },
  {
   "geometry": {
    "coordinates": [
     -82.566438,
     35.810983
    ],
    "type": "Point"
   },
   "properties": {
    "accumulation": 81766.0,
    "bank_slope_deg": 17.69,
    "bank_slope_score": 0.5,
    "bank_slope_source": "nc-dps-lidar-dem03-cross-section",
    "beach_dist_km": 469.96,
    "bridge_proximity_bonus": 0.0,
    "catchment_area_km2": 8.1512,
    "channel_width_m": 7.45,
    "channel_width_score": 1.0,
    "composite_score": 42.4544,
    "cso_density": 0.0,
    "ej_index": 0.3922,
    "elevation_m": 634.9245,
    "estuary_dist_km": 596.33,
    "feasibility_score": 0.0,
    "flood_q10_cfs": null,
    "flow_score": 80.5376,
    "flow_velocity_ms": 0.1337,
    "generation_score": 37.9333,
    "impact_score": 36.4666,
    "impervious_pct": 2.62,
    "land_ownership": 0.5,
    "lat": 35.811,
    "litter_complaint_density": 0.0,
    "lon": -82.5664,
    "navigable_dist_m": null,
    "npdes_points": 1,
    "pixel_col": 97.0,
    "pixel_row": 451.0,
    "population_density": 94.7,
    "position_along": 0.75,
    "protected_area_score": 7.096,
    "rank": 6,
    "road_access_m": 504.1,
    "road_access_score": 0.6,
    "road_density_km_km2": 1.019,
    "robustness_pct": 52.5,
    "runoff_coeff_C": 0.0736,
    "seasonal_cv": 0.6079,
    "segment_id": 2,
    "segment_length_m": 3318.1649,
    "stream_order": 3,
    "superfund_score": 0.0,
    "tourism_amenity_density": 1.0345,
    "tri_facility_density": 0.0,
    "usgs_mean_q_cfs": 5.623,
    "velocity_feasibility": 0.7,
    "water_intake_score": 1.6956
   },
   "type": "Feature"
  },
  {
   "geometry": {
    "coordinates": [
     -82.572604,
     35.818027
    ],
    "type": "Point"
   },
   "properties": {
    "accumulation": 28802.0,
    "bank_slope_deg": 9.27,
    "bank_slope_score": 1.0,
    "bank_slope_source": "nc-dps-lidar-dem03-cross-section",
    "beach_dist_km": 470.75,
    "bridge_proximity_bonus": 0.0,
    "catchment_area_km2": 2.8713,
    "channel_width_m": 4.83,
    "channel_width_score": 1.0,
    "composite_score": 21.1254,
    "cso_density": 0.0,
    "ej_index": 0.3353,
    "elevation_m": 648.6672,
    "estuary_dist_km": 596.97,
    "feasibility_score": 100.0,
    "flood_q10_cfs": null,
    "flow_score": 15.5928,
    "flow_velocity_ms": 0.1242,
    "generation_score": 0.54,
    "impact_score": 6.884,
    "impervious_pct": 1.19,
    "land_ownership": 0.5,
    "lat": 35.818,
    "litter_complaint_density": 0.0,
    "lon": -82.5726,
    "navigable_dist_m": null,
    "npdes_points": 0,
    "pixel_col": 42.0,
    "pixel_row": 372.0,
    "population_density": 72.6,
    "position_along": 0.5,
    "protected_area_score": 6.595,
    "rank": 7,
    "road_access_m": 103.3,
    "road_access_score": 1.0,
    "road_density_km_km2": 1.168,
    "robustness_pct": 0.0,
    "runoff_coeff_C": 0.0607,
    "seasonal_cv": 0.6039,
    "segment_id": 4,
    "segment_length_m": 2145.1886,
    "stream_order": 1,
    "superfund_score": 0.0,
    "tourism_amenity_density": 1.7507,
    "tri_facility_density": 0.0,
    "usgs_mean_q_cfs": 1.138,
    "velocity_feasibility": 0.7,
    "water_intake_score": 1.6044
   },
   "type": "Feature"
  }
 ],
 "note": "GRIME region 'Mars Hill, NC' \u2014 real-data pipeline (DEM\u2192streams\u2192candidates\u2192stream mask (sites confined to \u00b1150 m of mapped OSM/NHD waterways)\u2192region-appropriate real parameters\u2192shipped scoring, math unchanged). Width curve: Bieger et al. 2015 JAWRA Table 3, Appalachian Highlands. Flood: not applicable here (documented fallback). NC Blue Ridge (outside SIR 2014-5030 urban coverage)",
 "provenance": {
  "candidates_pre_gate": 7,
  "constant": [
   "bridge_proximity_bonus",
   "channel_width_score",
   "cso_density",
   "flood_q10_cfs",
   "land_ownership",
   "litter_complaint_density",
   "superfund_score",
   "tri_facility_density",
   "velocity_feasibility"
  ],
  "gated_navigable": 0,
  "hard_gate_removed": 0,
  "n_parameters": 27,
  "parameters": {
   "bank_slope_score": {
    "kind": "real",
    "n_3dep_10m_fallback": 0,
    "n_nc_lidar_3_125ft": 7,
    "n_real": 7,
    "n_sites": 7,
    "source": "NC OneMap / NC DPS DEM03 statewide lidar-derived 3.125-ft (0.953 m) elevations (perpendicular 50 m transect; robust 5 m bank-rise metric); unavailable profiles use the region 10 m 3DEP DEM-gradient fallback",
    "source_mosaics": [
     "Madison_Ground_3ft"
    ]
   },
   "beach_dist_km": {
    "kind": "real",
    "n_real": 7,
    "n_sites": 7,
    "source": "haversine to region ref: Wrightsville Beach (shipped NC reference)"
   },
   "bridge_proximity_bonus": {
    "kind": "real",
    "n_real": 7,
    "n_sites": 7,
    "source": "FHWA/BTS NBI (NTAD), 50 m proximity"
   },
   "catchment_area_km2": {
    "kind": "real",
    "n_real": 7,
    "n_sites": 7,
    "source": "DEM flow accumulation (pipeline)"
   },
   "channel_width_score": {
    "kind": "real",
    "n_real": 7,
    "n_sites": 7,
    "source": "Bieger 2015 AHI width curve on DEM drainage area \u2192 shipped width curve"
   },
   "cso_density": {
    "kind": "real",
    "n_real": 7,
    "n_sites": 7,
    "source": "EPA ECHO open CSO/TCS outfall PF coordinates states=NC, Cauchy proximity"
   },
   "ej_index": {
    "kind": "real",
    "n_real": 7,
    "n_sites": 7,
    "source": "Census ACS C17002+B03002 two-component demographic index, percentile-ranked within region"
   },
   "estuary_dist_km": {
    "kind": "real",
    "n_real": 7,
    "n_sites": 7,
    "source": "haversine to region ref: Pamlico Sound (shipped NC reference)"
   },
   "flood_q10_cfs": {
    "kind": "fallback",
    "n_real": 0,
    "n_sites": 7,
    "source": "flood regression not valid here (NC Blue Ridge (outside SIR 2014-5030 urban coverage)...) \u2014 NaN, dropped by constant-column handling"
   },
   "flow_velocity_ms": {
    "kind": "real",
    "n_fallback": 0,
    "n_real": 7,
    "n_sites": 7,
    "source": "Manning (region DEM/D8) blended with EROM continuity (shipped M4 logic)"
   },
   "impervious_pct": {
    "kind": "real",
    "n_real": 7,
    "n_sites": 7,
    "source": "EPA StreamCat pctimp2019 (per NHDPlus watershed)"
   },
   "land_ownership": {
    "fallback_reason": "no containing parcel owner returned; shipped unknown ownership 0.5 used",
    "kind": "real",
    "n_fallback": 1,
    "n_real": 6,
    "n_sites": 7,
    "source": "NC OneMap statewide parcels (NC Parcels Transformer) ownname"
   },
   "litter_complaint_density": {
    "kind": "fallback",
    "n_real": 0,
    "n_sites": 7,
    "source": "no public machine-readable litter/illegal-dumping feed for this region"
   },
   "navigable_dist_m": {
    "kind": "real",
    "n_real": 7,
    "n_sites": 7,
    "source": "USACE/BTS NWN (NTAD): no navigable segment within this bbox (+2 km) \u2014 computed absence, gate passes all sites"
   },
   "npdes_points": {
    "kind": "real",
    "n_real": 7,
    "n_sites": 7,
    "source": "EPA ECHO active NPDES outfalls states=NC (types NPD/GPC/NGP; statuses ADC/EFF/EXP), per catchment"
   },
   "population_density": {
    "kind": "real",
    "n_real": 7,
    "n_sites": 7,
    "source": "Census ACS 2022 B01003 block groups (bbox, multi-county), area-weighted"
   },
   "protected_area_score": {
    "kind": "real",
    "n_real": 7,
    "n_sites": 7,
    "source": "USGS PAD-US 4.1 state GDB; states=NC; shipped designation-weighted proximity curve"
   },
   "road_access_score": {
    "kind": "real",
    "n_real": 7,
    "n_sites": 7,
    "source": "OSM drive network nearest-node distance"
   },
   "road_density_km_km2": {
    "kind": "real",
    "n_real": 7,
    "n_sites": 7,
    "source": "OSM drive network (osmnx, cached) clipped per catchment"
   },
   "runoff_coeff_C": {
    "kind": "real",
    "n_real": 7,
    "n_sites": 7,
    "source": "derived from real impervious_pct (C=0.05+0.009*I)"
   },
   "seasonal_cv": {
    "kind": "real",
    "n_real": 7,
    "n_sites": 7,
    "source": "CV of NHDPlus EROM monthly flows per COMID"
   },
   "stream_order": {
    "kind": "real",
    "n_real": 7,
    "n_sites": 7,
    "source": "DEM stream-network confluence heuristic (pipeline)"
   },
   "superfund_score": {
    "kind": "real",
    "n_real": 7,
    "n_sites": 7,
    "source": "EPA DataMap SEMS active sites states=NC (non-archived, georeferenced), shipped 500 m inverse-distance curve"
   },
   "tourism_amenity_density": {
    "kind": "real",
    "n_real": 7,
    "n_sites": 7,
    "source": "OSM leisure/tourism features per 2 km radius"
   },
   "tri_facility_density": {
    "kind": "real",
    "n_real": 7,
    "n_sites": 7,
    "source": "EPA DataMap TRI open facilities states=NC (preferred decimal or packed-DMS recovery), per catchment"
   },
   "usgs_mean_q_cfs": {
    "kind": "real",
    "n_real": 7,
    "n_sites": 7,
    "source": "NHDPlus EROM qe_ma per COMID (snap-guarded)"
   },
   "velocity_feasibility": {
    "kind": "real",
    "n_fallback": 0,
    "n_real": 7,
    "n_sites": 7,
    "source": "shipped step curve on the computed velocity"
   },
   "velocity_transport_favorability": {
    "kind": "derived",
    "n_real": 7,
    "n_sites": 7,
    "source": "scored form of flow_velocity_ms inside the Flow family \u2014 peaked Gaussian exp(-((v-0.9)/0.6)^2), model.json curves.velocity_transport_favorability; construct: transport/delivery favorability, deliberately distinct from velocity_feasibility (device operability)"
   },
   "water_intake_score": {
    "kind": "real",
    "n_real": 7,
    "n_sites": 7,
    "source": "NC OneMap / NC DEQ SWAP public water supply sources (source_typ='Surface Water'), shipped exp(-d/10km) curve"
   }
  },
  "stream_mask": {
   "buffer_m": 150.0,
   "pre_mask": 7,
   "removed": 0,
   "sources": [
    "osm-overpass (all waterway ways)",
    "usgs-nhdplus flowlines"
   ]
  },
  "varying": [
   "bank_slope_score",
   "beach_dist_km",
   "catchment_area_km2",
   "ej_index",
   "estuary_dist_km",
   "flow_velocity_ms",
   "impervious_pct",
   "npdes_points",
   "population_density",
   "protected_area_score",
   "road_access_score",
   "road_density_km_km2",
   "runoff_coeff_C",
   "seasonal_cv",
   "stream_order",
   "tourism_amenity_density",
   "usgs_mean_q_cfs",
   "water_intake_score"
  ]
 },
 "region": {
  "bbox": [
   -82.5771,
   35.8051,
   -82.52,
   35.8513
  ],
  "beach_ref": {
   "label": "Wrightsville Beach (shipped NC reference)",
   "lat": 34.21,
   "lon": -77.79
  },
  "center": [
   -82.548563,
   35.828217
  ],
  "estuary_ref": {
   "label": "Pamlico Sound (shipped NC reference)",
   "lat": 35.05,
   "lon": -76.05
  },
  "flood_method": "none",
  "name": "Mars Hill, NC",
  "notes": "NC Blue Ridge (outside SIR 2014-5030 urban coverage)",
  "slug": "mars-hill",
  "state": "NC",
  "utm_epsg": 32617,
  "width_curve": {
   "a": 3.12,
   "b": 0.415,
   "code": "AHI",
   "source": "Bieger et al. 2015 JAWRA Table 3, Appalachian Highlands"
  }
 },
 "type": "FeatureCollection"
}
