{
 "features": [
  {
   "geometry": {
    "coordinates": [
     -82.673215,
     35.793119
    ],
    "type": "Point"
   },
   "properties": {
    "accumulation": 181743.0,
    "bank_slope_deg": 0.11,
    "bank_slope_score": 1.0,
    "bank_slope_source": "nc-dps-lidar-dem03-cross-section",
    "beach_dist_km": 478.28,
    "bridge_proximity_bonus": 0.0,
    "catchment_area_km2": 18.1538,
    "channel_width_m": 10.39,
    "channel_width_score": 1.0,
    "composite_score": 64.2165,
    "cso_density": 0.0,
    "ej_index": 0.5495,
    "elevation_m": 500.434,
    "estuary_dist_km": 605.7,
    "feasibility_score": 84.6154,
    "flood_q10_cfs": null,
    "flow_score": 64.5861,
    "flow_velocity_ms": 0.5,
    "generation_score": 54.3453,
    "impact_score": 63.5801,
    "impervious_pct": null,
    "land_ownership": 0.5,
    "lat": 35.7931,
    "litter_complaint_density": 0.0,
    "lon": -82.6732,
    "navigable_dist_m": null,
    "npdes_points": 3,
    "pixel_col": 419.0,
    "pixel_row": 420.0,
    "population_density": 41.4,
    "position_along": 0.5,
    "protected_area_score": 9.5179,
    "rank": 1,
    "road_access_m": 187.0,
    "road_access_score": 1.0,
    "road_density_km_km2": 3.123,
    "robustness_pct": 100.0,
    "runoff_coeff_C": null,
    "seasonal_cv": null,
    "segment_id": 9,
    "segment_length_m": 471.8658,
    "stream_order": 3,
    "superfund_score": 0.0,
    "tourism_amenity_density": 1.7507,
    "tri_facility_density": 0.0,
    "usgs_mean_q_cfs": null,
    "velocity_feasibility": 1.0,
    "water_intake_score": 0.874
   },
   "type": "Feature"
  },
  {
   "geometry": {
    "coordinates": [
     -82.666633,
     35.796338
    ],
    "type": "Point"
   },
   "properties": {
    "accumulation": 80657.0,
    "bank_slope_deg": 52.73,
    "bank_slope_score": 0.1,
    "bank_slope_source": "nc-dps-lidar-dem03-cross-section",
    "beach_dist_km": 477.84,
    "bridge_proximity_bonus": 0.2,
    "catchment_area_km2": 8.0566,
    "channel_width_m": 7.42,
    "channel_width_score": 1.0,
    "composite_score": 63.7518,
    "cso_density": 0.0,
    "ej_index": 0.6072,
    "elevation_m": 526.8611,
    "estuary_dist_km": 605.14,
    "feasibility_score": 53.8462,
    "flood_q10_cfs": null,
    "flow_score": 37.1379,
    "flow_velocity_ms": 0.1687,
    "generation_score": 85.1175,
    "impact_score": 69.5171,
    "impervious_pct": 3.46,
    "land_ownership": 0.5,
    "lat": 35.7963,
    "litter_complaint_density": 0.0,
    "lon": -82.6666,
    "navigable_dist_m": null,
    "npdes_points": 3,
    "pixel_col": 481.0,
    "pixel_row": 384.0,
    "population_density": 38.5,
    "position_along": 0.75,
    "protected_area_score": 9.009,
    "rank": 2,
    "road_access_m": 41.0,
    "road_access_score": 1.0,
    "road_density_km_km2": 3.274,
    "robustness_pct": 100.0,
    "runoff_coeff_C": 0.0811,
    "seasonal_cv": 0.6936,
    "segment_id": 3,
    "segment_length_m": 4304.7494,
    "stream_order": 3,
    "superfund_score": 0.0,
    "tourism_amenity_density": 1.9099,
    "tri_facility_density": 0.0,
    "usgs_mean_q_cfs": 3.888,
    "velocity_feasibility": 0.7,
    "water_intake_score": 0.9058
   },
   "type": "Feature"
  },
  {
   "geometry": {
    "coordinates": [
     -82.67545,
     35.793029
    ],
    "type": "Point"
   },
   "properties": {
    "accumulation": 207082.0,
    "bank_slope_deg": 0.04,
    "bank_slope_score": 1.0,
    "bank_slope_source": "nc-dps-lidar-dem03-cross-section",
    "beach_dist_km": 478.46,
    "bridge_proximity_bonus": 0.0,
    "catchment_area_km2": 20.6849,
    "channel_width_m": 10.97,
    "channel_width_score": 1.0,
    "composite_score": 61.4028,
    "cso_density": 0.0,
    "ej_index": 0.5515,
    "elevation_m": 500.3972,
    "estuary_dist_km": 605.9,
    "feasibility_score": 65.3846,
    "flood_q10_cfs": null,
    "flow_score": 67.4419,
    "flow_velocity_ms": 0.5,
    "generation_score": 53.8641,
    "impact_score": 61.9179,
    "impervious_pct": null,
    "land_ownership": 0.5,
    "lat": 35.793,
    "litter_complaint_density": 0.0,
    "lon": -82.6755,
    "navigable_dist_m": null,
    "npdes_points": 3,
    "pixel_col": 400.0,
    "pixel_row": 421.0,
    "population_density": 41.6,
    "position_along": 0.5,
    "protected_area_score": 9.5774,
    "rank": 3,
    "road_access_m": 353.6,
    "road_access_score": 0.8,
    "road_density_km_km2": 2.975,
    "robustness_pct": 100.0,
    "runoff_coeff_C": null,
    "seasonal_cv": null,
    "segment_id": 10,
    "segment_length_m": 38.2627,
    "stream_order": 3,
    "superfund_score": 0.0,
    "tourism_amenity_density": 1.6711,
    "tri_facility_density": 0.0,
    "usgs_mean_q_cfs": null,
    "velocity_feasibility": 1.0,
    "water_intake_score": 0.8607
   },
   "type": "Feature"
  },
  {
   "geometry": {
    "coordinates": [
     -82.664631,
     35.788373
    ],
    "type": "Point"
   },
   "properties": {
    "accumulation": 69331.0,
    "bank_slope_deg": 0.08,
    "bank_slope_score": 1.0,
    "bank_slope_source": "nc-dps-lidar-dem03-cross-section",
    "beach_dist_km": 477.37,
    "bridge_proximity_bonus": 0.0,
    "catchment_area_km2": 6.9253,
    "channel_width_m": 6.97,
    "channel_width_score": 1.0,
    "composite_score": 60.6615,
    "cso_density": 0.0,
    "ej_index": 0.5621,
    "elevation_m": 501.6609,
    "estuary_dist_km": 604.87,
    "feasibility_score": 84.6154,
    "flood_q10_cfs": null,
    "flow_score": 51.9175,
    "flow_velocity_ms": 0.5,
    "generation_score": 47.9645,
    "impact_score": 68.6684,
    "impervious_pct": null,
    "land_ownership": 0.5,
    "lat": 35.7884,
    "litter_complaint_density": 0.0,
    "lon": -82.6646,
    "navigable_dist_m": null,
    "npdes_points": 2,
    "pixel_col": 496.0,
    "pixel_row": 474.0,
    "population_density": 42.4,
    "position_along": 0.75,
    "protected_area_score": 9.5409,
    "rank": 4,
    "road_access_m": 169.2,
    "road_access_score": 1.0,
    "road_density_km_km2": 2.946,
    "robustness_pct": 100.0,
    "runoff_coeff_C": null,
    "seasonal_cv": null,
    "segment_id": 8,
    "segment_length_m": 3261.3179,
    "stream_order": 3,
    "superfund_score": 0.0,
    "tourism_amenity_density": 1.1937,
    "tri_facility_density": 0.0,
    "usgs_mean_q_cfs": null,
    "velocity_feasibility": 1.0,
    "water_intake_score": 0.9363
   },
   "type": "Feature"
  },
  {
   "geometry": {
    "coordinates": [
     -82.651324,
     35.779255
    ],
    "type": "Point"
   },
   "properties": {
    "accumulation": 24399.0,
    "bank_slope_deg": 0.02,
    "bank_slope_score": 1.0,
    "bank_slope_source": "nc-dps-lidar-dem03-cross-section",
    "beach_dist_km": 475.89,
    "bridge_proximity_bonus": 0.0,
    "catchment_area_km2": 2.4371,
    "channel_width_m": 4.52,
    "channel_width_score": 1.0,
    "composite_score": 52.0128,
    "cso_density": 0.0,
    "ej_index": 0.4008,
    "elevation_m": 505.6539,
    "estuary_dist_km": 603.57,
    "feasibility_score": 65.3846,
    "flood_q10_cfs": null,
    "flow_score": 46.8536,
    "flow_velocity_ms": 0.5,
    "generation_score": 32.6357,
    "impact_score": 69.0033,
    "impervious_pct": null,
    "land_ownership": 0.5,
    "lat": 35.7793,
    "litter_complaint_density": 0.0,
    "lon": -82.6513,
    "navigable_dist_m": null,
    "npdes_points": 0,
    "pixel_col": 615.0,
    "pixel_row": 576.0,
    "population_density": 39.4,
    "position_along": 0.25,
    "protected_area_score": 10.2831,
    "rank": 5,
    "road_access_m": 238.2,
    "road_access_score": 0.8,
    "road_density_km_km2": 3.239,
    "robustness_pct": 94.5,
    "runoff_coeff_C": null,
    "seasonal_cv": null,
    "segment_id": 8,
    "segment_length_m": 3261.3179,
    "stream_order": 3,
    "superfund_score": 0.0,
    "tourism_amenity_density": 0.3979,
    "tri_facility_density": 0.0,
    "usgs_mean_q_cfs": null,
    "velocity_feasibility": 1.0,
    "water_intake_score": 1.0218
   },
   "type": "Feature"
  },
  {
   "geometry": {
    "coordinates": [
     -82.696046,
     35.800367
    ],
    "type": "Point"
   },
   "properties": {
    "accumulation": 44891.0,
    "bank_slope_deg": 0.06,
    "bank_slope_score": 1.0,
    "bank_slope_source": "nc-dps-lidar-dem03-cross-section",
    "beach_dist_km": 480.49,
    "bridge_proximity_bonus": 0.0,
    "catchment_area_km2": 4.484,
    "channel_width_m": 5.82,
    "channel_width_score": 1.0,
    "composite_score": 44.1333,
    "cso_density": 0.0,
    "ej_index": 0.6901,
    "elevation_m": 494.0502,
    "estuary_dist_km": 607.83,
    "feasibility_score": 65.3846,
    "flood_q10_cfs": null,
    "flow_score": 32.884,
    "flow_velocity_ms": 0.5,
    "generation_score": 34.0268,
    "impact_score": 52.9886,
    "impervious_pct": null,
    "land_ownership": 0.5,
    "lat": 35.8004,
    "litter_complaint_density": 0.0,
    "lon": -82.696,
    "navigable_dist_m": null,
    "npdes_points": 0,
    "pixel_col": 214.0,
    "pixel_row": 337.0,
    "population_density": 41.9,
    "position_along": 0.5,
    "protected_area_score": 9.307,
    "rank": 6,
    "road_access_m": 468.1,
    "road_access_score": 0.8,
    "road_density_km_km2": 2.938,
    "robustness_pct": 0.0,
    "runoff_coeff_C": null,
    "seasonal_cv": null,
    "segment_id": 4,
    "segment_length_m": 1803.7846,
    "stream_order": 1,
    "superfund_score": 0.0,
    "tourism_amenity_density": 1.5915,
    "tri_facility_density": 0.0,
    "usgs_mean_q_cfs": null,
    "velocity_feasibility": 1.0,
    "water_intake_score": 0.7435
   },
   "type": "Feature"
  },
  {
   "geometry": {
    "coordinates": [
     -82.67607,
     35.789875
    ],
    "type": "Point"
   },
   "properties": {
    "accumulation": 21364.0,
    "bank_slope_deg": 41.16,
    "bank_slope_score": 0.2,
    "bank_slope_source": "nc-dps-lidar-dem03-cross-section",
    "beach_dist_km": 478.39,
    "bridge_proximity_bonus": 0.0,
    "catchment_area_km2": 2.134,
    "channel_width_m": 4.27,
    "channel_width_score": 1.0,
    "composite_score": 42.4645,
    "cso_density": 0.0,
    "ej_index": 0.5036,
    "elevation_m": 517.2727,
    "estuary_dist_km": 605.91,
    "feasibility_score": 20.9402,
    "flood_q10_cfs": null,
    "flow_score": 23.1543,
    "flow_velocity_ms": 0.1367,
    "generation_score": 51.6847,
    "impact_score": 60.0984,
    "impervious_pct": 1.0,
    "land_ownership": 0.5,
    "lat": 35.7899,
    "litter_complaint_density": 0.0,
    "lon": -82.6761,
    "navigable_dist_m": null,
    "npdes_points": 0,
    "pixel_col": 397.0,
    "pixel_row": 456.0,
    "population_density": 47.1,
    "position_along": 0.5,
    "protected_area_score": 9.7949,
    "rank": 7,
    "road_access_m": 259.1,
    "road_access_score": 0.8,
    "road_density_km_km2": 3.385,
    "robustness_pct": 5.5,
    "runoff_coeff_C": 0.059,
    "seasonal_cv": 0.6831,
    "segment_id": 5,
    "segment_length_m": 914.753,
    "stream_order": 3,
    "superfund_score": 0.0,
    "tourism_amenity_density": 1.6711,
    "tri_facility_density": 0.0,
    "usgs_mean_q_cfs": 0.761,
    "velocity_feasibility": 0.7,
    "water_intake_score": 0.8588
   },
   "type": "Feature"
  },
  {
   "geometry": {
    "coordinates": [
     -82.657905,
     35.807392
    ],
    "type": "Point"
   },
   "properties": {
    "accumulation": 42743.0,
    "bank_slope_deg": 7.8,
    "bank_slope_score": 1.0,
    "bank_slope_source": "nc-dps-lidar-dem03-cross-section",
    "beach_dist_km": 477.53,
    "bridge_proximity_bonus": 0.0,
    "catchment_area_km2": 4.2695,
    "channel_width_m": 5.7,
    "channel_width_score": 1.0,
    "composite_score": 40.7085,
    "cso_density": 0.0,
    "ej_index": 0.389,
    "elevation_m": 590.5843,
    "estuary_dist_km": 604.49,
    "feasibility_score": 34.6154,
    "flood_q10_cfs": null,
    "flow_score": 29.4603,
    "flow_velocity_ms": 0.1447,
    "generation_score": 46.125,
    "impact_score": 47.7121,
    "impervious_pct": 2.46,
    "land_ownership": 0.5,
    "lat": 35.8074,
    "litter_complaint_density": 0.0,
    "lon": -82.6579,
    "navigable_dist_m": null,
    "npdes_points": 1,
    "pixel_col": 563.0,
    "pixel_row": 266.0,
    "population_density": 28.5,
    "position_along": 0.25,
    "protected_area_score": 7.8136,
    "rank": 8,
    "road_access_m": 259.7,
    "road_access_score": 0.8,
    "road_density_km_km2": 2.29,
    "robustness_pct": 0.0,
    "runoff_coeff_C": 0.0721,
    "seasonal_cv": 0.6708,
    "segment_id": 3,
    "segment_length_m": 4304.7494,
    "stream_order": 3,
    "superfund_score": 0.0,
    "tourism_amenity_density": 0.7162,
    "tri_facility_density": 0.0,
    "usgs_mean_q_cfs": 2.38,
    "velocity_feasibility": 0.7,
    "water_intake_score": 0.9552
   },
   "type": "Feature"
  },
  {
   "geometry": {
    "coordinates": [
     -82.683852,
     35.815675
    ],
    "type": "Point"
   },
   "properties": {
    "accumulation": 31218.0,
    "bank_slope_deg": 20.44,
    "bank_slope_score": 0.5,
    "bank_slope_source": "nc-dps-lidar-dem03-cross-section",
    "beach_dist_km": 480.05,
    "bridge_proximity_bonus": 0.0,
    "catchment_area_km2": 3.1183,
    "channel_width_m": 5.0,
    "channel_width_score": 1.0,
    "composite_score": 37.8965,
    "cso_density": 0.0,
    "ej_index": 0.4953,
    "elevation_m": 589.7433,
    "estuary_dist_km": 606.91,
    "feasibility_score": 56.8376,
    "flood_q10_cfs": null,
    "flow_score": 47.6222,
    "flow_velocity_ms": 0.5,
    "generation_score": 27.0818,
    "impact_score": 31.136,
    "impervious_pct": null,
    "land_ownership": 0.5,
    "lat": 35.8157,
    "litter_complaint_density": 0.0,
    "lon": -82.6839,
    "navigable_dist_m": null,
    "npdes_points": 0,
    "pixel_col": 327.0,
    "pixel_row": 167.0,
    "population_density": 30.9,
    "position_along": 0.1667,
    "protected_area_score": 7.6024,
    "rank": 9,
    "road_access_m": 305.9,
    "road_access_score": 0.8,
    "road_density_km_km2": 4.09,
    "robustness_pct": 0.0,
    "runoff_coeff_C": null,
    "seasonal_cv": null,
    "segment_id": 1,
    "segment_length_m": 5712.189,
    "stream_order": 3,
    "superfund_score": 0.0,
    "tourism_amenity_density": 0.557,
    "tri_facility_density": 0.0,
    "usgs_mean_q_cfs": null,
    "velocity_feasibility": 1.0,
    "water_intake_score": 0.7819
   },
   "type": "Feature"
  },
  {
   "geometry": {
    "coordinates": [
     -82.697159,
     35.814082
    ],
    "type": "Point"
   },
   "properties": {
    "accumulation": 56970.0,
    "bank_slope_deg": 24.48,
    "bank_slope_score": 0.5,
    "bank_slope_source": "nc-dps-lidar-dem03-cross-section",
    "beach_dist_km": 481.11,
    "bridge_proximity_bonus": 0.0,
    "catchment_area_km2": 5.6906,
    "channel_width_m": 6.42,
    "channel_width_score": 1.0,
    "composite_score": 37.3039,
    "cso_density": 0.0,
    "ej_index": 0.6333,
    "elevation_m": 574.8883,
    "estuary_dist_km": 608.09,
    "feasibility_score": 45.2991,
    "flood_q10_cfs": null,
    "flow_score": 49.5108,
    "flow_velocity_ms": 0.1294,
    "generation_score": 29.1208,
    "impact_score": 31.3169,
    "impervious_pct": 0.8,
    "land_ownership": 0.5,
    "lat": 35.8141,
    "litter_complaint_density": 0.0,
    "lon": -82.6972,
    "navigable_dist_m": null,
    "npdes_points": 0,
    "pixel_col": 207.0,
    "pixel_row": 185.0,
    "population_density": 32.0,
    "position_along": 0.5,
    "protected_area_score": 8.0014,
    "rank": 10,
    "road_access_m": 114.3,
    "road_access_score": 1.0,
    "road_density_km_km2": 2.644,
    "robustness_pct": 0.0,
    "runoff_coeff_C": 0.0572,
    "seasonal_cv": 0.6166,
    "segment_id": 1,
    "segment_length_m": 5712.189,
    "stream_order": 3,
    "superfund_score": 0.0,
    "tourism_amenity_density": 0.2387,
    "tri_facility_density": 0.0,
    "usgs_mean_q_cfs": 16.089,
    "velocity_feasibility": 0.7,
    "water_intake_score": 0.7204
   },
   "type": "Feature"
  },
  {
   "geometry": {
    "coordinates": [
     -82.694569,
     35.782067
    ],
    "type": "Point"
   },
   "properties": {
    "accumulation": 28938.0,
    "bank_slope_deg": 36.69,
    "bank_slope_score": 0.2,
    "bank_slope_source": "nc-dps-lidar-dem03-cross-section",
    "beach_dist_km": 479.67,
    "bridge_proximity_bonus": 0.0,
    "catchment_area_km2": 2.8905,
    "channel_width_m": 4.85,
    "channel_width_score": 1.0,
    "composite_score": 34.6045,
    "cso_density": 0.0,
    "ej_index": 0.4364,
    "elevation_m": 548.2325,
    "estuary_dist_km": 607.49,
    "feasibility_score": 40.1709,
    "flood_q10_cfs": null,
    "flow_score": 8.8467,
    "flow_velocity_ms": 0.1297,
    "generation_score": 39.264,
    "impact_score": 48.6265,
    "impervious_pct": 0.51,
    "land_ownership": 0.5,
    "lat": 35.7821,
    "litter_complaint_density": 0.0,
    "lon": -82.6946,
    "navigable_dist_m": null,
    "npdes_points": 0,
    "pixel_col": 228.0,
    "pixel_row": 540.0,
    "population_density": 48.2,
    "position_along": 0.25,
    "protected_area_score": 10.8837,
    "rank": 11,
    "road_access_m": 116.3,
    "road_access_score": 1.0,
    "road_density_km_km2": 1.514,
    "robustness_pct": 0.0,
    "runoff_coeff_C": 0.0546,
    "seasonal_cv": 0.7029,
    "segment_id": 7,
    "segment_length_m": 3322.7551,
    "stream_order": 1,
    "superfund_score": 0.0,
    "tourism_amenity_density": 1.4324,
    "tri_facility_density": 0.0,
    "usgs_mean_q_cfs": 2.222,
    "velocity_feasibility": 0.7,
    "water_intake_score": 0.7694
   },
   "type": "Feature"
  },
  {
   "geometry": {
    "coordinates": [
     -82.693766,
     35.79166
    ],
    "type": "Point"
   },
   "properties": {
    "accumulation": 41837.0,
    "bank_slope_deg": 36.2,
    "bank_slope_score": 0.2,
    "bank_slope_source": "nc-dps-lidar-dem03-cross-section",
    "beach_dist_km": 479.96,
    "bridge_proximity_bonus": 0.0,
    "catchment_area_km2": 4.179,
    "channel_width_m": 5.65,
    "channel_width_score": 1.0,
    "composite_score": 33.2941,
    "cso_density": 0.0,
    "ej_index": 0.4883,
    "elevation_m": 512.1603,
    "estuary_dist_km": 607.52,
    "feasibility_score": 20.9402,
    "flood_q10_cfs": null,
    "flow_score": 11.465,
    "flow_velocity_ms": 0.1625,
    "generation_score": 43.6288,
    "impact_score": 47.3274,
    "impervious_pct": 0.51,
    "land_ownership": 0.5,
    "lat": 35.7917,
    "litter_complaint_density": 0.0,
    "lon": -82.6938,
    "navigable_dist_m": null,
    "npdes_points": 0,
    "pixel_col": 233.0,
    "pixel_row": 433.0,
    "population_density": 47.6,
    "position_along": 0.75,
    "protected_area_score": 9.9006,
    "rank": 12,
    "road_access_m": 497.3,
    "road_access_score": 0.8,
    "road_density_km_km2": 2.569,
    "robustness_pct": 0.0,
    "runoff_coeff_C": 0.0546,
    "seasonal_cv": 0.7029,
    "segment_id": 7,
    "segment_length_m": 3322.7551,
    "stream_order": 1,
    "superfund_score": 0.0,
    "tourism_amenity_density": 1.6711,
    "tri_facility_density": 0.0,
    "usgs_mean_q_cfs": 2.222,
    "velocity_feasibility": 0.7,
    "water_intake_score": 0.7678
   },
   "type": "Feature"
  },
  {
   "geometry": {
    "coordinates": [
     -82.707497,
     35.81354
    ],
    "type": "Point"
   },
   "properties": {
    "accumulation": 75714.0,
    "bank_slope_deg": 22.62,
    "bank_slope_score": 0.5,
    "bank_slope_source": "nc-dps-lidar-dem03-cross-section",
    "beach_dist_km": 481.96,
    "bridge_proximity_bonus": 0.0,
    "catchment_area_km2": 7.5629,
    "channel_width_m": 7.22,
    "channel_width_score": 1.0,
    "composite_score": 32.5741,
    "cso_density": 0.0,
    "ej_index": 0.7048,
    "elevation_m": 548.4803,
    "estuary_dist_km": 609.01,
    "feasibility_score": 26.0684,
    "flood_q10_cfs": null,
    "flow_score": 51.4755,
    "flow_velocity_ms": 0.125,
    "generation_score": 24.7383,
    "impact_score": 27.9116,
    "impervious_pct": 0.8,
    "land_ownership": 0.5,
    "lat": 35.8135,
    "litter_complaint_density": 0.0,
    "lon": -82.7075,
    "navigable_dist_m": null,
    "npdes_points": 0,
    "pixel_col": 113.0,
    "pixel_row": 188.0,
    "population_density": 32.2,
    "position_along": 0.8333,
    "protected_area_score": 7.9824,
    "rank": 13,
    "road_access_m": 224.2,
    "road_access_score": 0.8,
    "road_density_km_km2": 1.68,
    "robustness_pct": 0.0,
    "runoff_coeff_C": 0.0572,
    "seasonal_cv": 0.6166,
    "segment_id": 1,
    "segment_length_m": 5712.189,
    "stream_order": 3,
    "superfund_score": 0.0,
    "tourism_amenity_density": 0.0796,
    "tri_facility_density": 0.0,
    "usgs_mean_q_cfs": 16.089,
    "velocity_feasibility": 0.7,
    "water_intake_score": 0.6717
   },
   "type": "Feature"
  },
  {
   "geometry": {
    "coordinates": [
     -82.715497,
     35.816079
    ],
    "type": "Point"
   },
   "properties": {
    "accumulation": 106311.0,
    "bank_slope_deg": 35.33,
    "bank_slope_score": 0.2,
    "bank_slope_source": "nc-dps-lidar-dem03-cross-section",
    "beach_dist_km": 482.74,
    "bridge_proximity_bonus": 0.0,
    "catchment_area_km2": 10.6191,
    "channel_width_m": 8.32,
    "channel_width_score": 1.0,
    "composite_score": 27.0725,
    "cso_density": 0.0,
    "ej_index": 0.7022,
    "elevation_m": 533.524,
    "estuary_dist_km": 609.75,
    "feasibility_score": 1.7094,
    "flood_q10_cfs": null,
    "flow_score": 58.6479,
    "flow_velocity_ms": 0.1566,
    "generation_score": 19.1338,
    "impact_score": 21.38,
    "impervious_pct": 0.82,
    "land_ownership": 0.5,
    "lat": 35.8161,
    "litter_complaint_density": 0.0,
    "lon": -82.7155,
    "navigable_dist_m": null,
    "npdes_points": 0,
    "pixel_col": 45.0,
    "pixel_row": 161.0,
    "population_density": 30.5,
    "position_along": 0.5,
    "protected_area_score": 7.9752,
    "rank": 14,
    "road_access_m": 955.1,
    "road_access_score": 0.6,
    "road_density_km_km2": 0.87,
    "robustness_pct": 0.0,
    "runoff_coeff_C": 0.0574,
    "seasonal_cv": 0.6321,
    "segment_id": 2,
    "segment_length_m": 843.0777,
    "stream_order": 3,
    "superfund_score": 0.0,
    "tourism_amenity_density": 0.0796,
    "tri_facility_density": 0.0,
    "usgs_mean_q_cfs": 18.113,
    "velocity_feasibility": 0.7,
    "water_intake_score": 0.621
   },
   "type": "Feature"
  },
  {
   "geometry": {
    "coordinates": [
     -82.712957,
     35.81873
    ],
    "type": "Point"
   },
   "properties": {
    "accumulation": 22119.0,
    "bank_slope_deg": 29.36,
    "bank_slope_score": 0.5,
    "bank_slope_source": "nc-dps-lidar-dem03-cross-section",
    "beach_dist_km": 482.63,
    "bridge_proximity_bonus": 0.0,
    "catchment_area_km2": 2.2094,
    "channel_width_m": 4.34,
    "channel_width_score": 1.0,
    "composite_score": 17.8083,
    "cso_density": 0.0,
    "ej_index": 0.6586,
    "elevation_m": 552.3321,
    "estuary_dist_km": 609.56,
    "feasibility_score": 6.8376,
    "flood_q10_cfs": null,
    "flow_score": 23.9244,
    "flow_velocity_ms": 0.1362,
    "generation_score": 17.1705,
    "impact_score": 18.8346,
    "impervious_pct": 1.23,
    "land_ownership": 0.5,
    "lat": 35.8187,
    "litter_complaint_density": 0.0,
    "lon": -82.713,
    "navigable_dist_m": null,
    "npdes_points": 0,
    "pixel_col": 66.0,
    "pixel_row": 132.0,
    "population_density": 26.4,
    "position_along": 0.5,
    "protected_area_score": 7.7755,
    "rank": 15,
    "road_access_m": 837.7,
    "road_access_score": 0.6,
    "road_density_km_km2": 0.604,
    "robustness_pct": 0.0,
    "runoff_coeff_C": 0.0611,
    "seasonal_cv": 0.6858,
    "segment_id": 0,
    "segment_length_m": 535.9718,
    "stream_order": 3,
    "superfund_score": 0.0,
    "tourism_amenity_density": 0.0796,
    "tri_facility_density": 0.0,
    "usgs_mean_q_cfs": 1.162,
    "velocity_feasibility": 0.7,
    "water_intake_score": 0.63
   },
   "type": "Feature"
  },
  {
   "geometry": {
    "coordinates": [
     -82.716234,
     35.790409
    ],
    "type": "Point"
   },
   "properties": {
    "accumulation": 32842.0,
    "bank_slope_deg": 30.92,
    "bank_slope_score": 0.2,
    "bank_slope_source": "nc-dps-lidar-dem03-cross-section",
    "beach_dist_km": 481.82,
    "bridge_proximity_bonus": 0.0,
    "catchment_area_km2": 3.2805,
    "channel_width_m": 5.11,
    "channel_width_score": 1.0,
    "composite_score": 13.0521,
    "cso_density": 0.0,
    "ej_index": 0.3991,
    "elevation_m": 494.1161,
    "estuary_dist_km": 609.52,
    "feasibility_score": 20.9402,
    "flood_q10_cfs": null,
    "flow_score": 9.6277,
    "flow_velocity_ms": 0.1308,
    "generation_score": 5.9708,
    "impact_score": 19.043,
    "impervious_pct": 0.39,
    "land_ownership": 0.5,
    "lat": 35.7904,
    "litter_complaint_density": 0.0,
    "lon": -82.7162,
    "navigable_dist_m": null,
    "npdes_points": 0,
    "pixel_col": 31.0,
    "pixel_row": 442.0,
    "population_density": 21.7,
    "position_along": 0.5,
    "protected_area_score": 10.22,
    "rank": 16,
    "road_access_m": 318.1,
    "road_access_score": 0.8,
    "road_density_km_km2": 1.067,
    "robustness_pct": 0.0,
    "runoff_coeff_C": 0.0535,
    "seasonal_cv": 0.6918,
    "segment_id": 6,
    "segment_length_m": 1542.8048,
    "stream_order": 1,
    "superfund_score": 0.0,
    "tourism_amenity_density": 0.0796,
    "tri_facility_density": 0.0,
    "usgs_mean_q_cfs": 2.374,
    "velocity_feasibility": 0.7,
    "water_intake_score": 0.6583
   },
   "type": "Feature"
  }
 ],
 "note": "GRIME region 'Marshall, NC' \u2014 real-data pipeline (DEM\u2192streams\u2192candidates\u2192stream mask (sites confined to \u00b1150 m of mapped OSM/NHD waterways)\u2192region-appropriate real parameters\u2192shipped scoring, math unchanged). Width curve: Bieger et al. 2015 JAWRA Table 3, Appalachian Highlands. Flood: not applicable here (documented fallback). NC Blue Ridge (outside SIR 2014-5030 urban coverage)",
 "provenance": {
  "candidates_pre_gate": 16,
  "constant": [
   "channel_width_score",
   "cso_density",
   "flood_q10_cfs",
   "land_ownership",
   "litter_complaint_density",
   "superfund_score",
   "tri_facility_density"
  ],
  "gated_navigable": 0,
  "hard_gate_removed": 0,
  "n_parameters": 27,
  "parameters": {
   "bank_slope_score": {
    "kind": "real",
    "n_3dep_10m_fallback": 0,
    "n_nc_lidar_3_125ft": 16,
    "n_real": 16,
    "n_sites": 16,
    "source": "NC OneMap / NC DPS DEM03 statewide lidar-derived 3.125-ft (0.953 m) elevations (perpendicular 50 m transect; robust 5 m bank-rise metric); unavailable profiles use the region 10 m 3DEP DEM-gradient fallback",
    "source_mosaics": [
     "Madison_Ground_3ft"
    ]
   },
   "beach_dist_km": {
    "kind": "real",
    "n_real": 16,
    "n_sites": 16,
    "source": "haversine to region ref: Wrightsville Beach (shipped NC reference)"
   },
   "bridge_proximity_bonus": {
    "kind": "real",
    "n_real": 16,
    "n_sites": 16,
    "source": "FHWA/BTS NBI (NTAD), 50 m proximity"
   },
   "catchment_area_km2": {
    "kind": "real",
    "n_real": 16,
    "n_sites": 16,
    "source": "DEM flow accumulation (pipeline)"
   },
   "channel_width_score": {
    "kind": "real",
    "n_real": 16,
    "n_sites": 16,
    "source": "Bieger 2015 AHI width curve on DEM drainage area \u2192 shipped width curve"
   },
   "cso_density": {
    "kind": "real",
    "n_real": 16,
    "n_sites": 16,
    "source": "EPA ECHO open CSO/TCS outfall PF coordinates states=NC, Cauchy proximity"
   },
   "ej_index": {
    "kind": "real",
    "n_real": 16,
    "n_sites": 16,
    "source": "Census ACS C17002+B03002 two-component demographic index, percentile-ranked within region"
   },
   "estuary_dist_km": {
    "kind": "real",
    "n_real": 16,
    "n_sites": 16,
    "source": "haversine to region ref: Pamlico Sound (shipped NC reference)"
   },
   "flood_q10_cfs": {
    "impervious_fallback_reason": "StreamCat imperviousness unavailable; the existing regression-input fallback of 0.0% impervious was used and is disclosed here",
    "kind": "fallback",
    "n_impervious_fallback": 6,
    "n_real": 0,
    "n_sites": 16,
    "source": "flood regression not valid here (NC Blue Ridge (outside SIR 2014-5030 urban coverage)...) \u2014 NaN, dropped by constant-column handling"
   },
   "flow_velocity_ms": {
    "fallback_reason": "EROM/DEM continuity input unavailable; shipped 0.5 m/s default used",
    "kind": "real",
    "n_fallback": 6,
    "n_real": 10,
    "n_sites": 16,
    "source": "Manning (region DEM/D8) blended with EROM continuity (shipped M4 logic)"
   },
   "impervious_pct": {
    "fallback_reason": "NLDI/StreamCat did not return a snap-compatible catchment value; value remains null and is removed by constant-column handling",
    "kind": "real",
    "n_fallback": 6,
    "n_real": 10,
    "n_sites": 16,
    "source": "EPA StreamCat pctimp2019 (per NHDPlus watershed)"
   },
   "land_ownership": {
    "fallback_reason": "no containing parcel owner returned; shipped unknown ownership 0.5 used",
    "kind": "real",
    "n_fallback": 2,
    "n_real": 14,
    "n_sites": 16,
    "source": "NC OneMap statewide parcels (NC Parcels Transformer) ownname"
   },
   "litter_complaint_density": {
    "kind": "fallback",
    "n_real": 0,
    "n_sites": 16,
    "source": "no public machine-readable litter/illegal-dumping feed for this region"
   },
   "navigable_dist_m": {
    "kind": "real",
    "n_real": 16,
    "n_sites": 16,
    "source": "USACE/BTS NWN (NTAD): no navigable segment within this bbox (+2 km) \u2014 computed absence, gate passes all sites"
   },
   "npdes_points": {
    "kind": "real",
    "n_real": 16,
    "n_sites": 16,
    "source": "EPA ECHO active NPDES outfalls states=NC (types NPD/GPC/NGP; statuses ADC/EFF/EXP), per catchment"
   },
   "population_density": {
    "kind": "real",
    "n_real": 16,
    "n_sites": 16,
    "source": "Census ACS 2022 B01003 block groups (bbox, multi-county), area-weighted"
   },
   "protected_area_score": {
    "kind": "real",
    "n_real": 16,
    "n_sites": 16,
    "source": "USGS PAD-US 4.1 state GDB; states=NC; shipped designation-weighted proximity curve"
   },
   "road_access_score": {
    "kind": "real",
    "n_real": 16,
    "n_sites": 16,
    "source": "OSM drive network nearest-node distance"
   },
   "road_density_km_km2": {
    "kind": "real",
    "n_real": 16,
    "n_sites": 16,
    "source": "OSM drive network (osmnx, cached) clipped per catchment"
   },
   "runoff_coeff_C": {
    "fallback_reason": "source impervious_pct was unavailable; derived value remains null",
    "kind": "real",
    "n_fallback": 6,
    "n_real": 10,
    "n_sites": 16,
    "source": "derived from real impervious_pct (C=0.05+0.009*I)"
   },
   "seasonal_cv": {
    "fallback_reason": "NHDPlus monthly EROM was unavailable or failed the drainage-area snap guard; value remains null",
    "kind": "real",
    "n_fallback": 6,
    "n_real": 10,
    "n_sites": 16,
    "source": "CV of NHDPlus EROM monthly flows per COMID"
   },
   "stream_order": {
    "kind": "real",
    "n_real": 16,
    "n_sites": 16,
    "source": "DEM stream-network confluence heuristic (pipeline)"
   },
   "superfund_score": {
    "kind": "real",
    "n_real": 16,
    "n_sites": 16,
    "source": "EPA DataMap SEMS active sites states=NC (non-archived, georeferenced), shipped 500 m inverse-distance curve"
   },
   "tourism_amenity_density": {
    "kind": "real",
    "n_real": 16,
    "n_sites": 16,
    "source": "OSM leisure/tourism features per 2 km radius"
   },
   "tri_facility_density": {
    "kind": "real",
    "n_real": 16,
    "n_sites": 16,
    "source": "EPA DataMap TRI open facilities states=NC (preferred decimal or packed-DMS recovery), per catchment"
   },
   "usgs_mean_q_cfs": {
    "fallback_reason": "NHDPlus EROM was unavailable or failed the drainage-area snap guard; value remains null",
    "kind": "real",
    "n_fallback": 6,
    "n_real": 10,
    "n_sites": 16,
    "source": "NHDPlus EROM qe_ma per COMID (snap-guarded)"
   },
   "velocity_feasibility": {
    "fallback_reason": "derived from the shipped 0.5 m/s velocity fallback",
    "kind": "real",
    "n_fallback": 6,
    "n_real": 10,
    "n_sites": 16,
    "source": "shipped step curve on the computed velocity"
   },
   "velocity_transport_favorability": {
    "fallback_reason": "EROM/DEM continuity input unavailable; shipped 0.5 m/s default used",
    "kind": "derived",
    "n_fallback": 6,
    "n_real": 10,
    "n_sites": 16,
    "source": "scored form of flow_velocity_ms inside the Flow family \u2014 peaked Gaussian exp(-((v-0.9)/0.6)^2), model.json curves.velocity_transport_favorability; construct: transport/delivery favorability, deliberately distinct from velocity_feasibility (device operability)"
   },
   "water_intake_score": {
    "kind": "real",
    "n_real": 16,
    "n_sites": 16,
    "source": "NC OneMap / NC DEQ SWAP public water supply sources (source_typ='Surface Water'), shipped exp(-d/10km) curve"
   }
  },
  "stream_mask": {
   "buffer_m": 150.0,
   "pre_mask": 16,
   "removed": 0,
   "sources": [
    "osm-overpass (all waterway ways)",
    "usgs-nhdplus flowlines"
   ]
  },
  "varying": [
   "bank_slope_score",
   "beach_dist_km",
   "bridge_proximity_bonus",
   "catchment_area_km2",
   "ej_index",
   "estuary_dist_km",
   "flow_velocity_ms",
   "impervious_pct",
   "npdes_points",
   "population_density",
   "protected_area_score",
   "road_access_score",
   "road_density_km_km2",
   "runoff_coeff_C",
   "seasonal_cv",
   "stream_order",
   "tourism_amenity_density",
   "usgs_mean_q_cfs",
   "velocity_feasibility",
   "water_intake_score"
  ]
 },
 "region": {
  "bbox": [
   -82.7193,
   35.7667,
   -82.6408,
   35.8304
  ],
  "beach_ref": {
   "label": "Wrightsville Beach (shipped NC reference)",
   "lat": 34.21,
   "lon": -77.79
  },
  "center": [
   -82.680022,
   35.798559
  ],
  "estuary_ref": {
   "label": "Pamlico Sound (shipped NC reference)",
   "lat": 35.05,
   "lon": -76.05
  },
  "flood_method": "none",
  "name": "Marshall, NC",
  "notes": "NC Blue Ridge (outside SIR 2014-5030 urban coverage)",
  "slug": "marshall",
  "state": "NC",
  "utm_epsg": 32617,
  "width_curve": {
   "a": 3.12,
   "b": 0.415,
   "code": "AHI",
   "source": "Bieger et al. 2015 JAWRA Table 3, Appalachian Highlands"
  }
 },
 "type": "FeatureCollection"
}
