{
 "features": [
  {
   "geometry": {
    "coordinates": [
     -79.360026,
     34.736218
    ],
    "type": "Point"
   },
   "properties": {
    "accumulation": 35787.0,
    "bank_slope_deg": 1.42,
    "bank_slope_score": 1.0,
    "bank_slope_source": "nc-dps-lidar-dem03-cross-section",
    "beach_dist_km": 155.36,
    "bridge_proximity_bonus": 0.0,
    "catchment_area_km2": 3.5697,
    "channel_width_m": 3.52,
    "channel_width_score": 1.0,
    "composite_score": 61.4001,
    "cso_density": 0.0,
    "ej_index": 0.6145,
    "elevation_m": 53.6809,
    "estuary_dist_km": 303.88,
    "feasibility_score": 51.0204,
    "flood_q10_cfs": 202.06,
    "flow_score": 25.2624,
    "flow_velocity_ms": 0.5,
    "generation_score": 79.3103,
    "impact_score": 78.7944,
    "impervious_pct": null,
    "land_ownership": 0.5,
    "lat": 34.7362,
    "litter_complaint_density": 0.0,
    "lon": -79.36,
    "navigable_dist_m": null,
    "npdes_points": 0,
    "pixel_col": 230.0,
    "pixel_row": 301.0,
    "population_density": 178.9,
    "position_along": 0.1667,
    "protected_area_score": 4.4767,
    "rank": 1,
    "road_access_m": 222.0,
    "road_access_score": 0.8,
    "road_density_km_km2": 5.735,
    "robustness_pct": 100.0,
    "runoff_coeff_C": null,
    "seasonal_cv": null,
    "segment_id": 0,
    "segment_length_m": 5368.9183,
    "stream_order": 1,
    "superfund_score": 0.0,
    "tourism_amenity_density": 0.7958,
    "tri_facility_density": 0.2801,
    "usgs_mean_q_cfs": null,
    "velocity_feasibility": 1.0,
    "water_intake_score": 0.1268
   },
   "type": "Feature"
  },
  {
   "geometry": {
    "coordinates": [
     -79.351132,
     34.7227
    ],
    "type": "Point"
   },
   "properties": {
    "accumulation": 39386.0,
    "bank_slope_deg": 2.9,
    "bank_slope_score": 1.0,
    "bank_slope_source": "nc-dps-lidar-dem03-cross-section",
    "beach_dist_km": 154.05,
    "bridge_proximity_bonus": 0.0,
    "catchment_area_km2": 3.9287,
    "channel_width_m": 3.65,
    "channel_width_score": 1.0,
    "composite_score": 54.3526,
    "cso_density": 0.0,
    "ej_index": 0.7691,
    "elevation_m": 54.5958,
    "estuary_dist_km": 303.28,
    "feasibility_score": 71.4286,
    "flood_q10_cfs": 214.02,
    "flow_score": 32.4484,
    "flow_velocity_ms": 0.5,
    "generation_score": 47.0834,
    "impact_score": 71.3374,
    "impervious_pct": null,
    "land_ownership": 0.5,
    "lat": 34.7227,
    "litter_complaint_density": 0.0,
    "lon": -79.3511,
    "navigable_dist_m": null,
    "npdes_points": 1,
    "pixel_col": 314.0,
    "pixel_row": 450.0,
    "population_density": 129.5,
    "position_along": 0.25,
    "protected_area_score": 4.0119,
    "rank": 2,
    "road_access_m": 189.6,
    "road_access_score": 1.0,
    "road_density_km_km2": 2.778,
    "robustness_pct": 100.0,
    "runoff_coeff_C": null,
    "seasonal_cv": null,
    "segment_id": 3,
    "segment_length_m": 3916.6628,
    "stream_order": 1,
    "superfund_score": 0.0,
    "tourism_amenity_density": 0.7958,
    "tri_facility_density": 0.0,
    "usgs_mean_q_cfs": null,
    "velocity_feasibility": 1.0,
    "water_intake_score": 0.1203
   },
   "type": "Feature"
  },
  {
   "geometry": {
    "coordinates": [
     -79.365547,
     34.71622
    ],
    "type": "Point"
   },
   "properties": {
    "accumulation": 75678.0,
    "bank_slope_deg": 1.65,
    "bank_slope_score": 1.0,
    "bank_slope_source": "nc-dps-lidar-dem03-cross-section",
    "beach_dist_km": 155.02,
    "bridge_proximity_bonus": 0.0,
    "catchment_area_km2": 7.5487,
    "channel_width_m": 4.62,
    "channel_width_score": 1.0,
    "composite_score": 39.9965,
    "cso_density": 0.0,
    "ej_index": 0.5527,
    "elevation_m": 46.8363,
    "estuary_dist_km": 304.68,
    "feasibility_score": 51.0204,
    "flood_q10_cfs": 316.78,
    "flow_score": 100.0,
    "flow_velocity_ms": 0.5,
    "generation_score": 3.8973,
    "impact_score": 20.5807,
    "impervious_pct": null,
    "land_ownership": 0.5,
    "lat": 34.7162,
    "litter_complaint_density": 0.0,
    "lon": -79.3655,
    "navigable_dist_m": null,
    "npdes_points": 0,
    "pixel_col": 183.0,
    "pixel_row": 524.0,
    "population_density": 68.3,
    "position_along": 0.8333,
    "protected_area_score": 3.7133,
    "rank": 3,
    "road_access_m": 415.8,
    "road_access_score": 0.8,
    "road_density_km_km2": 0.649,
    "robustness_pct": 99.5,
    "runoff_coeff_C": null,
    "seasonal_cv": null,
    "segment_id": 0,
    "segment_length_m": 5368.9183,
    "stream_order": 1,
    "superfund_score": 0.0,
    "tourism_amenity_density": 0.0,
    "tri_facility_density": 0.0,
    "usgs_mean_q_cfs": null,
    "velocity_feasibility": 1.0,
    "water_intake_score": 0.1188
   },
   "type": "Feature"
  },
  {
   "geometry": {
    "coordinates": [
     -79.357917,
     34.716195
    ],
    "type": "Point"
   },
   "properties": {
    "accumulation": 61621.0,
    "bank_slope_deg": 2.05,
    "bank_slope_score": 1.0,
    "bank_slope_source": "nc-dps-lidar-dem03-cross-section",
    "beach_dist_km": 154.37,
    "bridge_proximity_bonus": 0.0,
    "catchment_area_km2": 6.1465,
    "channel_width_m": 4.29,
    "channel_width_score": 1.0,
    "composite_score": 39.7963,
    "cso_density": 0.0,
    "ej_index": 0.651,
    "elevation_m": 49.5955,
    "estuary_dist_km": 303.99,
    "feasibility_score": 51.0204,
    "flood_q10_cfs": 280.01,
    "flow_score": 74.6688,
    "flow_velocity_ms": 0.5,
    "generation_score": 8.3198,
    "impact_score": 36.6001,
    "impervious_pct": null,
    "land_ownership": 0.5,
    "lat": 34.7162,
    "litter_complaint_density": 0.0,
    "lon": -79.3579,
    "navigable_dist_m": null,
    "npdes_points": 0,
    "pixel_col": 252.0,
    "pixel_row": 524.0,
    "population_density": 79.8,
    "position_along": 0.75,
    "protected_area_score": 3.7983,
    "rank": 4,
    "road_access_m": 295.1,
    "road_access_score": 0.8,
    "road_density_km_km2": 1.114,
    "robustness_pct": 100.0,
    "runoff_coeff_C": null,
    "seasonal_cv": null,
    "segment_id": 3,
    "segment_length_m": 3916.6628,
    "stream_order": 1,
    "superfund_score": 0.0,
    "tourism_amenity_density": 0.0796,
    "tri_facility_density": 0.0,
    "usgs_mean_q_cfs": null,
    "velocity_feasibility": 1.0,
    "water_intake_score": 0.1182
   },
   "type": "Feature"
  },
  {
   "geometry": {
    "coordinates": [
     -79.369215,
     34.725508
    ],
    "type": "Point"
   },
   "properties": {
    "accumulation": 54994.0,
    "bank_slope_deg": 5.23,
    "bank_slope_score": 1.0,
    "bank_slope_source": "nc-dps-lidar-dem03-cross-section",
    "beach_dist_km": 155.71,
    "bridge_proximity_bonus": 0.0,
    "catchment_area_km2": 5.4855,
    "channel_width_m": 4.12,
    "channel_width_score": 1.0,
    "composite_score": 37.5964,
    "cso_density": 0.0,
    "ej_index": 0.5399,
    "elevation_m": 48.918,
    "estuary_dist_km": 304.87,
    "feasibility_score": 30.6122,
    "flood_q10_cfs": 261.52,
    "flow_score": 62.4094,
    "flow_velocity_ms": 0.5,
    "generation_score": 15.1383,
    "impact_score": 42.8691,
    "impervious_pct": null,
    "land_ownership": 0.5,
    "lat": 34.7255,
    "litter_complaint_density": 0.0,
    "lon": -79.3692,
    "navigable_dist_m": null,
    "npdes_points": 0,
    "pixel_col": 145.0,
    "pixel_row": 422.0,
    "population_density": 108.8,
    "position_along": 0.5,
    "protected_area_score": 4.14,
    "rank": 5,
    "road_access_m": 857.2,
    "road_access_score": 0.6,
    "road_density_km_km2": 0.845,
    "robustness_pct": 100.0,
    "runoff_coeff_C": null,
    "seasonal_cv": null,
    "segment_id": 0,
    "segment_length_m": 5368.9183,
    "stream_order": 1,
    "superfund_score": 0.0,
    "tourism_amenity_density": 0.3979,
    "tri_facility_density": 0.0,
    "usgs_mean_q_cfs": null,
    "velocity_feasibility": 1.0,
    "water_intake_score": 0.1235
   },
   "type": "Feature"
  },
  {
   "geometry": {
    "coordinates": [
     -79.375936,
     34.72919
    ],
    "type": "Point"
   },
   "properties": {
    "accumulation": 23703.0,
    "bank_slope_deg": 4.23,
    "bank_slope_score": 1.0,
    "bank_slope_source": "nc-dps-lidar-dem03-cross-section",
    "beach_dist_km": 156.43,
    "bridge_proximity_bonus": 0.2,
    "catchment_area_km2": 2.3643,
    "channel_width_m": 3.03,
    "channel_width_score": 1.0,
    "composite_score": 15.5658,
    "cso_density": 0.0,
    "ej_index": 0.4598,
    "elevation_m": 48.6356,
    "estuary_dist_km": 305.43,
    "feasibility_score": 28.5714,
    "flood_q10_cfs": 157.78,
    "flow_score": 0.0,
    "flow_velocity_ms": 0.5,
    "generation_score": 0.0,
    "impact_score": 37.6003,
    "impervious_pct": null,
    "land_ownership": 0.5,
    "lat": 34.7292,
    "litter_complaint_density": 0.0,
    "lon": -79.3759,
    "navigable_dist_m": null,
    "npdes_points": 0,
    "pixel_col": 86.0,
    "pixel_row": 382.0,
    "population_density": 60.9,
    "position_along": 0.5,
    "protected_area_score": 4.1832,
    "rank": 6,
    "road_access_m": 1244.9,
    "road_access_score": 0.3,
    "road_density_km_km2": 0.0,
    "robustness_pct": 0.5,
    "runoff_coeff_C": null,
    "seasonal_cv": null,
    "segment_id": 2,
    "segment_length_m": 1012.6893,
    "stream_order": 1,
    "superfund_score": 0.0,
    "tourism_amenity_density": 0.2387,
    "tri_facility_density": 0.0,
    "usgs_mean_q_cfs": null,
    "velocity_feasibility": 1.0,
    "water_intake_score": 0.1267
   },
   "type": "Feature"
  }
 ],
 "note": "GRIME region 'Maxton, NC' \u2014 real-data pipeline (DEM\u2192streams\u2192candidates\u2192stream mask (sites confined to \u00b1150 m of mapped OSM/NHD waterways)\u2192region-appropriate real parameters\u2192shipped scoring, math unchanged). Width curve: Bieger et al. 2015 JAWRA Table 3, Atlantic Plain. Flood: SIR 2014-5030 HR4 (I24H50Y: NOAA Atlas 14). NC Coastal Plain (SIR 2014-5030 HR4; I24H50Y from NOAA Atlas 14 at region center)",
 "provenance": {
  "candidates_pre_gate": 6,
  "constant": [
   "bank_slope_score",
   "channel_width_score",
   "cso_density",
   "flow_velocity_ms",
   "impervious_pct",
   "land_ownership",
   "litter_complaint_density",
   "runoff_coeff_C",
   "seasonal_cv",
   "stream_order",
   "superfund_score",
   "usgs_mean_q_cfs",
   "velocity_feasibility"
  ],
  "gated_navigable": 0,
  "hard_gate_removed": 0,
  "n_parameters": 27,
  "parameters": {
   "bank_slope_score": {
    "kind": "real",
    "n_3dep_10m_fallback": 0,
    "n_nc_lidar_3_125ft": 6,
    "n_real": 6,
    "n_sites": 6,
    "source": "NC OneMap / NC DPS DEM03 statewide lidar-derived 3.125-ft (0.953 m) elevations (perpendicular 50 m transect; robust 5 m bank-rise metric); unavailable profiles use the region 10 m 3DEP DEM-gradient fallback",
    "source_mosaics": [
     "Robeson_Ground_3ft",
     "Scotland_QL1_2024_03ft_CountywideRaster"
    ]
   },
   "beach_dist_km": {
    "kind": "real",
    "n_real": 6,
    "n_sites": 6,
    "source": "haversine to region ref: Wrightsville Beach (shipped NC reference)"
   },
   "bridge_proximity_bonus": {
    "kind": "real",
    "n_real": 6,
    "n_sites": 6,
    "source": "FHWA/BTS NBI (NTAD), 50 m proximity"
   },
   "catchment_area_km2": {
    "kind": "real",
    "n_real": 6,
    "n_sites": 6,
    "source": "DEM flow accumulation (pipeline)"
   },
   "channel_width_score": {
    "kind": "real",
    "n_real": 6,
    "n_sites": 6,
    "source": "Bieger 2015 APL width curve on DEM drainage area \u2192 shipped width curve"
   },
   "cso_density": {
    "kind": "real",
    "n_real": 6,
    "n_sites": 6,
    "source": "EPA ECHO open CSO/TCS outfall PF coordinates states=NC, Cauchy proximity"
   },
   "ej_index": {
    "kind": "real",
    "n_real": 6,
    "n_sites": 6,
    "source": "Census ACS C17002+B03002 two-component demographic index, percentile-ranked within region"
   },
   "estuary_dist_km": {
    "kind": "real",
    "n_real": 6,
    "n_sites": 6,
    "source": "haversine to region ref: Pamlico Sound (shipped NC reference)"
   },
   "flood_q10_cfs": {
    "impervious_fallback_reason": "StreamCat imperviousness unavailable; the existing regression-input fallback of 0.0% impervious was used and is disclosed here",
    "kind": "real",
    "n_impervious_fallback": 6,
    "n_real": 6,
    "n_sites": 6,
    "source": "USGS SIR 2014-5030 Table 7 HR4 (NC Coastal Plain; I24H50Y from NOAA Atlas 14 at region center)"
   },
   "flow_velocity_ms": {
    "kind": "fallback",
    "n_fallback": 6,
    "n_real": 0,
    "n_sites": 6,
    "reason": "EROM/DEM continuity input unavailable; shipped 0.5 m/s default used",
    "source": "Manning (region DEM/D8) blended with EROM continuity (shipped M4 logic)"
   },
   "impervious_pct": {
    "kind": "fallback",
    "n_fallback": 6,
    "n_real": 0,
    "n_sites": 6,
    "reason": "NLDI/StreamCat did not return a snap-compatible catchment value; value remains null and is removed by constant-column handling",
    "source": "EPA StreamCat pctimp2019 (per NHDPlus watershed)"
   },
   "land_ownership": {
    "kind": "real",
    "n_fallback": 0,
    "n_real": 6,
    "n_sites": 6,
    "source": "NC OneMap statewide parcels (NC Parcels Transformer) ownname"
   },
   "litter_complaint_density": {
    "kind": "fallback",
    "n_real": 0,
    "n_sites": 6,
    "source": "no public machine-readable litter/illegal-dumping feed for this region"
   },
   "navigable_dist_m": {
    "kind": "real",
    "n_real": 6,
    "n_sites": 6,
    "source": "USACE/BTS NWN (NTAD): no navigable segment within this bbox (+2 km) \u2014 computed absence, gate passes all sites"
   },
   "npdes_points": {
    "kind": "real",
    "n_real": 6,
    "n_sites": 6,
    "source": "EPA ECHO active NPDES outfalls states=NC (types NPD/GPC/NGP; statuses ADC/EFF/EXP), per catchment"
   },
   "population_density": {
    "kind": "real",
    "n_real": 6,
    "n_sites": 6,
    "source": "Census ACS 2022 B01003 block groups (bbox, multi-county), area-weighted"
   },
   "protected_area_score": {
    "kind": "real",
    "n_real": 6,
    "n_sites": 6,
    "source": "USGS PAD-US 4.1 state GDB; states=NC; shipped designation-weighted proximity curve"
   },
   "road_access_score": {
    "kind": "real",
    "n_real": 6,
    "n_sites": 6,
    "source": "OSM drive network nearest-node distance"
   },
   "road_density_km_km2": {
    "kind": "real",
    "n_real": 6,
    "n_sites": 6,
    "source": "OSM drive network (osmnx, cached) clipped per catchment"
   },
   "runoff_coeff_C": {
    "kind": "fallback",
    "n_fallback": 6,
    "n_real": 0,
    "n_sites": 6,
    "reason": "source impervious_pct was unavailable; derived value remains null",
    "source": "derived from real impervious_pct (C=0.05+0.009*I)"
   },
   "seasonal_cv": {
    "kind": "fallback",
    "n_fallback": 6,
    "n_real": 0,
    "n_sites": 6,
    "reason": "NHDPlus monthly EROM was unavailable or failed the drainage-area snap guard; value remains null",
    "source": "CV of NHDPlus EROM monthly flows per COMID"
   },
   "stream_order": {
    "kind": "real",
    "n_real": 6,
    "n_sites": 6,
    "source": "DEM stream-network confluence heuristic (pipeline)"
   },
   "superfund_score": {
    "kind": "real",
    "n_real": 6,
    "n_sites": 6,
    "source": "EPA DataMap SEMS active sites states=NC (non-archived, georeferenced), shipped 500 m inverse-distance curve"
   },
   "tourism_amenity_density": {
    "kind": "real",
    "n_real": 6,
    "n_sites": 6,
    "source": "OSM leisure/tourism features per 2 km radius"
   },
   "tri_facility_density": {
    "kind": "real",
    "n_real": 6,
    "n_sites": 6,
    "source": "EPA DataMap TRI open facilities states=NC (preferred decimal or packed-DMS recovery), per catchment"
   },
   "usgs_mean_q_cfs": {
    "kind": "fallback",
    "n_fallback": 6,
    "n_real": 0,
    "n_sites": 6,
    "reason": "NHDPlus EROM was unavailable or failed the drainage-area snap guard; value remains null",
    "source": "NHDPlus EROM qe_ma per COMID (snap-guarded)"
   },
   "velocity_feasibility": {
    "kind": "fallback",
    "n_fallback": 6,
    "n_real": 0,
    "n_sites": 6,
    "reason": "derived from the shipped 0.5 m/s velocity fallback",
    "source": "shipped step curve on the computed velocity"
   },
   "velocity_transport_favorability": {
    "fallback_reason": "EROM/DEM continuity input unavailable; shipped 0.5 m/s default used",
    "kind": "derived",
    "n_fallback": 6,
    "n_real": 0,
    "n_sites": 6,
    "source": "scored form of flow_velocity_ms inside the Flow family \u2014 peaked Gaussian exp(-((v-0.9)/0.6)^2), model.json curves.velocity_transport_favorability; construct: transport/delivery favorability, deliberately distinct from velocity_feasibility (device operability)"
   },
   "water_intake_score": {
    "kind": "real",
    "n_real": 6,
    "n_sites": 6,
    "source": "NC OneMap / NC DEQ SWAP public water supply sources (source_typ='Surface Water'), shipped exp(-d/10km) curve"
   }
  },
  "stream_mask": {
   "buffer_m": 150.0,
   "pre_mask": 7,
   "removed": 1,
   "sources": [
    "osm-overpass (all waterway ways)",
    "usgs-nhdplus flowlines"
   ]
  },
  "varying": [
   "beach_dist_km",
   "bridge_proximity_bonus",
   "catchment_area_km2",
   "ej_index",
   "estuary_dist_km",
   "flood_q10_cfs",
   "npdes_points",
   "population_density",
   "protected_area_score",
   "road_access_score",
   "road_density_km_km2",
   "tourism_amenity_density",
   "tri_facility_density",
   "water_intake_score"
  ]
 },
 "region": {
  "bbox": [
   -79.3846,
   34.7103,
   -79.3209,
   34.7627
  ],
  "beach_ref": {
   "label": "Wrightsville Beach (shipped NC reference)",
   "lat": 34.21,
   "lon": -77.79
  },
  "center": [
   -79.352731,
   34.7365
  ],
  "estuary_ref": {
   "label": "Pamlico Sound (shipped NC reference)",
   "lat": 35.05,
   "lon": -76.05
  },
  "flood_method": "sir2014_hr4",
  "name": "Maxton, NC",
  "notes": "NC Coastal Plain (SIR 2014-5030 HR4; I24H50Y from NOAA Atlas 14 at region center)",
  "slug": "maxton",
  "state": "NC",
  "utm_epsg": 32617,
  "width_curve": {
   "a": 2.22,
   "b": 0.363,
   "code": "APL",
   "source": "Bieger et al. 2015 JAWRA Table 3, Atlantic Plain"
  }
 },
 "type": "FeatureCollection"
}
