{
 "features": [
  {
   "geometry": {
    "coordinates": [
     -79.263417,
     36.074497
    ],
    "type": "Point"
   },
   "properties": {
    "accumulation": 45952.0,
    "bank_slope_deg": 1.58,
    "bank_slope_score": 1.0,
    "bank_slope_source": "nc-dps-lidar-dem03-cross-section",
    "beach_dist_km": 246.83,
    "bridge_proximity_bonus": 0.0,
    "catchment_area_km2": 4.5875,
    "channel_width_m": 5.87,
    "channel_width_score": 1.0,
    "composite_score": 51.5521,
    "cso_density": 0.0,
    "ej_index": 0.64,
    "elevation_m": 185.611,
    "estuary_dist_km": 312.18,
    "feasibility_score": 58.0357,
    "flood_q10_cfs": 812.68,
    "flow_score": 29.6085,
    "flow_velocity_ms": 0.1676,
    "generation_score": 72.108,
    "impact_score": 46.0408,
    "impervious_pct": 18.67,
    "land_ownership": 0.5,
    "lat": 36.0745,
    "litter_complaint_density": 0.0,
    "lon": -79.2634,
    "navigable_dist_m": null,
    "npdes_points": 1,
    "pixel_col": 755.0,
    "pixel_row": 709.0,
    "population_density": 456.6,
    "position_along": 0.5,
    "protected_area_score": 18.3091,
    "rank": 1,
    "road_access_m": 78.8,
    "road_access_score": 1.0,
    "road_density_km_km2": 7.834,
    "robustness_pct": 89.5,
    "runoff_coeff_C": 0.218,
    "seasonal_cv": 0.4125,
    "segment_id": 21,
    "segment_length_m": 42.391,
    "stream_order": 3,
    "superfund_score": 0.0019,
    "tourism_amenity_density": 0.3979,
    "tri_facility_density": 0.436,
    "usgs_mean_q_cfs": 1.397,
    "velocity_feasibility": 0.7,
    "water_intake_score": 2.0671
   },
   "type": "Feature"
  },
  {
   "geometry": {
    "coordinates": [
     -79.286779,
     36.087578
    ],
    "type": "Point"
   },
   "properties": {
    "accumulation": 27724.0,
    "bank_slope_deg": 1.7,
    "bank_slope_score": 1.0,
    "bank_slope_source": "nc-dps-lidar-dem03-cross-section",
    "beach_dist_km": 249.21,
    "bridge_proximity_bonus": 0.0,
    "catchment_area_km2": 2.7678,
    "channel_width_m": 4.76,
    "channel_width_score": 1.0,
    "composite_score": 49.223,
    "cso_density": 0.0,
    "ej_index": 0.4986,
    "elevation_m": 182.2302,
    "estuary_dist_km": 314.65,
    "feasibility_score": 67.8571,
    "flood_q10_cfs": 573.29,
    "flow_score": 26.3114,
    "flow_velocity_ms": 0.1205,
    "generation_score": 61.2687,
    "impact_score": 46.9531,
    "impervious_pct": 20.49,
    "land_ownership": 1.0,
    "lat": 36.0876,
    "litter_complaint_density": 0.0,
    "lon": -79.2868,
    "navigable_dist_m": null,
    "npdes_points": 3,
    "pixel_col": 538.0,
    "pixel_row": 566.0,
    "population_density": 602.6,
    "position_along": 0.5,
    "protected_area_score": 17.2277,
    "rank": 2,
    "road_access_m": 271.1,
    "road_access_score": 0.8,
    "road_density_km_km2": 6.782,
    "robustness_pct": 84.0,
    "runoff_coeff_C": 0.2344,
    "seasonal_cv": 0.4058,
    "segment_id": 15,
    "segment_length_m": 1433.4825,
    "stream_order": 3,
    "superfund_score": 0.003,
    "tourism_amenity_density": 2.8648,
    "tri_facility_density": 0.0,
    "usgs_mean_q_cfs": 1.486,
    "velocity_feasibility": 0.7,
    "water_intake_score": 2.116
   },
   "type": "Feature"
  },
  {
   "geometry": {
    "coordinates": [
     -79.258249,
     36.076843
    ],
    "type": "Point"
   },
   "properties": {
    "accumulation": 23107.0,
    "bank_slope_deg": 0.99,
    "bank_slope_score": 1.0,
    "bank_slope_source": "nc-dps-lidar-dem03-cross-section",
    "beach_dist_km": 246.8,
    "bridge_proximity_bonus": 0.0,
    "catchment_area_km2": 2.3068,
    "channel_width_m": 4.41,
    "channel_width_score": 1.0,
    "composite_score": 47.9005,
    "cso_density": 0.0,
    "ej_index": 0.6928,
    "elevation_m": 187.2215,
    "estuary_dist_km": 311.83,
    "feasibility_score": 58.0357,
    "flood_q10_cfs": 484.09,
    "flow_score": 24.2622,
    "flow_velocity_ms": 0.1003,
    "generation_score": 62.6158,
    "impact_score": 47.816,
    "impervious_pct": 18.67,
    "land_ownership": 0.5,
    "lat": 36.0768,
    "litter_complaint_density": 0.0,
    "lon": -79.2582,
    "navigable_dist_m": null,
    "npdes_points": 1,
    "pixel_col": 797.0,
    "pixel_row": 681.0,
    "population_density": 292.5,
    "position_along": 0.5,
    "protected_area_score": 18.227,
    "rank": 3,
    "road_access_m": 157.8,
    "road_access_score": 1.0,
    "road_density_km_km2": 6.246,
    "robustness_pct": 70.0,
    "runoff_coeff_C": 0.218,
    "seasonal_cv": 0.4125,
    "segment_id": 19,
    "segment_length_m": 1160.2794,
    "stream_order": 3,
    "superfund_score": 0.0018,
    "tourism_amenity_density": 0.4775,
    "tri_facility_density": 0.4335,
    "usgs_mean_q_cfs": 1.397,
    "velocity_feasibility": 0.7,
    "water_intake_score": 2.0666
   },
   "type": "Feature"
  },
  {
   "geometry": {
    "coordinates": [
     -79.268327,
     36.111172
    ],
    "type": "Point"
   },
   "properties": {
    "accumulation": 37094.0,
    "bank_slope_deg": 9.85,
    "bank_slope_score": 1.0,
    "bank_slope_source": "nc-dps-lidar-dem03-cross-section",
    "beach_dist_km": 250.49,
    "bridge_proximity_bonus": 0.0,
    "catchment_area_km2": 3.7032,
    "channel_width_m": 5.37,
    "channel_width_score": 1.0,
    "composite_score": 47.045,
    "cso_density": 0.0,
    "ej_index": 0.5445,
    "elevation_m": 179.3037,
    "estuary_dist_km": 314.04,
    "feasibility_score": 49.1071,
    "flood_q10_cfs": 704.15,
    "flow_score": 28.3033,
    "flow_velocity_ms": 0.1137,
    "generation_score": 68.3223,
    "impact_score": 40.3547,
    "impervious_pct": 19.7,
    "land_ownership": 0.5,
    "lat": 36.1112,
    "litter_complaint_density": 0.0,
    "lon": -79.2683,
    "navigable_dist_m": null,
    "npdes_points": 0,
    "pixel_col": 700.0,
    "pixel_row": 299.0,
    "population_density": 371.3,
    "position_along": 0.5,
    "protected_area_score": 16.9132,
    "rank": 4,
    "road_access_m": 252.7,
    "road_access_score": 0.8,
    "road_density_km_km2": 4.559,
    "robustness_pct": 49.5,
    "runoff_coeff_C": 0.2273,
    "seasonal_cv": 0.4077,
    "segment_id": 9,
    "segment_length_m": 2452.8746,
    "stream_order": 3,
    "superfund_score": 0.0026,
    "tourism_amenity_density": 2.7056,
    "tri_facility_density": 0.5401,
    "usgs_mean_q_cfs": 2.318,
    "velocity_feasibility": 0.7,
    "water_intake_score": 1.996
   },
   "type": "Feature"
  },
  {
   "geometry": {
    "coordinates": [
     -79.297129,
     36.088156
    ],
    "type": "Point"
   },
   "properties": {
    "accumulation": 61042.0,
    "bank_slope_deg": 1.94,
    "bank_slope_score": 1.0,
    "bank_slope_source": "nc-dps-lidar-dem03-cross-section",
    "beach_dist_km": 249.77,
    "bridge_proximity_bonus": 0.0,
    "catchment_area_km2": 6.094,
    "channel_width_m": 6.61,
    "channel_width_score": 1.0,
    "composite_score": 46.8721,
    "cso_density": 0.0,
    "ej_index": 0.5996,
    "elevation_m": 174.2699,
    "estuary_dist_km": 315.55,
    "feasibility_score": 49.1071,
    "flood_q10_cfs": 1045.02,
    "flow_score": 32.7733,
    "flow_velocity_ms": 0.0985,
    "generation_score": 62.4871,
    "impact_score": 41.8886,
    "impervious_pct": 20.81,
    "land_ownership": 0.5,
    "lat": 36.0882,
    "litter_complaint_density": 0.0,
    "lon": -79.2971,
    "navigable_dist_m": null,
    "npdes_points": 7,
    "pixel_col": 444.0,
    "pixel_row": 559.0,
    "population_density": 473.6,
    "position_along": 0.125,
    "protected_area_score": 16.379,
    "rank": 5,
    "road_access_m": 234.8,
    "road_access_score": 0.8,
    "road_density_km_km2": 4.757,
    "robustness_pct": 45.5,
    "runoff_coeff_C": 0.2373,
    "seasonal_cv": 0.4068,
    "segment_id": 17,
    "segment_length_m": 6025.23,
    "stream_order": 3,
    "superfund_score": 0.0037,
    "tourism_amenity_density": 0.7958,
    "tri_facility_density": 0.1641,
    "usgs_mean_q_cfs": 3.045,
    "velocity_feasibility": 0.7,
    "water_intake_score": 2.1666
   },
   "type": "Feature"
  },
  {
   "geometry": {
    "coordinates": [
     -79.264422,
     36.066813
    ],
    "type": "Point"
   },
   "properties": {
    "accumulation": 56552.0,
    "bank_slope_deg": 5.69,
    "bank_slope_score": 1.0,
    "bank_slope_source": "nc-dps-lidar-dem03-cross-section",
    "beach_dist_km": 246.17,
    "bridge_proximity_bonus": 0.0,
    "catchment_area_km2": 5.6458,
    "channel_width_m": 6.4,
    "channel_width_score": 1.0,
    "composite_score": 46.7989,
    "cso_density": 0.0,
    "ej_index": 0.6249,
    "elevation_m": 179.0551,
    "estuary_dist_km": 311.96,
    "feasibility_score": 58.0357,
    "flood_q10_cfs": 980.52,
    "flow_score": 32.2943,
    "flow_velocity_ms": 0.1146,
    "generation_score": 54.6163,
    "impact_score": 45.4502,
    "impervious_pct": 20.46,
    "land_ownership": 0.5,
    "lat": 36.0668,
    "litter_complaint_density": 0.0,
    "lon": -79.2644,
    "navigable_dist_m": null,
    "npdes_points": 8,
    "pixel_col": 746.0,
    "pixel_row": 794.0,
    "population_density": 392.1,
    "position_along": 0.5,
    "protected_area_score": 18.2537,
    "rank": 6,
    "road_access_m": 138.8,
    "road_access_score": 1.0,
    "road_density_km_km2": 6.179,
    "robustness_pct": 30.5,
    "runoff_coeff_C": 0.2341,
    "seasonal_cv": 0.4081,
    "segment_id": 22,
    "segment_length_m": 2054.0909,
    "stream_order": 3,
    "superfund_score": 0.0017,
    "tourism_amenity_density": 0.2387,
    "tri_facility_density": 0.0,
    "usgs_mean_q_cfs": 3.002,
    "velocity_feasibility": 0.7,
    "water_intake_score": 2.0617
   },
   "type": "Feature"
  },
  {
   "geometry": {
    "coordinates": [
     -79.292763,
     36.084781
    ],
    "type": "Point"
   },
   "properties": {
    "accumulation": 23582.0,
    "bank_slope_deg": 10.88,
    "bank_slope_score": 1.0,
    "bank_slope_source": "nc-dps-lidar-dem03-cross-section",
    "beach_dist_km": 249.24,
    "bridge_proximity_bonus": 0.0,
    "catchment_area_km2": 2.3543,
    "channel_width_m": 4.45,
    "channel_width_score": 1.0,
    "composite_score": 45.9035,
    "cso_density": 0.0,
    "ej_index": 0.5998,
    "elevation_m": 176.7036,
    "estuary_dist_km": 315.05,
    "feasibility_score": 58.0357,
    "flood_q10_cfs": 510.33,
    "flow_score": 26.7222,
    "flow_velocity_ms": 0.0903,
    "generation_score": 55.532,
    "impact_score": 46.1932,
    "impervious_pct": 20.81,
    "land_ownership": 0.5,
    "lat": 36.0848,
    "litter_complaint_density": 0.0,
    "lon": -79.2928,
    "navigable_dist_m": null,
    "npdes_points": 3,
    "pixel_col": 487.0,
    "pixel_row": 596.0,
    "population_density": 499.9,
    "position_along": 0.5,
    "protected_area_score": 16.8165,
    "rank": 7,
    "road_access_m": 146.0,
    "road_access_score": 1.0,
    "road_density_km_km2": 5.631,
    "robustness_pct": 17.5,
    "runoff_coeff_C": 0.2373,
    "seasonal_cv": 0.4068,
    "segment_id": 16,
    "segment_length_m": 59.9499,
    "stream_order": 3,
    "superfund_score": 0.0032,
    "tourism_amenity_density": 1.9894,
    "tri_facility_density": 0.0,
    "usgs_mean_q_cfs": 3.045,
    "velocity_feasibility": 0.7,
    "water_intake_score": 2.1355
   },
   "type": "Feature"
  },
  {
   "geometry": {
    "coordinates": [
     -79.273083,
     36.048424
    ],
    "type": "Point"
   },
   "properties": {
    "accumulation": 196574.0,
    "bank_slope_deg": 14.84,
    "bank_slope_score": 1.0,
    "bank_slope_source": "nc-dps-lidar-dem03-cross-section",
    "beach_dist_km": 244.9,
    "bridge_proximity_bonus": 0.0,
    "catchment_area_km2": 19.6246,
    "channel_width_m": 10.73,
    "channel_width_score": 1.0,
    "composite_score": 44.5355,
    "cso_density": 0.0,
    "ej_index": 0.5599,
    "elevation_m": 167.5891,
    "estuary_dist_km": 311.99,
    "feasibility_score": 49.1071,
    "flood_q10_cfs": 1681.06,
    "flow_score": 51.9508,
    "flow_velocity_ms": 0.1582,
    "generation_score": 38.8577,
    "impact_score": 41.748,
    "impervious_pct": 8.93,
    "land_ownership": 0.5,
    "lat": 36.0484,
    "litter_complaint_density": 0.0,
    "lon": -79.2731,
    "navigable_dist_m": null,
    "npdes_points": 25,
    "pixel_col": 669.0,
    "pixel_row": 997.0,
    "population_density": 232.2,
    "position_along": 0.375,
    "protected_area_score": 17.9211,
    "rank": 8,
    "road_access_m": 393.6,
    "road_access_score": 0.8,
    "road_density_km_km2": 2.879,
    "robustness_pct": 22.5,
    "runoff_coeff_C": 0.1304,
    "seasonal_cv": 0.425,
    "segment_id": 26,
    "segment_length_m": 6171.9703,
    "stream_order": 3,
    "superfund_score": 0.0016,
    "tourism_amenity_density": 0.0796,
    "tri_facility_density": 0.0,
    "usgs_mean_q_cfs": 11.005,
    "velocity_feasibility": 0.7,
    "water_intake_score": 2.0231
   },
   "type": "Feature"
  },
  {
   "geometry": {
    "coordinates": [
     -79.270543,
     36.056741
    ],
    "type": "Point"
   },
   "properties": {
    "accumulation": 169090.0,
    "bank_slope_deg": 17.28,
    "bank_slope_score": 0.5,
    "bank_slope_source": "nc-dps-lidar-dem03-cross-section",
    "beach_dist_km": 245.54,
    "bridge_proximity_bonus": 0.0,
    "catchment_area_km2": 16.8808,
    "channel_width_m": 10.08,
    "channel_width_score": 1.0,
    "composite_score": 44.2151,
    "cso_density": 0.0,
    "ej_index": 0.5889,
    "elevation_m": 171.2656,
    "estuary_dist_km": 312.09,
    "feasibility_score": 45.5357,
    "flood_q10_cfs": 1546.51,
    "flow_score": 48.1713,
    "flow_velocity_ms": 0.1062,
    "generation_score": 41.2645,
    "impact_score": 43.2085,
    "impervious_pct": 8.93,
    "land_ownership": 0.5,
    "lat": 36.0567,
    "litter_complaint_density": 0.0,
    "lon": -79.2705,
    "navigable_dist_m": null,
    "npdes_points": 21,
    "pixel_col": 693.0,
    "pixel_row": 907.0,
    "population_density": 305.2,
    "position_along": 0.125,
    "protected_area_score": 18.1246,
    "rank": 9,
    "road_access_m": 109.3,
    "road_access_score": 1.0,
    "road_density_km_km2": 4.009,
    "robustness_pct": 8.0,
    "runoff_coeff_C": 0.1304,
    "seasonal_cv": 0.425,
    "segment_id": 26,
    "segment_length_m": 6171.9703,
    "stream_order": 3,
    "superfund_score": 0.0017,
    "tourism_amenity_density": 0.1592,
    "tri_facility_density": 0.0,
    "usgs_mean_q_cfs": 11.005,
    "velocity_feasibility": 0.7,
    "water_intake_score": 2.0367
   },
   "type": "Feature"
  },
  {
   "geometry": {
    "coordinates": [
     -79.291271,
     36.030654
    ],
    "type": "Point"
   },
   "properties": {
    "accumulation": 359898.0,
    "bank_slope_deg": 20.78,
    "bank_slope_score": 0.5,
    "bank_slope_source": "nc-dps-lidar-dem03-cross-section",
    "beach_dist_km": 244.18,
    "bridge_proximity_bonus": 0.0,
    "catchment_area_km2": 35.9297,
    "channel_width_m": 13.79,
    "channel_width_score": 1.0,
    "composite_score": 43.5595,
    "cso_density": 0.0,
    "ej_index": 0.4932,
    "elevation_m": 157.9644,
    "estuary_dist_km": 312.87,
    "feasibility_score": 55.3571,
    "flood_q10_cfs": 2252.4,
    "flow_score": 70.2461,
    "flow_velocity_ms": 0.1234,
    "generation_score": 25.5937,
    "impact_score": 33.3875,
    "impervious_pct": 5.86,
    "land_ownership": 1.0,
    "lat": 36.0307,
    "litter_complaint_density": 0.0,
    "lon": -79.2913,
    "navigable_dist_m": null,
    "npdes_points": 18,
    "pixel_col": 511.0,
    "pixel_row": 1200.0,
    "population_density": 155.3,
    "position_along": 0.5,
    "protected_area_score": 16.9628,
    "rank": 10,
    "road_access_m": 373.5,
    "road_access_score": 0.8,
    "road_density_km_km2": 1.661,
    "robustness_pct": 33.5,
    "runoff_coeff_C": 0.1027,
    "seasonal_cv": 0.4344,
    "segment_id": 37,
    "segment_length_m": 1328.4231,
    "stream_order": 3,
    "superfund_score": 0.0015,
    "tourism_amenity_density": 0.0,
    "tri_facility_density": 0.0,
    "usgs_mean_q_cfs": 17.514,
    "velocity_feasibility": 0.7,
    "water_intake_score": 1.9404
   },
   "type": "Feature"
  },
  {
   "geometry": {
    "coordinates": [
     -79.290286,
     36.117263
    ],
    "type": "Point"
   },
   "properties": {
    "accumulation": 289746.0,
    "bank_slope_deg": 13.22,
    "bank_slope_score": 1.0,
    "bank_slope_source": "nc-dps-lidar-dem03-cross-section",
    "beach_dist_km": 252.14,
    "bridge_proximity_bonus": 0.0,
    "catchment_area_km2": 28.9262,
    "channel_width_m": 12.61,
    "channel_width_score": 1.0,
    "composite_score": 42.4625,
    "cso_density": 0.0,
    "ej_index": 0.4907,
    "elevation_m": 162.2791,
    "estuary_dist_km": 316.12,
    "feasibility_score": 58.0357,
    "flood_q10_cfs": 1988.98,
    "flow_score": 62.3202,
    "flow_velocity_ms": 0.1458,
    "generation_score": 31.2137,
    "impact_score": 29.3767,
    "impervious_pct": 5.55,
    "land_ownership": 0.5,
    "lat": 36.1173,
    "litter_complaint_density": 0.0,
    "lon": -79.2903,
    "navigable_dist_m": null,
    "npdes_points": 13,
    "pixel_col": 500.0,
    "pixel_row": 234.0,
    "population_density": 211.3,
    "position_along": 0.5,
    "protected_area_score": 15.2919,
    "rank": 11,
    "road_access_m": 97.0,
    "road_access_score": 1.0,
    "road_density_km_km2": 3.086,
    "robustness_pct": 19.0,
    "runoff_coeff_C": 0.0999,
    "seasonal_cv": 0.4285,
    "segment_id": 13,
    "segment_length_m": 4946.8418,
    "stream_order": 3,
    "superfund_score": 0.0042,
    "tourism_amenity_density": 1.0345,
    "tri_facility_density": 0.1037,
    "usgs_mean_q_cfs": 14.9,
    "velocity_feasibility": 0.7,
    "water_intake_score": 2.046
   },
   "type": "Feature"
  },
  {
   "geometry": {
    "coordinates": [
     -79.281097,
     36.115238
    ],
    "type": "Point"
   },
   "properties": {
    "accumulation": 264316.0,
    "bank_slope_deg": 17.98,
    "bank_slope_score": 0.5,
    "bank_slope_source": "nc-dps-lidar-dem03-cross-section",
    "beach_dist_km": 251.5,
    "bridge_proximity_bonus": 0.0,
    "catchment_area_km2": 26.3875,
    "channel_width_m": 12.13,
    "channel_width_score": 1.0,
    "composite_score": 42.2761,
    "cso_density": 0.0,
    "ej_index": 0.4272,
    "elevation_m": 166.9693,
    "estuary_dist_km": 315.27,
    "feasibility_score": 55.3571,
    "flood_q10_cfs": 1891.87,
    "flow_score": 58.4107,
    "flow_velocity_ms": 0.1145,
    "generation_score": 34.609,
    "impact_score": 29.9572,
    "impervious_pct": 5.61,
    "land_ownership": 1.0,
    "lat": 36.1152,
    "litter_complaint_density": 0.0,
    "lon": -79.2811,
    "navigable_dist_m": null,
    "npdes_points": 10,
    "pixel_col": 584.0,
    "pixel_row": 256.0,
    "population_density": 252.1,
    "position_along": 0.1667,
    "protected_area_score": 16.3225,
    "rank": 12,
    "road_access_m": 366.1,
    "road_access_score": 0.8,
    "road_density_km_km2": 3.962,
    "robustness_pct": 13.5,
    "runoff_coeff_C": 0.1005,
    "seasonal_cv": 0.4267,
    "segment_id": 13,
    "segment_length_m": 4946.8418,
    "stream_order": 3,
    "superfund_score": 0.0034,
    "tourism_amenity_density": 1.1937,
    "tri_facility_density": 0.1516,
    "usgs_mean_q_cfs": 13.917,
    "velocity_feasibility": 0.7,
    "water_intake_score": 2.014
   },
   "type": "Feature"
  },
  {
   "geometry": {
    "coordinates": [
     -79.309216,
     36.088589
    ],
    "type": "Point"
   },
   "properties": {
    "accumulation": 87501.0,
    "bank_slope_deg": 12.98,
    "bank_slope_score": 1.0,
    "bank_slope_source": "nc-dps-lidar-dem03-cross-section",
    "beach_dist_km": 250.42,
    "bridge_proximity_bonus": 0.0,
    "catchment_area_km2": 8.7355,
    "channel_width_m": 7.67,
    "channel_width_score": 1.0,
    "composite_score": 41.8255,
    "cso_density": 0.0,
    "ej_index": 0.6033,
    "elevation_m": 166.9087,
    "estuary_dist_km": 316.58,
    "feasibility_score": 49.1071,
    "flood_q10_cfs": 1206.98,
    "flow_score": 36.9599,
    "flow_velocity_ms": 0.1284,
    "generation_score": 43.2888,
    "impact_score": 40.7759,
    "impervious_pct": 17.4,
    "land_ownership": 0.5,
    "lat": 36.0886,
    "litter_complaint_density": 0.0,
    "lon": -79.3092,
    "navigable_dist_m": null,
    "npdes_points": 6,
    "pixel_col": 337.0,
    "pixel_row": 556.0,
    "population_density": 352.5,
    "position_along": 0.375,
    "protected_area_score": 15.7712,
    "rank": 13,
    "road_access_m": 290.6,
    "road_access_score": 0.8,
    "road_density_km_km2": 3.314,
    "robustness_pct": 0.0,
    "runoff_coeff_C": 0.2066,
    "seasonal_cv": 0.4117,
    "segment_id": 17,
    "segment_length_m": 6025.23,
    "stream_order": 3,
    "superfund_score": 0.0047,
    "tourism_amenity_density": 0.2387,
    "tri_facility_density": 0.0,
    "usgs_mean_q_cfs": 4.612,
    "velocity_feasibility": 0.7,
    "water_intake_score": 2.2311
   },
   "type": "Feature"
  },
  {
   "geometry": {
    "coordinates": [
     -79.278092,
     36.041727
    ],
    "type": "Point"
   },
   "properties": {
    "accumulation": 207633.0,
    "bank_slope_deg": 7.31,
    "bank_slope_score": 1.0,
    "bank_slope_source": "nc-dps-lidar-dem03-cross-section",
    "beach_dist_km": 244.53,
    "bridge_proximity_bonus": 0.0,
    "catchment_area_km2": 20.7286,
    "channel_width_m": 10.98,
    "channel_width_score": 1.0,
    "composite_score": 41.4922,
    "cso_density": 0.0,
    "ej_index": 0.5246,
    "elevation_m": 162.9716,
    "estuary_dist_km": 312.16,
    "feasibility_score": 49.1071,
    "flood_q10_cfs": 1732.8,
    "flow_score": 50.4367,
    "flow_velocity_ms": 0.055,
    "generation_score": 32.2187,
    "impact_score": 39.5045,
    "impervious_pct": 8.93,
    "land_ownership": 0.5,
    "lat": 36.0417,
    "litter_complaint_density": 0.0,
    "lon": -79.2781,
    "navigable_dist_m": null,
    "npdes_points": 19,
    "pixel_col": 625.0,
    "pixel_row": 1072.0,
    "population_density": 185.6,
    "position_along": 0.625,
    "protected_area_score": 17.7532,
    "rank": 14,
    "road_access_m": 251.8,
    "road_access_score": 0.8,
    "road_density_km_km2": 2.256,
    "robustness_pct": 0.0,
    "runoff_coeff_C": 0.1304,
    "seasonal_cv": 0.425,
    "segment_id": 26,
    "segment_length_m": 6171.9703,
    "stream_order": 3,
    "superfund_score": 0.0015,
    "tourism_amenity_density": 0.0796,
    "tri_facility_density": 0.0,
    "usgs_mean_q_cfs": 11.005,
    "velocity_feasibility": 0.7,
    "water_intake_score": 2.0007
   },
   "type": "Feature"
  },
  {
   "geometry": {
    "coordinates": [
     -79.327982,
     36.090087
    ],
    "type": "Point"
   },
   "properties": {
    "accumulation": 126707.0,
    "bank_slope_deg": 1.26,
    "bank_slope_score": 1.0,
    "bank_slope_source": "nc-dps-lidar-dem03-cross-section",
    "beach_dist_km": 251.5,
    "bridge_proximity_bonus": 0.0,
    "catchment_area_km2": 12.6496,
    "channel_width_m": 8.94,
    "channel_width_score": 1.0,
    "composite_score": 41.0864,
    "cso_density": 0.0,
    "ej_index": 0.6118,
    "elevation_m": 154.789,
    "estuary_dist_km": 318.22,
    "feasibility_score": 49.1071,
    "flood_q10_cfs": 1447.7,
    "flow_score": 41.6334,
    "flow_velocity_ms": 0.1065,
    "generation_score": 32.8433,
    "impact_score": 44.8632,
    "impervious_pct": 15.72,
    "land_ownership": 0.5,
    "lat": 36.0901,
    "litter_complaint_density": 0.0,
    "lon": -79.328,
    "navigable_dist_m": null,
    "npdes_points": 4,
    "pixel_col": 166.0,
    "pixel_row": 542.0,
    "population_density": 220.5,
    "position_along": 0.875,
    "protected_area_score": 15.4519,
    "rank": 15,
    "road_access_m": 310.1,
    "road_access_score": 0.8,
    "road_density_km_km2": 2.284,
    "robustness_pct": 0.0,
    "runoff_coeff_C": 0.1915,
    "seasonal_cv": 0.4173,
    "segment_id": 17,
    "segment_length_m": 6025.23,
    "stream_order": 3,
    "superfund_score": 0.0072,
    "tourism_amenity_density": 0.4775,
    "tri_facility_density": 0.0,
    "usgs_mean_q_cfs": 6.3,
    "velocity_feasibility": 0.7,
    "water_intake_score": 2.3338
   },
   "type": "Feature"
  },
  {
   "geometry": {
    "coordinates": [
     -79.248236,
     36.073734
    ],
    "type": "Point"
   },
   "properties": {
    "accumulation": 30074.0,
    "bank_slope_deg": 5.37,
    "bank_slope_score": 1.0,
    "bank_slope_source": "nc-dps-lidar-dem03-cross-section",
    "beach_dist_km": 246.02,
    "bridge_proximity_bonus": 0.0,
    "catchment_area_km2": 3.0024,
    "channel_width_m": 4.92,
    "channel_width_score": 1.0,
    "composite_score": 40.445,
    "cso_density": 0.0,
    "ej_index": 0.699,
    "elevation_m": 190.6852,
    "estuary_dist_km": 310.87,
    "feasibility_score": 49.1071,
    "flood_q10_cfs": 526.13,
    "flow_score": 24.7819,
    "flow_velocity_ms": 0.1069,
    "generation_score": 39.725,
    "impact_score": 49.8864,
    "impervious_pct": 12.08,
    "land_ownership": 0.5,
    "lat": 36.0737,
    "litter_complaint_density": 0.0,
    "lon": -79.2482,
    "navigable_dist_m": null,
    "npdes_points": 2,
    "pixel_col": 889.0,
    "pixel_row": 715.0,
    "population_density": 80.1,
    "position_along": 0.25,
    "protected_area_score": 18.8667,
    "rank": 16,
    "road_access_m": 252.3,
    "road_access_score": 0.8,
    "road_density_km_km2": 4.833,
    "robustness_pct": 0.0,
    "runoff_coeff_C": 0.1587,
    "seasonal_cv": 0.4113,
    "segment_id": 20,
    "segment_length_m": 3203.6686,
    "stream_order": 3,
    "superfund_score": 0.0015,
    "tourism_amenity_density": 0.0796,
    "tri_facility_density": 0.3331,
    "usgs_mean_q_cfs": 2.427,
    "velocity_feasibility": 0.7,
    "water_intake_score": 2.0743
   },
   "type": "Feature"
  },
  {
   "geometry": {
    "coordinates": [
     -79.302956,
     36.11755
    ],
    "type": "Point"
   },
   "properties": {
    "accumulation": 302229.0,
    "bank_slope_deg": 0.0,
    "bank_slope_score": 1.0,
    "bank_slope_source": "nc-dps-lidar-dem03-cross-section",
    "beach_dist_km": 252.79,
    "bridge_proximity_bonus": 0.0,
    "catchment_area_km2": 30.1725,
    "channel_width_m": 12.83,
    "channel_width_score": 1.0,
    "composite_score": 39.9381,
    "cso_density": 0.0,
    "ej_index": 0.5692,
    "elevation_m": 162.496,
    "estuary_dist_km": 317.19,
    "feasibility_score": 49.1071,
    "flood_q10_cfs": 2035.43,
    "flow_score": 61.7035,
    "flow_velocity_ms": 0.0597,
    "generation_score": 24.8065,
    "impact_score": 32.3474,
    "impervious_pct": 5.53,
    "land_ownership": 0.5,
    "lat": 36.1176,
    "litter_complaint_density": 0.0,
    "lon": -79.303,
    "navigable_dist_m": null,
    "npdes_points": 12,
    "pixel_col": 386.0,
    "pixel_row": 233.0,
    "population_density": 175.3,
    "position_along": 0.8333,
    "protected_area_score": 14.8991,
    "rank": 17,
    "road_access_m": 323.6,
    "road_access_score": 0.8,
    "road_density_km_km2": 2.315,
    "robustness_pct": 10.0,
    "runoff_coeff_C": 0.0998,
    "seasonal_cv": 0.4292,
    "segment_id": 13,
    "segment_length_m": 4946.8418,
    "stream_order": 3,
    "superfund_score": 0.0058,
    "tourism_amenity_density": 0.9549,
    "tri_facility_density": 0.0331,
    "usgs_mean_q_cfs": 15.293,
    "velocity_feasibility": 0.7,
    "water_intake_score": 2.1055
   },
   "type": "Feature"
  },
  {
   "geometry": {
    "coordinates": [
     -79.282982,
     36.034915
    ],
    "type": "Point"
   },
   "properties": {
    "accumulation": 230242.0,
    "bank_slope_deg": 22.91,
    "bank_slope_score": 0.5,
    "bank_slope_source": "nc-dps-lidar-dem03-cross-section",
    "beach_dist_km": 244.15,
    "bridge_proximity_bonus": 0.0,
    "catchment_area_km2": 22.9858,
    "channel_width_m": 11.46,
    "channel_width_score": 1.0,
    "composite_score": 39.7218,
    "cso_density": 0.0,
    "ej_index": 0.4975,
    "elevation_m": 159.9818,
    "estuary_dist_km": 312.32,
    "feasibility_score": 45.5357,
    "flood_q10_cfs": 1834.9,
    "flow_score": 52.4015,
    "flow_velocity_ms": 0.0563,
    "generation_score": 28.8477,
    "impact_score": 37.1225,
    "impervious_pct": 8.93,
    "land_ownership": 0.5,
    "lat": 36.0349,
    "litter_complaint_density": 0.0,
    "lon": -79.283,
    "navigable_dist_m": null,
    "npdes_points": 17,
    "pixel_col": 582.0,
    "pixel_row": 1152.0,
    "population_density": 151.5,
    "position_along": 0.875,
    "protected_area_score": 17.4908,
    "rank": 18,
    "road_access_m": 129.7,
    "road_access_score": 1.0,
    "road_density_km_km2": 1.81,
    "robustness_pct": 0.0,
    "runoff_coeff_C": 0.1304,
    "seasonal_cv": 0.425,
    "segment_id": 26,
    "segment_length_m": 6171.9703,
    "stream_order": 3,
    "superfund_score": 0.0014,
    "tourism_amenity_density": 0.0796,
    "tri_facility_density": 0.0,
    "usgs_mean_q_cfs": 11.005,
    "velocity_feasibility": 0.7,
    "water_intake_score": 1.9748
   },
   "type": "Feature"
  },
  {
   "geometry": {
    "coordinates": [
     -79.318503,
     36.089288
    ],
    "type": "Point"
   },
   "properties": {
    "accumulation": 95039.0,
    "bank_slope_deg": 8.92,
    "bank_slope_score": 1.0,
    "bank_slope_source": "nc-dps-lidar-dem03-cross-section",
    "beach_dist_km": 250.95,
    "bridge_proximity_bonus": 0.0,
    "catchment_area_km2": 9.488,
    "channel_width_m": 7.94,
    "channel_width_score": 1.0,
    "composite_score": 39.3961,
    "cso_density": 0.0,
    "ej_index": 0.5934,
    "elevation_m": 161.0772,
    "estuary_dist_km": 317.39,
    "feasibility_score": 40.1786,
    "flood_q10_cfs": 1263.51,
    "flow_score": 37.9243,
    "flow_velocity_ms": 0.1344,
    "generation_score": 38.6987,
    "impact_score": 40.9288,
    "impervious_pct": 17.4,
    "land_ownership": 0.5,
    "lat": 36.0893,
    "litter_complaint_density": 0.0,
    "lon": -79.3185,
    "navigable_dist_m": null,
    "npdes_points": 5,
    "pixel_col": 252.0,
    "pixel_row": 550.0,
    "population_density": 275.9,
    "position_along": 0.625,
    "protected_area_score": 15.4305,
    "rank": 19,
    "road_access_m": 631.0,
    "road_access_score": 0.6,
    "road_density_km_km2": 2.821,
    "robustness_pct": 0.0,
    "runoff_coeff_C": 0.2066,
    "seasonal_cv": 0.4117,
    "segment_id": 17,
    "segment_length_m": 6025.23,
    "stream_order": 3,
    "superfund_score": 0.0057,
    "tourism_amenity_density": 0.0,
    "tri_facility_density": 0.0,
    "usgs_mean_q_cfs": 4.612,
    "velocity_feasibility": 0.7,
    "water_intake_score": 2.2871
   },
   "type": "Feature"
  },
  {
   "geometry": {
    "coordinates": [
     -79.256827,
     36.063936
    ],
    "type": "Point"
   },
   "properties": {
    "accumulation": 45818.0,
    "bank_slope_deg": 11.49,
    "bank_slope_score": 1.0,
    "bank_slope_source": "nc-dps-lidar-dem03-cross-section",
    "beach_dist_km": 245.53,
    "bridge_proximity_bonus": 0.0,
    "catchment_area_km2": 4.5742,
    "channel_width_m": 5.86,
    "channel_width_score": 1.0,
    "composite_score": 39.1351,
    "cso_density": 0.0,
    "ej_index": 0.6346,
    "elevation_m": 181.6069,
    "estuary_dist_km": 311.21,
    "feasibility_score": 58.0357,
    "flood_q10_cfs": 722.57,
    "flow_score": 26.6529,
    "flow_velocity_ms": 0.0903,
    "generation_score": 31.588,
    "impact_score": 47.6337,
    "impervious_pct": 12.08,
    "land_ownership": 0.5,
    "lat": 36.0639,
    "litter_complaint_density": 0.0,
    "lon": -79.2568,
    "navigable_dist_m": null,
    "npdes_points": 6,
    "pixel_col": 815.0,
    "pixel_row": 825.0,
    "population_density": 199.9,
    "position_along": 0.75,
    "protected_area_score": 18.6553,
    "rank": 20,
    "road_access_m": 94.4,
    "road_access_score": 1.0,
    "road_density_km_km2": 4.026,
    "robustness_pct": 0.0,
    "runoff_coeff_C": 0.1587,
    "seasonal_cv": 0.4113,
    "segment_id": 20,
    "segment_length_m": 3203.6686,
    "stream_order": 3,
    "superfund_score": 0.0015,
    "tourism_amenity_density": 0.1592,
    "tri_facility_density": 0.0,
    "usgs_mean_q_cfs": 2.427,
    "velocity_feasibility": 0.7,
    "water_intake_score": 2.0634
   },
   "type": "Feature"
  },
  {
   "geometry": {
    "coordinates": [
     -79.293775,
     36.053376
    ],
    "type": "Point"
   },
   "properties": {
    "accumulation": 24630.0,
    "bank_slope_deg": 9.32,
    "bank_slope_score": 1.0,
    "bank_slope_source": "nc-dps-lidar-dem03-cross-section",
    "beach_dist_km": 246.4,
    "bridge_proximity_bonus": 0.0,
    "catchment_area_km2": 2.4589,
    "channel_width_m": 4.53,
    "channel_width_score": 1.0,
    "composite_score": 38.9567,
    "cso_density": 0.0,
    "ej_index": 0.5407,
    "elevation_m": 170.9825,
    "estuary_dist_km": 313.93,
    "feasibility_score": 49.1071,
    "flood_q10_cfs": 519.09,
    "flow_score": 24.6798,
    "flow_velocity_ms": 0.0936,
    "generation_score": 44.0194,
    "impact_score": 40.7162,
    "impervious_pct": 19.91,
    "land_ownership": 0.5,
    "lat": 36.0534,
    "litter_complaint_density": 0.0,
    "lon": -79.2938,
    "navigable_dist_m": null,
    "npdes_points": 5,
    "pixel_col": 485.0,
    "pixel_row": 948.0,
    "population_density": 270.1,
    "position_along": 0.5,
    "protected_area_score": 16.952,
    "rank": 21,
    "road_access_m": 254.9,
    "road_access_score": 0.8,
    "road_density_km_km2": 4.329,
    "robustness_pct": 0.0,
    "runoff_coeff_C": 0.2292,
    "seasonal_cv": 0.4021,
    "segment_id": 28,
    "segment_length_m": 617.4739,
    "stream_order": 3,
    "superfund_score": 0.0021,
    "tourism_amenity_density": 1.3528,
    "tri_facility_density": 0.0,
    "usgs_mean_q_cfs": 1.147,
    "velocity_feasibility": 0.7,
    "water_intake_score": 2.0283
   },
   "type": "Feature"
  },
  {
   "geometry": {
    "coordinates": [
     -79.263128,
     36.058571
    ],
    "type": "Point"
   },
   "properties": {
    "accumulation": 95759.0,
    "bank_slope_deg": 12.03,
    "bank_slope_score": 1.0,
    "bank_slope_source": "nc-dps-lidar-dem03-cross-section",
    "beach_dist_km": 245.34,
    "bridge_proximity_bonus": 0.0,
    "catchment_area_km2": 9.5599,
    "channel_width_m": 7.96,
    "channel_width_score": 1.0,
    "composite_score": 38.9091,
    "cso_density": 0.0,
    "ej_index": 0.607,
    "elevation_m": 175.9917,
    "estuary_dist_km": 311.54,
    "feasibility_score": 49.1071,
    "flood_q10_cfs": 1090.22,
    "flow_score": 33.7316,
    "flow_velocity_ms": 0.1124,
    "generation_score": 31.3395,
    "impact_score": 45.6944,
    "impervious_pct": 6.42,
    "land_ownership": 0.5,
    "lat": 36.0586,
    "litter_complaint_density": 0.0,
    "lon": -79.2631,
    "navigable_dist_m": null,
    "npdes_points": 14,
    "pixel_col": 757.0,
    "pixel_row": 882.0,
    "population_density": 254.8,
    "position_along": 0.5,
    "protected_area_score": 18.5551,
    "rank": 22,
    "road_access_m": 321.9,
    "road_access_score": 0.8,
    "road_density_km_km2": 3.74,
    "robustness_pct": 0.0,
    "runoff_coeff_C": 0.1078,
    "seasonal_cv": 0.4119,
    "segment_id": 25,
    "segment_length_m": 526.5449,
    "stream_order": 3,
    "superfund_score": 0.0016,
    "tourism_amenity_density": 0.1592,
    "tri_facility_density": 0.0,
    "usgs_mean_q_cfs": 4.686,
    "velocity_feasibility": 0.7,
    "water_intake_score": 2.0449
   },
   "type": "Feature"
  },
  {
   "geometry": {
    "coordinates": [
     -79.298033,
     36.046305
    ],
    "type": "Point"
   },
   "properties": {
    "accumulation": 56017.0,
    "bank_slope_deg": 15.41,
    "bank_slope_score": 0.5,
    "bank_slope_source": "nc-dps-lidar-dem03-cross-section",
    "beach_dist_km": 245.96,
    "bridge_proximity_bonus": 0.0,
    "catchment_area_km2": 5.5924,
    "channel_width_m": 6.37,
    "channel_width_score": 1.0,
    "composite_score": 37.9838,
    "cso_density": 0.0,
    "ej_index": 0.5195,
    "elevation_m": 166.4163,
    "estuary_dist_km": 314.02,
    "feasibility_score": 64.2857,
    "flood_q10_cfs": 887.14,
    "flow_score": 29.9706,
    "flow_velocity_ms": 0.1056,
    "generation_score": 32.3109,
    "impact_score": 37.1835,
    "impervious_pct": 15.15,
    "land_ownership": 1.0,
    "lat": 36.0463,
    "litter_complaint_density": 0.0,
    "lon": -79.298,
    "navigable_dist_m": null,
    "npdes_points": 2,
    "pixel_col": 445.0,
    "pixel_row": 1028.0,
    "population_density": 201.5,
    "position_along": 0.1667,
    "protected_area_score": 16.8315,
    "rank": 23,
    "road_access_m": 108.9,
    "road_access_score": 1.0,
    "road_density_km_km2": 3.62,
    "robustness_pct": 0.0,
    "runoff_coeff_C": 0.1864,
    "seasonal_cv": 0.4053,
    "segment_id": 30,
    "segment_length_m": 4553.7893,
    "stream_order": 3,
    "superfund_score": 0.0019,
    "tourism_amenity_density": 0.9549,
    "tri_facility_density": 0.0,
    "usgs_mean_q_cfs": 2.773,
    "velocity_feasibility": 0.7,
    "water_intake_score": 1.9967
   },
   "type": "Feature"
  },
  {
   "geometry": {
    "coordinates": [
     -79.334228,
     36.09203
    ],
    "type": "Point"
   },
   "properties": {
    "accumulation": 30166.0,
    "bank_slope_deg": 1.1,
    "bank_slope_score": 1.0,
    "bank_slope_source": "nc-dps-lidar-dem03-cross-section",
    "beach_dist_km": 251.99,
    "bridge_proximity_bonus": 0.0,
    "catchment_area_km2": 3.0116,
    "channel_width_m": 4.93,
    "channel_width_score": 1.0,
    "composite_score": 37.7122,
    "cso_density": 0.0,
    "ej_index": 0.6248,
    "elevation_m": 153.3158,
    "estuary_dist_km": 318.82,
    "feasibility_score": 68.75,
    "flood_q10_cfs": 426.86,
    "flow_score": 41.2885,
    "flow_velocity_ms": 0.5,
    "generation_score": 11.4715,
    "impact_score": 45.4537,
    "impervious_pct": null,
    "land_ownership": 0.5,
    "lat": 36.092,
    "litter_complaint_density": 0.0,
    "lon": -79.3342,
    "navigable_dist_m": null,
    "npdes_points": 4,
    "pixel_col": 113.0,
    "pixel_row": 524.0,
    "population_density": 179.6,
    "position_along": 0.5,
    "protected_area_score": 15.2397,
    "rank": 24,
    "road_access_m": 159.3,
    "road_access_score": 1.0,
    "road_density_km_km2": 2.094,
    "robustness_pct": 2.0,
    "runoff_coeff_C": null,
    "seasonal_cv": null,
    "segment_id": 14,
    "segment_length_m": 897.6561,
    "stream_order": 3,
    "superfund_score": 0.0087,
    "tourism_amenity_density": 0.4775,
    "tri_facility_density": 0.0,
    "usgs_mean_q_cfs": null,
    "velocity_feasibility": 1.0,
    "water_intake_score": 2.3523
   },
   "type": "Feature"
  },
  {
   "geometry": {
    "coordinates": [
     -79.327855,
     36.108357
    ],
    "type": "Point"
   },
   "properties": {
    "accumulation": 22984.0,
    "bank_slope_deg": 0.0,
    "bank_slope_score": 1.0,
    "bank_slope_source": "nc-dps-lidar-dem03-cross-section",
    "beach_dist_km": 253.18,
    "bridge_proximity_bonus": 0.0,
    "catchment_area_km2": 2.2946,
    "channel_width_m": 4.4,
    "channel_width_score": 1.0,
    "composite_score": 37.6223,
    "cso_density": 0.0,
    "ej_index": 0.8629,
    "elevation_m": 162.4336,
    "estuary_dist_km": 318.92,
    "feasibility_score": 59.8214,
    "flood_q10_cfs": 347.77,
    "flow_score": 40.3344,
    "flow_velocity_ms": 0.5,
    "generation_score": 10.4599,
    "impact_score": 51.4251,
    "impervious_pct": null,
    "land_ownership": 0.5,
    "lat": 36.1084,
    "litter_complaint_density": 0.0,
    "lon": -79.3279,
    "navigable_dist_m": null,
    "npdes_points": 0,
    "pixel_col": 165.0,
    "pixel_row": 343.0,
    "population_density": 247.7,
    "position_along": 0.5,
    "protected_area_score": 14.7154,
    "rank": 25,
    "road_access_m": 319.8,
    "road_access_score": 0.8,
    "road_density_km_km2": 1.259,
    "robustness_pct": 3.0,
    "runoff_coeff_C": null,
    "seasonal_cv": null,
    "segment_id": 6,
    "segment_length_m": 614.4613,
    "stream_order": 3,
    "superfund_score": 0.0111,
    "tourism_amenity_density": 1.2732,
    "tri_facility_density": 0.0,
    "usgs_mean_q_cfs": null,
    "velocity_feasibility": 1.0,
    "water_intake_score": 2.3108
   },
   "type": "Feature"
  },
  {
   "geometry": {
    "coordinates": [
     -79.340692,
     36.051188
    ],
    "type": "Point"
   },
   "properties": {
    "accumulation": 20735.0,
    "bank_slope_deg": 9.05,
    "bank_slope_score": 1.0,
    "bank_slope_source": "nc-dps-lidar-dem03-cross-section",
    "beach_dist_km": 248.59,
    "bridge_proximity_bonus": 0.0,
    "catchment_area_km2": 2.07,
    "channel_width_m": 4.22,
    "channel_width_score": 1.0,
    "composite_score": 37.6103,
    "cso_density": 0.0,
    "ej_index": 0.5887,
    "elevation_m": 162.929,
    "estuary_dist_km": 317.82,
    "feasibility_score": 58.0357,
    "flood_q10_cfs": 409.7,
    "flow_score": 26.7097,
    "flow_velocity_ms": 0.118,
    "generation_score": 45.5354,
    "impact_score": 28.5563,
    "impervious_pct": 13.8,
    "land_ownership": 0.5,
    "lat": 36.0512,
    "litter_complaint_density": 0.0,
    "lon": -79.3407,
    "navigable_dist_m": null,
    "npdes_points": 2,
    "pixel_col": 59.0,
    "pixel_row": 977.0,
    "population_density": 93.6,
    "position_along": 0.5,
    "protected_area_score": 15.9341,
    "rank": 26,
    "road_access_m": 108.1,
    "road_access_score": 1.0,
    "road_density_km_km2": 2.831,
    "robustness_pct": 0.0,
    "runoff_coeff_C": 0.1742,
    "seasonal_cv": 0.4132,
    "segment_id": 31,
    "segment_length_m": 481.7295,
    "stream_order": 3,
    "superfund_score": 0.0031,
    "tourism_amenity_density": 0.3183,
    "tri_facility_density": 0.4831,
    "usgs_mean_q_cfs": 4.776,
    "velocity_feasibility": 0.7,
    "water_intake_score": 1.989
   },
   "type": "Feature"
  },
  {
   "geometry": {
    "coordinates": [
     -79.291909,
     36.052471
    ],
    "type": "Point"
   },
   "properties": {
    "accumulation": 21386.0,
    "bank_slope_deg": 9.07,
    "bank_slope_score": 1.0,
    "bank_slope_source": "nc-dps-lidar-dem03-cross-section",
    "beach_dist_km": 246.22,
    "bridge_proximity_bonus": 0.0,
    "catchment_area_km2": 2.135,
    "channel_width_m": 4.27,
    "channel_width_score": 1.0,
    "composite_score": 37.5572,
    "cso_density": 0.0,
    "ej_index": 0.5304,
    "elevation_m": 171.8106,
    "estuary_dist_km": 313.74,
    "feasibility_score": 58.0357,
    "flood_q10_cfs": 424.9,
    "flow_score": 23.3586,
    "flow_velocity_ms": 0.1147,
    "generation_score": 35.7998,
    "impact_score": 40.9076,
    "impervious_pct": 14.55,
    "land_ownership": 0.5,
    "lat": 36.0525,
    "litter_complaint_density": 0.0,
    "lon": -79.2919,
    "navigable_dist_m": null,
    "npdes_points": 5,
    "pixel_col": 501.0,
    "pixel_row": 958.0,
    "population_density": 236.9,
    "position_along": 0.5,
    "protected_area_score": 17.0972,
    "rank": 27,
    "road_access_m": 131.3,
    "road_access_score": 1.0,
    "road_density_km_km2": 4.181,
    "robustness_pct": 0.0,
    "runoff_coeff_C": 0.1809,
    "seasonal_cv": 0.4033,
    "segment_id": 29,
    "segment_length_m": 590.6334,
    "stream_order": 3,
    "superfund_score": 0.002,
    "tourism_amenity_density": 1.3528,
    "tri_facility_density": 0.0,
    "usgs_mean_q_cfs": 1.396,
    "velocity_feasibility": 0.7,
    "water_intake_score": 2.0249
   },
   "type": "Feature"
  },
  {
   "geometry": {
    "coordinates": [
     -79.341424,
     36.087288
    ],
    "type": "Point"
   },
   "properties": {
    "accumulation": 177857.0,
    "bank_slope_deg": 26.52,
    "bank_slope_score": 0.5,
    "bank_slope_source": "nc-dps-lidar-dem03-cross-section",
    "beach_dist_km": 251.93,
    "bridge_proximity_bonus": 0.0,
    "catchment_area_km2": 17.756,
    "channel_width_m": 10.3,
    "channel_width_score": 1.0,
    "composite_score": 36.2406,
    "cso_density": 0.0,
    "ej_index": 0.5932,
    "elevation_m": 151.4891,
    "estuary_dist_km": 319.24,
    "feasibility_score": 47.3214,
    "flood_q10_cfs": 1405.83,
    "flow_score": 56.214,
    "flow_velocity_ms": 0.5,
    "generation_score": 9.7866,
    "impact_score": 40.5099,
    "impervious_pct": null,
    "land_ownership": 0.5,
    "lat": 36.0873,
    "litter_complaint_density": 0.0,
    "lon": -79.3414,
    "navigable_dist_m": null,
    "npdes_points": 4,
    "pixel_col": 50.0,
    "pixel_row": 579.0,
    "population_density": 170.0,
    "position_along": 0.5,
    "protected_area_score": 15.0569,
    "rank": 28,
    "road_access_m": 396.5,
    "road_access_score": 0.8,
    "road_density_km_km2": 1.307,
    "robustness_pct": 0.0,
    "runoff_coeff_C": null,
    "seasonal_cv": null,
    "segment_id": 18,
    "segment_length_m": 2261.1971,
    "stream_order": 3,
    "superfund_score": 0.0087,
    "tourism_amenity_density": 0.4775,
    "tri_facility_density": 0.0,
    "usgs_mean_q_cfs": null,
    "velocity_feasibility": 1.0,
    "water_intake_score": 2.2833
   },
   "type": "Feature"
  },
  {
   "geometry": {
    "coordinates": [
     -79.320874,
     36.06221
    ],
    "type": "Point"
   },
   "properties": {
    "accumulation": 30629.0,
    "bank_slope_deg": 5.16,
    "bank_slope_score": 1.0,
    "bank_slope_source": "nc-dps-lidar-dem03-cross-section",
    "beach_dist_km": 248.58,
    "bridge_proximity_bonus": 0.0,
    "catchment_area_km2": 3.0578,
    "channel_width_m": 4.96,
    "channel_width_score": 1.0,
    "composite_score": 35.0667,
    "cso_density": 0.0,
    "ej_index": 0.5885,
    "elevation_m": 175.3283,
    "estuary_dist_km": 316.55,
    "feasibility_score": 49.1071,
    "flood_q10_cfs": 620.6,
    "flow_score": 27.0117,
    "flow_velocity_ms": 0.0985,
    "generation_score": 33.3801,
    "impact_score": 36.4456,
    "impervious_pct": 20.73,
    "land_ownership": 0.5,
    "lat": 36.0622,
    "litter_complaint_density": 0.0,
    "lon": -79.3209,
    "navigable_dist_m": null,
    "npdes_points": 4,
    "pixel_col": 236.0,
    "pixel_row": 853.0,
    "population_density": 94.7,
    "position_along": 0.25,
    "protected_area_score": 16.0796,
    "rank": 29,
    "road_access_m": 211.0,
    "road_access_score": 0.8,
    "road_density_km_km2": 2.019,
    "robustness_pct": 0.0,
    "runoff_coeff_C": 0.2366,
    "seasonal_cv": 0.4019,
    "segment_id": 23,
    "segment_length_m": 3872.9369,
    "stream_order": 3,
    "superfund_score": 0.0033,
    "tourism_amenity_density": 0.7162,
    "tri_facility_density": 0.0,
    "usgs_mean_q_cfs": 2.01,
    "velocity_feasibility": 0.7,
    "water_intake_score": 2.0847
   },
   "type": "Feature"
  },
  {
   "geometry": {
    "coordinates": [
     -79.234747,
     36.101899
    ],
    "type": "Point"
   },
   "properties": {
    "accumulation": 31364.0,
    "bank_slope_deg": 2.95,
    "bank_slope_score": 1.0,
    "bank_slope_source": "nc-dps-lidar-dem03-cross-section",
    "beach_dist_km": 248.0,
    "bridge_proximity_bonus": 0.0,
    "catchment_area_km2": 3.1312,
    "channel_width_m": 5.01,
    "channel_width_score": 1.0,
    "composite_score": 34.977,
    "cso_density": 0.0,
    "ej_index": 0.5303,
    "elevation_m": 192.4967,
    "estuary_dist_km": 310.85,
    "feasibility_score": 76.7857,
    "flood_q10_cfs": 460.35,
    "flow_score": 20.6476,
    "flow_velocity_ms": 0.0797,
    "generation_score": 19.7128,
    "impact_score": 41.2779,
    "impervious_pct": 2.64,
    "land_ownership": 1.0,
    "lat": 36.1019,
    "litter_complaint_density": 0.0,
    "lon": -79.2347,
    "navigable_dist_m": null,
    "npdes_points": 0,
    "pixel_col": 1005.0,
    "pixel_row": 400.0,
    "population_density": 352.3,
    "position_along": 0.1667,
    "protected_area_score": 17.9486,
    "rank": 30,
    "road_access_m": 186.1,
    "road_access_score": 1.0,
    "road_density_km_km2": 2.282,
    "robustness_pct": 0.5,
    "runoff_coeff_C": 0.0738,
    "seasonal_cv": 0.4189,
    "segment_id": 10,
    "segment_length_m": 4584.1802,
    "stream_order": 3,
    "superfund_score": 0.0015,
    "tourism_amenity_density": 0.6366,
    "tri_facility_density": 0.0,
    "usgs_mean_q_cfs": 1.734,
    "velocity_feasibility": 0.7,
    "water_intake_score": 2.0205
   },
   "type": "Feature"
  },
  {
   "geometry": {
    "coordinates": [
     -79.327767,
     36.10428
    ],
    "type": "Point"
   },
   "properties": {
    "accumulation": 73958.0,
    "bank_slope_deg": 0.0,
    "bank_slope_score": 1.0,
    "bank_slope_source": "nc-dps-lidar-dem03-cross-section",
    "beach_dist_km": 252.8,
    "bridge_proximity_bonus": 0.0,
    "catchment_area_km2": 7.3835,
    "channel_width_m": 7.15,
    "channel_width_score": 1.0,
    "composite_score": 34.6592,
    "cso_density": 0.0,
    "ej_index": 0.8034,
    "elevation_m": 161.6366,
    "estuary_dist_km": 318.75,
    "feasibility_score": 25.8929,
    "flood_q10_cfs": 871.52,
    "flow_score": 44.6216,
    "flow_velocity_ms": 0.0428,
    "generation_score": 15.0386,
    "impact_score": 50.3611,
    "impervious_pct": 2.17,
    "land_ownership": 0.5,
    "lat": 36.1043,
    "litter_complaint_density": 0.0,
    "lon": -79.3278,
    "navigable_dist_m": null,
    "npdes_points": 5,
    "pixel_col": 169.0,
    "pixel_row": 388.0,
    "population_density": 223.2,
    "position_along": 0.5,
    "protected_area_score": 14.8633,
    "rank": 31,
    "road_access_m": 769.6,
    "road_access_score": 0.6,
    "road_density_km_km2": 1.162,
    "robustness_pct": 1.0,
    "runoff_coeff_C": 0.0695,
    "seasonal_cv": 0.4382,
    "segment_id": 7,
    "segment_length_m": 953.1732,
    "stream_order": 3,
    "superfund_score": 0.0101,
    "tourism_amenity_density": 0.7162,
    "tri_facility_density": 0.0,
    "usgs_mean_q_cfs": 19.519,
    "velocity_feasibility": 0.3,
    "water_intake_score": 2.3552
   },
   "type": "Feature"
  },
  {
   "geometry": {
    "coordinates": [
     -79.271012,
     36.118666
    ],
    "type": "Point"
   },
   "properties": {
    "accumulation": 204639.0,
    "bank_slope_deg": 1.79,
    "bank_slope_score": 1.0,
    "bank_slope_source": "nc-dps-lidar-dem03-cross-section",
    "beach_dist_km": 251.32,
    "bridge_proximity_bonus": 0.0,
    "catchment_area_km2": 20.4297,
    "channel_width_m": 10.91,
    "channel_width_score": 1.0,
    "composite_score": 34.3783,
    "cso_density": 0.0,
    "ej_index": 0.3501,
    "elevation_m": 170.336,
    "estuary_dist_km": 314.56,
    "feasibility_score": 49.1071,
    "flood_q10_cfs": 1586.11,
    "flow_score": 50.275,
    "flow_velocity_ms": 0.1451,
    "generation_score": 23.6934,
    "impact_score": 24.4516,
    "impervious_pct": 3.11,
    "land_ownership": 0.5,
    "lat": 36.1187,
    "litter_complaint_density": 0.0,
    "lon": -79.271,
    "navigable_dist_m": null,
    "npdes_points": 1,
    "pixel_col": 674.0,
    "pixel_row": 217.0,
    "population_density": 214.7,
    "position_along": 0.5,
    "protected_area_score": 16.4809,
    "rank": 32,
    "road_access_m": 297.0,
    "road_access_score": 0.8,
    "road_density_km_km2": 3.629,
    "robustness_pct": 0.0,
    "runoff_coeff_C": 0.078,
    "seasonal_cv": 0.4219,
    "segment_id": 12,
    "segment_length_m": 1023.8249,
    "stream_order": 3,
    "superfund_score": 0.0028,
    "tourism_amenity_density": 0.6366,
    "tri_facility_density": 0.1468,
    "usgs_mean_q_cfs": 11.181,
    "velocity_feasibility": 0.7,
    "water_intake_score": 1.9618
   },
   "type": "Feature"
  },
  {
   "geometry": {
    "coordinates": [
     -79.344242,
     36.052357
    ],
    "type": "Point"
   },
   "properties": {
    "accumulation": 93588.0,
    "bank_slope_deg": 13.45,
    "bank_slope_score": 1.0,
    "bank_slope_source": "nc-dps-lidar-dem03-cross-section",
    "beach_dist_km": 248.88,
    "bridge_proximity_bonus": 0.0,
    "catchment_area_km2": 9.3432,
    "channel_width_m": 7.89,
    "channel_width_score": 1.0,
    "composite_score": 34.2407,
    "cso_density": 0.0,
    "ej_index": 0.5714,
    "elevation_m": 159.6949,
    "estuary_dist_km": 318.16,
    "feasibility_score": 58.0357,
    "flood_q10_cfs": 1192.0,
    "flow_score": 36.4746,
    "flow_velocity_ms": 0.1272,
    "generation_score": 28.0057,
    "impact_score": 26.7166,
    "impervious_pct": 13.8,
    "land_ownership": 0.5,
    "lat": 36.0524,
    "litter_complaint_density": 0.0,
    "lon": -79.3442,
    "navigable_dist_m": null,
    "npdes_points": 4,
    "pixel_col": 27.0,
    "pixel_row": 967.0,
    "population_density": 92.8,
    "position_along": 0.5,
    "protected_area_score": 15.571,
    "rank": 33,
    "road_access_m": 191.4,
    "road_access_score": 1.0,
    "road_density_km_km2": 1.207,
    "robustness_pct": 0.0,
    "runoff_coeff_C": 0.1742,
    "seasonal_cv": 0.4132,
    "segment_id": 32,
    "segment_length_m": 277.0477,
    "stream_order": 3,
    "superfund_score": 0.0033,
    "tourism_amenity_density": 0.2387,
    "tri_facility_density": 0.107,
    "usgs_mean_q_cfs": 4.776,
    "velocity_feasibility": 0.7,
    "water_intake_score": 1.9921
   },
   "type": "Feature"
  },
  {
   "geometry": {
    "coordinates": [
     -79.306956,
     36.038687
    ],
    "type": "Point"
   },
   "properties": {
    "accumulation": 78402.0,
    "bank_slope_deg": 10.64,
    "bank_slope_score": 1.0,
    "bank_slope_source": "nc-dps-lidar-dem03-cross-section",
    "beach_dist_km": 245.72,
    "bridge_proximity_bonus": 0.0,
    "catchment_area_km2": 7.8271,
    "channel_width_m": 7.33,
    "channel_width_score": 1.0,
    "composite_score": 33.7979,
    "cso_density": 0.0,
    "ej_index": 0.5181,
    "elevation_m": 159.3658,
    "estuary_dist_km": 314.49,
    "feasibility_score": 49.1071,
    "flood_q10_cfs": 1050.18,
    "flow_score": 33.5593,
    "flow_velocity_ms": 0.1352,
    "generation_score": 29.275,
    "impact_score": 30.8651,
    "impervious_pct": 11.73,
    "land_ownership": 0.5,
    "lat": 36.0387,
    "litter_complaint_density": 0.0,
    "lon": -79.307,
    "navigable_dist_m": null,
    "npdes_points": 6,
    "pixel_col": 368.0,
    "pixel_row": 1113.0,
    "population_density": 198.6,
    "position_along": 0.5,
    "protected_area_score": 16.7657,
    "rank": 34,
    "road_access_m": 341.0,
    "road_access_score": 0.8,
    "road_density_km_km2": 2.909,
    "robustness_pct": 0.0,
    "runoff_coeff_C": 0.1556,
    "seasonal_cv": 0.4098,
    "segment_id": 30,
    "segment_length_m": 4553.7893,
    "stream_order": 3,
    "superfund_score": 0.0019,
    "tourism_amenity_density": 0.0796,
    "tri_facility_density": 0.0,
    "usgs_mean_q_cfs": 3.981,
    "velocity_feasibility": 0.7,
    "water_intake_score": 1.9394
   },
   "type": "Feature"
  },
  {
   "geometry": {
    "coordinates": [
     -79.330127,
     36.1159
    ],
    "type": "Point"
   },
   "properties": {
    "accumulation": 39243.0,
    "bank_slope_deg": 14.48,
    "bank_slope_score": 1.0,
    "bank_slope_source": "nc-dps-lidar-dem03-cross-section",
    "beach_dist_km": 253.99,
    "bridge_proximity_bonus": 0.0,
    "catchment_area_km2": 3.9177,
    "channel_width_m": 5.5,
    "channel_width_score": 1.0,
    "composite_score": 33.5666,
    "cso_density": 0.0,
    "ej_index": 0.8745,
    "elevation_m": 162.3206,
    "estuary_dist_km": 319.41,
    "feasibility_score": 49.1071,
    "flood_q10_cfs": 603.49,
    "flow_score": 25.4352,
    "flow_velocity_ms": 0.1057,
    "generation_score": 21.8953,
    "impact_score": 44.2439,
    "impervious_pct": 8.46,
    "land_ownership": 0.5,
    "lat": 36.1159,
    "litter_complaint_density": 0.0,
    "lon": -79.3301,
    "navigable_dist_m": null,
    "npdes_points": 0,
    "pixel_col": 146.0,
    "pixel_row": 260.0,
    "population_density": 253.4,
    "position_along": 0.5,
    "protected_area_score": 13.8456,
    "rank": 35,
    "road_access_m": 298.0,
    "road_access_score": 0.8,
    "road_density_km_km2": 1.733,
    "robustness_pct": 0.0,
    "runoff_coeff_C": 0.1261,
    "seasonal_cv": 0.4006,
    "segment_id": 2,
    "segment_length_m": 2347.6934,
    "stream_order": 3,
    "superfund_score": 0.0138,
    "tourism_amenity_density": 0.7958,
    "tri_facility_density": 0.0,
    "usgs_mean_q_cfs": 2.618,
    "velocity_feasibility": 0.7,
    "water_intake_score": 2.2206
   },
   "type": "Feature"
  },
  {
   "geometry": {
    "coordinates": [
     -79.336081,
     36.056471
    ],
    "type": "Point"
   },
   "properties": {
    "accumulation": 64257.0,
    "bank_slope_deg": 13.07,
    "bank_slope_score": 1.0,
    "bank_slope_source": "nc-dps-lidar-dem03-cross-section",
    "beach_dist_km": 248.83,
    "bridge_proximity_bonus": 0.0,
    "catchment_area_km2": 6.415,
    "channel_width_m": 6.75,
    "channel_width_score": 1.0,
    "composite_score": 32.9373,
    "cso_density": 0.0,
    "ej_index": 0.5887,
    "elevation_m": 165.2367,
    "estuary_dist_km": 317.62,
    "feasibility_score": 40.1786,
    "flood_q10_cfs": 960.83,
    "flow_score": 32.9975,
    "flow_velocity_ms": 0.1174,
    "generation_score": 30.403,
    "impact_score": 31.8008,
    "impervious_pct": 13.8,
    "land_ownership": 0.5,
    "lat": 36.0565,
    "litter_complaint_density": 0.0,
    "lon": -79.3361,
    "navigable_dist_m": null,
    "npdes_points": 4,
    "pixel_col": 101.0,
    "pixel_row": 921.0,
    "population_density": 93.6,
    "position_along": 0.75,
    "protected_area_score": 16.1938,
    "rank": 36,
    "road_access_m": 640.6,
    "road_access_score": 0.6,
    "road_density_km_km2": 1.375,
    "robustness_pct": 0.0,
    "runoff_coeff_C": 0.1742,
    "seasonal_cv": 0.4132,
    "segment_id": 23,
    "segment_length_m": 3872.9369,
    "stream_order": 3,
    "superfund_score": 0.0034,
    "tourism_amenity_density": 0.3183,
    "tri_facility_density": 0.1559,
    "usgs_mean_q_cfs": 4.776,
    "velocity_feasibility": 0.7,
    "water_intake_score": 2.0408
   },
   "type": "Feature"
  },
  {
   "geometry": {
    "coordinates": [
     -79.247862,
     36.107993
    ],
    "type": "Point"
   },
   "properties": {
    "accumulation": 63098.0,
    "bank_slope_deg": 0.0,
    "bank_slope_score": 1.0,
    "bank_slope_source": "nc-dps-lidar-dem03-cross-section",
    "beach_dist_km": 249.2,
    "bridge_proximity_bonus": 0.0,
    "catchment_area_km2": 6.2993,
    "channel_width_m": 6.7,
    "channel_width_score": 1.0,
    "composite_score": 32.2177,
    "cso_density": 0.0,
    "ej_index": 0.3494,
    "elevation_m": 192.7254,
    "estuary_dist_km": 312.19,
    "feasibility_score": 62.5,
    "flood_q10_cfs": 792.25,
    "flow_score": 26.2227,
    "flow_velocity_ms": 0.0436,
    "generation_score": 23.0493,
    "impact_score": 31.2408,
    "impervious_pct": 3.56,
    "land_ownership": 1.0,
    "lat": 36.108,
    "litter_complaint_density": 0.0,
    "lon": -79.2479,
    "navigable_dist_m": null,
    "npdes_points": 0,
    "pixel_col": 885.0,
    "pixel_row": 332.0,
    "population_density": 326.9,
    "position_along": 0.5,
    "protected_area_score": 17.1966,
    "rank": 37,
    "road_access_m": 103.3,
    "road_access_score": 1.0,
    "road_density_km_km2": 4.27,
    "robustness_pct": 0.0,
    "runoff_coeff_C": 0.082,
    "seasonal_cv": 0.4118,
    "segment_id": 10,
    "segment_length_m": 4584.1802,
    "stream_order": 3,
    "superfund_score": 0.0018,
    "tourism_amenity_density": 0.7162,
    "tri_facility_density": 0.0,
    "usgs_mean_q_cfs": 3.387,
    "velocity_feasibility": 0.3,
    "water_intake_score": 1.9839
   },
   "type": "Feature"
  },
  {
   "geometry": {
    "coordinates": [
     -79.23956,
     36.044327
    ],
    "type": "Point"
   },
   "properties": {
    "accumulation": 33942.0,
    "bank_slope_deg": 1.76,
    "bank_slope_score": 1.0,
    "bank_slope_source": "nc-dps-lidar-dem03-cross-section",
    "beach_dist_km": 242.85,
    "bridge_proximity_bonus": 0.0,
    "catchment_area_km2": 3.3885,
    "channel_width_m": 5.18,
    "channel_width_score": 1.0,
    "composite_score": 31.7377,
    "cso_density": 0.0,
    "ej_index": 0.645,
    "elevation_m": 186.9098,
    "estuary_dist_km": 309.0,
    "feasibility_score": 49.1071,
    "flood_q10_cfs": 473.11,
    "flow_score": 23.0549,
    "flow_velocity_ms": 0.1078,
    "generation_score": 5.7726,
    "impact_score": 56.2537,
    "impervious_pct": 0.8,
    "land_ownership": 0.5,
    "lat": 36.0443,
    "litter_complaint_density": 0.0,
    "lon": -79.2396,
    "navigable_dist_m": null,
    "npdes_points": 2,
    "pixel_col": 973.0,
    "pixel_row": 1040.0,
    "population_density": 75.9,
    "position_along": 0.1667,
    "protected_area_score": 20.4076,
    "rank": 38,
    "road_access_m": 401.8,
    "road_access_score": 0.8,
    "road_density_km_km2": 1.382,
    "robustness_pct": 0.5,
    "runoff_coeff_C": 0.0572,
    "seasonal_cv": 0.4122,
    "segment_id": 33,
    "segment_length_m": 4661.9832,
    "stream_order": 3,
    "superfund_score": 0.0011,
    "tourism_amenity_density": 0.0796,
    "tri_facility_density": 0.0,
    "usgs_mean_q_cfs": 3.33,
    "velocity_feasibility": 0.7,
    "water_intake_score": 2.0702
   },
   "type": "Feature"
  },
  {
   "geometry": {
    "coordinates": [
     -79.312775,
     36.03107
    ],
    "type": "Point"
   },
   "properties": {
    "accumulation": 86856.0,
    "bank_slope_deg": 8.67,
    "bank_slope_score": 1.0,
    "bank_slope_source": "nc-dps-lidar-dem03-cross-section",
    "beach_dist_km": 245.32,
    "bridge_proximity_bonus": 0.0,
    "catchment_area_km2": 8.6711,
    "channel_width_m": 7.65,
    "channel_width_score": 1.0,
    "composite_score": 31.6779,
    "cso_density": 0.0,
    "ej_index": 0.508,
    "elevation_m": 154.6153,
    "estuary_dist_km": 314.71,
    "feasibility_score": 49.1071,
    "flood_q10_cfs": 1071.81,
    "flow_score": 35.3446,
    "flow_velocity_ms": 0.1395,
    "generation_score": 23.3193,
    "impact_score": 28.2662,
    "impervious_pct": 9.1,
    "land_ownership": 0.5,
    "lat": 36.0311,
    "litter_complaint_density": 0.0,
    "lon": -79.3128,
    "navigable_dist_m": null,
    "npdes_points": 6,
    "pixel_col": 316.0,
    "pixel_row": 1199.0,
    "population_density": 178.1,
    "position_along": 0.8333,
    "protected_area_score": 16.3804,
    "rank": 39,
    "road_access_m": 290.4,
    "road_access_score": 0.8,
    "road_density_km_km2": 1.768,
    "robustness_pct": 0.0,
    "runoff_coeff_C": 0.1319,
    "seasonal_cv": 0.4154,
    "segment_id": 30,
    "segment_length_m": 4553.7893,
    "stream_order": 3,
    "superfund_score": 0.0017,
    "tourism_amenity_density": 0.1592,
    "tri_facility_density": 0.0,
    "usgs_mean_q_cfs": 5.573,
    "velocity_feasibility": 0.7,
    "water_intake_score": 1.902
   },
   "type": "Feature"
  },
  {
   "geometry": {
    "coordinates": [
     -79.258211,
     36.029431
    ],
    "type": "Point"
   },
   "properties": {
    "accumulation": 32251.0,
    "bank_slope_deg": 12.25,
    "bank_slope_score": 1.0,
    "bank_slope_source": "nc-dps-lidar-dem03-cross-section",
    "beach_dist_km": 242.4,
    "bridge_proximity_bonus": 0.2,
    "catchment_area_km2": 3.2197,
    "channel_width_m": 5.07,
    "channel_width_score": 1.0,
    "composite_score": 31.5093,
    "cso_density": 0.0,
    "ej_index": 0.4776,
    "elevation_m": 177.1644,
    "estuary_dist_km": 310.02,
    "feasibility_score": 70.5357,
    "flood_q10_cfs": 454.44,
    "flow_score": 21.9567,
    "flow_velocity_ms": 0.1116,
    "generation_score": 5.0665,
    "impact_score": 46.3995,
    "impervious_pct": 0.7,
    "land_ownership": 0.5,
    "lat": 36.0294,
    "litter_complaint_density": 0.0,
    "lon": -79.2582,
    "navigable_dist_m": null,
    "npdes_points": 3,
    "pixel_col": 807.0,
    "pixel_row": 1208.0,
    "population_density": 69.6,
    "position_along": 0.5,
    "protected_area_score": 19.4946,
    "rank": 40,
    "road_access_m": 175.6,
    "road_access_score": 1.0,
    "road_density_km_km2": 0.809,
    "robustness_pct": 0.0,
    "runoff_coeff_C": 0.0563,
    "seasonal_cv": 0.4129,
    "segment_id": 35,
    "segment_length_m": 2972.4404,
    "stream_order": 3,
    "superfund_score": 0.0011,
    "tourism_amenity_density": 0.0,
    "tri_facility_density": 0.0,
    "usgs_mean_q_cfs": 2.508,
    "velocity_feasibility": 0.7,
    "water_intake_score": 2.0142
   },
   "type": "Feature"
  },
  {
   "geometry": {
    "coordinates": [
     -79.256569,
     36.115812
    ],
    "type": "Point"
   },
   "properties": {
    "accumulation": 76519.0,
    "bank_slope_deg": 14.45,
    "bank_slope_score": 1.0,
    "bank_slope_source": "nc-dps-lidar-dem03-cross-section",
    "beach_dist_km": 250.36,
    "bridge_proximity_bonus": 0.0,
    "catchment_area_km2": 7.6391,
    "channel_width_m": 7.25,
    "channel_width_score": 1.0,
    "composite_score": 31.4585,
    "cso_density": 0.0,
    "ej_index": 0.3003,
    "elevation_m": 177.6497,
    "estuary_dist_km": 313.24,
    "feasibility_score": 49.1071,
    "flood_q10_cfs": 916.82,
    "flow_score": 30.5323,
    "flow_velocity_ms": 0.1267,
    "generation_score": 27.4824,
    "impact_score": 27.3821,
    "impervious_pct": 3.6,
    "land_ownership": 0.5,
    "lat": 36.1158,
    "litter_complaint_density": 0.0,
    "lon": -79.2566,
    "navigable_dist_m": null,
    "npdes_points": 0,
    "pixel_col": 805.0,
    "pixel_row": 245.0,
    "population_density": 199.7,
    "position_along": 0.8333,
    "protected_area_score": 16.891,
    "rank": 41,
    "road_access_m": 308.5,
    "road_access_score": 0.8,
    "road_density_km_km2": 3.328,
    "robustness_pct": 0.0,
    "runoff_coeff_C": 0.0824,
    "seasonal_cv": 0.4116,
    "segment_id": 10,
    "segment_length_m": 4584.1802,
    "stream_order": 3,
    "superfund_score": 0.0022,
    "tourism_amenity_density": 1.1937,
    "tri_facility_density": 0.2618,
    "usgs_mean_q_cfs": 4.115,
    "velocity_feasibility": 0.7,
    "water_intake_score": 1.9496
   },
   "type": "Feature"
  },
  {
   "geometry": {
    "coordinates": [
     -79.263595,
     36.119664
    ],
    "type": "Point"
   },
   "properties": {
    "accumulation": 176951.0,
    "bank_slope_deg": 9.4,
    "bank_slope_score": 1.0,
    "bank_slope_source": "nc-dps-lidar-dem03-cross-section",
    "beach_dist_km": 251.06,
    "bridge_proximity_bonus": 0.0,
    "catchment_area_km2": 17.6656,
    "channel_width_m": 10.27,
    "channel_width_score": 1.0,
    "composite_score": 30.8702,
    "cso_density": 0.0,
    "ej_index": 0.3046,
    "elevation_m": 174.2267,
    "estuary_dist_km": 313.98,
    "feasibility_score": 40.1786,
    "flood_q10_cfs": 1444.32,
    "flow_score": 46.3407,
    "flow_velocity_ms": 0.1537,
    "generation_score": 20.4915,
    "impact_score": 23.7028,
    "impervious_pct": 2.16,
    "land_ownership": 0.5,
    "lat": 36.1197,
    "litter_complaint_density": 0.0,
    "lon": -79.2636,
    "navigable_dist_m": null,
    "npdes_points": 1,
    "pixel_col": 740.0,
    "pixel_row": 208.0,
    "population_density": 205.4,
    "position_along": 0.5,
    "protected_area_score": 16.4761,
    "rank": 42,
    "road_access_m": 553.0,
    "road_access_score": 0.6,
    "road_density_km_km2": 3.5,
    "robustness_pct": 0.0,
    "runoff_coeff_C": 0.0694,
    "seasonal_cv": 0.4197,
    "segment_id": 11,
    "segment_length_m": 938.3328,
    "stream_order": 3,
    "superfund_score": 0.0025,
    "tourism_amenity_density": 0.8754,
    "tri_facility_density": 0.1132,
    "usgs_mean_q_cfs": 9.845,
    "velocity_feasibility": 0.7,
    "water_intake_score": 1.9386
   },
   "type": "Feature"
  },
  {
   "geometry": {
    "coordinates": [
     -79.280483,
     36.030023
    ],
    "type": "Point"
   },
   "properties": {
    "accumulation": 114100.0,
    "bank_slope_deg": 10.02,
    "bank_slope_score": 1.0,
    "bank_slope_source": "nc-dps-lidar-dem03-cross-section",
    "beach_dist_km": 243.58,
    "bridge_proximity_bonus": 0.0,
    "catchment_area_km2": 11.391,
    "channel_width_m": 8.56,
    "channel_width_score": 1.0,
    "composite_score": 30.683,
    "cso_density": 0.0,
    "ej_index": 0.4795,
    "elevation_m": 164.3117,
    "estuary_dist_km": 311.93,
    "feasibility_score": 49.1071,
    "flood_q10_cfs": 1113.14,
    "flow_score": 36.7606,
    "flow_velocity_ms": 0.1442,
    "generation_score": 9.3267,
    "impact_score": 37.7627,
    "impervious_pct": 0.9,
    "land_ownership": 0.5,
    "lat": 36.03,
    "litter_complaint_density": 0.0,
    "lon": -79.2805,
    "navigable_dist_m": null,
    "npdes_points": 4,
    "pixel_col": 606.0,
    "pixel_row": 1203.0,
    "population_density": 134.4,
    "position_along": 0.5,
    "protected_area_score": 17.9086,
    "rank": 43,
    "road_access_m": 222.7,
    "road_access_score": 0.8,
    "road_density_km_km2": 1.248,
    "robustness_pct": 0.0,
    "runoff_coeff_C": 0.0581,
    "seasonal_cv": 0.4163,
    "segment_id": 36,
    "segment_length_m": 2443.8871,
    "stream_order": 3,
    "superfund_score": 0.0013,
    "tourism_amenity_density": 0.0,
    "tri_facility_density": 0.0,
    "usgs_mean_q_cfs": 6.845,
    "velocity_feasibility": 0.7,
    "water_intake_score": 1.9668
   },
   "type": "Feature"
  },
  {
   "geometry": {
    "coordinates": [
     -79.263042,
     36.031483
    ],
    "type": "Point"
   },
   "properties": {
    "accumulation": 63059.0,
    "bank_slope_deg": 12.82,
    "bank_slope_score": 1.0,
    "bank_slope_source": "nc-dps-lidar-dem03-cross-section",
    "beach_dist_km": 242.83,
    "bridge_proximity_bonus": 0.0,
    "catchment_area_km2": 6.2954,
    "channel_width_m": 6.69,
    "channel_width_score": 1.0,
    "composite_score": 30.626,
    "cso_density": 0.0,
    "ej_index": 0.4888,
    "elevation_m": 172.3323,
    "estuary_dist_km": 310.5,
    "feasibility_score": 58.0357,
    "flood_q10_cfs": 754.55,
    "flow_score": 26.3741,
    "flow_velocity_ms": 0.0966,
    "generation_score": 6.5526,
    "impact_score": 44.5377,
    "impervious_pct": 0.8,
    "land_ownership": 0.5,
    "lat": 36.0315,
    "litter_complaint_density": 0.0,
    "lon": -79.263,
    "navigable_dist_m": null,
    "npdes_points": 3,
    "pixel_col": 763.0,
    "pixel_row": 1184.0,
    "population_density": 94.6,
    "position_along": 0.8333,
    "protected_area_score": 19.0641,
    "rank": 44,
    "road_access_m": 164.2,
    "road_access_score": 1.0,
    "road_density_km_km2": 1.01,
    "robustness_pct": 0.0,
    "runoff_coeff_C": 0.0572,
    "seasonal_cv": 0.4122,
    "segment_id": 33,
    "segment_length_m": 4661.9832,
    "stream_order": 3,
    "superfund_score": 0.0012,
    "tourism_amenity_density": 0.0,
    "tri_facility_density": 0.0,
    "usgs_mean_q_cfs": 3.33,
    "velocity_feasibility": 0.7,
    "water_intake_score": 2.0063
   },
   "type": "Feature"
  },
  {
   "geometry": {
    "coordinates": [
     -79.25185,
     36.038254
    ],
    "type": "Point"
   },
   "properties": {
    "accumulation": 51268.0,
    "bank_slope_deg": 3.6,
    "bank_slope_score": 1.0,
    "bank_slope_source": "nc-dps-lidar-dem03-cross-section",
    "beach_dist_km": 242.9,
    "bridge_proximity_bonus": 0.0,
    "catchment_area_km2": 5.1182,
    "channel_width_m": 6.14,
    "channel_width_score": 1.0,
    "composite_score": 29.8073,
    "cso_density": 0.0,
    "ej_index": 0.6055,
    "elevation_m": 180.1468,
    "estuary_dist_km": 309.81,
    "feasibility_score": 40.1786,
    "flood_q10_cfs": 645.56,
    "flow_score": 25.4628,
    "flow_velocity_ms": 0.1176,
    "generation_score": 6.8389,
    "impact_score": 51.2105,
    "impervious_pct": 0.8,
    "land_ownership": 0.5,
    "lat": 36.0383,
    "litter_complaint_density": 0.0,
    "lon": -79.2518,
    "navigable_dist_m": null,
    "npdes_points": 3,
    "pixel_col": 862.0,
    "pixel_row": 1109.0,
    "population_density": 79.6,
    "position_along": 0.5,
    "protected_area_score": 19.7765,
    "rank": 45,
    "road_access_m": 698.2,
    "road_access_score": 0.6,
    "road_density_km_km2": 1.564,
    "robustness_pct": 0.0,
    "runoff_coeff_C": 0.0572,
    "seasonal_cv": 0.4122,
    "segment_id": 33,
    "segment_length_m": 4661.9832,
    "stream_order": 3,
    "superfund_score": 0.0011,
    "tourism_amenity_density": 0.0796,
    "tri_facility_density": 0.0,
    "usgs_mean_q_cfs": 3.33,
    "velocity_feasibility": 0.7,
    "water_intake_score": 2.0335
   },
   "type": "Feature"
  },
  {
   "geometry": {
    "coordinates": [
     -79.254402,
     36.058198
    ],
    "type": "Point"
   },
   "properties": {
    "accumulation": 28896.0,
    "bank_slope_deg": 1.98,
    "bank_slope_score": 1.0,
    "bank_slope_source": "nc-dps-lidar-dem03-cross-section",
    "beach_dist_km": 244.88,
    "bridge_proximity_bonus": 0.0,
    "catchment_area_km2": 2.8848,
    "channel_width_m": 4.84,
    "channel_width_score": 1.0,
    "composite_score": 29.1261,
    "cso_density": 0.0,
    "ej_index": 0.6326,
    "elevation_m": 183.3953,
    "estuary_dist_km": 310.79,
    "feasibility_score": 40.1786,
    "flood_q10_cfs": 418.19,
    "flow_score": 21.1836,
    "flow_velocity_ms": 0.113,
    "generation_score": 10.3413,
    "impact_score": 49.0033,
    "impervious_pct": 0.68,
    "land_ownership": 0.5,
    "lat": 36.0582,
    "litter_complaint_density": 0.0,
    "lon": -79.2544,
    "navigable_dist_m": null,
    "npdes_points": 6,
    "pixel_col": 837.0,
    "pixel_row": 888.0,
    "population_density": 95.8,
    "position_along": 0.5,
    "protected_area_score": 19.05,
    "rank": 46,
    "road_access_m": 541.7,
    "road_access_score": 0.6,
    "road_density_km_km2": 2.257,
    "robustness_pct": 0.0,
    "runoff_coeff_C": 0.0561,
    "seasonal_cv": 0.4117,
    "segment_id": 24,
    "segment_length_m": 1755.3456,
    "stream_order": 3,
    "superfund_score": 0.0014,
    "tourism_amenity_density": 0.0796,
    "tri_facility_density": 0.0,
    "usgs_mean_q_cfs": 2.163,
    "velocity_feasibility": 0.7,
    "water_intake_score": 2.0609
   },
   "type": "Feature"
  },
  {
   "geometry": {
    "coordinates": [
     -79.229351,
     36.027392
    ],
    "type": "Point"
   },
   "properties": {
    "accumulation": 21676.0,
    "bank_slope_deg": 6.57,
    "bank_slope_score": 1.0,
    "bank_slope_source": "nc-dps-lidar-dem03-cross-section",
    "beach_dist_km": 240.78,
    "bridge_proximity_bonus": 0.0,
    "catchment_area_km2": 2.164,
    "channel_width_m": 4.3,
    "channel_width_score": 1.0,
    "composite_score": 28.6218,
    "cso_density": 0.0,
    "ej_index": 0.3668,
    "elevation_m": 188.0086,
    "estuary_dist_km": 307.5,
    "feasibility_score": 67.8571,
    "flood_q10_cfs": 337.32,
    "flow_score": 4.7898,
    "flow_velocity_ms": 0.105,
    "generation_score": 2.3964,
    "impact_score": 55.0894,
    "impervious_pct": 0.78,
    "land_ownership": 1.0,
    "lat": 36.0274,
    "litter_complaint_density": 0.0,
    "lon": -79.2294,
    "navigable_dist_m": null,
    "npdes_points": 1,
    "pixel_col": 1069.0,
    "pixel_row": 1226.0,
    "population_density": 44.6,
    "position_along": 0.5,
    "protected_area_score": 21.5572,
    "rank": 47,
    "road_access_m": 359.1,
    "road_access_score": 0.8,
    "road_density_km_km2": 0.501,
    "robustness_pct": 0.0,
    "runoff_coeff_C": 0.057,
    "seasonal_cv": 0.4279,
    "segment_id": 38,
    "segment_length_m": 359.4053,
    "stream_order": 1,
    "superfund_score": 0.0008,
    "tourism_amenity_density": 0.0,
    "tri_facility_density": 0.0,
    "usgs_mean_q_cfs": 1.378,
    "velocity_feasibility": 0.7,
    "water_intake_score": 2.0779
   },
   "type": "Feature"
  },
  {
   "geometry": {
    "coordinates": [
     -79.20798,
     36.059932
    ],
    "type": "Point"
   },
   "properties": {
    "accumulation": 20262.0,
    "bank_slope_deg": 4.81,
    "bank_slope_score": 1.0,
    "bank_slope_source": "nc-dps-lidar-dem03-cross-section",
    "beach_dist_km": 242.77,
    "bridge_proximity_bonus": 0.0,
    "catchment_area_km2": 2.0228,
    "channel_width_m": 4.18,
    "channel_width_score": 1.0,
    "composite_score": 25.6601,
    "cso_density": 0.0,
    "ej_index": 0.3593,
    "elevation_m": 195.0363,
    "estuary_dist_km": 306.94,
    "feasibility_score": 40.1786,
    "flood_q10_cfs": 321.55,
    "flow_score": 4.0364,
    "flow_velocity_ms": 0.0805,
    "generation_score": 2.9369,
    "impact_score": 59.1438,
    "impervious_pct": 0.95,
    "land_ownership": 0.5,
    "lat": 36.0599,
    "litter_complaint_density": 0.0,
    "lon": -79.208,
    "navigable_dist_m": null,
    "npdes_points": 0,
    "pixel_col": 1257.0,
    "pixel_row": 862.0,
    "population_density": 73.5,
    "position_along": 0.5,
    "protected_area_score": 21.123,
    "rank": 48,
    "road_access_m": 690.8,
    "road_access_score": 0.6,
    "road_density_km_km2": 0.349,
    "robustness_pct": 0.0,
    "runoff_coeff_C": 0.0586,
    "seasonal_cv": 0.4285,
    "segment_id": 27,
    "segment_length_m": 72.3659,
    "stream_order": 1,
    "superfund_score": 0.0009,
    "tourism_amenity_density": 0.0,
    "tri_facility_density": 0.0,
    "usgs_mean_q_cfs": 1.352,
    "velocity_feasibility": 0.7,
    "water_intake_score": 2.2069
   },
   "type": "Feature"
  },
  {
   "geometry": {
    "coordinates": [
     -79.223645,
     36.117485
    ],
    "type": "Point"
   },
   "properties": {
    "accumulation": 25462.0,
    "bank_slope_deg": 4.37,
    "bank_slope_score": 1.0,
    "bank_slope_source": "nc-dps-lidar-dem03-cross-section",
    "beach_dist_km": 248.93,
    "bridge_proximity_bonus": 0.0,
    "catchment_area_km2": 2.542,
    "channel_width_m": 4.6,
    "channel_width_score": 1.0,
    "composite_score": 25.4642,
    "cso_density": 0.0,
    "ej_index": 0.2484,
    "elevation_m": 192.451,
    "estuary_dist_km": 310.55,
    "feasibility_score": 58.0357,
    "flood_q10_cfs": 386.26,
    "flow_score": 22.0833,
    "flow_velocity_ms": 0.0986,
    "generation_score": 10.5079,
    "impact_score": 26.9521,
    "impervious_pct": 1.59,
    "land_ownership": 0.5,
    "lat": 36.1175,
    "litter_complaint_density": 0.0,
    "lon": -79.2236,
    "navigable_dist_m": null,
    "npdes_points": 0,
    "pixel_col": 1101.0,
    "pixel_row": 225.0,
    "population_density": 150.8,
    "position_along": 0.5,
    "protected_area_score": 17.4312,
    "rank": 49,
    "road_access_m": 197.6,
    "road_access_score": 1.0,
    "road_density_km_km2": 2.54,
    "robustness_pct": 0.0,
    "runoff_coeff_C": 0.0643,
    "seasonal_cv": 0.4141,
    "segment_id": 3,
    "segment_length_m": 1078.926,
    "stream_order": 3,
    "superfund_score": 0.0013,
    "tourism_amenity_density": 0.0796,
    "tri_facility_density": 0.0,
    "usgs_mean_q_cfs": 3.498,
    "velocity_feasibility": 0.7,
    "water_intake_score": 1.9472
   },
   "type": "Feature"
  },
  {
   "geometry": {
    "coordinates": [
     -79.308404,
     36.110403
    ],
    "type": "Point"
   },
   "properties": {
    "accumulation": 24417.0,
    "bank_slope_deg": 0.0,
    "bank_slope_score": 1.0,
    "bank_slope_source": "nc-dps-lidar-dem03-cross-section",
    "beach_dist_km": 252.39,
    "bridge_proximity_bonus": 0.0,
    "catchment_area_km2": 2.4376,
    "channel_width_m": 4.52,
    "channel_width_score": 1.0,
    "composite_score": 25.1558,
    "cso_density": 0.0,
    "ej_index": 0.729,
    "elevation_m": 162.0143,
    "estuary_dist_km": 317.37,
    "feasibility_score": 34.8214,
    "flood_q10_cfs": 408.19,
    "flow_score": 5.8682,
    "flow_velocity_ms": 0.0412,
    "generation_score": 20.9006,
    "impact_score": 40.6514,
    "impervious_pct": 6.55,
    "land_ownership": 0.5,
    "lat": 36.1104,
    "litter_complaint_density": 0.0,
    "lon": -79.3084,
    "navigable_dist_m": null,
    "npdes_points": 6,
    "pixel_col": 339.0,
    "pixel_row": 315.0,
    "population_density": 181.5,
    "position_along": 0.5,
    "protected_area_score": 14.7721,
    "rank": 50,
    "road_access_m": 208.1,
    "road_access_score": 0.8,
    "road_density_km_km2": 2.124,
    "robustness_pct": 0.0,
    "runoff_coeff_C": 0.1089,
    "seasonal_cv": 0.4028,
    "segment_id": 8,
    "segment_length_m": 1716.7992,
    "stream_order": 1,
    "superfund_score": 0.0063,
    "tourism_amenity_density": 0.9549,
    "tri_facility_density": 0.0,
    "usgs_mean_q_cfs": 1.294,
    "velocity_feasibility": 0.3,
    "water_intake_score": 2.1892
   },
   "type": "Feature"
  },
  {
   "geometry": {
    "coordinates": [
     -79.252536,
     36.12138
    ],
    "type": "Point"
   },
   "properties": {
    "accumulation": 86616.0,
    "bank_slope_deg": 4.48,
    "bank_slope_score": 1.0,
    "bank_slope_source": "nc-dps-lidar-dem03-cross-section",
    "beach_dist_km": 250.68,
    "bridge_proximity_bonus": 0.0,
    "catchment_area_km2": 8.6471,
    "channel_width_m": 7.64,
    "channel_width_score": 1.0,
    "composite_score": 24.312,
    "cso_density": 0.0,
    "ej_index": 0.188,
    "elevation_m": 179.0566,
    "estuary_dist_km": 313.13,
    "feasibility_score": 49.1071,
    "flood_q10_cfs": 959.39,
    "flow_score": 32.3935,
    "flow_velocity_ms": 0.116,
    "generation_score": 7.6091,
    "impact_score": 21.8828,
    "impervious_pct": 1.19,
    "land_ownership": 0.5,
    "lat": 36.1214,
    "litter_complaint_density": 0.0,
    "lon": -79.2525,
    "navigable_dist_m": null,
    "npdes_points": 0,
    "pixel_col": 840.0,
    "pixel_row": 184.0,
    "population_density": 92.9,
    "position_along": 0.75,
    "protected_area_score": 16.8971,
    "rank": 51,
    "road_access_m": 496.1,
    "road_access_score": 0.8,
    "road_density_km_km2": 2.533,
    "robustness_pct": 0.0,
    "runoff_coeff_C": 0.0607,
    "seasonal_cv": 0.4134,
    "segment_id": 5,
    "segment_length_m": 4318.4225,
    "stream_order": 3,
    "superfund_score": 0.002,
    "tourism_amenity_density": 1.0345,
    "tri_facility_density": 0.0,
    "usgs_mean_q_cfs": 5.779,
    "velocity_feasibility": 0.7,
    "water_intake_score": 1.9119
   },
   "type": "Feature"
  },
  {
   "geometry": {
    "coordinates": [
     -79.267808,
     36.122472
    ],
    "type": "Point"
   },
   "properties": {
    "accumulation": 21766.0,
    "bank_slope_deg": 16.79,
    "bank_slope_score": 0.5,
    "bank_slope_source": "nc-dps-lidar-dem03-cross-section",
    "beach_dist_km": 251.52,
    "bridge_proximity_bonus": 0.0,
    "catchment_area_km2": 2.173,
    "channel_width_m": 4.31,
    "channel_width_score": 1.0,
    "composite_score": 23.9297,
    "cso_density": 0.0,
    "ej_index": 0.3432,
    "elevation_m": 175.2262,
    "estuary_dist_km": 314.45,
    "feasibility_score": 36.6071,
    "flood_q10_cfs": 399.85,
    "flow_score": 21.6689,
    "flow_velocity_ms": 0.1117,
    "generation_score": 21.1014,
    "impact_score": 22.3031,
    "impervious_pct": 10.32,
    "land_ownership": 0.5,
    "lat": 36.1225,
    "litter_complaint_density": 0.0,
    "lon": -79.2678,
    "navigable_dist_m": null,
    "npdes_points": 0,
    "pixel_col": 705.0,
    "pixel_row": 177.0,
    "population_density": 107.6,
    "position_along": 0.5,
    "protected_area_score": 16.4603,
    "rank": 52,
    "road_access_m": 239.4,
    "road_access_score": 0.8,
    "road_density_km_km2": 3.532,
    "robustness_pct": 0.0,
    "runoff_coeff_C": 0.1429,
    "seasonal_cv": 0.4127,
    "segment_id": 1,
    "segment_length_m": 456.8974,
    "stream_order": 3,
    "superfund_score": 0.0027,
    "tourism_amenity_density": 0.557,
    "tri_facility_density": 0.0,
    "usgs_mean_q_cfs": 1.148,
    "velocity_feasibility": 0.7,
    "water_intake_score": 1.9302
   },
   "type": "Feature"
  },
  {
   "geometry": {
    "coordinates": [
     -79.228814,
     36.11597
    ],
    "type": "Point"
   },
   "properties": {
    "accumulation": 22225.0,
    "bank_slope_deg": 0.8,
    "bank_slope_score": 1.0,
    "bank_slope_source": "nc-dps-lidar-dem03-cross-section",
    "beach_dist_km": 249.04,
    "bridge_proximity_bonus": 0.0,
    "catchment_area_km2": 2.2188,
    "channel_width_m": 4.34,
    "channel_width_score": 1.0,
    "composite_score": 23.7685,
    "cso_density": 0.0,
    "ej_index": 0.2258,
    "elevation_m": 189.8904,
    "estuary_dist_km": 310.92,
    "feasibility_score": 49.1071,
    "flood_q10_cfs": 348.64,
    "flow_score": 21.4567,
    "flow_velocity_ms": 0.0907,
    "generation_score": 11.2682,
    "impact_score": 25.526,
    "impervious_pct": 1.59,
    "land_ownership": 0.5,
    "lat": 36.116,
    "litter_complaint_density": 0.0,
    "lon": -79.2288,
    "navigable_dist_m": null,
    "npdes_points": 0,
    "pixel_col": 1057.0,
    "pixel_row": 239.0,
    "population_density": 138.0,
    "position_along": 0.5,
    "protected_area_score": 17.1815,
    "rank": 53,
    "road_access_m": 247.1,
    "road_access_score": 0.8,
    "road_density_km_km2": 3.328,
    "robustness_pct": 0.0,
    "runoff_coeff_C": 0.0643,
    "seasonal_cv": 0.4141,
    "segment_id": 4,
    "segment_length_m": 88.2106,
    "stream_order": 3,
    "superfund_score": 0.0014,
    "tourism_amenity_density": 0.0796,
    "tri_facility_density": 0.0,
    "usgs_mean_q_cfs": 3.498,
    "velocity_feasibility": 0.7,
    "water_intake_score": 1.9496
   },
   "type": "Feature"
  },
  {
   "geometry": {
    "coordinates": [
     -79.236739,
     36.119466
    ],
    "type": "Point"
   },
   "properties": {
    "accumulation": 61494.0,
    "bank_slope_deg": 10.47,
    "bank_slope_score": 1.0,
    "bank_slope_source": "nc-dps-lidar-dem03-cross-section",
    "beach_dist_km": 249.74,
    "bridge_proximity_bonus": 0.0,
    "catchment_area_km2": 6.1391,
    "channel_width_m": 6.63,
    "channel_width_score": 1.0,
    "composite_score": 23.5852,
    "cso_density": 0.0,
    "ej_index": 0.1617,
    "elevation_m": 186.4772,
    "estuary_dist_km": 311.73,
    "feasibility_score": 49.1071,
    "flood_q10_cfs": 750.7,
    "flow_score": 26.955,
    "flow_velocity_ms": 0.112,
    "generation_score": 9.3458,
    "impact_score": 22.2553,
    "impervious_pct": 1.59,
    "land_ownership": 0.5,
    "lat": 36.1195,
    "litter_complaint_density": 0.0,
    "lon": -79.2367,
    "navigable_dist_m": null,
    "npdes_points": 0,
    "pixel_col": 982.0,
    "pixel_row": 201.0,
    "population_density": 96.7,
    "position_along": 0.25,
    "protected_area_score": 16.9601,
    "rank": 54,
    "road_access_m": 221.6,
    "road_access_score": 0.8,
    "road_density_km_km2": 3.197,
    "robustness_pct": 0.0,
    "runoff_coeff_C": 0.0643,
    "seasonal_cv": 0.4141,
    "segment_id": 5,
    "segment_length_m": 4318.4225,
    "stream_order": 3,
    "superfund_score": 0.0016,
    "tourism_amenity_density": 0.557,
    "tri_facility_density": 0.0,
    "usgs_mean_q_cfs": 3.498,
    "velocity_feasibility": 0.7,
    "water_intake_score": 1.92
   },
   "type": "Feature"
  },
  {
   "geometry": {
    "coordinates": [
     -79.313456,
     36.035535
    ],
    "type": "Point"
   },
   "properties": {
    "accumulation": 27212.0,
    "bank_slope_deg": 14.23,
    "bank_slope_score": 1.0,
    "bank_slope_source": "nc-dps-lidar-dem03-cross-section",
    "beach_dist_km": 245.76,
    "bridge_proximity_bonus": 0.0,
    "catchment_area_km2": 2.7167,
    "channel_width_m": 4.72,
    "channel_width_score": 1.0,
    "composite_score": 23.1602,
    "cso_density": 0.0,
    "ej_index": 0.5195,
    "elevation_m": 157.4022,
    "estuary_dist_km": 314.93,
    "feasibility_score": 49.1071,
    "flood_q10_cfs": 419.61,
    "flow_score": 7.6708,
    "flow_velocity_ms": 0.1343,
    "generation_score": 17.2582,
    "impact_score": 28.9965,
    "impervious_pct": 3.46,
    "land_ownership": 0.5,
    "lat": 36.0355,
    "litter_complaint_density": 0.0,
    "lon": -79.3135,
    "navigable_dist_m": null,
    "npdes_points": 4,
    "pixel_col": 311.0,
    "pixel_row": 1150.0,
    "population_density": 201.4,
    "position_along": 0.5,
    "protected_area_score": 16.3745,
    "rank": 55,
    "road_access_m": 276.7,
    "road_access_score": 0.8,
    "road_density_km_km2": 2.474,
    "robustness_pct": 0.0,
    "runoff_coeff_C": 0.0811,
    "seasonal_cv": 0.3986,
    "segment_id": 34,
    "segment_length_m": 116.4712,
    "stream_order": 1,
    "superfund_score": 0.0019,
    "tourism_amenity_density": 0.1592,
    "tri_facility_density": 0.0,
    "usgs_mean_q_cfs": 1.362,
    "velocity_feasibility": 0.7,
    "water_intake_score": 1.9221
   },
   "type": "Feature"
  },
  {
   "geometry": {
    "coordinates": [
     -79.295585,
     36.133959
    ],
    "type": "Point"
   },
   "properties": {
    "accumulation": 24936.0,
    "bank_slope_deg": 0.0,
    "bank_slope_score": 1.0,
    "bank_slope_source": "nc-dps-lidar-dem03-cross-section",
    "beach_dist_km": 253.95,
    "bridge_proximity_bonus": 0.0,
    "catchment_area_km2": 2.4894,
    "channel_width_m": 4.56,
    "channel_width_score": 1.0,
    "composite_score": 15.9703,
    "cso_density": 0.0,
    "ej_index": 0.3326,
    "elevation_m": 161.931,
    "estuary_dist_km": 317.24,
    "feasibility_score": 37.5,
    "flood_q10_cfs": 369.8,
    "flow_score": 26.5975,
    "flow_velocity_ms": 0.5,
    "generation_score": 1.7982,
    "impact_score": 10.5216,
    "impervious_pct": null,
    "land_ownership": 0.5,
    "lat": 36.134,
    "litter_complaint_density": 0.0,
    "lon": -79.2956,
    "navigable_dist_m": null,
    "npdes_points": 1,
    "pixel_col": 453.0,
    "pixel_row": 50.0,
    "population_density": 73.2,
    "position_along": 0.5,
    "protected_area_score": 13.9532,
    "rank": 56,
    "road_access_m": 1103.7,
    "road_access_score": 0.3,
    "road_density_km_km2": 0.0,
    "robustness_pct": 0.0,
    "runoff_coeff_C": null,
    "seasonal_cv": null,
    "segment_id": 0,
    "segment_length_m": 912.4965,
    "stream_order": 1,
    "superfund_score": 0.0048,
    "tourism_amenity_density": 0.0,
    "tri_facility_density": 0.0,
    "usgs_mean_q_cfs": null,
    "velocity_feasibility": 1.0,
    "water_intake_score": 1.9236
   },
   "type": "Feature"
  }
 ],
 "note": "GRIME region 'Mebane, NC' \u2014 real-data pipeline (DEM\u2192streams\u2192candidates\u2192stream mask (sites confined to \u00b1150 m of mapped OSM/NHD waterways)\u2192region-appropriate real parameters\u2192shipped scoring, math unchanged). Width curve: Bieger et al. 2015 JAWRA Table 3, Appalachian Highlands. Flood: SIR 2014-5030 HR1. NC Piedmont (DEQ physiography polygon)",
 "provenance": {
  "candidates_pre_gate": 56,
  "constant": [
   "channel_width_score",
   "cso_density",
   "litter_complaint_density"
  ],
  "gated_navigable": 0,
  "hard_gate_removed": 0,
  "n_parameters": 27,
  "parameters": {
   "bank_slope_score": {
    "kind": "real",
    "n_3dep_10m_fallback": 0,
    "n_nc_lidar_3_125ft": 56,
    "n_real": 56,
    "n_sites": 56,
    "source": "NC OneMap / NC DPS DEM03 statewide lidar-derived 3.125-ft (0.953 m) elevations (perpendicular 50 m transect; robust 5 m bank-rise metric); unavailable profiles use the region 10 m 3DEP DEM-gradient fallback",
    "source_mosaics": [
     "Alamance_QL1_2024_03ft_CountywideRaster",
     "Orange_2024_QL1_03ft_CountywideRaster"
    ]
   },
   "beach_dist_km": {
    "kind": "real",
    "n_real": 56,
    "n_sites": 56,
    "source": "haversine to region ref: Wrightsville Beach (shipped NC reference)"
   },
   "bridge_proximity_bonus": {
    "kind": "real",
    "n_real": 56,
    "n_sites": 56,
    "source": "FHWA/BTS NBI (NTAD), 50 m proximity"
   },
   "catchment_area_km2": {
    "kind": "real",
    "n_real": 56,
    "n_sites": 56,
    "source": "DEM flow accumulation (pipeline)"
   },
   "channel_width_score": {
    "kind": "real",
    "n_real": 56,
    "n_sites": 56,
    "source": "Bieger 2015 AHI width curve on DEM drainage area \u2192 shipped width curve"
   },
   "cso_density": {
    "kind": "real",
    "n_real": 56,
    "n_sites": 56,
    "source": "EPA ECHO open CSO/TCS outfall PF coordinates states=NC, Cauchy proximity"
   },
   "ej_index": {
    "kind": "real",
    "n_real": 56,
    "n_sites": 56,
    "source": "Census ACS C17002+B03002 two-component demographic index, percentile-ranked within region"
   },
   "estuary_dist_km": {
    "kind": "real",
    "n_real": 56,
    "n_sites": 56,
    "source": "haversine to region ref: Pamlico Sound (shipped NC reference)"
   },
   "flood_q10_cfs": {
    "impervious_fallback_reason": "StreamCat imperviousness unavailable; the existing regression-input fallback of 0.0% impervious was used and is disclosed here",
    "kind": "real",
    "n_impervious_fallback": 4,
    "n_real": 56,
    "n_sites": 56,
    "source": "USGS SIR 2014-5030 Table 7 HR1 (NC Piedmont)"
   },
   "flow_velocity_ms": {
    "fallback_reason": "EROM/DEM continuity input unavailable; shipped 0.5 m/s default used",
    "kind": "real",
    "n_fallback": 4,
    "n_real": 52,
    "n_sites": 56,
    "source": "Manning (region DEM/D8) blended with EROM continuity (shipped M4 logic)"
   },
   "impervious_pct": {
    "fallback_reason": "NLDI/StreamCat did not return a snap-compatible catchment value; value remains null and is removed by constant-column handling",
    "kind": "real",
    "n_fallback": 4,
    "n_real": 52,
    "n_sites": 56,
    "source": "EPA StreamCat pctimp2019 (per NHDPlus watershed)"
   },
   "land_ownership": {
    "fallback_reason": "no containing parcel owner returned; shipped unknown ownership 0.5 used",
    "kind": "real",
    "n_fallback": 9,
    "n_real": 47,
    "n_sites": 56,
    "source": "NC OneMap statewide parcels (NC Parcels Transformer) ownname"
   },
   "litter_complaint_density": {
    "kind": "fallback",
    "n_real": 0,
    "n_sites": 56,
    "source": "no public machine-readable litter/illegal-dumping feed for this region"
   },
   "navigable_dist_m": {
    "kind": "real",
    "n_real": 56,
    "n_sites": 56,
    "source": "USACE/BTS NWN (NTAD): no navigable segment within this bbox (+2 km) \u2014 computed absence, gate passes all sites"
   },
   "npdes_points": {
    "kind": "real",
    "n_real": 56,
    "n_sites": 56,
    "source": "EPA ECHO active NPDES outfalls states=NC (types NPD/GPC/NGP; statuses ADC/EFF/EXP), per catchment"
   },
   "population_density": {
    "kind": "real",
    "n_real": 56,
    "n_sites": 56,
    "source": "Census ACS 2022 B01003 block groups (bbox, multi-county), area-weighted"
   },
   "protected_area_score": {
    "kind": "real",
    "n_real": 56,
    "n_sites": 56,
    "source": "USGS PAD-US 4.1 state GDB; states=NC; shipped designation-weighted proximity curve"
   },
   "road_access_score": {
    "kind": "real",
    "n_real": 56,
    "n_sites": 56,
    "source": "OSM drive network nearest-node distance"
   },
   "road_density_km_km2": {
    "kind": "real",
    "n_real": 56,
    "n_sites": 56,
    "source": "OSM drive network (osmnx, cached) clipped per catchment"
   },
   "runoff_coeff_C": {
    "fallback_reason": "source impervious_pct was unavailable; derived value remains null",
    "kind": "real",
    "n_fallback": 4,
    "n_real": 52,
    "n_sites": 56,
    "source": "derived from real impervious_pct (C=0.05+0.009*I)"
   },
   "seasonal_cv": {
    "fallback_reason": "NHDPlus monthly EROM was unavailable or failed the drainage-area snap guard; value remains null",
    "kind": "real",
    "n_fallback": 4,
    "n_real": 52,
    "n_sites": 56,
    "source": "CV of NHDPlus EROM monthly flows per COMID"
   },
   "stream_order": {
    "kind": "real",
    "n_real": 56,
    "n_sites": 56,
    "source": "DEM stream-network confluence heuristic (pipeline)"
   },
   "superfund_score": {
    "kind": "real",
    "n_real": 56,
    "n_sites": 56,
    "source": "EPA DataMap SEMS active sites states=NC (non-archived, georeferenced), shipped 500 m inverse-distance curve"
   },
   "tourism_amenity_density": {
    "kind": "real",
    "n_real": 56,
    "n_sites": 56,
    "source": "OSM leisure/tourism features per 2 km radius"
   },
   "tri_facility_density": {
    "kind": "real",
    "n_real": 56,
    "n_sites": 56,
    "source": "EPA DataMap TRI open facilities states=NC (preferred decimal or packed-DMS recovery), per catchment"
   },
   "usgs_mean_q_cfs": {
    "fallback_reason": "NHDPlus EROM was unavailable or failed the drainage-area snap guard; value remains null",
    "kind": "real",
    "n_fallback": 4,
    "n_real": 52,
    "n_sites": 56,
    "source": "NHDPlus EROM qe_ma per COMID (snap-guarded)"
   },
   "velocity_feasibility": {
    "fallback_reason": "derived from the shipped 0.5 m/s velocity fallback",
    "kind": "real",
    "n_fallback": 4,
    "n_real": 52,
    "n_sites": 56,
    "source": "shipped step curve on the computed velocity"
   },
   "velocity_transport_favorability": {
    "fallback_reason": "EROM/DEM continuity input unavailable; shipped 0.5 m/s default used",
    "kind": "derived",
    "n_fallback": 4,
    "n_real": 52,
    "n_sites": 56,
    "source": "scored form of flow_velocity_ms inside the Flow family \u2014 peaked Gaussian exp(-((v-0.9)/0.6)^2), model.json curves.velocity_transport_favorability; construct: transport/delivery favorability, deliberately distinct from velocity_feasibility (device operability)"
   },
   "water_intake_score": {
    "kind": "real",
    "n_real": 56,
    "n_sites": 56,
    "source": "NC OneMap / NC DEQ SWAP public water supply sources (source_typ='Surface Water'), shipped exp(-d/10km) curve"
   }
  },
  "stream_mask": {
   "buffer_m": 150.0,
   "pre_mask": 56,
   "removed": 0,
   "sources": [
    "osm-overpass (all waterway ways)",
    "usgs-nhdplus flowlines"
   ]
  },
  "varying": [
   "bank_slope_score",
   "beach_dist_km",
   "bridge_proximity_bonus",
   "catchment_area_km2",
   "ej_index",
   "estuary_dist_km",
   "flood_q10_cfs",
   "flow_velocity_ms",
   "impervious_pct",
   "land_ownership",
   "npdes_points",
   "population_density",
   "protected_area_score",
   "road_access_score",
   "road_density_km_km2",
   "runoff_coeff_C",
   "seasonal_cv",
   "stream_order",
   "superfund_score",
   "tourism_amenity_density",
   "tri_facility_density",
   "usgs_mean_q_cfs",
   "velocity_feasibility",
   "water_intake_score"
  ]
 },
 "region": {
  "bbox": [
   -79.3457,
   36.0259,
   -79.2077,
   36.1374
  ],
  "beach_ref": {
   "label": "Wrightsville Beach (shipped NC reference)",
   "lat": 34.21,
   "lon": -77.79
  },
  "center": [
   -79.276742,
   36.081679
  ],
  "estuary_ref": {
   "label": "Pamlico Sound (shipped NC reference)",
   "lat": 35.05,
   "lon": -76.05
  },
  "flood_method": "sir2014_hr1",
  "name": "Mebane, NC",
  "notes": "NC Piedmont (DEQ physiography polygon)",
  "slug": "mebane",
  "state": "NC",
  "utm_epsg": 32617,
  "width_curve": {
   "a": 3.12,
   "b": 0.415,
   "code": "AHI",
   "source": "Bieger et al. 2015 JAWRA Table 3, Appalachian Highlands"
  }
 },
 "type": "FeatureCollection"
}
