{
 "features": [
  {
   "geometry": {
    "coordinates": [
     -78.308763,
     36.390011
    ],
    "type": "Point"
   },
   "properties": {
    "accumulation": 40756.0,
    "bank_slope_deg": 9.69,
    "bank_slope_score": 1.0,
    "bank_slope_source": "nc-dps-lidar-dem03-cross-section",
    "beach_dist_km": 246.93,
    "bridge_proximity_bonus": 0.0,
    "catchment_area_km2": 4.0637,
    "channel_width_m": 5.58,
    "channel_width_score": 1.0,
    "composite_score": 53.7056,
    "cso_density": 0.0,
    "ej_index": 0.3571,
    "elevation_m": 109.6657,
    "estuary_dist_km": 252.54,
    "feasibility_score": 28.5714,
    "flood_q10_cfs": 561.86,
    "flow_score": 74.4186,
    "flow_velocity_ms": 0.0926,
    "generation_score": 37.5,
    "impact_score": 65.2174,
    "impervious_pct": 2.8,
    "land_ownership": 0.5,
    "lat": 36.39,
    "litter_complaint_density": 0.0,
    "lon": -78.3088,
    "navigable_dist_m": null,
    "npdes_points": 0,
    "pixel_col": 341.0,
    "pixel_row": 299.0,
    "population_density": 37.6,
    "position_along": 0.5,
    "protected_area_score": 5.751,
    "rank": 1,
    "road_access_m": 1053.1,
    "road_access_score": 0.3,
    "road_density_km_km2": 0.078,
    "robustness_pct": 100.0,
    "runoff_coeff_C": 0.0752,
    "seasonal_cv": 0.4096,
    "segment_id": 2,
    "segment_length_m": 2715.1,
    "stream_order": 1,
    "superfund_score": 0.0,
    "tourism_amenity_density": 0.3183,
    "tri_facility_density": 0.0,
    "usgs_mean_q_cfs": 5.061,
    "velocity_feasibility": 0.7,
    "water_intake_score": 0.6012
   },
   "type": "Feature"
  },
  {
   "geometry": {
    "coordinates": [
     -78.340437,
     36.411785
    ],
    "type": "Point"
   },
   "properties": {
    "accumulation": 28419.0,
    "bank_slope_deg": 0.04,
    "bank_slope_score": 1.0,
    "bank_slope_source": "nc-dps-lidar-dem03-cross-section",
    "beach_dist_km": 249.87,
    "bridge_proximity_bonus": 0.0,
    "catchment_area_km2": 2.8336,
    "channel_width_m": 4.81,
    "channel_width_score": 1.0,
    "composite_score": 51.2624,
    "cso_density": 0.0,
    "ej_index": 0.1429,
    "elevation_m": 111.0247,
    "estuary_dist_km": 256.25,
    "feasibility_score": 100.0,
    "flood_q10_cfs": 435.51,
    "flow_score": 27.9463,
    "flow_velocity_ms": 0.1141,
    "generation_score": 62.5,
    "impact_score": 35.0859,
    "impervious_pct": 3.77,
    "land_ownership": 0.5,
    "lat": 36.4118,
    "litter_complaint_density": 0.0,
    "lon": -78.3404,
    "navigable_dist_m": null,
    "npdes_points": 0,
    "pixel_col": 48.0,
    "pixel_row": 65.0,
    "population_density": 16.2,
    "position_along": 0.5,
    "protected_area_score": 4.5284,
    "rank": 2,
    "road_access_m": 286.8,
    "road_access_score": 0.8,
    "road_density_km_km2": 0.919,
    "robustness_pct": 100.0,
    "runoff_coeff_C": 0.0839,
    "seasonal_cv": 0.4109,
    "segment_id": 1,
    "segment_length_m": 1496.3422,
    "stream_order": 1,
    "superfund_score": 0.0,
    "tourism_amenity_density": 0.3979,
    "tri_facility_density": 0.0,
    "usgs_mean_q_cfs": 2.798,
    "velocity_feasibility": 0.7,
    "water_intake_score": 0.805
   },
   "type": "Feature"
  },
  {
   "geometry": {
    "coordinates": [
     -78.317616,
     36.416168
    ],
    "type": "Point"
   },
   "properties": {
    "accumulation": 29406.0,
    "bank_slope_deg": 28.08,
    "bank_slope_score": 0.5,
    "bank_slope_source": "nc-dps-lidar-dem03-cross-section",
    "beach_dist_km": 249.94,
    "bridge_proximity_bonus": 0.0,
    "catchment_area_km2": 2.932,
    "channel_width_m": 4.88,
    "channel_width_score": 1.0,
    "composite_score": 34.624,
    "cso_density": 0.0,
    "ej_index": 0.2408,
    "elevation_m": 103.0318,
    "estuary_dist_km": 254.88,
    "feasibility_score": 71.4286,
    "flood_q10_cfs": 439.73,
    "flow_score": 21.1434,
    "flow_velocity_ms": 0.1393,
    "generation_score": 28.2138,
    "impact_score": 33.8656,
    "impervious_pct": 2.85,
    "land_ownership": 0.5,
    "lat": 36.4162,
    "litter_complaint_density": 0.0,
    "lon": -78.3176,
    "navigable_dist_m": null,
    "npdes_points": 0,
    "pixel_col": 251.0,
    "pixel_row": 11.0,
    "population_density": 26.0,
    "position_along": 0.5,
    "protected_area_score": 4.8915,
    "rank": 3,
    "road_access_m": 457.0,
    "road_access_score": 0.8,
    "road_density_km_km2": 0.437,
    "robustness_pct": 100.0,
    "runoff_coeff_C": 0.0756,
    "seasonal_cv": 0.4157,
    "segment_id": 0,
    "segment_length_m": 226.9477,
    "stream_order": 1,
    "superfund_score": 0.0,
    "tourism_amenity_density": 0.3183,
    "tri_facility_density": 0.0,
    "usgs_mean_q_cfs": 2.429,
    "velocity_feasibility": 0.7,
    "water_intake_score": 0.7217
   },
   "type": "Feature"
  }
 ],
 "note": "GRIME region 'Middleburg, NC' \u2014 real-data pipeline (DEM\u2192streams\u2192candidates\u2192stream mask (sites confined to \u00b1150 m of mapped OSM/NHD waterways)\u2192region-appropriate real parameters\u2192shipped scoring, math unchanged). Width curve: Bieger et al. 2015 JAWRA Table 3, Appalachian Highlands. Flood: SIR 2014-5030 HR1. NC Piedmont (DEQ physiography polygon)",
 "provenance": {
  "candidates_pre_gate": 3,
  "constant": [
   "bridge_proximity_bonus",
   "channel_width_score",
   "cso_density",
   "land_ownership",
   "litter_complaint_density",
   "npdes_points",
   "stream_order",
   "superfund_score",
   "tri_facility_density",
   "velocity_feasibility"
  ],
  "gated_navigable": 0,
  "hard_gate_removed": 0,
  "n_parameters": 27,
  "parameters": {
   "bank_slope_score": {
    "kind": "real",
    "n_3dep_10m_fallback": 0,
    "n_nc_lidar_3_125ft": 3,
    "n_real": 3,
    "n_sites": 3,
    "source": "NC OneMap / NC DPS DEM03 statewide lidar-derived 3.125-ft (0.953 m) elevations (perpendicular 50 m transect; robust 5 m bank-rise metric); unavailable profiles use the region 10 m 3DEP DEM-gradient fallback",
    "source_mosaics": [
     "Vance_Ground_3ft"
    ]
   },
   "beach_dist_km": {
    "kind": "real",
    "n_real": 3,
    "n_sites": 3,
    "source": "haversine to region ref: Wrightsville Beach (shipped NC reference)"
   },
   "bridge_proximity_bonus": {
    "kind": "real",
    "n_real": 3,
    "n_sites": 3,
    "source": "FHWA/BTS NBI (NTAD), 50 m proximity"
   },
   "catchment_area_km2": {
    "kind": "real",
    "n_real": 3,
    "n_sites": 3,
    "source": "DEM flow accumulation (pipeline)"
   },
   "channel_width_score": {
    "kind": "real",
    "n_real": 3,
    "n_sites": 3,
    "source": "Bieger 2015 AHI width curve on DEM drainage area \u2192 shipped width curve"
   },
   "cso_density": {
    "kind": "real",
    "n_real": 3,
    "n_sites": 3,
    "source": "EPA ECHO open CSO/TCS outfall PF coordinates states=NC, Cauchy proximity"
   },
   "ej_index": {
    "kind": "real",
    "n_real": 3,
    "n_sites": 3,
    "source": "Census ACS C17002+B03002 two-component demographic index, percentile-ranked within region"
   },
   "estuary_dist_km": {
    "kind": "real",
    "n_real": 3,
    "n_sites": 3,
    "source": "haversine to region ref: Pamlico Sound (shipped NC reference)"
   },
   "flood_q10_cfs": {
    "kind": "real",
    "n_real": 3,
    "n_sites": 3,
    "source": "USGS SIR 2014-5030 Table 7 HR1 (NC Piedmont)"
   },
   "flow_velocity_ms": {
    "kind": "real",
    "n_fallback": 0,
    "n_real": 3,
    "n_sites": 3,
    "source": "Manning (region DEM/D8) blended with EROM continuity (shipped M4 logic)"
   },
   "impervious_pct": {
    "kind": "real",
    "n_real": 3,
    "n_sites": 3,
    "source": "EPA StreamCat pctimp2019 (per NHDPlus watershed)"
   },
   "land_ownership": {
    "kind": "real",
    "n_fallback": 0,
    "n_real": 3,
    "n_sites": 3,
    "source": "NC OneMap statewide parcels (NC Parcels Transformer) ownname"
   },
   "litter_complaint_density": {
    "kind": "fallback",
    "n_real": 0,
    "n_sites": 3,
    "source": "no public machine-readable litter/illegal-dumping feed for this region"
   },
   "navigable_dist_m": {
    "kind": "real",
    "n_real": 3,
    "n_sites": 3,
    "source": "USACE/BTS NWN (NTAD): no navigable segment within this bbox (+2 km) \u2014 computed absence, gate passes all sites"
   },
   "npdes_points": {
    "kind": "real",
    "n_real": 3,
    "n_sites": 3,
    "source": "EPA ECHO active NPDES outfalls states=NC (types NPD/GPC/NGP; statuses ADC/EFF/EXP), per catchment"
   },
   "population_density": {
    "kind": "real",
    "n_real": 3,
    "n_sites": 3,
    "source": "Census ACS 2022 B01003 block groups (bbox, multi-county), area-weighted"
   },
   "protected_area_score": {
    "kind": "real",
    "n_real": 3,
    "n_sites": 3,
    "source": "USGS PAD-US 4.1 state GDB; states=NC; shipped designation-weighted proximity curve"
   },
   "road_access_score": {
    "kind": "real",
    "n_real": 3,
    "n_sites": 3,
    "source": "OSM drive network nearest-node distance"
   },
   "road_density_km_km2": {
    "kind": "real",
    "n_real": 3,
    "n_sites": 3,
    "source": "OSM drive network (osmnx, cached) clipped per catchment"
   },
   "runoff_coeff_C": {
    "kind": "real",
    "n_real": 3,
    "n_sites": 3,
    "source": "derived from real impervious_pct (C=0.05+0.009*I)"
   },
   "seasonal_cv": {
    "kind": "real",
    "n_real": 3,
    "n_sites": 3,
    "source": "CV of NHDPlus EROM monthly flows per COMID"
   },
   "stream_order": {
    "kind": "real",
    "n_real": 3,
    "n_sites": 3,
    "source": "DEM stream-network confluence heuristic (pipeline)"
   },
   "superfund_score": {
    "kind": "real",
    "n_real": 3,
    "n_sites": 3,
    "source": "EPA DataMap SEMS active sites states=NC (non-archived, georeferenced), shipped 500 m inverse-distance curve"
   },
   "tourism_amenity_density": {
    "kind": "real",
    "n_real": 3,
    "n_sites": 3,
    "source": "OSM leisure/tourism features per 2 km radius"
   },
   "tri_facility_density": {
    "kind": "real",
    "n_real": 3,
    "n_sites": 3,
    "source": "EPA DataMap TRI open facilities states=NC (preferred decimal or packed-DMS recovery), per catchment"
   },
   "usgs_mean_q_cfs": {
    "kind": "real",
    "n_real": 3,
    "n_sites": 3,
    "source": "NHDPlus EROM qe_ma per COMID (snap-guarded)"
   },
   "velocity_feasibility": {
    "kind": "real",
    "n_fallback": 0,
    "n_real": 3,
    "n_sites": 3,
    "source": "shipped step curve on the computed velocity"
   },
   "velocity_transport_favorability": {
    "kind": "derived",
    "n_real": 3,
    "n_sites": 3,
    "source": "scored form of flow_velocity_ms inside the Flow family \u2014 peaked Gaussian exp(-((v-0.9)/0.6)^2), model.json curves.velocity_transport_favorability; construct: transport/delivery favorability, deliberately distinct from velocity_feasibility (device operability)"
   },
   "water_intake_score": {
    "kind": "real",
    "n_real": 3,
    "n_sites": 3,
    "source": "NC OneMap / NC DEQ SWAP public water supply sources (source_typ='Surface Water'), shipped exp(-d/10km) curve"
   }
  },
  "stream_mask": {
   "buffer_m": 150.0,
   "pre_mask": 3,
   "removed": 0,
   "sources": [
    "osm-overpass (all waterway ways)",
    "usgs-nhdplus flowlines"
   ]
  },
  "varying": [
   "bank_slope_score",
   "beach_dist_km",
   "catchment_area_km2",
   "ej_index",
   "estuary_dist_km",
   "flood_q10_cfs",
   "flow_velocity_ms",
   "impervious_pct",
   "population_density",
   "protected_area_score",
   "road_access_score",
   "road_density_km_km2",
   "runoff_coeff_C",
   "seasonal_cv",
   "tourism_amenity_density",
   "usgs_mean_q_cfs",
   "water_intake_score"
  ]
 },
 "region": {
  "bbox": [
   -78.3458,
   36.3809,
   -78.3011,
   36.417
  ],
  "beach_ref": {
   "label": "Wrightsville Beach (shipped NC reference)",
   "lat": 34.21,
   "lon": -77.79
  },
  "center": [
   -78.323436,
   36.398941
  ],
  "estuary_ref": {
   "label": "Pamlico Sound (shipped NC reference)",
   "lat": 35.05,
   "lon": -76.05
  },
  "flood_method": "sir2014_hr1",
  "name": "Middleburg, NC",
  "notes": "NC Piedmont (DEQ physiography polygon)",
  "slug": "middleburg",
  "state": "NC",
  "utm_epsg": 32617,
  "width_curve": {
   "a": 3.12,
   "b": 0.415,
   "code": "AHI",
   "source": "Bieger et al. 2015 JAWRA Table 3, Appalachian Highlands"
  }
 },
 "type": "FeatureCollection"
}
