{
 "features": [
  {
   "geometry": {
    "coordinates": [
     -80.504117,
     35.222655
    ],
    "type": "Point"
   },
   "properties": {
    "accumulation": 195226.0,
    "bank_slope_deg": 8.14,
    "bank_slope_score": 1.0,
    "bank_slope_source": "nc-dps-lidar-dem03-cross-section",
    "beach_dist_km": 272.42,
    "bridge_proximity_bonus": 0.0,
    "catchment_area_km2": 19.4812,
    "channel_width_m": 10.7,
    "channel_width_score": 1.0,
    "composite_score": 50.8812,
    "cso_density": 0.0,
    "ej_index": 0.3499,
    "elevation_m": 143.8174,
    "estuary_dist_km": 405.45,
    "feasibility_score": 66.4286,
    "flood_q10_cfs": 1594.11,
    "flow_score": 39.5831,
    "flow_velocity_ms": 0.1229,
    "generation_score": 58.5848,
    "impact_score": 44.8189,
    "impervious_pct": 5.38,
    "land_ownership": 0.5,
    "lat": 35.2227,
    "litter_complaint_density": 0.0,
    "lon": -80.5041,
    "navigable_dist_m": null,
    "npdes_points": 23,
    "pixel_col": 892.0,
    "pixel_row": 943.0,
    "population_density": 77.8,
    "position_along": 0.25,
    "protected_area_score": 12.1591,
    "rank": 1,
    "road_access_m": 138.4,
    "road_access_score": 1.0,
    "road_density_km_km2": 1.616,
    "robustness_pct": 86.0,
    "runoff_coeff_C": 0.0984,
    "seasonal_cv": 0.4681,
    "segment_id": 23,
    "segment_length_m": 3740.3671,
    "stream_order": 3,
    "superfund_score": 0.034,
    "tourism_amenity_density": 0.1592,
    "tri_facility_density": 0.154,
    "usgs_mean_q_cfs": 10.984,
    "velocity_feasibility": 0.7,
    "water_intake_score": 0.5903
   },
   "type": "Feature"
  },
  {
   "geometry": {
    "coordinates": [
     -80.589388,
     35.305698
    ],
    "type": "Point"
   },
   "properties": {
    "accumulation": 122161.0,
    "bank_slope_deg": 20.52,
    "bank_slope_score": 0.5,
    "bank_slope_source": "nc-dps-lidar-dem03-cross-section",
    "beach_dist_km": 283.26,
    "bridge_proximity_bonus": 0.0,
    "catchment_area_km2": 12.1902,
    "channel_width_m": 8.81,
    "channel_width_score": 1.0,
    "composite_score": 49.4376,
    "cso_density": 0.0,
    "ej_index": 0.3616,
    "elevation_m": 161.4999,
    "estuary_dist_km": 413.51,
    "feasibility_score": 52.6389,
    "flood_q10_cfs": 1279.09,
    "flow_score": 51.1182,
    "flow_velocity_ms": 0.047,
    "generation_score": 47.9768,
    "impact_score": 47.8973,
    "impervious_pct": 8.24,
    "land_ownership": 1.0,
    "lat": 35.3057,
    "litter_complaint_density": 0.0,
    "lon": -80.5894,
    "navigable_dist_m": null,
    "npdes_points": 0,
    "pixel_col": 111.0,
    "pixel_row": 24.0,
    "population_density": 253.4,
    "position_along": 0.875,
    "protected_area_score": 12.9513,
    "rank": 2,
    "road_access_m": 731.3,
    "road_access_score": 0.6,
    "road_density_km_km2": 1.027,
    "robustness_pct": 97.0,
    "runoff_coeff_C": 0.1242,
    "seasonal_cv": 0.502,
    "segment_id": 14,
    "segment_length_m": 6562.2974,
    "stream_order": 3,
    "superfund_score": 0.0204,
    "tourism_amenity_density": 0.3183,
    "tri_facility_density": 0.0,
    "usgs_mean_q_cfs": 47.505,
    "velocity_feasibility": 0.3,
    "water_intake_score": 1.0713
   },
   "type": "Feature"
  },
  {
   "geometry": {
    "coordinates": [
     -80.545421,
     35.217874
    ],
    "type": "Point"
   },
   "properties": {
    "accumulation": 198351.0,
    "bank_slope_deg": 22.85,
    "bank_slope_score": 0.5,
    "bank_slope_source": "nc-dps-lidar-dem03-cross-section",
    "beach_dist_km": 275.65,
    "bridge_proximity_bonus": 0.0,
    "catchment_area_km2": 19.7931,
    "channel_width_m": 10.77,
    "channel_width_score": 1.0,
    "composite_score": 46.7197,
    "cso_density": 0.0,
    "ej_index": 0.4764,
    "elevation_m": 150.3518,
    "estuary_dist_km": 409.19,
    "feasibility_score": 54.623,
    "flood_q10_cfs": 1595.58,
    "flow_score": 44.9364,
    "flow_velocity_ms": 0.135,
    "generation_score": 36.8573,
    "impact_score": 54.1164,
    "impervious_pct": 4.81,
    "land_ownership": 0.5,
    "lat": 35.2179,
    "litter_complaint_density": 0.0,
    "lon": -80.5454,
    "navigable_dist_m": null,
    "npdes_points": 11,
    "pixel_col": 514.0,
    "pixel_row": 999.0,
    "population_density": 85.8,
    "position_along": 0.5,
    "protected_area_score": 15.0128,
    "rank": 3,
    "road_access_m": 444.9,
    "road_access_score": 0.8,
    "road_density_km_km2": 1.661,
    "robustness_pct": 61.0,
    "runoff_coeff_C": 0.0933,
    "seasonal_cv": 0.4795,
    "segment_id": 34,
    "segment_length_m": 5007.5508,
    "stream_order": 3,
    "superfund_score": 0.0418,
    "tourism_amenity_density": 0.7958,
    "tri_facility_density": 0.0505,
    "usgs_mean_q_cfs": 22.657,
    "velocity_feasibility": 0.7,
    "water_intake_score": 0.5759
   },
   "type": "Feature"
  },
  {
   "geometry": {
    "coordinates": [
     -80.533839,
     35.19569
    ],
    "type": "Point"
   },
   "properties": {
    "accumulation": 289480.0,
    "bank_slope_deg": 27.17,
    "bank_slope_score": 0.5,
    "bank_slope_source": "nc-dps-lidar-dem03-cross-section",
    "beach_dist_km": 273.72,
    "bridge_proximity_bonus": 0.0,
    "catchment_area_km2": 28.8867,
    "channel_width_m": 12.6,
    "channel_width_score": 1.0,
    "composite_score": 46.3418,
    "cso_density": 0.0,
    "ej_index": 0.3869,
    "elevation_m": 143.2848,
    "estuary_dist_km": 408.09,
    "feasibility_score": 54.623,
    "flood_q10_cfs": 1958.85,
    "flow_score": 51.6595,
    "flow_velocity_ms": 0.1499,
    "generation_score": 32.6602,
    "impact_score": 51.4515,
    "impervious_pct": 4.5,
    "land_ownership": 0.5,
    "lat": 35.1957,
    "litter_complaint_density": 0.0,
    "lon": -80.5338,
    "navigable_dist_m": null,
    "npdes_points": 6,
    "pixel_col": 622.0,
    "pixel_row": 1245.0,
    "population_density": 61.0,
    "position_along": 0.5,
    "protected_area_score": 14.9177,
    "rank": 4,
    "road_access_m": 301.5,
    "road_access_score": 0.8,
    "road_density_km_km2": 1.084,
    "robustness_pct": 50.0,
    "runoff_coeff_C": 0.0905,
    "seasonal_cv": 0.485,
    "segment_id": 35,
    "segment_length_m": 2364.4258,
    "stream_order": 3,
    "superfund_score": 0.0729,
    "tourism_amenity_density": 0.557,
    "tri_facility_density": 0.0692,
    "usgs_mean_q_cfs": 25.767,
    "velocity_feasibility": 0.7,
    "water_intake_score": 0.5362
   },
   "type": "Feature"
  },
  {
   "geometry": {
    "coordinates": [
     -80.49391,
     35.206036
    ],
    "type": "Point"
   },
   "properties": {
    "accumulation": 571829.0,
    "bank_slope_deg": 16.11,
    "bank_slope_score": 0.5,
    "bank_slope_source": "nc-dps-lidar-dem03-cross-section",
    "beach_dist_km": 270.83,
    "bridge_proximity_bonus": 0.0,
    "catchment_area_km2": 57.0618,
    "channel_width_m": 16.71,
    "channel_width_score": 0.5,
    "composite_score": 46.3355,
    "cso_density": 0.0,
    "ej_index": 0.4024,
    "elevation_m": 137.099,
    "estuary_dist_km": 404.48,
    "feasibility_score": 37.6389,
    "flood_q10_cfs": 2683.86,
    "flow_score": 72.0,
    "flow_velocity_ms": 0.5,
    "generation_score": 28.483,
    "impact_score": 47.1491,
    "impervious_pct": null,
    "land_ownership": 0.5,
    "lat": 35.206,
    "litter_complaint_density": 0.0,
    "lon": -80.4939,
    "navigable_dist_m": null,
    "npdes_points": 35,
    "pixel_col": 982.0,
    "pixel_row": 1129.0,
    "population_density": 65.6,
    "position_along": 0.5,
    "protected_area_score": 11.9146,
    "rank": 5,
    "road_access_m": 957.2,
    "road_access_score": 0.6,
    "road_density_km_km2": 0.794,
    "robustness_pct": 55.0,
    "runoff_coeff_C": null,
    "seasonal_cv": null,
    "segment_id": 29,
    "segment_length_m": 1106.3493,
    "stream_order": 3,
    "superfund_score": 0.0529,
    "tourism_amenity_density": 0.0,
    "tri_facility_density": 0.0526,
    "usgs_mean_q_cfs": null,
    "velocity_feasibility": 1.0,
    "water_intake_score": 0.5606
   },
   "type": "Feature"
  },
  {
   "geometry": {
    "coordinates": [
     -80.491423,
     35.217153
    ],
    "type": "Point"
   },
   "properties": {
    "accumulation": 225155.0,
    "bank_slope_deg": 16.63,
    "bank_slope_score": 0.5,
    "bank_slope_source": "nc-dps-lidar-dem03-cross-section",
    "beach_dist_km": 271.12,
    "bridge_proximity_bonus": 0.0,
    "catchment_area_km2": 22.4678,
    "channel_width_m": 11.35,
    "channel_width_score": 1.0,
    "composite_score": 46.3037,
    "cso_density": 0.0,
    "ej_index": 0.3662,
    "elevation_m": 139.2677,
    "estuary_dist_km": 404.28,
    "feasibility_score": 54.623,
    "flood_q10_cfs": 1725.16,
    "flow_score": 39.8098,
    "flow_velocity_ms": 0.0554,
    "generation_score": 48.7922,
    "impact_score": 45.067,
    "impervious_pct": 5.38,
    "land_ownership": 0.5,
    "lat": 35.2172,
    "litter_complaint_density": 0.0,
    "lon": -80.4914,
    "navigable_dist_m": null,
    "npdes_points": 27,
    "pixel_col": 1006.0,
    "pixel_row": 1005.0,
    "population_density": 73.6,
    "position_along": 0.75,
    "protected_area_score": 11.5868,
    "rank": 6,
    "road_access_m": 376.2,
    "road_access_score": 0.8,
    "road_density_km_km2": 1.116,
    "robustness_pct": 45.0,
    "runoff_coeff_C": 0.0984,
    "seasonal_cv": 0.4681,
    "segment_id": 23,
    "segment_length_m": 3740.3671,
    "stream_order": 3,
    "superfund_score": 0.039,
    "tourism_amenity_density": 0.0,
    "tri_facility_density": 0.089,
    "usgs_mean_q_cfs": 10.984,
    "velocity_feasibility": 0.7,
    "water_intake_score": 0.579
   },
   "type": "Feature"
  },
  {
   "geometry": {
    "coordinates": [
     -80.484606,
     35.211712
    ],
    "type": "Point"
   },
   "properties": {
    "accumulation": 329278.0,
    "bank_slope_deg": 19.88,
    "bank_slope_score": 0.5,
    "bank_slope_source": "nc-dps-lidar-dem03-cross-section",
    "beach_dist_km": 270.31,
    "bridge_proximity_bonus": 0.0,
    "catchment_area_km2": 32.858,
    "channel_width_m": 13.29,
    "channel_width_score": 1.0,
    "composite_score": 45.4311,
    "cso_density": 0.0,
    "ej_index": 0.3955,
    "elevation_m": 137.2424,
    "estuary_dist_km": 403.65,
    "feasibility_score": 49.3056,
    "flood_q10_cfs": 1976.91,
    "flow_score": 59.8856,
    "flow_velocity_ms": 0.5,
    "generation_score": 29.5746,
    "impact_score": 47.3051,
    "impervious_pct": null,
    "land_ownership": 0.5,
    "lat": 35.2117,
    "litter_complaint_density": 0.0,
    "lon": -80.4846,
    "navigable_dist_m": null,
    "npdes_points": 33,
    "pixel_col": 1066.0,
    "pixel_row": 1065.0,
    "population_density": 71.1,
    "position_along": 0.5,
    "protected_area_score": 11.2379,
    "rank": 7,
    "road_access_m": 1241.6,
    "road_access_score": 0.3,
    "road_density_km_km2": 0.879,
    "robustness_pct": 29.0,
    "runoff_coeff_C": null,
    "seasonal_cv": null,
    "segment_id": 28,
    "segment_length_m": 1129.3401,
    "stream_order": 3,
    "superfund_score": 0.0465,
    "tourism_amenity_density": 0.0,
    "tri_facility_density": 0.0609,
    "usgs_mean_q_cfs": null,
    "velocity_feasibility": 1.0,
    "water_intake_score": 0.57
   },
   "type": "Feature"
  },
  {
   "geometry": {
    "coordinates": [
     -80.512677,
     35.232732
    ],
    "type": "Point"
   },
   "properties": {
    "accumulation": 85813.0,
    "bank_slope_deg": 0.79,
    "bank_slope_score": 1.0,
    "bank_slope_source": "nc-dps-lidar-dem03-cross-section",
    "beach_dist_km": 273.58,
    "bridge_proximity_bonus": 0.0,
    "catchment_area_km2": 8.5631,
    "channel_width_m": 7.61,
    "channel_width_score": 1.0,
    "composite_score": 45.3778,
    "cso_density": 0.0,
    "ej_index": 0.3871,
    "elevation_m": 148.8978,
    "estuary_dist_km": 406.26,
    "feasibility_score": 60.873,
    "flood_q10_cfs": 1011.08,
    "flow_score": 31.8731,
    "flow_velocity_ms": 0.0947,
    "generation_score": 47.6985,
    "impact_score": 46.5633,
    "impervious_pct": 5.38,
    "land_ownership": 0.5,
    "lat": 35.2327,
    "litter_complaint_density": 0.0,
    "lon": -80.5127,
    "navigable_dist_m": null,
    "npdes_points": 1,
    "pixel_col": 812.0,
    "pixel_row": 833.0,
    "population_density": 79.1,
    "position_along": 0.5,
    "protected_area_score": 11.9985,
    "rank": 8,
    "road_access_m": 486.4,
    "road_access_score": 0.8,
    "road_density_km_km2": 3.087,
    "robustness_pct": 34.5,
    "runoff_coeff_C": 0.0984,
    "seasonal_cv": 0.4681,
    "segment_id": 22,
    "segment_length_m": 1670.3094,
    "stream_order": 3,
    "superfund_score": 0.0282,
    "tourism_amenity_density": 0.3183,
    "tri_facility_density": 0.1168,
    "usgs_mean_q_cfs": 10.984,
    "velocity_feasibility": 0.7,
    "water_intake_score": 0.6159
   },
   "type": "Feature"
  },
  {
   "geometry": {
    "coordinates": [
     -80.486114,
     35.223587
    ],
    "type": "Point"
   },
   "properties": {
    "accumulation": 288809.0,
    "bank_slope_deg": 18.43,
    "bank_slope_score": 0.5,
    "bank_slope_source": "nc-dps-lidar-dem03-cross-section",
    "beach_dist_km": 270.96,
    "bridge_proximity_bonus": 0.0,
    "catchment_area_km2": 28.8197,
    "channel_width_m": 12.59,
    "channel_width_score": 1.0,
    "composite_score": 44.6167,
    "cso_density": 0.0,
    "ej_index": 0.3694,
    "elevation_m": 137.935,
    "estuary_dist_km": 403.82,
    "feasibility_score": 57.6389,
    "flood_q10_cfs": 1838.41,
    "flow_score": 57.7425,
    "flow_velocity_ms": 0.5,
    "generation_score": 31.5494,
    "impact_score": 40.2349,
    "impervious_pct": null,
    "land_ownership": 0.5,
    "lat": 35.2236,
    "litter_complaint_density": 0.0,
    "lon": -80.4861,
    "navigable_dist_m": null,
    "npdes_points": 32,
    "pixel_col": 1053.0,
    "pixel_row": 933.0,
    "population_density": 74.8,
    "position_along": 0.75,
    "protected_area_score": 7.5861,
    "rank": 9,
    "road_access_m": 613.1,
    "road_access_score": 0.6,
    "road_density_km_km2": 1.162,
    "robustness_pct": 21.5,
    "runoff_coeff_C": null,
    "seasonal_cv": null,
    "segment_id": 19,
    "segment_length_m": 4072.563,
    "stream_order": 3,
    "superfund_score": 0.0331,
    "tourism_amenity_density": 0.0,
    "tri_facility_density": 0.0694,
    "usgs_mean_q_cfs": null,
    "velocity_feasibility": 1.0,
    "water_intake_score": 0.5919
   },
   "type": "Feature"
  },
  {
   "geometry": {
    "coordinates": [
     -80.541762,
     35.205512
    ],
    "type": "Point"
   },
   "properties": {
    "accumulation": 230401.0,
    "bank_slope_deg": 21.47,
    "bank_slope_score": 0.5,
    "bank_slope_source": "nc-dps-lidar-dem03-cross-section",
    "beach_dist_km": 274.8,
    "bridge_proximity_bonus": 0.0,
    "catchment_area_km2": 22.9913,
    "channel_width_m": 11.46,
    "channel_width_score": 1.0,
    "composite_score": 44.0458,
    "cso_density": 0.0,
    "ej_index": 0.424,
    "elevation_m": 146.5194,
    "estuary_dist_km": 408.83,
    "feasibility_score": 49.0675,
    "flood_q10_cfs": 1733.6,
    "flow_score": 45.9588,
    "flow_velocity_ms": 0.101,
    "generation_score": 30.756,
    "impact_score": 53.2305,
    "impervious_pct": 4.81,
    "land_ownership": 0.5,
    "lat": 35.2055,
    "litter_complaint_density": 0.0,
    "lon": -80.5418,
    "navigable_dist_m": null,
    "npdes_points": 3,
    "pixel_col": 549.0,
    "pixel_row": 1136.0,
    "population_density": 76.5,
    "position_along": 0.8333,
    "protected_area_score": 14.9767,
    "rank": 10,
    "road_access_m": 708.5,
    "road_access_score": 0.6,
    "road_density_km_km2": 1.411,
    "robustness_pct": 5.5,
    "runoff_coeff_C": 0.0933,
    "seasonal_cv": 0.4795,
    "segment_id": 34,
    "segment_length_m": 5007.5508,
    "stream_order": 3,
    "superfund_score": 0.0544,
    "tourism_amenity_density": 0.7958,
    "tri_facility_density": 0.0435,
    "usgs_mean_q_cfs": 22.657,
    "velocity_feasibility": 0.7,
    "water_intake_score": 0.5504
   },
   "type": "Feature"
  },
  {
   "geometry": {
    "coordinates": [
     -80.558592,
     35.217923
    ],
    "type": "Point"
   },
   "properties": {
    "accumulation": 176383.0,
    "bank_slope_deg": 21.67,
    "bank_slope_score": 0.5,
    "bank_slope_source": "nc-dps-lidar-dem03-cross-section",
    "beach_dist_km": 276.75,
    "bridge_proximity_bonus": 0.0,
    "catchment_area_km2": 17.6009,
    "channel_width_m": 10.26,
    "channel_width_score": 1.0,
    "composite_score": 43.9288,
    "cso_density": 0.0,
    "ej_index": 0.4656,
    "elevation_m": 156.459,
    "estuary_dist_km": 410.38,
    "feasibility_score": 54.623,
    "flood_q10_cfs": 1495.14,
    "flow_score": 43.139,
    "flow_velocity_ms": 0.1159,
    "generation_score": 30.8284,
    "impact_score": 52.3403,
    "impervious_pct": 4.81,
    "land_ownership": 0.5,
    "lat": 35.2179,
    "litter_complaint_density": 0.0,
    "lon": -80.5586,
    "navigable_dist_m": null,
    "npdes_points": 11,
    "pixel_col": 396.0,
    "pixel_row": 995.0,
    "population_density": 100.5,
    "position_along": 0.1667,
    "protected_area_score": 16.1619,
    "rank": 11,
    "road_access_m": 280.1,
    "road_access_score": 0.8,
    "road_density_km_km2": 1.748,
    "robustness_pct": 2.5,
    "runoff_coeff_C": 0.0933,
    "seasonal_cv": 0.4795,
    "segment_id": 34,
    "segment_length_m": 5007.5508,
    "stream_order": 3,
    "superfund_score": 0.0458,
    "tourism_amenity_density": 0.7162,
    "tri_facility_density": 0.0,
    "usgs_mean_q_cfs": 22.657,
    "velocity_feasibility": 0.7,
    "water_intake_score": 0.5779
   },
   "type": "Feature"
  },
  {
   "geometry": {
    "coordinates": [
     -80.587231,
     35.297278
    ],
    "type": "Point"
   },
   "properties": {
    "accumulation": 98367.0,
    "bank_slope_deg": 14.8,
    "bank_slope_score": 1.0,
    "bank_slope_source": "nc-dps-lidar-dem03-cross-section",
    "beach_dist_km": 282.69,
    "bridge_proximity_bonus": 0.0,
    "catchment_area_km2": 9.8159,
    "channel_width_m": 8.05,
    "channel_width_score": 1.0,
    "composite_score": 42.3226,
    "cso_density": 0.0,
    "ej_index": 0.3323,
    "elevation_m": 167.407,
    "estuary_dist_km": 413.28,
    "feasibility_score": 66.4286,
    "flood_q10_cfs": 1069.18,
    "flow_score": 33.1049,
    "flow_velocity_ms": 0.1365,
    "generation_score": 35.8996,
    "impact_score": 44.374,
    "impervious_pct": 3.95,
    "land_ownership": 0.5,
    "lat": 35.2973,
    "litter_complaint_density": 0.0,
    "lon": -80.5872,
    "navigable_dist_m": null,
    "npdes_points": 0,
    "pixel_col": 127.0,
    "pixel_row": 119.0,
    "population_density": 241.7,
    "position_along": 0.625,
    "protected_area_score": 12.715,
    "rank": 12,
    "road_access_m": 198.9,
    "road_access_score": 1.0,
    "road_density_km_km2": 1.823,
    "robustness_pct": 3.5,
    "runoff_coeff_C": 0.0856,
    "seasonal_cv": 0.448,
    "segment_id": 14,
    "segment_length_m": 6562.2974,
    "stream_order": 3,
    "superfund_score": 0.0188,
    "tourism_amenity_density": 0.3183,
    "tri_facility_density": 0.0,
    "usgs_mean_q_cfs": 10.264,
    "velocity_feasibility": 0.7,
    "water_intake_score": 1.0041
   },
   "type": "Feature"
  },
  {
   "geometry": {
    "coordinates": [
     -80.479005,
     35.236657
    ],
    "type": "Point"
   },
   "properties": {
    "accumulation": 241890.0,
    "bank_slope_deg": 14.7,
    "bank_slope_score": 1.0,
    "bank_slope_source": "nc-dps-lidar-dem03-cross-section",
    "beach_dist_km": 270.96,
    "bridge_proximity_bonus": 0.0,
    "catchment_area_km2": 24.1378,
    "channel_width_m": 11.69,
    "channel_width_score": 1.0,
    "composite_score": 41.6614,
    "cso_density": 0.0,
    "ej_index": 0.3215,
    "elevation_m": 139.699,
    "estuary_dist_km": 403.21,
    "feasibility_score": 63.8889,
    "flood_q10_cfs": 1666.46,
    "flow_score": 55.1904,
    "flow_velocity_ms": 0.5,
    "generation_score": 21.6466,
    "impact_score": 39.2883,
    "impervious_pct": null,
    "land_ownership": 0.5,
    "lat": 35.2367,
    "litter_complaint_density": 0.0,
    "lon": -80.479,
    "navigable_dist_m": null,
    "npdes_points": 15,
    "pixel_col": 1119.0,
    "pixel_row": 788.0,
    "population_density": 82.9,
    "position_along": 0.25,
    "protected_area_score": 7.1955,
    "rank": 13,
    "road_access_m": 947.8,
    "road_access_score": 0.6,
    "road_density_km_km2": 1.528,
    "robustness_pct": 2.5,
    "runoff_coeff_C": null,
    "seasonal_cv": null,
    "segment_id": 19,
    "segment_length_m": 4072.563,
    "stream_order": 3,
    "superfund_score": 0.0242,
    "tourism_amenity_density": 0.0,
    "tri_facility_density": 0.0414,
    "usgs_mean_q_cfs": null,
    "velocity_feasibility": 1.0,
    "water_intake_score": 0.6228
   },
   "type": "Feature"
  },
  {
   "geometry": {
    "coordinates": [
     -80.571755,
     35.211439
    ],
    "type": "Point"
   },
   "properties": {
    "accumulation": 72975.0,
    "bank_slope_deg": 20.96,
    "bank_slope_score": 0.5,
    "bank_slope_source": "nc-dps-lidar-dem03-cross-section",
    "beach_dist_km": 277.57,
    "bridge_proximity_bonus": 0.0,
    "catchment_area_km2": 7.282,
    "channel_width_m": 7.11,
    "channel_width_score": 1.0,
    "composite_score": 39.8889,
    "cso_density": 0.0,
    "ej_index": 0.4253,
    "elevation_m": 166.7563,
    "estuary_dist_km": 411.56,
    "feasibility_score": 49.0675,
    "flood_q10_cfs": 924.21,
    "flow_score": 33.3393,
    "flow_velocity_ms": 0.0959,
    "generation_score": 34.0593,
    "impact_score": 46.5874,
    "impervious_pct": 6.12,
    "land_ownership": 0.5,
    "lat": 35.2114,
    "litter_complaint_density": 0.0,
    "lon": -80.5718,
    "navigable_dist_m": null,
    "npdes_points": 1,
    "pixel_col": 273.0,
    "pixel_row": 1068.0,
    "population_density": 144.2,
    "position_along": 0.5,
    "protected_area_score": 17.2964,
    "rank": 14,
    "road_access_m": 600.0,
    "road_access_score": 0.6,
    "road_density_km_km2": 1.652,
    "robustness_pct": 0.0,
    "runoff_coeff_C": 0.1051,
    "seasonal_cv": 0.4675,
    "segment_id": 33,
    "segment_length_m": 2727.178,
    "stream_order": 3,
    "superfund_score": 0.0567,
    "tourism_amenity_density": 0.3979,
    "tri_facility_density": 0.0,
    "usgs_mean_q_cfs": 15.383,
    "velocity_feasibility": 0.7,
    "water_intake_score": 0.564
   },
   "type": "Feature"
  },
  {
   "geometry": {
    "coordinates": [
     -80.522502,
     35.236871
    ],
    "type": "Point"
   },
   "properties": {
    "accumulation": 22534.0,
    "bank_slope_deg": 1.54,
    "bank_slope_score": 1.0,
    "bank_slope_source": "nc-dps-lidar-dem03-cross-section",
    "beach_dist_km": 274.58,
    "bridge_proximity_bonus": 0.0,
    "catchment_area_km2": 2.2486,
    "channel_width_m": 4.37,
    "channel_width_score": 1.0,
    "composite_score": 39.5771,
    "cso_density": 0.0,
    "ej_index": 0.482,
    "elevation_m": 155.6964,
    "estuary_dist_km": 407.16,
    "feasibility_score": 66.4286,
    "flood_q10_cfs": 369.6,
    "flow_score": 22.4865,
    "flow_velocity_ms": 0.0684,
    "generation_score": 27.8189,
    "impact_score": 52.1517,
    "impervious_pct": 4.35,
    "land_ownership": 0.5,
    "lat": 35.2369,
    "litter_complaint_density": 0.0,
    "lon": -80.5225,
    "navigable_dist_m": null,
    "npdes_points": 0,
    "pixel_col": 723.0,
    "pixel_row": 786.0,
    "population_density": 79.9,
    "position_along": 0.5,
    "protected_area_score": 12.4342,
    "rank": 15,
    "road_access_m": 173.1,
    "road_access_score": 1.0,
    "road_density_km_km2": 3.502,
    "robustness_pct": 2.0,
    "runoff_coeff_C": 0.0892,
    "seasonal_cv": 0.4391,
    "segment_id": 21,
    "segment_length_m": 1007.3375,
    "stream_order": 3,
    "superfund_score": 0.0271,
    "tourism_amenity_density": 0.557,
    "tri_facility_density": 0.0,
    "usgs_mean_q_cfs": 4.356,
    "velocity_feasibility": 0.7,
    "water_intake_score": 0.6295
   },
   "type": "Feature"
  },
  {
   "geometry": {
    "coordinates": [
     -80.585124,
     35.287816
    ],
    "type": "Point"
   },
   "properties": {
    "accumulation": 86737.0,
    "bank_slope_deg": 14.67,
    "bank_slope_score": 1.0,
    "bank_slope_source": "nc-dps-lidar-dem03-cross-section",
    "beach_dist_km": 282.08,
    "bridge_proximity_bonus": 0.0,
    "catchment_area_km2": 8.6553,
    "channel_width_m": 7.64,
    "channel_width_score": 1.0,
    "composite_score": 39.4247,
    "cso_density": 0.0,
    "ej_index": 0.2374,
    "elevation_m": 171.3932,
    "estuary_dist_km": 413.04,
    "feasibility_score": 66.4286,
    "flood_q10_cfs": 997.2,
    "flow_score": 30.5558,
    "flow_velocity_ms": 0.062,
    "generation_score": 37.7345,
    "impact_score": 35.0036,
    "impervious_pct": 3.95,
    "land_ownership": 0.5,
    "lat": 35.2878,
    "litter_complaint_density": 0.0,
    "lon": -80.5851,
    "navigable_dist_m": null,
    "npdes_points": 0,
    "pixel_col": 150.0,
    "pixel_row": 220.0,
    "population_density": 232.9,
    "position_along": 0.375,
    "protected_area_score": 12.7725,
    "rank": 16,
    "road_access_m": 111.3,
    "road_access_score": 1.0,
    "road_density_km_km2": 2.726,
    "robustness_pct": 0.5,
    "runoff_coeff_C": 0.0856,
    "seasonal_cv": 0.448,
    "segment_id": 14,
    "segment_length_m": 6562.2974,
    "stream_order": 3,
    "superfund_score": 0.019,
    "tourism_amenity_density": 0.0,
    "tri_facility_density": 0.0,
    "usgs_mean_q_cfs": 10.264,
    "velocity_feasibility": 0.7,
    "water_intake_score": 0.9354
   },
   "type": "Feature"
  },
  {
   "geometry": {
    "coordinates": [
     -80.589847,
     35.266828
    ],
    "type": "Point"
   },
   "properties": {
    "accumulation": 23433.0,
    "bank_slope_deg": 0.01,
    "bank_slope_score": 1.0,
    "bank_slope_source": "nc-dps-lidar-dem03-cross-section",
    "beach_dist_km": 281.52,
    "bridge_proximity_bonus": 0.0,
    "catchment_area_km2": 2.3383,
    "channel_width_m": 4.44,
    "channel_width_score": 1.0,
    "composite_score": 39.338,
    "cso_density": 0.0,
    "ej_index": 0.1641,
    "elevation_m": 181.7124,
    "estuary_dist_km": 413.38,
    "feasibility_score": 60.873,
    "flood_q10_cfs": 378.0,
    "flow_score": 26.4267,
    "flow_velocity_ms": 0.1314,
    "generation_score": 46.5987,
    "impact_score": 32.0694,
    "impervious_pct": 3.95,
    "land_ownership": 0.5,
    "lat": 35.2668,
    "litter_complaint_density": 0.0,
    "lon": -80.5898,
    "navigable_dist_m": null,
    "npdes_points": 0,
    "pixel_col": 107.0,
    "pixel_row": 454.0,
    "population_density": 289.7,
    "position_along": 0.5,
    "protected_area_score": 13.5004,
    "rank": 17,
    "road_access_m": 205.6,
    "road_access_score": 0.8,
    "road_density_km_km2": 4.074,
    "robustness_pct": 3.5,
    "runoff_coeff_C": 0.0856,
    "seasonal_cv": 0.448,
    "segment_id": 13,
    "segment_length_m": 926.4183,
    "stream_order": 3,
    "superfund_score": 0.0279,
    "tourism_amenity_density": 0.2387,
    "tri_facility_density": 0.0,
    "usgs_mean_q_cfs": 10.264,
    "velocity_feasibility": 0.7,
    "water_intake_score": 0.8131
   },
   "type": "Feature"
  },
  {
   "geometry": {
    "coordinates": [
     -80.574737,
     35.306126
    ],
    "type": "Point"
   },
   "properties": {
    "accumulation": 21014.0,
    "bank_slope_deg": 17.45,
    "bank_slope_score": 0.5,
    "bank_slope_source": "nc-dps-lidar-dem03-cross-section",
    "beach_dist_km": 282.07,
    "bridge_proximity_bonus": 0.0,
    "catchment_area_km2": 2.0969,
    "channel_width_m": 4.24,
    "channel_width_score": 1.0,
    "composite_score": 39.2054,
    "cso_density": 0.0,
    "ej_index": 0.4155,
    "elevation_m": 162.0611,
    "estuary_dist_km": 412.19,
    "feasibility_score": 68.75,
    "flood_q10_cfs": 324.95,
    "flow_score": 26.022,
    "flow_velocity_ms": 0.5,
    "generation_score": 24.2566,
    "impact_score": 50.3682,
    "impervious_pct": null,
    "land_ownership": 0.5,
    "lat": 35.3061,
    "litter_complaint_density": 0.0,
    "lon": -80.5747,
    "navigable_dist_m": null,
    "npdes_points": 0,
    "pixel_col": 244.0,
    "pixel_row": 19.0,
    "population_density": 292.3,
    "position_along": 0.5,
    "protected_area_score": 11.7264,
    "rank": 18,
    "road_access_m": 82.6,
    "road_access_score": 1.0,
    "road_density_km_km2": 0.512,
    "robustness_pct": 1.0,
    "runoff_coeff_C": null,
    "seasonal_cv": null,
    "segment_id": 0,
    "segment_length_m": 494.0343,
    "stream_order": 1,
    "superfund_score": 0.0212,
    "tourism_amenity_density": 0.3183,
    "tri_facility_density": 0.0,
    "usgs_mean_q_cfs": null,
    "velocity_feasibility": 1.0,
    "water_intake_score": 1.0603
   },
   "type": "Feature"
  },
  {
   "geometry": {
    "coordinates": [
     -80.521426,
     35.244235
    ],
    "type": "Point"
   },
   "properties": {
    "accumulation": 39720.0,
    "bank_slope_deg": 12.03,
    "bank_slope_score": 1.0,
    "bank_slope_source": "nc-dps-lidar-dem03-cross-section",
    "beach_dist_km": 274.82,
    "bridge_proximity_bonus": 0.0,
    "catchment_area_km2": 3.9636,
    "channel_width_m": 5.53,
    "channel_width_score": 1.0,
    "composite_score": 39.1589,
    "cso_density": 0.0,
    "ej_index": 0.3583,
    "elevation_m": 155.896,
    "estuary_dist_km": 407.09,
    "feasibility_score": 66.4286,
    "flood_q10_cfs": 566.56,
    "flow_score": 25.1715,
    "flow_velocity_ms": 0.1106,
    "generation_score": 32.466,
    "impact_score": 43.8733,
    "impervious_pct": 4.35,
    "land_ownership": 0.5,
    "lat": 35.2442,
    "litter_complaint_density": 0.0,
    "lon": -80.5214,
    "navigable_dist_m": null,
    "npdes_points": 3,
    "pixel_col": 733.0,
    "pixel_row": 706.0,
    "population_density": 86.9,
    "position_along": 0.75,
    "protected_area_score": 9.1911,
    "rank": 19,
    "road_access_m": 71.4,
    "road_access_score": 1.0,
    "road_density_km_km2": 4.443,
    "robustness_pct": 0.0,
    "runoff_coeff_C": 0.0892,
    "seasonal_cv": 0.4391,
    "segment_id": 15,
    "segment_length_m": 3767.6174,
    "stream_order": 3,
    "superfund_score": 0.024,
    "tourism_amenity_density": 0.557,
    "tri_facility_density": 0.0,
    "usgs_mean_q_cfs": 4.356,
    "velocity_feasibility": 0.7,
    "water_intake_score": 0.6595
   },
   "type": "Feature"
  },
  {
   "geometry": {
    "coordinates": [
     -80.583161,
     35.206199
    ],
    "type": "Point"
   },
   "properties": {
    "accumulation": 38431.0,
    "bank_slope_deg": 15.93,
    "bank_slope_score": 0.5,
    "bank_slope_source": "nc-dps-lidar-dem03-cross-section",
    "beach_dist_km": 278.3,
    "bridge_proximity_bonus": 0.0,
    "catchment_area_km2": 3.835,
    "channel_width_m": 5.45,
    "channel_width_score": 1.0,
    "composite_score": 38.4443,
    "cso_density": 0.0,
    "ej_index": 0.4068,
    "elevation_m": 174.2579,
    "estuary_dist_km": 412.59,
    "feasibility_score": 54.623,
    "flood_q10_cfs": 570.03,
    "flow_score": 29.4151,
    "flow_velocity_ms": 0.0642,
    "generation_score": 35.6138,
    "impact_score": 40.7098,
    "impervious_pct": 6.12,
    "land_ownership": 0.5,
    "lat": 35.2062,
    "litter_complaint_density": 0.0,
    "lon": -80.5832,
    "navigable_dist_m": null,
    "npdes_points": 2,
    "pixel_col": 172.0,
    "pixel_row": 1129.0,
    "population_density": 159.5,
    "position_along": 0.5,
    "protected_area_score": 18.3424,
    "rank": 20,
    "road_access_m": 498.9,
    "road_access_score": 0.8,
    "road_density_km_km2": 1.574,
    "robustness_pct": 0.0,
    "runoff_coeff_C": 0.1051,
    "seasonal_cv": 0.4675,
    "segment_id": 32,
    "segment_length_m": 1106.9374,
    "stream_order": 3,
    "superfund_score": 0.0653,
    "tourism_amenity_density": 0.0,
    "tri_facility_density": 0.0,
    "usgs_mean_q_cfs": 15.383,
    "velocity_feasibility": 0.7,
    "water_intake_score": 0.553
   },
   "type": "Feature"
  },
  {
   "geometry": {
    "coordinates": [
     -80.592361,
     35.269328
    ],
    "type": "Point"
   },
   "properties": {
    "accumulation": 23011.0,
    "bank_slope_deg": 12.02,
    "bank_slope_score": 1.0,
    "bank_slope_source": "nc-dps-lidar-dem03-cross-section",
    "beach_dist_km": 281.84,
    "bridge_proximity_bonus": 0.0,
    "catchment_area_km2": 2.2962,
    "channel_width_m": 4.41,
    "channel_width_score": 1.0,
    "composite_score": 38.376,
    "cso_density": 0.0,
    "ej_index": 0.1537,
    "elevation_m": 179.7229,
    "estuary_dist_km": 413.62,
    "feasibility_score": 60.873,
    "flood_q10_cfs": 372.86,
    "flow_score": 26.2366,
    "flow_velocity_ms": 0.1257,
    "generation_score": 43.9587,
    "impact_score": 31.6608,
    "impervious_pct": 3.95,
    "land_ownership": 0.5,
    "lat": 35.2693,
    "litter_complaint_density": 0.0,
    "lon": -80.5924,
    "navigable_dist_m": null,
    "npdes_points": 0,
    "pixel_col": 85.0,
    "pixel_row": 427.0,
    "population_density": 295.7,
    "position_along": 0.5,
    "protected_area_score": 13.5054,
    "rank": 21,
    "road_access_m": 235.0,
    "road_access_score": 0.8,
    "road_density_km_km2": 2.977,
    "robustness_pct": 0.0,
    "runoff_coeff_C": 0.0856,
    "seasonal_cv": 0.448,
    "segment_id": 12,
    "segment_length_m": 174.6675,
    "stream_order": 3,
    "superfund_score": 0.0261,
    "tourism_amenity_density": 0.2387,
    "tri_facility_density": 0.0,
    "usgs_mean_q_cfs": 10.264,
    "velocity_feasibility": 0.7,
    "water_intake_score": 0.8294
   },
   "type": "Feature"
  },
  {
   "geometry": {
    "coordinates": [
     -80.580476,
     35.209872
    ],
    "type": "Point"
   },
   "properties": {
    "accumulation": 21255.0,
    "bank_slope_deg": 11.84,
    "bank_slope_score": 1.0,
    "bank_slope_source": "nc-dps-lidar-dem03-cross-section",
    "beach_dist_km": 278.23,
    "bridge_proximity_bonus": 0.0,
    "catchment_area_km2": 2.121,
    "channel_width_m": 4.26,
    "channel_width_score": 1.0,
    "composite_score": 37.608,
    "cso_density": 0.0,
    "ej_index": 0.4068,
    "elevation_m": 174.0575,
    "estuary_dist_km": 412.35,
    "feasibility_score": 69.4444,
    "flood_q10_cfs": 327.75,
    "flow_score": 40.0465,
    "flow_velocity_ms": 0.5,
    "generation_score": 15.6136,
    "impact_score": 41.652,
    "impervious_pct": null,
    "land_ownership": 0.5,
    "lat": 35.2099,
    "litter_complaint_density": 0.0,
    "lon": -80.5805,
    "navigable_dist_m": null,
    "npdes_points": 1,
    "pixel_col": 196.0,
    "pixel_row": 1090.0,
    "population_density": 159.5,
    "position_along": 0.5,
    "protected_area_score": 17.9482,
    "rank": 22,
    "road_access_m": 287.2,
    "road_access_score": 0.8,
    "road_density_km_km2": 1.395,
    "robustness_pct": 0.0,
    "runoff_coeff_C": null,
    "seasonal_cv": null,
    "segment_id": 30,
    "segment_length_m": 403.4198,
    "stream_order": 3,
    "superfund_score": 0.0627,
    "tourism_amenity_density": 0.0796,
    "tri_facility_density": 0.0,
    "usgs_mean_q_cfs": null,
    "velocity_feasibility": 1.0,
    "water_intake_score": 0.5614
   },
   "type": "Feature"
  },
  {
   "geometry": {
    "coordinates": [
     -80.518039,
     35.232287
    ],
    "type": "Point"
   },
   "properties": {
    "accumulation": 66513.0,
    "bank_slope_deg": 2.62,
    "bank_slope_score": 1.0,
    "bank_slope_source": "nc-dps-lidar-dem03-cross-section",
    "beach_dist_km": 274.01,
    "bridge_proximity_bonus": 0.0,
    "catchment_area_km2": 6.6372,
    "channel_width_m": 6.84,
    "channel_width_score": 1.0,
    "composite_score": 37.3696,
    "cso_density": 0.0,
    "ej_index": 0.4406,
    "elevation_m": 151.2283,
    "estuary_dist_km": 406.74,
    "feasibility_score": 60.873,
    "flood_q10_cfs": 810.35,
    "flow_score": 26.314,
    "flow_velocity_ms": 0.1096,
    "generation_score": 20.8523,
    "impact_score": 51.3482,
    "impervious_pct": 2.6,
    "land_ownership": 0.5,
    "lat": 35.2323,
    "litter_complaint_density": 0.0,
    "lon": -80.518,
    "navigable_dist_m": null,
    "npdes_points": 0,
    "pixel_col": 764.0,
    "pixel_row": 838.0,
    "population_density": 79.6,
    "position_along": 0.8333,
    "protected_area_score": 12.5301,
    "rank": 23,
    "road_access_m": 474.1,
    "road_access_score": 0.8,
    "road_density_km_km2": 2.984,
    "robustness_pct": 0.0,
    "runoff_coeff_C": 0.0734,
    "seasonal_cv": 0.4329,
    "segment_id": 20,
    "segment_length_m": 5711.1903,
    "stream_order": 3,
    "superfund_score": 0.0289,
    "tourism_amenity_density": 0.557,
    "tri_facility_density": 0.0,
    "usgs_mean_q_cfs": 3.246,
    "velocity_feasibility": 0.7,
    "water_intake_score": 0.6155
   },
   "type": "Feature"
  },
  {
   "geometry": {
    "coordinates": [
     -80.4757,
     35.249617
    ],
    "type": "Point"
   },
   "properties": {
    "accumulation": 192905.0,
    "bank_slope_deg": 19.28,
    "bank_slope_score": 0.5,
    "bank_slope_source": "nc-dps-lidar-dem03-cross-section",
    "beach_dist_km": 271.28,
    "bridge_proximity_bonus": 0.0,
    "catchment_area_km2": 19.2496,
    "channel_width_m": 10.65,
    "channel_width_score": 1.0,
    "composite_score": 37.3437,
    "cso_density": 0.0,
    "ej_index": 0.2363,
    "elevation_m": 141.2869,
    "estuary_dist_km": 402.96,
    "feasibility_score": 57.6389,
    "flood_q10_cfs": 1470.15,
    "flow_score": 52.4264,
    "flow_velocity_ms": 0.5,
    "generation_score": 13.308,
    "impact_score": 38.663,
    "impervious_pct": null,
    "land_ownership": 0.5,
    "lat": 35.2496,
    "litter_complaint_density": 0.0,
    "lon": -80.4757,
    "navigable_dist_m": null,
    "npdes_points": 12,
    "pixel_col": 1148.0,
    "pixel_row": 644.0,
    "population_density": 83.4,
    "position_along": 0.5,
    "protected_area_score": 7.4122,
    "rank": 24,
    "road_access_m": 594.0,
    "road_access_score": 0.6,
    "road_density_km_km2": 1.23,
    "robustness_pct": 0.0,
    "runoff_coeff_C": null,
    "seasonal_cv": null,
    "segment_id": 11,
    "segment_length_m": 2933.8217,
    "stream_order": 3,
    "superfund_score": 0.0188,
    "tourism_amenity_density": 0.0796,
    "tri_facility_density": 0.0,
    "usgs_mean_q_cfs": null,
    "velocity_feasibility": 1.0,
    "water_intake_score": 0.6601
   },
   "type": "Feature"
  },
  {
   "geometry": {
    "coordinates": [
     -80.571373,
     35.229562
    ],
    "type": "Point"
   },
   "properties": {
    "accumulation": 30706.0,
    "bank_slope_deg": 8.3,
    "bank_slope_score": 1.0,
    "bank_slope_source": "nc-dps-lidar-dem03-cross-section",
    "beach_dist_km": 278.33,
    "bridge_proximity_bonus": 0.0,
    "catchment_area_km2": 3.0641,
    "channel_width_m": 4.97,
    "channel_width_score": 1.0,
    "composite_score": 36.9989,
    "cso_density": 0.0,
    "ej_index": 0.5028,
    "elevation_m": 173.5986,
    "estuary_dist_km": 411.58,
    "feasibility_score": 66.4286,
    "flood_q10_cfs": 460.01,
    "flow_score": 23.4484,
    "flow_velocity_ms": 0.1173,
    "generation_score": 25.6593,
    "impact_score": 44.9158,
    "impervious_pct": 3.53,
    "land_ownership": 0.5,
    "lat": 35.2296,
    "litter_complaint_density": 0.0,
    "lon": -80.5714,
    "navigable_dist_m": null,
    "npdes_points": 8,
    "pixel_col": 278.0,
    "pixel_row": 871.0,
    "population_density": 80.5,
    "position_along": 0.5,
    "protected_area_score": 16.8911,
    "rank": 25,
    "road_access_m": 155.0,
    "road_access_score": 1.0,
    "road_density_km_km2": 2.401,
    "robustness_pct": 0.0,
    "runoff_coeff_C": 0.0818,
    "seasonal_cv": 0.4219,
    "segment_id": 24,
    "segment_length_m": 1861.112,
    "stream_order": 3,
    "superfund_score": 0.0529,
    "tourism_amenity_density": 0.0,
    "tri_facility_density": 0.0,
    "usgs_mean_q_cfs": 2.313,
    "velocity_feasibility": 0.7,
    "water_intake_score": 0.6136
   },
   "type": "Feature"
  },
  {
   "geometry": {
    "coordinates": [
     -80.566707,
     35.219356
    ],
    "type": "Point"
   },
   "properties": {
    "accumulation": 90204.0,
    "bank_slope_deg": 21.89,
    "bank_slope_score": 0.5,
    "bank_slope_source": "nc-dps-lidar-dem03-cross-section",
    "beach_dist_km": 277.49,
    "bridge_proximity_bonus": 0.0,
    "catchment_area_km2": 9.0013,
    "channel_width_m": 7.77,
    "channel_width_score": 1.0,
    "composite_score": 36.8045,
    "cso_density": 0.0,
    "ej_index": 0.4629,
    "elevation_m": 166.1843,
    "estuary_dist_km": 411.12,
    "feasibility_score": 49.0675,
    "flood_q10_cfs": 998.87,
    "flow_score": 30.9447,
    "flow_velocity_ms": 0.1893,
    "generation_score": 25.2825,
    "impact_score": 47.0783,
    "impervious_pct": 2.5,
    "land_ownership": 0.5,
    "lat": 35.2194,
    "litter_complaint_density": 0.0,
    "lon": -80.5667,
    "navigable_dist_m": null,
    "npdes_points": 10,
    "pixel_col": 321.0,
    "pixel_row": 984.0,
    "population_density": 113.3,
    "position_along": 0.5,
    "protected_area_score": 16.7651,
    "rank": 26,
    "road_access_m": 509.5,
    "road_access_score": 0.6,
    "road_density_km_km2": 2.081,
    "robustness_pct": 0.0,
    "runoff_coeff_C": 0.0725,
    "seasonal_cv": 0.4335,
    "segment_id": 26,
    "segment_length_m": 882.3229,
    "stream_order": 3,
    "superfund_score": 0.0499,
    "tourism_amenity_density": 0.3183,
    "tri_facility_density": 0.0,
    "usgs_mean_q_cfs": 4.599,
    "velocity_feasibility": 0.7,
    "water_intake_score": 0.583
   },
   "type": "Feature"
  },
  {
   "geometry": {
    "coordinates": [
     -80.54343,
     35.234946
    ],
    "type": "Point"
   },
   "properties": {
    "accumulation": 39823.0,
    "bank_slope_deg": 4.91,
    "bank_slope_score": 1.0,
    "bank_slope_source": "nc-dps-lidar-dem03-cross-section",
    "beach_dist_km": 276.24,
    "bridge_proximity_bonus": 0.0,
    "catchment_area_km2": 3.9739,
    "channel_width_m": 5.53,
    "channel_width_score": 1.0,
    "composite_score": 36.732,
    "cso_density": 0.0,
    "ej_index": 0.5033,
    "elevation_m": 169.9284,
    "estuary_dist_km": 409.06,
    "feasibility_score": 66.4286,
    "flood_q10_cfs": 550.54,
    "flow_score": 24.3259,
    "flow_velocity_ms": 0.1267,
    "generation_score": 19.0292,
    "impact_score": 49.9249,
    "impervious_pct": 2.6,
    "land_ownership": 0.5,
    "lat": 35.2349,
    "litter_complaint_density": 0.0,
    "lon": -80.5434,
    "navigable_dist_m": null,
    "npdes_points": 0,
    "pixel_col": 532.0,
    "pixel_row": 810.0,
    "population_density": 80.1,
    "position_along": 0.1667,
    "protected_area_score": 14.1768,
    "rank": 27,
    "road_access_m": 158.9,
    "road_access_score": 1.0,
    "road_density_km_km2": 2.337,
    "robustness_pct": 0.0,
    "runoff_coeff_C": 0.0734,
    "seasonal_cv": 0.4329,
    "segment_id": 20,
    "segment_length_m": 5711.1903,
    "stream_order": 3,
    "superfund_score": 0.0312,
    "tourism_amenity_density": 0.3979,
    "tri_facility_density": 0.0,
    "usgs_mean_q_cfs": 3.246,
    "velocity_feasibility": 0.7,
    "water_intake_score": 0.6286
   },
   "type": "Feature"
  },
  {
   "geometry": {
    "coordinates": [
     -80.531094,
     35.227938
    ],
    "type": "Point"
   },
   "properties": {
    "accumulation": 51096.0,
    "bank_slope_deg": 5.96,
    "bank_slope_score": 1.0,
    "bank_slope_source": "nc-dps-lidar-dem03-cross-section",
    "beach_dist_km": 274.9,
    "bridge_proximity_bonus": 0.0,
    "catchment_area_km2": 5.0988,
    "channel_width_m": 6.13,
    "channel_width_score": 1.0,
    "composite_score": 36.4277,
    "cso_density": 0.0,
    "ej_index": 0.5033,
    "elevation_m": 159.6307,
    "estuary_dist_km": 407.91,
    "feasibility_score": 60.873,
    "flood_q10_cfs": 664.31,
    "flow_score": 25.1799,
    "flow_velocity_ms": 0.1192,
    "generation_score": 17.5546,
    "impact_score": 52.4512,
    "impervious_pct": 2.6,
    "land_ownership": 0.5,
    "lat": 35.2279,
    "litter_complaint_density": 0.0,
    "lon": -80.5311,
    "navigable_dist_m": null,
    "npdes_points": 0,
    "pixel_col": 646.0,
    "pixel_row": 887.0,
    "population_density": 80.1,
    "position_along": 0.5,
    "protected_area_score": 13.3357,
    "rank": 28,
    "road_access_m": 492.0,
    "road_access_score": 0.8,
    "road_density_km_km2": 1.826,
    "robustness_pct": 0.0,
    "runoff_coeff_C": 0.0734,
    "seasonal_cv": 0.4329,
    "segment_id": 20,
    "segment_length_m": 5711.1903,
    "stream_order": 3,
    "superfund_score": 0.0326,
    "tourism_amenity_density": 0.557,
    "tri_facility_density": 0.0,
    "usgs_mean_q_cfs": 3.246,
    "velocity_feasibility": 0.7,
    "water_intake_score": 0.6057
   },
   "type": "Feature"
  },
  {
   "geometry": {
    "coordinates": [
     -80.589801,
     35.276008
    ],
    "type": "Point"
   },
   "properties": {
    "accumulation": 53503.0,
    "bank_slope_deg": 10.35,
    "bank_slope_score": 1.0,
    "bank_slope_source": "nc-dps-lidar-dem03-cross-section",
    "beach_dist_km": 281.93,
    "bridge_proximity_bonus": 0.0,
    "catchment_area_km2": 5.339,
    "channel_width_m": 6.25,
    "channel_width_score": 1.0,
    "composite_score": 36.0664,
    "cso_density": 0.0,
    "ej_index": 0.2097,
    "elevation_m": 175.7391,
    "estuary_dist_km": 413.41,
    "feasibility_score": 55.0,
    "flood_q10_cfs": 704.2,
    "flow_score": 27.3056,
    "flow_velocity_ms": 0.0405,
    "generation_score": 38.405,
    "impact_score": 31.5618,
    "impervious_pct": 3.95,
    "land_ownership": 0.5,
    "lat": 35.276,
    "litter_complaint_density": 0.0,
    "lon": -80.5898,
    "navigable_dist_m": null,
    "npdes_points": 0,
    "pixel_col": 109.0,
    "pixel_row": 352.0,
    "population_density": 256.7,
    "position_along": 0.125,
    "protected_area_score": 13.1404,
    "rank": 29,
    "road_access_m": 172.2,
    "road_access_score": 1.0,
    "road_density_km_km2": 2.236,
    "robustness_pct": 0.0,
    "runoff_coeff_C": 0.0856,
    "seasonal_cv": 0.448,
    "segment_id": 14,
    "segment_length_m": 6562.2974,
    "stream_order": 3,
    "superfund_score": 0.0222,
    "tourism_amenity_density": 0.0,
    "tri_facility_density": 0.0,
    "usgs_mean_q_cfs": 10.264,
    "velocity_feasibility": 0.3,
    "water_intake_score": 0.8657
   },
   "type": "Feature"
  },
  {
   "geometry": {
    "coordinates": [
     -80.576679,
     35.222485
    ],
    "type": "Point"
   },
   "properties": {
    "accumulation": 31926.0,
    "bank_slope_deg": 9.79,
    "bank_slope_score": 1.0,
    "bank_slope_source": "nc-dps-lidar-dem03-cross-section",
    "beach_dist_km": 278.46,
    "bridge_proximity_bonus": 0.0,
    "catchment_area_km2": 3.1858,
    "channel_width_m": 5.05,
    "channel_width_score": 1.0,
    "composite_score": 34.9214,
    "cso_density": 0.0,
    "ej_index": 0.4567,
    "elevation_m": 175.323,
    "estuary_dist_km": 412.04,
    "feasibility_score": 66.4286,
    "flood_q10_cfs": 457.83,
    "flow_score": 22.1927,
    "flow_velocity_ms": 0.1011,
    "generation_score": 21.1264,
    "impact_score": 43.5701,
    "impervious_pct": 1.58,
    "land_ownership": 0.5,
    "lat": 35.2225,
    "litter_complaint_density": 0.0,
    "lon": -80.5767,
    "navigable_dist_m": null,
    "npdes_points": 1,
    "pixel_col": 229.0,
    "pixel_row": 949.0,
    "population_density": 118.4,
    "position_along": 0.5,
    "protected_area_score": 17.6394,
    "rank": 30,
    "road_access_m": 176.8,
    "road_access_score": 1.0,
    "road_density_km_km2": 2.849,
    "robustness_pct": 0.0,
    "runoff_coeff_C": 0.0642,
    "seasonal_cv": 0.4215,
    "segment_id": 25,
    "segment_length_m": 2276.2351,
    "stream_order": 3,
    "superfund_score": 0.0628,
    "tourism_amenity_density": 0.0,
    "tri_facility_density": 0.0,
    "usgs_mean_q_cfs": 2.206,
    "velocity_feasibility": 0.7,
    "water_intake_score": 0.594
   },
   "type": "Feature"
  },
  {
   "geometry": {
    "coordinates": [
     -80.482192,
     35.266588
    ],
    "type": "Point"
   },
   "properties": {
    "accumulation": 98581.0,
    "bank_slope_deg": 12.48,
    "bank_slope_score": 1.0,
    "bank_slope_source": "nc-dps-lidar-dem03-cross-section",
    "beach_dist_km": 272.6,
    "bridge_proximity_bonus": 0.0,
    "catchment_area_km2": 9.8372,
    "channel_width_m": 8.06,
    "channel_width_score": 1.0,
    "composite_score": 33.7139,
    "cso_density": 0.0,
    "ej_index": 0.0605,
    "elevation_m": 142.496,
    "estuary_dist_km": 403.61,
    "feasibility_score": 63.8889,
    "flood_q10_cfs": 1013.61,
    "flow_score": 46.6386,
    "flow_velocity_ms": 0.5,
    "generation_score": 5.8709,
    "impact_score": 35.6988,
    "impervious_pct": null,
    "land_ownership": 0.5,
    "lat": 35.2666,
    "litter_complaint_density": 0.0,
    "lon": -80.4822,
    "navigable_dist_m": null,
    "npdes_points": 2,
    "pixel_col": 1089.0,
    "pixel_row": 456.0,
    "population_density": 46.2,
    "position_along": 0.75,
    "protected_area_score": 7.9344,
    "rank": 31,
    "road_access_m": 961.3,
    "road_access_score": 0.6,
    "road_density_km_km2": 1.305,
    "robustness_pct": 0.0,
    "runoff_coeff_C": null,
    "seasonal_cv": null,
    "segment_id": 10,
    "segment_length_m": 4386.9099,
    "stream_order": 3,
    "superfund_score": 0.015,
    "tourism_amenity_density": 0.2387,
    "tri_facility_density": 0.0,
    "usgs_mean_q_cfs": null,
    "velocity_feasibility": 1.0,
    "water_intake_score": 0.7308
   },
   "type": "Feature"
  },
  {
   "geometry": {
    "coordinates": [
     -80.487298,
     35.244295
    ],
    "type": "Point"
   },
   "properties": {
    "accumulation": 20798.0,
    "bank_slope_deg": 11.48,
    "bank_slope_score": 1.0,
    "bank_slope_source": "nc-dps-lidar-dem03-cross-section",
    "beach_dist_km": 272.0,
    "bridge_proximity_bonus": 0.0,
    "catchment_area_km2": 2.0754,
    "channel_width_m": 4.22,
    "channel_width_score": 1.0,
    "composite_score": 33.5981,
    "cso_density": 0.0,
    "ej_index": 0.2784,
    "elevation_m": 142.3152,
    "estuary_dist_km": 403.99,
    "feasibility_score": 69.4444,
    "flood_q10_cfs": 322.43,
    "flow_score": 40.0,
    "flow_velocity_ms": 0.5,
    "generation_score": 6.6304,
    "impact_score": 37.3078,
    "impervious_pct": null,
    "land_ownership": 0.5,
    "lat": 35.2443,
    "litter_complaint_density": 0.0,
    "lon": -80.4873,
    "navigable_dist_m": null,
    "npdes_points": 2,
    "pixel_col": 1044.0,
    "pixel_row": 701.0,
    "population_density": 78.2,
    "position_along": 0.5,
    "protected_area_score": 7.6992,
    "rank": 32,
    "road_access_m": 268.6,
    "road_access_score": 0.8,
    "road_density_km_km2": 0.597,
    "robustness_pct": 0.0,
    "runoff_coeff_C": null,
    "seasonal_cv": null,
    "segment_id": 18,
    "segment_length_m": 486.4687,
    "stream_order": 3,
    "superfund_score": 0.0215,
    "tourism_amenity_density": 0.0,
    "tri_facility_density": 0.0,
    "usgs_mean_q_cfs": null,
    "velocity_feasibility": 1.0,
    "water_intake_score": 0.6453
   },
   "type": "Feature"
  },
  {
   "geometry": {
    "coordinates": [
     -80.483407,
     35.21767
    ],
    "type": "Point"
   },
   "properties": {
    "accumulation": 25916.0,
    "bank_slope_deg": 19.23,
    "bank_slope_score": 0.5,
    "bank_slope_source": "nc-dps-lidar-dem03-cross-section",
    "beach_dist_km": 270.47,
    "bridge_proximity_bonus": 0.0,
    "catchment_area_km2": 2.5861,
    "channel_width_m": 4.63,
    "channel_width_score": 1.0,
    "composite_score": 33.4447,
    "cso_density": 0.0,
    "ej_index": 0.3682,
    "elevation_m": 139.685,
    "estuary_dist_km": 403.56,
    "feasibility_score": 57.6389,
    "flood_q10_cfs": 380.57,
    "flow_score": 40.5119,
    "flow_velocity_ms": 0.5,
    "generation_score": 5.0847,
    "impact_score": 43.8182,
    "impervious_pct": null,
    "land_ownership": 0.5,
    "lat": 35.2177,
    "litter_complaint_density": 0.0,
    "lon": -80.4834,
    "navigable_dist_m": null,
    "npdes_points": 0,
    "pixel_col": 1079.0,
    "pixel_row": 999.0,
    "population_density": 72.5,
    "position_along": 0.5,
    "protected_area_score": 9.6293,
    "rank": 33,
    "road_access_m": 988.2,
    "road_access_score": 0.6,
    "road_density_km_km2": 0.539,
    "robustness_pct": 0.0,
    "runoff_coeff_C": null,
    "seasonal_cv": null,
    "segment_id": 27,
    "segment_length_m": 425.1125,
    "stream_order": 3,
    "superfund_score": 0.0388,
    "tourism_amenity_density": 0.0,
    "tri_facility_density": 0.0,
    "usgs_mean_q_cfs": null,
    "velocity_feasibility": 1.0,
    "water_intake_score": 0.5803
   },
   "type": "Feature"
  },
  {
   "geometry": {
    "coordinates": [
     -80.504338,
     35.195053
    ],
    "type": "Point"
   },
   "properties": {
    "accumulation": 37138.0,
    "bank_slope_deg": 12.93,
    "bank_slope_score": 1.0,
    "bank_slope_source": "nc-dps-lidar-dem03-cross-section",
    "beach_dist_km": 271.22,
    "bridge_proximity_bonus": 0.0,
    "catchment_area_km2": 3.7059,
    "channel_width_m": 5.37,
    "channel_width_score": 1.0,
    "composite_score": 33.4434,
    "cso_density": 0.0,
    "ej_index": 0.358,
    "elevation_m": 136.9905,
    "estuary_dist_km": 405.4,
    "feasibility_score": 69.4444,
    "flood_q10_cfs": 499.1,
    "flow_score": 27.5812,
    "flow_velocity_ms": 0.5,
    "generation_score": 8.2662,
    "impact_score": 45.5054,
    "impervious_pct": null,
    "land_ownership": 0.5,
    "lat": 35.1951,
    "litter_complaint_density": 0.0,
    "lon": -80.5043,
    "navigable_dist_m": null,
    "npdes_points": 5,
    "pixel_col": 888.0,
    "pixel_row": 1251.0,
    "population_density": 72.2,
    "position_along": 0.5,
    "protected_area_score": 12.7122,
    "rank": 34,
    "road_access_m": 456.3,
    "road_access_score": 0.8,
    "road_density_km_km2": 0.889,
    "robustness_pct": 0.0,
    "runoff_coeff_C": null,
    "seasonal_cv": null,
    "segment_id": 36,
    "segment_length_m": 995.3401,
    "stream_order": 1,
    "superfund_score": 0.0682,
    "tourism_amenity_density": 0.0,
    "tri_facility_density": 0.0,
    "usgs_mean_q_cfs": null,
    "velocity_feasibility": 1.0,
    "water_intake_score": 0.5399
   },
   "type": "Feature"
  },
  {
   "geometry": {
    "coordinates": [
     -80.520618,
     35.268909
    ],
    "type": "Point"
   },
   "properties": {
    "accumulation": 234065.0,
    "bank_slope_deg": 25.32,
    "bank_slope_score": 0.5,
    "bank_slope_source": "nc-dps-lidar-dem03-cross-section",
    "beach_dist_km": 275.88,
    "bridge_proximity_bonus": 0.0,
    "catchment_area_km2": 23.3569,
    "channel_width_m": 11.54,
    "channel_width_score": 1.0,
    "composite_score": 32.893,
    "cso_density": 0.0,
    "ej_index": 0.1141,
    "elevation_m": 152.607,
    "estuary_dist_km": 407.11,
    "feasibility_score": 54.623,
    "flood_q10_cfs": 1676.66,
    "flow_score": 40.5387,
    "flow_velocity_ms": 0.0822,
    "generation_score": 18.5009,
    "impact_score": 30.0487,
    "impervious_pct": 1.76,
    "land_ownership": 0.5,
    "lat": 35.2689,
    "litter_complaint_density": 0.0,
    "lon": -80.5206,
    "navigable_dist_m": null,
    "npdes_points": 5,
    "pixel_col": 739.0,
    "pixel_row": 431.0,
    "population_density": 83.3,
    "position_along": 0.5,
    "protected_area_score": 8.8093,
    "rank": 35,
    "road_access_m": 200.1,
    "road_access_score": 0.8,
    "road_density_km_km2": 2.201,
    "robustness_pct": 0.0,
    "runoff_coeff_C": 0.0658,
    "seasonal_cv": 0.4612,
    "segment_id": 17,
    "segment_length_m": 2074.3173,
    "stream_order": 3,
    "superfund_score": 0.0172,
    "tourism_amenity_density": 0.0,
    "tri_facility_density": 0.0,
    "usgs_mean_q_cfs": 14.431,
    "velocity_feasibility": 0.7,
    "water_intake_score": 0.7581
   },
   "type": "Feature"
  },
  {
   "geometry": {
    "coordinates": [
     -80.523013,
     35.258254
    ],
    "type": "Point"
   },
   "properties": {
    "accumulation": 24003.0,
    "bank_slope_deg": 8.31,
    "bank_slope_score": 1.0,
    "bank_slope_source": "nc-dps-lidar-dem03-cross-section",
    "beach_dist_km": 275.59,
    "bridge_proximity_bonus": 0.0,
    "catchment_area_km2": 2.3952,
    "channel_width_m": 4.48,
    "channel_width_score": 1.0,
    "composite_score": 32.6022,
    "cso_density": 0.0,
    "ej_index": 0.1159,
    "elevation_m": 164.332,
    "estuary_dist_km": 407.28,
    "feasibility_score": 55.3175,
    "flood_q10_cfs": 387.61,
    "flow_score": 23.2561,
    "flow_velocity_ms": 0.0962,
    "generation_score": 27.8268,
    "impact_score": 33.8085,
    "impervious_pct": 4.35,
    "land_ownership": 0.5,
    "lat": 35.2583,
    "litter_complaint_density": 0.0,
    "lon": -80.523,
    "navigable_dist_m": null,
    "npdes_points": 0,
    "pixel_col": 716.0,
    "pixel_row": 550.0,
    "population_density": 124.8,
    "position_along": 0.25,
    "protected_area_score": 9.041,
    "rank": 36,
    "road_access_m": 573.2,
    "road_access_score": 0.6,
    "road_density_km_km2": 2.142,
    "robustness_pct": 0.0,
    "runoff_coeff_C": 0.0892,
    "seasonal_cv": 0.4391,
    "segment_id": 15,
    "segment_length_m": 3767.6174,
    "stream_order": 3,
    "superfund_score": 0.0198,
    "tourism_amenity_density": 0.3979,
    "tri_facility_density": 0.0,
    "usgs_mean_q_cfs": 4.356,
    "velocity_feasibility": 0.7,
    "water_intake_score": 0.7127
   },
   "type": "Feature"
  },
  {
   "geometry": {
    "coordinates": [
     -80.550223,
     35.202481
    ],
    "type": "Point"
   },
   "properties": {
    "accumulation": 33600.0,
    "bank_slope_deg": 15.37,
    "bank_slope_score": 0.5,
    "bank_slope_source": "nc-dps-lidar-dem03-cross-section",
    "beach_dist_km": 275.38,
    "bridge_proximity_bonus": 0.0,
    "catchment_area_km2": 3.3529,
    "channel_width_m": 5.15,
    "channel_width_score": 1.0,
    "composite_score": 32.5375,
    "cso_density": 0.0,
    "ej_index": 0.4089,
    "elevation_m": 154.3774,
    "estuary_dist_km": 409.59,
    "feasibility_score": 49.0675,
    "flood_q10_cfs": 472.48,
    "flow_score": 22.9945,
    "flow_velocity_ms": 0.1429,
    "generation_score": 11.9963,
    "impact_score": 52.7661,
    "impervious_pct": 1.18,
    "land_ownership": 0.5,
    "lat": 35.2025,
    "litter_complaint_density": 0.0,
    "lon": -80.5502,
    "navigable_dist_m": null,
    "npdes_points": 1,
    "pixel_col": 473.0,
    "pixel_row": 1168.0,
    "population_density": 73.6,
    "position_along": 0.5,
    "protected_area_score": 15.8833,
    "rank": 37,
    "road_access_m": 507.3,
    "road_access_score": 0.6,
    "road_density_km_km2": 1.476,
    "robustness_pct": 0.0,
    "runoff_coeff_C": 0.0606,
    "seasonal_cv": 0.4274,
    "segment_id": 31,
    "segment_length_m": 1863.8299,
    "stream_order": 3,
    "superfund_score": 0.0604,
    "tourism_amenity_density": 0.7958,
    "tri_facility_density": 0.0,
    "usgs_mean_q_cfs": 1.996,
    "velocity_feasibility": 0.7,
    "water_intake_score": 0.5448
   },
   "type": "Feature"
  },
  {
   "geometry": {
    "coordinates": [
     -80.48568,
     35.277446
    ],
    "type": "Point"
   },
   "properties": {
    "accumulation": 117846.0,
    "bank_slope_deg": 30.22,
    "bank_slope_score": 0.2,
    "bank_slope_source": "nc-dps-lidar-dem03-cross-section",
    "beach_dist_km": 273.4,
    "bridge_proximity_bonus": 0.0,
    "catchment_area_km2": 11.7596,
    "channel_width_m": 8.68,
    "channel_width_score": 1.0,
    "composite_score": 32.2962,
    "cso_density": 0.0,
    "ej_index": 0.0486,
    "elevation_m": 143.1895,
    "estuary_dist_km": 403.98,
    "feasibility_score": 53.8889,
    "flood_q10_cfs": 1118.95,
    "flow_score": 47.8924,
    "flow_velocity_ms": 0.5,
    "generation_score": 4.7181,
    "impact_score": 36.081,
    "impervious_pct": null,
    "land_ownership": 0.5,
    "lat": 35.2774,
    "litter_complaint_density": 0.0,
    "lon": -80.4857,
    "navigable_dist_m": null,
    "npdes_points": 1,
    "pixel_col": 1056.0,
    "pixel_row": 335.0,
    "population_density": 48.6,
    "position_along": 0.5,
    "protected_area_score": 7.9703,
    "rank": 38,
    "road_access_m": 816.9,
    "road_access_score": 0.6,
    "road_density_km_km2": 0.985,
    "robustness_pct": 0.0,
    "runoff_coeff_C": null,
    "seasonal_cv": null,
    "segment_id": 4,
    "segment_length_m": 1130.05,
    "stream_order": 3,
    "superfund_score": 0.0134,
    "tourism_amenity_density": 0.2387,
    "tri_facility_density": 0.0,
    "usgs_mean_q_cfs": null,
    "velocity_feasibility": 1.0,
    "water_intake_score": 0.78
   },
   "type": "Feature"
  },
  {
   "geometry": {
    "coordinates": [
     -80.479336,
     35.288482
    ],
    "type": "Point"
   },
   "properties": {
    "accumulation": 38110.0,
    "bank_slope_deg": 18.55,
    "bank_slope_score": 0.5,
    "bank_slope_source": "nc-dps-lidar-dem03-cross-section",
    "beach_dist_km": 273.4,
    "bridge_proximity_bonus": 0.0,
    "catchment_area_km2": 3.8029,
    "channel_width_m": 5.43,
    "channel_width_score": 1.0,
    "composite_score": 31.4484,
    "cso_density": 0.0,
    "ej_index": 0.0444,
    "elevation_m": 143.8169,
    "estuary_dist_km": 403.45,
    "feasibility_score": 57.6389,
    "flood_q10_cfs": 508.91,
    "flow_score": 41.6711,
    "flow_velocity_ms": 0.5,
    "generation_score": 2.8973,
    "impact_score": 38.3852,
    "impervious_pct": null,
    "land_ownership": 0.5,
    "lat": 35.2885,
    "litter_complaint_density": 0.0,
    "lon": -80.4793,
    "navigable_dist_m": null,
    "npdes_points": 0,
    "pixel_col": 1110.0,
    "pixel_row": 213.0,
    "population_density": 43.8,
    "position_along": 0.5,
    "protected_area_score": 7.8396,
    "rank": 39,
    "road_access_m": 982.5,
    "road_access_score": 0.6,
    "road_density_km_km2": 0.652,
    "robustness_pct": 0.0,
    "runoff_coeff_C": null,
    "seasonal_cv": null,
    "segment_id": 1,
    "segment_length_m": 2511.9648,
    "stream_order": 3,
    "superfund_score": 0.0117,
    "tourism_amenity_density": 0.2387,
    "tri_facility_density": 0.0,
    "usgs_mean_q_cfs": null,
    "velocity_feasibility": 1.0,
    "water_intake_score": 0.8313
   },
   "type": "Feature"
  },
  {
   "geometry": {
    "coordinates": [
     -80.523971,
     35.2775
    ],
    "type": "Point"
   },
   "properties": {
    "accumulation": 154090.0,
    "bank_slope_deg": 10.99,
    "bank_slope_score": 1.0,
    "bank_slope_source": "nc-dps-lidar-dem03-cross-section",
    "beach_dist_km": 276.56,
    "bridge_proximity_bonus": 0.0,
    "catchment_area_km2": 15.3764,
    "channel_width_m": 9.7,
    "channel_width_score": 1.0,
    "composite_score": 30.5649,
    "cso_density": 0.0,
    "ej_index": 0.1206,
    "elevation_m": 156.7345,
    "estuary_dist_km": 407.45,
    "feasibility_score": 60.873,
    "flood_q10_cfs": 1317.46,
    "flow_score": 31.9544,
    "flow_velocity_ms": 0.0515,
    "generation_score": 13.4277,
    "impact_score": 31.3903,
    "impervious_pct": 1.07,
    "land_ownership": 0.5,
    "lat": 35.2775,
    "litter_complaint_density": 0.0,
    "lon": -80.524,
    "navigable_dist_m": null,
    "npdes_points": 1,
    "pixel_col": 705.0,
    "pixel_row": 336.0,
    "population_density": 78.4,
    "position_along": 0.5,
    "protected_area_score": 9.0724,
    "rank": 40,
    "road_access_m": 309.1,
    "road_access_score": 0.8,
    "road_density_km_km2": 1.945,
    "robustness_pct": 0.0,
    "runoff_coeff_C": 0.0596,
    "seasonal_cv": 0.4377,
    "segment_id": 8,
    "segment_length_m": 879.8991,
    "stream_order": 3,
    "superfund_score": 0.0161,
    "tourism_amenity_density": 0.0,
    "tri_facility_density": 0.0,
    "usgs_mean_q_cfs": 7.162,
    "velocity_feasibility": 0.7,
    "water_intake_score": 0.8021
   },
   "type": "Feature"
  },
  {
   "geometry": {
    "coordinates": [
     -80.492693,
     35.285977
    ],
    "type": "Point"
   },
   "properties": {
    "accumulation": 43111.0,
    "bank_slope_deg": 6.37,
    "bank_slope_score": 1.0,
    "bank_slope_source": "nc-dps-lidar-dem03-cross-section",
    "beach_dist_km": 274.38,
    "bridge_proximity_bonus": 0.0,
    "catchment_area_km2": 4.302,
    "channel_width_m": 5.72,
    "channel_width_score": 1.0,
    "composite_score": 30.0539,
    "cso_density": 0.0,
    "ej_index": 0.0446,
    "elevation_m": 147.4532,
    "estuary_dist_km": 404.65,
    "feasibility_score": 46.9841,
    "flood_q10_cfs": 615.75,
    "flow_score": 26.0566,
    "flow_velocity_ms": 0.1172,
    "generation_score": 20.7056,
    "impact_score": 34.2682,
    "impervious_pct": 5.58,
    "land_ownership": 0.5,
    "lat": 35.286,
    "litter_complaint_density": 0.0,
    "lon": -80.4927,
    "navigable_dist_m": null,
    "npdes_points": 0,
    "pixel_col": 992.0,
    "pixel_row": 237.0,
    "population_density": 44.0,
    "position_along": 0.5,
    "protected_area_score": 8.0756,
    "rank": 41,
    "road_access_m": 1094.8,
    "road_access_score": 0.3,
    "road_density_km_km2": 0.8,
    "robustness_pct": 0.0,
    "runoff_coeff_C": 0.1002,
    "seasonal_cv": 0.4258,
    "segment_id": 3,
    "segment_length_m": 2534.6615,
    "stream_order": 3,
    "superfund_score": 0.0128,
    "tourism_amenity_density": 0.0796,
    "tri_facility_density": 0.0,
    "usgs_mean_q_cfs": 3.33,
    "velocity_feasibility": 0.7,
    "water_intake_score": 0.826
   },
   "type": "Feature"
  },
  {
   "geometry": {
    "coordinates": [
     -80.526406,
     35.280572
    ],
    "type": "Point"
   },
   "properties": {
    "accumulation": 63959.0,
    "bank_slope_deg": 13.87,
    "bank_slope_score": 1.0,
    "bank_slope_source": "nc-dps-lidar-dem03-cross-section",
    "beach_dist_km": 276.9,
    "bridge_proximity_bonus": 0.0,
    "catchment_area_km2": 6.3823,
    "channel_width_m": 6.73,
    "channel_width_score": 1.0,
    "composite_score": 29.1955,
    "cso_density": 0.0,
    "ej_index": 0.134,
    "elevation_m": 159.3056,
    "estuary_dist_km": 407.68,
    "feasibility_score": 60.873,
    "flood_q10_cfs": 765.33,
    "flow_score": 25.8413,
    "flow_velocity_ms": 0.1222,
    "generation_score": 12.8967,
    "impact_score": 32.4507,
    "impervious_pct": 1.02,
    "land_ownership": 0.5,
    "lat": 35.2806,
    "litter_complaint_density": 0.0,
    "lon": -80.5264,
    "navigable_dist_m": null,
    "npdes_points": 1,
    "pixel_col": 685.0,
    "pixel_row": 302.0,
    "population_density": 72.4,
    "position_along": 0.5,
    "protected_area_score": 9.18,
    "rank": 42,
    "road_access_m": 415.9,
    "road_access_score": 0.8,
    "road_density_km_km2": 1.997,
    "robustness_pct": 0.0,
    "runoff_coeff_C": 0.0592,
    "seasonal_cv": 0.4216,
    "segment_id": 6,
    "segment_length_m": 319.3668,
    "stream_order": 3,
    "superfund_score": 0.0159,
    "tourism_amenity_density": 0.0,
    "tri_facility_density": 0.0,
    "usgs_mean_q_cfs": 3.307,
    "velocity_feasibility": 0.7,
    "water_intake_score": 0.8266
   },
   "type": "Feature"
  },
  {
   "geometry": {
    "coordinates": [
     -80.53086,
     35.275185
    ],
    "type": "Point"
   },
   "properties": {
    "accumulation": 61827.0,
    "bank_slope_deg": 12.68,
    "bank_slope_score": 1.0,
    "bank_slope_source": "nc-dps-lidar-dem03-cross-section",
    "beach_dist_km": 277.02,
    "bridge_proximity_bonus": 0.0,
    "catchment_area_km2": 6.1696,
    "channel_width_m": 6.64,
    "channel_width_score": 1.0,
    "composite_score": 28.7474,
    "cso_density": 0.0,
    "ej_index": 0.0931,
    "elevation_m": 160.3374,
    "estuary_dist_km": 408.06,
    "feasibility_score": 60.873,
    "flood_q10_cfs": 749.82,
    "flow_score": 25.5117,
    "flow_velocity_ms": 0.1162,
    "generation_score": 14.6343,
    "impact_score": 29.4942,
    "impervious_pct": 1.31,
    "land_ownership": 0.5,
    "lat": 35.2752,
    "litter_complaint_density": 0.0,
    "lon": -80.5309,
    "navigable_dist_m": null,
    "npdes_points": 1,
    "pixel_col": 645.0,
    "pixel_row": 361.0,
    "population_density": 76.5,
    "position_along": 0.8333,
    "protected_area_score": 9.4136,
    "rank": 43,
    "road_access_m": 338.8,
    "road_access_score": 0.8,
    "road_density_km_km2": 2.162,
    "robustness_pct": 0.0,
    "runoff_coeff_C": 0.0618,
    "seasonal_cv": 0.4235,
    "segment_id": 16,
    "segment_length_m": 4686.4701,
    "stream_order": 3,
    "superfund_score": 0.017,
    "tourism_amenity_density": 0.0,
    "tri_facility_density": 0.0,
    "usgs_mean_q_cfs": 3.077,
    "velocity_feasibility": 0.7,
    "water_intake_score": 0.7948
   },
   "type": "Feature"
  },
  {
   "geometry": {
    "coordinates": [
     -80.527915,
     35.281222
    ],
    "type": "Point"
   },
   "properties": {
    "accumulation": 20827.0,
    "bank_slope_deg": 5.76,
    "bank_slope_score": 1.0,
    "bank_slope_source": "nc-dps-lidar-dem03-cross-section",
    "beach_dist_km": 277.05,
    "bridge_proximity_bonus": 0.2,
    "catchment_area_km2": 2.0783,
    "channel_width_m": 4.23,
    "channel_width_score": 1.0,
    "composite_score": 28.6017,
    "cso_density": 0.0,
    "ej_index": 0.1237,
    "elevation_m": 159.8813,
    "estuary_dist_km": 407.82,
    "feasibility_score": 70.873,
    "flood_q10_cfs": 328.58,
    "flow_score": 21.0107,
    "flow_velocity_ms": 0.0872,
    "generation_score": 10.4119,
    "impact_score": 31.9818,
    "impervious_pct": 1.02,
    "land_ownership": 0.5,
    "lat": 35.2812,
    "litter_complaint_density": 0.0,
    "lon": -80.5279,
    "navigable_dist_m": null,
    "npdes_points": 0,
    "pixel_col": 670.0,
    "pixel_row": 295.0,
    "population_density": 58.8,
    "position_along": 0.5,
    "protected_area_score": 9.1904,
    "rank": 44,
    "road_access_m": 483.5,
    "road_access_score": 0.8,
    "road_density_km_km2": 1.701,
    "robustness_pct": 0.0,
    "runoff_coeff_C": 0.0592,
    "seasonal_cv": 0.4216,
    "segment_id": 5,
    "segment_length_m": 44.0954,
    "stream_order": 3,
    "superfund_score": 0.0159,
    "tourism_amenity_density": 0.0,
    "tri_facility_density": 0.0,
    "usgs_mean_q_cfs": 3.307,
    "velocity_feasibility": 0.7,
    "water_intake_score": 0.8313
   },
   "type": "Feature"
  },
  {
   "geometry": {
    "coordinates": [
     -80.536905,
     35.287101
    ],
    "type": "Point"
   },
   "properties": {
    "accumulation": 35080.0,
    "bank_slope_deg": 14.2,
    "bank_slope_score": 1.0,
    "bank_slope_source": "nc-dps-lidar-dem03-cross-section",
    "beach_dist_km": 278.07,
    "bridge_proximity_bonus": 0.0,
    "catchment_area_km2": 3.5006,
    "channel_width_m": 5.25,
    "channel_width_score": 1.0,
    "composite_score": 28.2867,
    "cso_density": 0.0,
    "ej_index": 0.1772,
    "elevation_m": 164.5119,
    "estuary_dist_km": 408.67,
    "feasibility_score": 66.4286,
    "flood_q10_cfs": 486.72,
    "flow_score": 22.4183,
    "flow_velocity_ms": 0.0874,
    "generation_score": 7.4995,
    "impact_score": 34.8932,
    "impervious_pct": 1.02,
    "land_ownership": 0.5,
    "lat": 35.2871,
    "litter_complaint_density": 0.0,
    "lon": -80.5369,
    "navigable_dist_m": null,
    "npdes_points": 0,
    "pixel_col": 589.0,
    "pixel_row": 230.0,
    "population_density": 32.2,
    "position_along": 0.5,
    "protected_area_score": 9.8128,
    "rank": 45,
    "road_access_m": 164.0,
    "road_access_score": 1.0,
    "road_density_km_km2": 1.499,
    "robustness_pct": 0.0,
    "runoff_coeff_C": 0.0592,
    "seasonal_cv": 0.4216,
    "segment_id": 2,
    "segment_length_m": 2603.8774,
    "stream_order": 3,
    "superfund_score": 0.0161,
    "tourism_amenity_density": 0.0,
    "tri_facility_density": 0.0,
    "usgs_mean_q_cfs": 3.307,
    "velocity_feasibility": 0.7,
    "water_intake_score": 0.8794
   },
   "type": "Feature"
  },
  {
   "geometry": {
    "coordinates": [
     -80.533875,
     35.279088
    ],
    "type": "Point"
   },
   "properties": {
    "accumulation": 78850.0,
    "bank_slope_deg": 17.73,
    "bank_slope_score": 0.5,
    "bank_slope_source": "nc-dps-lidar-dem03-cross-section",
    "beach_dist_km": 277.45,
    "bridge_proximity_bonus": 0.0,
    "catchment_area_km2": 7.8683,
    "channel_width_m": 7.34,
    "channel_width_score": 1.0,
    "composite_score": 28.1567,
    "cso_density": 0.0,
    "ej_index": 0.1058,
    "elevation_m": 162.2601,
    "estuary_dist_km": 408.35,
    "feasibility_score": 54.623,
    "flood_q10_cfs": 909.89,
    "flow_score": 27.8288,
    "flow_velocity_ms": 0.1374,
    "generation_score": 12.1981,
    "impact_score": 31.1555,
    "impervious_pct": 1.14,
    "land_ownership": 0.5,
    "lat": 35.2791,
    "litter_complaint_density": 0.0,
    "lon": -80.5339,
    "navigable_dist_m": null,
    "npdes_points": 1,
    "pixel_col": 616.0,
    "pixel_row": 315.0,
    "population_density": 59.6,
    "position_along": 0.75,
    "protected_area_score": 9.7272,
    "rank": 46,
    "road_access_m": 288.3,
    "road_access_score": 0.8,
    "road_density_km_km2": 2.014,
    "robustness_pct": 0.0,
    "runoff_coeff_C": 0.0603,
    "seasonal_cv": 0.4253,
    "segment_id": 7,
    "segment_length_m": 4110.6849,
    "stream_order": 3,
    "superfund_score": 0.0167,
    "tourism_amenity_density": 0.0,
    "tri_facility_density": 0.0,
    "usgs_mean_q_cfs": 3.899,
    "velocity_feasibility": 0.7,
    "water_intake_score": 0.8312
   },
   "type": "Feature"
  },
  {
   "geometry": {
    "coordinates": [
     -80.541708,
     35.270002
    ],
    "type": "Point"
   },
   "properties": {
    "accumulation": 53724.0,
    "bank_slope_deg": 11.33,
    "bank_slope_score": 1.0,
    "bank_slope_source": "nc-dps-lidar-dem03-cross-section",
    "beach_dist_km": 277.68,
    "bridge_proximity_bonus": 0.0,
    "catchment_area_km2": 5.361,
    "channel_width_m": 6.26,
    "channel_width_score": 1.0,
    "composite_score": 27.744,
    "cso_density": 0.0,
    "ej_index": 0.036,
    "elevation_m": 169.833,
    "estuary_dist_km": 409.03,
    "feasibility_score": 66.4286,
    "flood_q10_cfs": 674.5,
    "flow_score": 24.8847,
    "flow_velocity_ms": 0.1196,
    "generation_score": 12.1132,
    "impact_score": 26.4151,
    "impervious_pct": 1.31,
    "land_ownership": 0.5,
    "lat": 35.27,
    "litter_complaint_density": 0.0,
    "lon": -80.5417,
    "navigable_dist_m": null,
    "npdes_points": 1,
    "pixel_col": 547.0,
    "pixel_row": 416.0,
    "population_density": 57.4,
    "position_along": 0.5,
    "protected_area_score": 9.995,
    "rank": 47,
    "road_access_m": 195.4,
    "road_access_score": 1.0,
    "road_density_km_km2": 1.868,
    "robustness_pct": 0.0,
    "runoff_coeff_C": 0.0618,
    "seasonal_cv": 0.4235,
    "segment_id": 16,
    "segment_length_m": 4686.4701,
    "stream_order": 3,
    "superfund_score": 0.0189,
    "tourism_amenity_density": 0.0,
    "tri_facility_density": 0.0,
    "usgs_mean_q_cfs": 3.077,
    "velocity_feasibility": 0.7,
    "water_intake_score": 0.7898
   },
   "type": "Feature"
  },
  {
   "geometry": {
    "coordinates": [
     -80.46947,
     35.26777
    ],
    "type": "Point"
   },
   "properties": {
    "accumulation": 28362.0,
    "bank_slope_deg": 11.34,
    "bank_slope_score": 1.0,
    "bank_slope_source": "nc-dps-lidar-dem03-cross-section",
    "beach_dist_km": 271.61,
    "bridge_proximity_bonus": 0.0,
    "catchment_area_km2": 2.8302,
    "channel_width_m": 4.8,
    "channel_width_score": 1.0,
    "composite_score": 27.446,
    "cso_density": 0.0,
    "ej_index": 0.0444,
    "elevation_m": 146.1568,
    "estuary_dist_km": 402.46,
    "feasibility_score": 55.3175,
    "flood_q10_cfs": 415.11,
    "flow_score": 22.96,
    "flow_velocity_ms": 0.0942,
    "generation_score": 8.3096,
    "impact_score": 36.3848,
    "impervious_pct": 1.08,
    "land_ownership": 0.5,
    "lat": 35.2678,
    "litter_complaint_density": 0.0,
    "lon": -80.4695,
    "navigable_dist_m": null,
    "npdes_points": 0,
    "pixel_col": 1202.0,
    "pixel_row": 442.0,
    "population_density": 43.8,
    "position_along": 0.5,
    "protected_area_score": 7.266,
    "rank": 48,
    "road_access_m": 667.4,
    "road_access_score": 0.6,
    "road_density_km_km2": 1.363,
    "robustness_pct": 0.0,
    "runoff_coeff_C": 0.0597,
    "seasonal_cv": 0.4414,
    "segment_id": 9,
    "segment_length_m": 2318.9106,
    "stream_order": 3,
    "superfund_score": 0.014,
    "tourism_amenity_density": 0.2387,
    "tri_facility_density": 0.0,
    "usgs_mean_q_cfs": 6.333,
    "velocity_feasibility": 0.7,
    "water_intake_score": 0.7316
   },
   "type": "Feature"
  },
  {
   "geometry": {
    "coordinates": [
     -80.498944,
     35.265258
    ],
    "type": "Point"
   },
   "properties": {
    "accumulation": 53147.0,
    "bank_slope_deg": 18.56,
    "bank_slope_score": 0.5,
    "bank_slope_source": "nc-dps-lidar-dem03-cross-section",
    "beach_dist_km": 273.92,
    "bridge_proximity_bonus": 0.0,
    "catchment_area_km2": 5.3034,
    "channel_width_m": 6.24,
    "channel_width_score": 1.0,
    "composite_score": 27.0577,
    "cso_density": 0.0,
    "ej_index": 0.0735,
    "elevation_m": 146.2292,
    "estuary_dist_km": 405.13,
    "feasibility_score": 43.1944,
    "flood_q10_cfs": 674.32,
    "flow_score": 27.8175,
    "flow_velocity_ms": 0.04,
    "generation_score": 14.6652,
    "impact_score": 30.7487,
    "impervious_pct": 1.76,
    "land_ownership": 0.5,
    "lat": 35.2653,
    "litter_complaint_density": 0.0,
    "lon": -80.4989,
    "navigable_dist_m": null,
    "npdes_points": 2,
    "pixel_col": 936.0,
    "pixel_row": 470.0,
    "population_density": 76.8,
    "position_along": 0.25,
    "protected_area_score": 8.2531,
    "rank": 49,
    "road_access_m": 292.5,
    "road_access_score": 0.8,
    "road_density_km_km2": 1.526,
    "robustness_pct": 0.0,
    "runoff_coeff_C": 0.0658,
    "seasonal_cv": 0.4612,
    "segment_id": 10,
    "segment_length_m": 4386.9099,
    "stream_order": 3,
    "superfund_score": 0.0164,
    "tourism_amenity_density": 0.0,
    "tri_facility_density": 0.0,
    "usgs_mean_q_cfs": 14.431,
    "velocity_feasibility": 0.3,
    "water_intake_score": 0.7315
   },
   "type": "Feature"
  },
  {
   "geometry": {
    "coordinates": [
     -80.550603,
     35.280093
    ],
    "type": "Point"
   },
   "properties": {
    "accumulation": 63576.0,
    "bank_slope_deg": 19.51,
    "bank_slope_score": 0.5,
    "bank_slope_source": "nc-dps-lidar-dem03-cross-section",
    "beach_dist_km": 278.87,
    "bridge_proximity_bonus": 0.0,
    "catchment_area_km2": 6.3441,
    "channel_width_m": 6.72,
    "channel_width_score": 1.0,
    "composite_score": 26.8399,
    "cso_density": 0.0,
    "ej_index": 0.0469,
    "elevation_m": 171.4415,
    "estuary_dist_km": 409.88,
    "feasibility_score": 60.1786,
    "flood_q10_cfs": 763.48,
    "flow_score": 26.285,
    "flow_velocity_ms": 0.1306,
    "generation_score": 9.5639,
    "impact_score": 27.9091,
    "impervious_pct": 1.14,
    "land_ownership": 0.5,
    "lat": 35.2801,
    "litter_complaint_density": 0.0,
    "lon": -80.5506,
    "navigable_dist_m": null,
    "npdes_points": 1,
    "pixel_col": 465.0,
    "pixel_row": 306.0,
    "population_density": 34.2,
    "position_along": 0.25,
    "protected_area_score": 10.4824,
    "rank": 50,
    "road_access_m": 45.7,
    "road_access_score": 1.0,
    "road_density_km_km2": 1.872,
    "robustness_pct": 0.0,
    "runoff_coeff_C": 0.0603,
    "seasonal_cv": 0.4253,
    "segment_id": 7,
    "segment_length_m": 4110.6849,
    "stream_order": 3,
    "superfund_score": 0.018,
    "tourism_amenity_density": 0.0,
    "tri_facility_density": 0.0,
    "usgs_mean_q_cfs": 3.899,
    "velocity_feasibility": 0.7,
    "water_intake_score": 0.8514
   },
   "type": "Feature"
  },
  {
   "geometry": {
    "coordinates": [
     -80.478592,
     35.19321
    ],
    "type": "Point"
   },
   "properties": {
    "accumulation": 21127.0,
    "bank_slope_deg": 11.06,
    "bank_slope_score": 1.0,
    "bank_slope_source": "nc-dps-lidar-dem03-cross-section",
    "beach_dist_km": 268.99,
    "bridge_proximity_bonus": 0.0,
    "catchment_area_km2": 2.1082,
    "channel_width_m": 4.25,
    "channel_width_score": 1.0,
    "composite_score": 26.564,
    "cso_density": 0.0,
    "ej_index": 0.4762,
    "elevation_m": 148.7448,
    "estuary_dist_km": 403.06,
    "feasibility_score": 41.4286,
    "flood_q10_cfs": 331.96,
    "flow_score": 6.9356,
    "flow_velocity_ms": 0.1146,
    "generation_score": 6.0058,
    "impact_score": 56.047,
    "impervious_pct": 0.99,
    "land_ownership": 0.5,
    "lat": 35.1932,
    "litter_complaint_density": 0.0,
    "lon": -80.4786,
    "navigable_dist_m": null,
    "npdes_points": 0,
    "pixel_col": 1122.0,
    "pixel_row": 1269.0,
    "population_density": 65.6,
    "position_along": 0.5,
    "protected_area_score": 11.0583,
    "rank": 51,
    "road_access_m": 2675.9,
    "road_access_score": 0.1,
    "road_density_km_km2": 0.0,
    "robustness_pct": 0.0,
    "runoff_coeff_C": 0.0589,
    "seasonal_cv": 0.442,
    "segment_id": 37,
    "segment_length_m": 653.8647,
    "stream_order": 1,
    "superfund_score": 0.117,
    "tourism_amenity_density": 0.0,
    "tri_facility_density": 0.0,
    "usgs_mean_q_cfs": 2.599,
    "velocity_feasibility": 0.7,
    "water_intake_score": 0.5421
   },
   "type": "Feature"
  },
  {
   "geometry": {
    "coordinates": [
     -80.553647,
     35.262376
    ],
    "type": "Point"
   },
   "properties": {
    "accumulation": 32453.0,
    "bank_slope_deg": 7.96,
    "bank_slope_score": 1.0,
    "bank_slope_source": "nc-dps-lidar-dem03-cross-section",
    "beach_dist_km": 278.32,
    "bridge_proximity_bonus": 0.0,
    "catchment_area_km2": 3.2384,
    "channel_width_m": 5.08,
    "channel_width_score": 1.0,
    "composite_score": 25.3887,
    "cso_density": 0.0,
    "ej_index": 0.0093,
    "elevation_m": 179.5737,
    "estuary_dist_km": 410.08,
    "feasibility_score": 60.873,
    "flood_q10_cfs": 461.33,
    "flow_score": 22.8345,
    "flow_velocity_ms": 0.1159,
    "generation_score": 11.4459,
    "impact_score": 23.7178,
    "impervious_pct": 1.31,
    "land_ownership": 0.5,
    "lat": 35.2624,
    "litter_complaint_density": 0.0,
    "lon": -80.5536,
    "navigable_dist_m": null,
    "npdes_points": 6,
    "pixel_col": 438.0,
    "pixel_row": 503.0,
    "population_density": 34.9,
    "position_along": 0.1667,
    "protected_area_score": 10.7153,
    "rank": 52,
    "road_access_m": 416.5,
    "road_access_score": 0.8,
    "road_density_km_km2": 1.558,
    "robustness_pct": 0.0,
    "runoff_coeff_C": 0.0618,
    "seasonal_cv": 0.4235,
    "segment_id": 16,
    "segment_length_m": 4686.4701,
    "stream_order": 3,
    "superfund_score": 0.0226,
    "tourism_amenity_density": 0.0,
    "tri_facility_density": 0.0,
    "usgs_mean_q_cfs": 3.077,
    "velocity_feasibility": 0.7,
    "water_intake_score": 0.761
   },
   "type": "Feature"
  }
 ],
 "note": "GRIME region 'Midland, NC' \u2014 real-data pipeline (DEM\u2192streams\u2192candidates\u2192stream mask (sites confined to \u00b1150 m of mapped OSM/NHD waterways)\u2192region-appropriate real parameters\u2192shipped scoring, math unchanged). Width curve: Bieger et al. 2015 JAWRA Table 3, Appalachian Highlands. Flood: SIR 2014-5030 HR1. NC Piedmont (DEQ physiography polygon)",
 "provenance": {
  "candidates_pre_gate": 52,
  "constant": [
   "cso_density",
   "litter_complaint_density"
  ],
  "gated_navigable": 0,
  "hard_gate_removed": 0,
  "n_parameters": 27,
  "parameters": {
   "bank_slope_score": {
    "kind": "real",
    "n_3dep_10m_fallback": 0,
    "n_nc_lidar_3_125ft": 52,
    "n_real": 52,
    "n_sites": 52,
    "source": "NC OneMap / NC DPS DEM03 statewide lidar-derived 3.125-ft (0.953 m) elevations (perpendicular 50 m transect; robust 5 m bank-rise metric); unavailable profiles use the region 10 m 3DEP DEM-gradient fallback",
    "source_mosaics": [
     "Cabarrus_Ground_3ft",
     "Mecklenburg_Ground_3ft"
    ]
   },
   "beach_dist_km": {
    "kind": "real",
    "n_real": 52,
    "n_sites": 52,
    "source": "haversine to region ref: Wrightsville Beach (shipped NC reference)"
   },
   "bridge_proximity_bonus": {
    "kind": "real",
    "n_real": 52,
    "n_sites": 52,
    "source": "FHWA/BTS NBI (NTAD), 50 m proximity"
   },
   "catchment_area_km2": {
    "kind": "real",
    "n_real": 52,
    "n_sites": 52,
    "source": "DEM flow accumulation (pipeline)"
   },
   "channel_width_score": {
    "kind": "real",
    "n_real": 52,
    "n_sites": 52,
    "source": "Bieger 2015 AHI width curve on DEM drainage area \u2192 shipped width curve"
   },
   "cso_density": {
    "kind": "real",
    "n_real": 52,
    "n_sites": 52,
    "source": "EPA ECHO open CSO/TCS outfall PF coordinates states=NC, Cauchy proximity"
   },
   "ej_index": {
    "kind": "real",
    "n_real": 52,
    "n_sites": 52,
    "source": "Census ACS C17002+B03002 two-component demographic index, percentile-ranked within region"
   },
   "estuary_dist_km": {
    "kind": "real",
    "n_real": 52,
    "n_sites": 52,
    "source": "haversine to region ref: Pamlico Sound (shipped NC reference)"
   },
   "flood_q10_cfs": {
    "impervious_fallback_reason": "StreamCat imperviousness unavailable; the existing regression-input fallback of 0.0% impervious was used and is disclosed here",
    "kind": "real",
    "n_impervious_fallback": 13,
    "n_real": 52,
    "n_sites": 52,
    "source": "USGS SIR 2014-5030 Table 7 HR1 (NC Piedmont)"
   },
   "flow_velocity_ms": {
    "fallback_reason": "EROM/DEM continuity input unavailable; shipped 0.5 m/s default used",
    "kind": "real",
    "n_fallback": 13,
    "n_real": 39,
    "n_sites": 52,
    "source": "Manning (region DEM/D8) blended with EROM continuity (shipped M4 logic)"
   },
   "impervious_pct": {
    "fallback_reason": "NLDI/StreamCat did not return a snap-compatible catchment value; value remains null and is removed by constant-column handling",
    "kind": "real",
    "n_fallback": 13,
    "n_real": 39,
    "n_sites": 52,
    "source": "EPA StreamCat pctimp2019 (per NHDPlus watershed)"
   },
   "land_ownership": {
    "fallback_reason": "no containing parcel owner returned; shipped unknown ownership 0.5 used",
    "kind": "real",
    "n_fallback": 3,
    "n_real": 49,
    "n_sites": 52,
    "source": "NC OneMap statewide parcels (NC Parcels Transformer) ownname"
   },
   "litter_complaint_density": {
    "kind": "fallback",
    "n_real": 0,
    "n_sites": 52,
    "source": "no public machine-readable litter/illegal-dumping feed for this region"
   },
   "navigable_dist_m": {
    "kind": "real",
    "n_real": 52,
    "n_sites": 52,
    "source": "USACE/BTS NWN (NTAD): no navigable segment within this bbox (+2 km) \u2014 computed absence, gate passes all sites"
   },
   "npdes_points": {
    "kind": "real",
    "n_real": 52,
    "n_sites": 52,
    "source": "EPA ECHO active NPDES outfalls states=NC (types NPD/GPC/NGP; statuses ADC/EFF/EXP), per catchment"
   },
   "population_density": {
    "kind": "real",
    "n_real": 52,
    "n_sites": 52,
    "source": "Census ACS 2022 B01003 block groups (bbox, multi-county), area-weighted"
   },
   "protected_area_score": {
    "kind": "real",
    "n_real": 52,
    "n_sites": 52,
    "source": "USGS PAD-US 4.1 state GDB; states=NC; shipped designation-weighted proximity curve"
   },
   "road_access_score": {
    "kind": "real",
    "n_real": 52,
    "n_sites": 52,
    "source": "OSM drive network nearest-node distance"
   },
   "road_density_km_km2": {
    "kind": "real",
    "n_real": 52,
    "n_sites": 52,
    "source": "OSM drive network (osmnx, cached) clipped per catchment"
   },
   "runoff_coeff_C": {
    "fallback_reason": "source impervious_pct was unavailable; derived value remains null",
    "kind": "real",
    "n_fallback": 13,
    "n_real": 39,
    "n_sites": 52,
    "source": "derived from real impervious_pct (C=0.05+0.009*I)"
   },
   "seasonal_cv": {
    "fallback_reason": "NHDPlus monthly EROM was unavailable or failed the drainage-area snap guard; value remains null",
    "kind": "real",
    "n_fallback": 13,
    "n_real": 39,
    "n_sites": 52,
    "source": "CV of NHDPlus EROM monthly flows per COMID"
   },
   "stream_order": {
    "kind": "real",
    "n_real": 52,
    "n_sites": 52,
    "source": "DEM stream-network confluence heuristic (pipeline)"
   },
   "superfund_score": {
    "kind": "real",
    "n_real": 52,
    "n_sites": 52,
    "source": "EPA DataMap SEMS active sites states=NC (non-archived, georeferenced), shipped 500 m inverse-distance curve"
   },
   "tourism_amenity_density": {
    "kind": "real",
    "n_real": 52,
    "n_sites": 52,
    "source": "OSM leisure/tourism features per 2 km radius"
   },
   "tri_facility_density": {
    "kind": "real",
    "n_real": 52,
    "n_sites": 52,
    "source": "EPA DataMap TRI open facilities states=NC (preferred decimal or packed-DMS recovery), per catchment"
   },
   "usgs_mean_q_cfs": {
    "fallback_reason": "NHDPlus EROM was unavailable or failed the drainage-area snap guard; value remains null",
    "kind": "real",
    "n_fallback": 13,
    "n_real": 39,
    "n_sites": 52,
    "source": "NHDPlus EROM qe_ma per COMID (snap-guarded)"
   },
   "velocity_feasibility": {
    "fallback_reason": "derived from the shipped 0.5 m/s velocity fallback",
    "kind": "real",
    "n_fallback": 13,
    "n_real": 39,
    "n_sites": 52,
    "source": "shipped step curve on the computed velocity"
   },
   "velocity_transport_favorability": {
    "fallback_reason": "EROM/DEM continuity input unavailable; shipped 0.5 m/s default used",
    "kind": "derived",
    "n_fallback": 13,
    "n_real": 39,
    "n_sites": 52,
    "source": "scored form of flow_velocity_ms inside the Flow family \u2014 peaked Gaussian exp(-((v-0.9)/0.6)^2), model.json curves.velocity_transport_favorability; construct: transport/delivery favorability, deliberately distinct from velocity_feasibility (device operability)"
   },
   "water_intake_score": {
    "kind": "real",
    "n_real": 52,
    "n_sites": 52,
    "source": "NC OneMap / NC DEQ SWAP public water supply sources (source_typ='Surface Water'), shipped exp(-d/10km) curve"
   }
  },
  "stream_mask": {
   "buffer_m": 150.0,
   "pre_mask": 52,
   "removed": 0,
   "sources": [
    "osm-overpass (all waterway ways)",
    "usgs-nhdplus flowlines"
   ]
  },
  "varying": [
   "bank_slope_score",
   "beach_dist_km",
   "bridge_proximity_bonus",
   "catchment_area_km2",
   "channel_width_score",
   "ej_index",
   "estuary_dist_km",
   "flood_q10_cfs",
   "flow_velocity_ms",
   "impervious_pct",
   "land_ownership",
   "npdes_points",
   "population_density",
   "protected_area_score",
   "road_access_score",
   "road_density_km_km2",
   "runoff_coeff_C",
   "seasonal_cv",
   "stream_order",
   "superfund_score",
   "tourism_amenity_density",
   "tri_facility_density",
   "usgs_mean_q_cfs",
   "velocity_feasibility",
   "water_intake_score"
  ]
 },
 "region": {
  "bbox": [
   -80.6014,
   35.1909,
   -80.4587,
   35.3074
  ],
  "beach_ref": {
   "label": "Wrightsville Beach (shipped NC reference)",
   "lat": 34.21,
   "lon": -77.79
  },
  "center": [
   -80.530075,
   35.249167
  ],
  "estuary_ref": {
   "label": "Pamlico Sound (shipped NC reference)",
   "lat": 35.05,
   "lon": -76.05
  },
  "flood_method": "sir2014_hr1",
  "name": "Midland, NC",
  "notes": "NC Piedmont (DEQ physiography polygon)",
  "slug": "midland",
  "state": "NC",
  "utm_epsg": 32617,
  "width_curve": {
   "a": 3.12,
   "b": 0.415,
   "code": "AHI",
   "source": "Bieger et al. 2015 JAWRA Table 3, Appalachian Highlands"
  }
 },
 "type": "FeatureCollection"
}
