{
 "features": [
  {
   "geometry": {
    "coordinates": [
     -76.844435,
     35.000948
    ],
    "type": "Point"
   },
   "properties": {
    "accumulation": 41674.0,
    "bank_slope_deg": 1.41,
    "bank_slope_score": 1.0,
    "bank_slope_source": "nc-dps-lidar-dem03-cross-section",
    "beach_dist_km": 123.39,
    "bridge_proximity_bonus": 0.0,
    "catchment_area_km2": 4.1602,
    "channel_width_m": 3.72,
    "channel_width_score": 1.0,
    "composite_score": 57.9475,
    "cso_density": 0.0,
    "ej_index": 0.2865,
    "elevation_m": -0.019,
    "estuary_dist_km": 72.54,
    "feasibility_score": 55.5556,
    "flood_q10_cfs": 311.43,
    "flow_score": 71.0166,
    "flow_velocity_ms": 0.0593,
    "generation_score": 67.2571,
    "impact_score": 38.9429,
    "impervious_pct": 1.33,
    "land_ownership": 0.5,
    "lat": 35.0009,
    "litter_complaint_density": 0.0,
    "lon": -76.8444,
    "navigable_dist_m": 3787.5,
    "npdes_points": 0,
    "pixel_col": 153.0,
    "pixel_row": 173.0,
    "population_density": 19.7,
    "position_along": 0.5,
    "protected_area_score": 3.6418,
    "rank": 1,
    "road_access_m": 155.5,
    "road_access_score": 1.0,
    "road_density_km_km2": 2.678,
    "robustness_pct": 100.0,
    "runoff_coeff_C": 0.062,
    "seasonal_cv": 0.6429,
    "segment_id": 1,
    "segment_length_m": 1284.9864,
    "stream_order": 1,
    "superfund_score": 0.0,
    "tourism_amenity_density": 1.7507,
    "tri_facility_density": 0.0,
    "usgs_mean_q_cfs": 3.827,
    "velocity_feasibility": 0.7,
    "water_intake_score": 0.0
   },
   "type": "Feature"
  },
  {
   "geometry": {
    "coordinates": [
     -76.797207,
     34.988243
    ],
    "type": "Point"
   },
   "properties": {
    "accumulation": 38591.0,
    "bank_slope_deg": 2.92,
    "bank_slope_score": 1.0,
    "bank_slope_source": "nc-dps-lidar-dem03-cross-section",
    "beach_dist_km": 125.48,
    "bridge_proximity_bonus": 0.0,
    "catchment_area_km2": 3.8524,
    "channel_width_m": 3.62,
    "channel_width_score": 1.0,
    "composite_score": 47.7307,
    "cso_density": 0.0,
    "ej_index": 0.8483,
    "elevation_m": 0.1177,
    "estuary_dist_km": 68.39,
    "feasibility_score": 30.8642,
    "flood_q10_cfs": 294.7,
    "flow_score": 61.4277,
    "flow_velocity_ms": 0.0589,
    "generation_score": 33.3383,
    "impact_score": 59.142,
    "impervious_pct": 0.94,
    "land_ownership": 0.5,
    "lat": 34.9882,
    "litter_complaint_density": 0.0,
    "lon": -76.7972,
    "navigable_dist_m": 2725.0,
    "npdes_points": 0,
    "pixel_col": 584.0,
    "pixel_row": 321.0,
    "population_density": 10.3,
    "position_along": 0.5,
    "protected_area_score": 3.3662,
    "rank": 2,
    "road_access_m": 665.9,
    "road_access_score": 0.6,
    "road_density_km_km2": 0.5,
    "robustness_pct": 100.0,
    "runoff_coeff_C": 0.0585,
    "seasonal_cv": 0.6593,
    "segment_id": 3,
    "segment_length_m": 1258.735,
    "stream_order": 1,
    "superfund_score": 0.0,
    "tourism_amenity_density": 1.1937,
    "tri_facility_density": 0.0,
    "usgs_mean_q_cfs": 3.373,
    "velocity_feasibility": 0.7,
    "water_intake_score": 0.0
   },
   "type": "Feature"
  },
  {
   "geometry": {
    "coordinates": [
     -76.860254,
     34.959612
    ],
    "type": "Point"
   },
   "properties": {
    "accumulation": 22092.0,
    "bank_slope_deg": 0.0,
    "bank_slope_score": 1.0,
    "bank_slope_source": "nc-dps-lidar-dem03-cross-section",
    "beach_dist_km": 119.13,
    "bridge_proximity_bonus": 0.0,
    "catchment_area_km2": 2.2054,
    "channel_width_m": 2.96,
    "channel_width_score": 1.0,
    "composite_score": 42.5417,
    "cso_density": 0.0,
    "ej_index": 0.6555,
    "elevation_m": 0.0,
    "estuary_dist_km": 74.48,
    "feasibility_score": 44.4444,
    "flood_q10_cfs": 206.27,
    "flow_score": 30.2326,
    "flow_velocity_ms": 0.5,
    "generation_score": 37.5,
    "impact_score": 56.8896,
    "impervious_pct": null,
    "land_ownership": 0.5,
    "lat": 34.9596,
    "litter_complaint_density": 0.0,
    "lon": -76.8603,
    "navigable_dist_m": 1019.6,
    "npdes_points": 0,
    "pixel_col": 1.0,
    "pixel_row": 630.0,
    "population_density": 84.4,
    "position_along": 0.5,
    "protected_area_score": 3.9856,
    "rank": 3,
    "road_access_m": 3400.0,
    "road_access_score": 0.1,
    "road_density_km_km2": 0.0,
    "robustness_pct": 100.0,
    "runoff_coeff_C": null,
    "seasonal_cv": null,
    "segment_id": 6,
    "segment_length_m": 104.0518,
    "stream_order": 1,
    "superfund_score": 0.0,
    "tourism_amenity_density": 0.0,
    "tri_facility_density": 0.0,
    "usgs_mean_q_cfs": null,
    "velocity_feasibility": 1.0,
    "water_intake_score": 0.0
   },
   "type": "Feature"
  },
  {
   "geometry": {
    "coordinates": [
     -76.833729,
     34.982838
    ],
    "type": "Point"
   },
   "properties": {
    "accumulation": 23275.0,
    "bank_slope_deg": 1.55,
    "bank_slope_score": 1.0,
    "bank_slope_source": "nc-dps-lidar-dem03-cross-section",
    "beach_dist_km": 122.66,
    "bridge_proximity_bonus": 0.0,
    "catchment_area_km2": 2.3235,
    "channel_width_m": 3.01,
    "channel_width_score": 1.0,
    "composite_score": 37.502,
    "cso_density": 0.0,
    "ej_index": 0.2865,
    "elevation_m": 0.2167,
    "estuary_dist_km": 71.76,
    "feasibility_score": 55.5556,
    "flood_q10_cfs": 216.12,
    "flow_score": 20.631,
    "flow_velocity_ms": 0.0877,
    "generation_score": 40.1758,
    "impact_score": 39.8605,
    "impervious_pct": 0.66,
    "land_ownership": 0.5,
    "lat": 34.9828,
    "litter_complaint_density": 0.0,
    "lon": -76.8337,
    "navigable_dist_m": 1777.0,
    "npdes_points": 0,
    "pixel_col": 247.0,
    "pixel_row": 376.0,
    "population_density": 19.7,
    "position_along": 0.5,
    "protected_area_score": 3.6785,
    "rank": 4,
    "road_access_m": 152.8,
    "road_access_score": 1.0,
    "road_density_km_km2": 1.895,
    "robustness_pct": 100.0,
    "runoff_coeff_C": 0.0559,
    "seasonal_cv": 0.7196,
    "segment_id": 4,
    "segment_length_m": 714.6488,
    "stream_order": 1,
    "superfund_score": 0.0,
    "tourism_amenity_density": 1.1937,
    "tri_facility_density": 0.0,
    "usgs_mean_q_cfs": 1.618,
    "velocity_feasibility": 0.7,
    "water_intake_score": 0.0
   },
   "type": "Feature"
  },
  {
   "geometry": {
    "coordinates": [
     -76.802698,
     35.015467
    ],
    "type": "Point"
   },
   "properties": {
    "accumulation": 26670.0,
    "bank_slope_deg": 6.85,
    "bank_slope_score": 1.0,
    "bank_slope_source": "nc-dps-lidar-dem03-cross-section",
    "beach_dist_km": 127.22,
    "bridge_proximity_bonus": 0.0,
    "catchment_area_km2": 2.6624,
    "channel_width_m": 3.17,
    "channel_width_score": 1.0,
    "composite_score": 32.5405,
    "cso_density": 0.0,
    "ej_index": 0.6493,
    "elevation_m": 1.0532,
    "estuary_dist_km": 68.64,
    "feasibility_score": 12.3457,
    "flood_q10_cfs": 235.96,
    "flow_score": 39.912,
    "flow_velocity_ms": 0.1061,
    "generation_score": 29.1257,
    "impact_score": 39.9099,
    "impervious_pct": 0.92,
    "land_ownership": 0.5,
    "lat": 35.0155,
    "litter_complaint_density": 0.0,
    "lon": -76.8027,
    "navigable_dist_m": 5069.5,
    "npdes_points": 0,
    "pixel_col": 539.0,
    "pixel_row": 15.0,
    "population_density": 10.9,
    "position_along": 0.5,
    "protected_area_score": 3.4076,
    "rank": 5,
    "road_access_m": 1431.9,
    "road_access_score": 0.3,
    "road_density_km_km2": 0.0,
    "robustness_pct": 100.0,
    "runoff_coeff_C": 0.0583,
    "seasonal_cv": 0.6618,
    "segment_id": 0,
    "segment_length_m": 275.3245,
    "stream_order": 1,
    "superfund_score": 0.0,
    "tourism_amenity_density": 0.3183,
    "tri_facility_density": 0.0,
    "usgs_mean_q_cfs": 3.244,
    "velocity_feasibility": 0.7,
    "water_intake_score": 0.0
   },
   "type": "Feature"
  }
 ],
 "note": "GRIME region 'Minnesott Beach, NC' \u2014 real-data pipeline (DEM\u2192streams\u2192candidates\u2192stream mask (sites confined to \u00b1150 m of mapped OSM/NHD waterways)\u2192region-appropriate real parameters\u2192shipped scoring, math unchanged). Width curve: Bieger et al. 2015 JAWRA Table 3, Atlantic Plain. Flood: SIR 2014-5030 HR4 (I24H50Y: NOAA Atlas 14). NC Coastal Plain (SIR 2014-5030 HR4; I24H50Y from NOAA Atlas 14 at region center)",
 "provenance": {
  "candidates_pre_gate": 5,
  "constant": [
   "bank_slope_score",
   "bridge_proximity_bonus",
   "channel_width_score",
   "cso_density",
   "land_ownership",
   "litter_complaint_density",
   "npdes_points",
   "stream_order",
   "superfund_score",
   "tri_facility_density",
   "water_intake_score"
  ],
  "gated_navigable": 0,
  "hard_gate_removed": 0,
  "n_parameters": 27,
  "parameters": {
   "bank_slope_score": {
    "kind": "real",
    "n_3dep_10m_fallback": 0,
    "n_nc_lidar_3_125ft": 5,
    "n_real": 5,
    "n_sites": 5,
    "source": "NC OneMap / NC DPS DEM03 statewide lidar-derived 3.125-ft (0.953 m) elevations (perpendicular 50 m transect; robust 5 m bank-rise metric); unavailable profiles use the region 10 m 3DEP DEM-gradient fallback",
    "source_mosaics": [
     "Craven_Ground_3ft",
     "Pamlico_Ground_3ft"
    ]
   },
   "beach_dist_km": {
    "kind": "real",
    "n_real": 5,
    "n_sites": 5,
    "source": "haversine to region ref: Wrightsville Beach (shipped NC reference)"
   },
   "bridge_proximity_bonus": {
    "kind": "real",
    "n_real": 5,
    "n_sites": 5,
    "source": "FHWA/BTS NBI (NTAD), 50 m proximity"
   },
   "catchment_area_km2": {
    "kind": "real",
    "n_real": 5,
    "n_sites": 5,
    "source": "DEM flow accumulation (pipeline)"
   },
   "channel_width_score": {
    "kind": "real",
    "n_real": 5,
    "n_sites": 5,
    "source": "Bieger 2015 APL width curve on DEM drainage area \u2192 shipped width curve"
   },
   "cso_density": {
    "kind": "real",
    "n_real": 5,
    "n_sites": 5,
    "source": "EPA ECHO open CSO/TCS outfall PF coordinates states=NC, Cauchy proximity"
   },
   "ej_index": {
    "kind": "real",
    "n_real": 5,
    "n_sites": 5,
    "source": "Census ACS C17002+B03002 two-component demographic index, percentile-ranked within region"
   },
   "estuary_dist_km": {
    "kind": "real",
    "n_real": 5,
    "n_sites": 5,
    "source": "haversine to region ref: Pamlico Sound (shipped NC reference)"
   },
   "flood_q10_cfs": {
    "impervious_fallback_reason": "StreamCat imperviousness unavailable; the existing regression-input fallback of 0.0% impervious was used and is disclosed here",
    "kind": "real",
    "n_impervious_fallback": 1,
    "n_real": 5,
    "n_sites": 5,
    "source": "USGS SIR 2014-5030 Table 7 HR4 (NC Coastal Plain; I24H50Y from NOAA Atlas 14 at region center)"
   },
   "flow_velocity_ms": {
    "fallback_reason": "EROM/DEM continuity input unavailable; shipped 0.5 m/s default used",
    "kind": "real",
    "n_fallback": 1,
    "n_real": 4,
    "n_sites": 5,
    "source": "Manning (region DEM/D8) blended with EROM continuity (shipped M4 logic)"
   },
   "impervious_pct": {
    "fallback_reason": "NLDI/StreamCat did not return a snap-compatible catchment value; value remains null and is removed by constant-column handling",
    "kind": "real",
    "n_fallback": 1,
    "n_real": 4,
    "n_sites": 5,
    "source": "EPA StreamCat pctimp2019 (per NHDPlus watershed)"
   },
   "land_ownership": {
    "fallback_reason": "no containing parcel owner returned; shipped unknown ownership 0.5 used",
    "kind": "real",
    "n_fallback": 1,
    "n_real": 4,
    "n_sites": 5,
    "source": "NC OneMap statewide parcels (NC Parcels Transformer) ownname"
   },
   "litter_complaint_density": {
    "kind": "fallback",
    "n_real": 0,
    "n_sites": 5,
    "source": "no public machine-readable litter/illegal-dumping feed for this region"
   },
   "navigable_dist_m": {
    "kind": "real",
    "n_real": 5,
    "n_sites": 5,
    "source": "USACE/BTS National Waterway Network lines (NTAD, retrieved 2026-07-10), distance to nearest navigable segment"
   },
   "npdes_points": {
    "kind": "real",
    "n_real": 5,
    "n_sites": 5,
    "source": "EPA ECHO active NPDES outfalls states=NC (types NPD/GPC/NGP; statuses ADC/EFF/EXP), per catchment"
   },
   "population_density": {
    "kind": "real",
    "n_real": 5,
    "n_sites": 5,
    "source": "Census ACS 2022 B01003 block groups (bbox, multi-county), area-weighted"
   },
   "protected_area_score": {
    "kind": "real",
    "n_real": 5,
    "n_sites": 5,
    "source": "USGS PAD-US 4.1 state GDB; states=NC; shipped designation-weighted proximity curve"
   },
   "road_access_score": {
    "kind": "real",
    "n_real": 5,
    "n_sites": 5,
    "source": "OSM drive network nearest-node distance"
   },
   "road_density_km_km2": {
    "kind": "real",
    "n_real": 5,
    "n_sites": 5,
    "source": "OSM drive network (osmnx, cached) clipped per catchment"
   },
   "runoff_coeff_C": {
    "fallback_reason": "source impervious_pct was unavailable; derived value remains null",
    "kind": "real",
    "n_fallback": 1,
    "n_real": 4,
    "n_sites": 5,
    "source": "derived from real impervious_pct (C=0.05+0.009*I)"
   },
   "seasonal_cv": {
    "fallback_reason": "NHDPlus monthly EROM was unavailable or failed the drainage-area snap guard; value remains null",
    "kind": "real",
    "n_fallback": 1,
    "n_real": 4,
    "n_sites": 5,
    "source": "CV of NHDPlus EROM monthly flows per COMID"
   },
   "stream_order": {
    "kind": "real",
    "n_real": 5,
    "n_sites": 5,
    "source": "DEM stream-network confluence heuristic (pipeline)"
   },
   "superfund_score": {
    "kind": "real",
    "n_real": 5,
    "n_sites": 5,
    "source": "EPA DataMap SEMS active sites states=NC (non-archived, georeferenced), shipped 500 m inverse-distance curve"
   },
   "tourism_amenity_density": {
    "kind": "real",
    "n_real": 5,
    "n_sites": 5,
    "source": "OSM leisure/tourism features per 2 km radius"
   },
   "tri_facility_density": {
    "kind": "real",
    "n_real": 5,
    "n_sites": 5,
    "source": "EPA DataMap TRI open facilities states=NC (preferred decimal or packed-DMS recovery), per catchment"
   },
   "usgs_mean_q_cfs": {
    "fallback_reason": "NHDPlus EROM was unavailable or failed the drainage-area snap guard; value remains null",
    "kind": "real",
    "n_fallback": 1,
    "n_real": 4,
    "n_sites": 5,
    "source": "NHDPlus EROM qe_ma per COMID (snap-guarded)"
   },
   "velocity_feasibility": {
    "fallback_reason": "derived from the shipped 0.5 m/s velocity fallback",
    "kind": "real",
    "n_fallback": 1,
    "n_real": 4,
    "n_sites": 5,
    "source": "shipped step curve on the computed velocity"
   },
   "velocity_transport_favorability": {
    "fallback_reason": "EROM/DEM continuity input unavailable; shipped 0.5 m/s default used",
    "kind": "derived",
    "n_fallback": 1,
    "n_real": 4,
    "n_sites": 5,
    "source": "scored form of flow_velocity_ms inside the Flow family \u2014 peaked Gaussian exp(-((v-0.9)/0.6)^2), model.json curves.velocity_transport_favorability; construct: transport/delivery favorability, deliberately distinct from velocity_feasibility (device operability)"
   },
   "water_intake_score": {
    "kind": "real",
    "n_real": 5,
    "n_sites": 5,
    "source": "NC OneMap / NC DEQ SWAP public water supply sources (source_typ='Surface Water'), shipped exp(-d/10km) curve"
   }
  },
  "stream_mask": {
   "buffer_m": 150.0,
   "pre_mask": 8,
   "removed": 3,
   "sources": [
    "osm-overpass (all waterway ways)",
    "usgs-nhdplus flowlines"
   ]
  },
  "varying": [
   "beach_dist_km",
   "catchment_area_km2",
   "ej_index",
   "estuary_dist_km",
   "flood_q10_cfs",
   "flow_velocity_ms",
   "impervious_pct",
   "population_density",
   "protected_area_score",
   "road_access_score",
   "road_density_km_km2",
   "runoff_coeff_C",
   "seasonal_cv",
   "tourism_amenity_density",
   "usgs_mean_q_cfs",
   "velocity_feasibility"
  ]
 },
 "region": {
  "bbox": [
   -76.8603,
   34.9568,
   -76.7878,
   35.0162
  ],
  "beach_ref": {
   "label": "Wrightsville Beach (shipped NC reference)",
   "lat": 34.21,
   "lon": -77.79
  },
  "center": [
   -76.824077,
   34.986499
  ],
  "estuary_ref": {
   "label": "Pamlico Sound (shipped NC reference)",
   "lat": 35.05,
   "lon": -76.05
  },
  "flood_method": "sir2014_hr4",
  "name": "Minnesott Beach, NC",
  "notes": "NC Coastal Plain (SIR 2014-5030 HR4; I24H50Y from NOAA Atlas 14 at region center)",
  "slug": "minnesott-beach",
  "state": "NC",
  "utm_epsg": 32618,
  "width_curve": {
   "a": 2.22,
   "b": 0.363,
   "code": "APL",
   "source": "Bieger et al. 2015 JAWRA Table 3, Atlantic Plain"
  }
 },
 "type": "FeatureCollection"
}
