{
 "features": [
  {
   "geometry": {
    "coordinates": [
     -78.051119,
     35.195752
    ],
    "type": "Point"
   },
   "properties": {
    "accumulation": 37258.0,
    "bank_slope_deg": 3.35,
    "bank_slope_score": 1.0,
    "bank_slope_source": "nc-dps-lidar-dem03-cross-section",
    "beach_dist_km": 112.18,
    "bridge_proximity_bonus": 0.0,
    "catchment_area_km2": 3.7235,
    "channel_width_m": 3.58,
    "channel_width_score": 1.0,
    "composite_score": 57.0363,
    "cso_density": 0.0,
    "ej_index": 0.4782,
    "elevation_m": 40.4495,
    "estuary_dist_km": 182.72,
    "feasibility_score": 33.3333,
    "flood_q10_cfs": 279.3,
    "flow_score": 53.0952,
    "flow_velocity_ms": 0.0892,
    "generation_score": 77.3266,
    "impact_score": 51.8818,
    "impervious_pct": 7.16,
    "land_ownership": 0.5,
    "lat": 35.1958,
    "litter_complaint_density": 0.0,
    "lon": -78.0511,
    "navigable_dist_m": null,
    "npdes_points": 1,
    "pixel_col": 442.0,
    "pixel_row": 344.0,
    "population_density": 124.1,
    "position_along": 0.5,
    "protected_area_score": 3.8913,
    "rank": 1,
    "road_access_m": 520.4,
    "road_access_score": 0.6,
    "road_density_km_km2": 4.104,
    "robustness_pct": 100.0,
    "runoff_coeff_C": 0.1144,
    "seasonal_cv": 0.4267,
    "segment_id": 3,
    "segment_length_m": 1915.2069,
    "stream_order": 3,
    "superfund_score": 0.0,
    "tourism_amenity_density": 0.8754,
    "tri_facility_density": 0.2686,
    "usgs_mean_q_cfs": 6.902,
    "velocity_feasibility": 0.7,
    "water_intake_score": 0.2047
   },
   "type": "Feature"
  },
  {
   "geometry": {
    "coordinates": [
     -78.088637,
     35.195204
    ],
    "type": "Point"
   },
   "properties": {
    "accumulation": 35241.0,
    "bank_slope_deg": 2.84,
    "bank_slope_score": 1.0,
    "bank_slope_source": "nc-dps-lidar-dem03-cross-section",
    "beach_dist_km": 112.9,
    "bridge_proximity_bonus": 0.0,
    "catchment_area_km2": 3.5219,
    "channel_width_m": 3.51,
    "channel_width_score": 1.0,
    "composite_score": 51.1341,
    "cso_density": 0.0,
    "ej_index": 0.4628,
    "elevation_m": 40.387,
    "estuary_dist_km": 186.11,
    "feasibility_score": 75.0,
    "flood_q10_cfs": 272.77,
    "flow_score": 55.3729,
    "flow_velocity_ms": 0.1282,
    "generation_score": 48.4704,
    "impact_score": 38.3325,
    "impervious_pct": 7.58,
    "land_ownership": 0.5,
    "lat": 35.1952,
    "litter_complaint_density": 0.0,
    "lon": -78.0886,
    "navigable_dist_m": null,
    "npdes_points": 0,
    "pixel_col": 99.0,
    "pixel_row": 356.0,
    "population_density": 135.4,
    "position_along": 0.5,
    "protected_area_score": 3.8542,
    "rank": 2,
    "road_access_m": 159.2,
    "road_access_score": 1.0,
    "road_density_km_km2": 2.634,
    "robustness_pct": 99.5,
    "runoff_coeff_C": 0.1182,
    "seasonal_cv": 0.4346,
    "segment_id": 5,
    "segment_length_m": 606.7946,
    "stream_order": 3,
    "superfund_score": 0.0,
    "tourism_amenity_density": 2.1486,
    "tri_facility_density": 0.0,
    "usgs_mean_q_cfs": 5.261,
    "velocity_feasibility": 0.7,
    "water_intake_score": 0.1888
   },
   "type": "Feature"
  },
  {
   "geometry": {
    "coordinates": [
     -78.039048,
     35.19263
    ],
    "type": "Point"
   },
   "properties": {
    "accumulation": 80762.0,
    "bank_slope_deg": 6.57,
    "bank_slope_score": 1.0,
    "bank_slope_source": "nc-dps-lidar-dem03-cross-section",
    "beach_dist_km": 111.61,
    "bridge_proximity_bonus": 0.0,
    "catchment_area_km2": 8.0711,
    "channel_width_m": 4.74,
    "channel_width_score": 1.0,
    "composite_score": 49.2507,
    "cso_density": 0.0,
    "ej_index": 0.428,
    "elevation_m": 37.429,
    "estuary_dist_km": 181.6,
    "feasibility_score": 79.1667,
    "flood_q10_cfs": 433.9,
    "flow_score": 72.7283,
    "flow_velocity_ms": 0.09,
    "generation_score": 17.8377,
    "impact_score": 46.141,
    "impervious_pct": 6.13,
    "land_ownership": 1.0,
    "lat": 35.1926,
    "litter_complaint_density": 0.0,
    "lon": -78.039,
    "navigable_dist_m": null,
    "npdes_points": 1,
    "pixel_col": 553.0,
    "pixel_row": 375.0,
    "population_density": 45.6,
    "position_along": 0.5,
    "protected_area_score": 3.9251,
    "rank": 3,
    "road_access_m": 338.3,
    "road_access_score": 0.8,
    "road_density_km_km2": 0.926,
    "robustness_pct": 87.0,
    "runoff_coeff_C": 0.1052,
    "seasonal_cv": 0.4247,
    "segment_id": 9,
    "segment_length_m": 1186.0243,
    "stream_order": 3,
    "superfund_score": 0.0,
    "tourism_amenity_density": 0.0,
    "tri_facility_density": 0.0,
    "usgs_mean_q_cfs": 8.142,
    "velocity_feasibility": 0.7,
    "water_intake_score": 0.1908
   },
   "type": "Feature"
  },
  {
   "geometry": {
    "coordinates": [
     -78.086633,
     35.197525
    ],
    "type": "Point"
   },
   "properties": {
    "accumulation": 23787.0,
    "bank_slope_deg": 3.79,
    "bank_slope_score": 1.0,
    "bank_slope_source": "nc-dps-lidar-dem03-cross-section",
    "beach_dist_km": 113.11,
    "bridge_proximity_bonus": 0.0,
    "catchment_area_km2": 2.3772,
    "channel_width_m": 3.04,
    "channel_width_score": 1.0,
    "composite_score": 47.3457,
    "cso_density": 0.0,
    "ej_index": 0.4424,
    "elevation_m": 40.7197,
    "estuary_dist_km": 185.95,
    "feasibility_score": 54.1667,
    "flood_q10_cfs": 215.43,
    "flow_score": 46.5308,
    "flow_velocity_ms": 0.1131,
    "generation_score": 49.2458,
    "impact_score": 42.7143,
    "impervious_pct": 7.58,
    "land_ownership": 0.5,
    "lat": 35.1975,
    "litter_complaint_density": 0.0,
    "lon": -78.0866,
    "navigable_dist_m": null,
    "npdes_points": 0,
    "pixel_col": 114.0,
    "pixel_row": 330.0,
    "population_density": 121.2,
    "position_along": 0.5,
    "protected_area_score": 3.9785,
    "rank": 4,
    "road_access_m": 279.7,
    "road_access_score": 0.8,
    "road_density_km_km2": 3.564,
    "robustness_pct": 91.5,
    "runoff_coeff_C": 0.1182,
    "seasonal_cv": 0.4346,
    "segment_id": 4,
    "segment_length_m": 665.0606,
    "stream_order": 3,
    "superfund_score": 0.0,
    "tourism_amenity_density": 2.7852,
    "tri_facility_density": 0.0,
    "usgs_mean_q_cfs": 5.261,
    "velocity_feasibility": 0.7,
    "water_intake_score": 0.1937
   },
   "type": "Feature"
  },
  {
   "geometry": {
    "coordinates": [
     -78.042458,
     35.206395
    ],
    "type": "Point"
   },
   "properties": {
    "accumulation": 35593.0,
    "bank_slope_deg": 8.04,
    "bank_slope_score": 1.0,
    "bank_slope_source": "nc-dps-lidar-dem03-cross-section",
    "beach_dist_km": 113.17,
    "bridge_proximity_bonus": 0.0,
    "catchment_area_km2": 3.5571,
    "channel_width_m": 3.52,
    "channel_width_score": 1.0,
    "composite_score": 45.1797,
    "cso_density": 0.0,
    "ej_index": 0.5142,
    "elevation_m": 43.4905,
    "estuary_dist_km": 182.03,
    "feasibility_score": 54.1667,
    "flood_q10_cfs": 264.13,
    "flow_score": 27.5505,
    "flow_velocity_ms": 0.113,
    "generation_score": 34.3027,
    "impact_score": 66.2542,
    "impervious_pct": 5.94,
    "land_ownership": 0.5,
    "lat": 35.2064,
    "litter_complaint_density": 0.0,
    "lon": -78.0425,
    "navigable_dist_m": null,
    "npdes_points": 2,
    "pixel_col": 517.0,
    "pixel_row": 224.0,
    "population_density": 77.6,
    "position_along": 0.5,
    "protected_area_score": 4.4264,
    "rank": 5,
    "road_access_m": 224.9,
    "road_access_score": 0.8,
    "road_density_km_km2": 2.4,
    "robustness_pct": 53.5,
    "runoff_coeff_C": 0.1035,
    "seasonal_cv": 0.4472,
    "segment_id": 1,
    "segment_length_m": 2406.8905,
    "stream_order": 1,
    "superfund_score": 0.0,
    "tourism_amenity_density": 0.0796,
    "tri_facility_density": 0.0,
    "usgs_mean_q_cfs": 3.491,
    "velocity_feasibility": 0.7,
    "water_intake_score": 0.2279
   },
   "type": "Feature"
  },
  {
   "geometry": {
    "coordinates": [
     -78.093397,
     35.199029
    ],
    "type": "Point"
   },
   "properties": {
    "accumulation": 64509.0,
    "bank_slope_deg": 1.9,
    "bank_slope_score": 1.0,
    "bank_slope_source": "nc-dps-lidar-dem03-cross-section",
    "beach_dist_km": 113.42,
    "bridge_proximity_bonus": 0.0,
    "catchment_area_km2": 6.4469,
    "channel_width_m": 4.37,
    "channel_width_score": 1.0,
    "composite_score": 43.3452,
    "cso_density": 0.0,
    "ej_index": 0.3985,
    "elevation_m": 38.8567,
    "estuary_dist_km": 186.57,
    "feasibility_score": 54.1667,
    "flood_q10_cfs": 392.14,
    "flow_score": 58.5254,
    "flow_velocity_ms": 0.083,
    "generation_score": 36.5025,
    "impact_score": 32.1269,
    "impervious_pct": 7.58,
    "land_ownership": 0.5,
    "lat": 35.199,
    "litter_complaint_density": 0.0,
    "lon": -78.0934,
    "navigable_dist_m": null,
    "npdes_points": 0,
    "pixel_col": 52.0,
    "pixel_row": 319.0,
    "population_density": 95.2,
    "position_along": 0.5,
    "protected_area_score": 3.9092,
    "rank": 6,
    "road_access_m": 379.2,
    "road_access_score": 0.8,
    "road_density_km_km2": 1.756,
    "robustness_pct": 46.0,
    "runoff_coeff_C": 0.1182,
    "seasonal_cv": 0.4346,
    "segment_id": 6,
    "segment_length_m": 981.2357,
    "stream_order": 3,
    "superfund_score": 0.0,
    "tourism_amenity_density": 1.9099,
    "tri_facility_density": 0.0,
    "usgs_mean_q_cfs": 5.261,
    "velocity_feasibility": 0.7,
    "water_intake_score": 0.1933
   },
   "type": "Feature"
  },
  {
   "geometry": {
    "coordinates": [
     -78.063689,
     35.224992
    ],
    "type": "Point"
   },
   "properties": {
    "accumulation": 29982.0,
    "bank_slope_deg": 8.27,
    "bank_slope_score": 1.0,
    "bank_slope_source": "nc-dps-lidar-dem03-cross-section",
    "beach_dist_km": 115.6,
    "bridge_proximity_bonus": 0.0,
    "catchment_area_km2": 2.9963,
    "channel_width_m": 3.31,
    "channel_width_score": 1.0,
    "composite_score": 40.6234,
    "cso_density": 0.0,
    "ej_index": 0.2429,
    "elevation_m": 40.6113,
    "estuary_dist_km": 184.14,
    "feasibility_score": 41.6667,
    "flood_q10_cfs": 253.55,
    "flow_score": 21.457,
    "flow_velocity_ms": 0.0482,
    "generation_score": 46.8469,
    "impact_score": 49.8502,
    "impervious_pct": 8.61,
    "land_ownership": 0.5,
    "lat": 35.225,
    "litter_complaint_density": 0.0,
    "lon": -78.0637,
    "navigable_dist_m": null,
    "npdes_points": 3,
    "pixel_col": 318.0,
    "pixel_row": 20.0,
    "population_density": 25.3,
    "position_along": 0.5,
    "protected_area_score": 4.8245,
    "rank": 7,
    "road_access_m": 112.5,
    "road_access_score": 1.0,
    "road_density_km_km2": 2.369,
    "robustness_pct": 13.5,
    "runoff_coeff_C": 0.1275,
    "seasonal_cv": 0.4363,
    "segment_id": 0,
    "segment_length_m": 332.0279,
    "stream_order": 1,
    "superfund_score": 0.0,
    "tourism_amenity_density": 0.1592,
    "tri_facility_density": 0.0,
    "usgs_mean_q_cfs": 3.979,
    "velocity_feasibility": 0.3,
    "water_intake_score": 0.26
   },
   "type": "Feature"
  },
  {
   "geometry": {
    "coordinates": [
     -78.096719,
     35.201867
    ],
    "type": "Point"
   },
   "properties": {
    "accumulation": 103649.0,
    "bank_slope_deg": 2.78,
    "bank_slope_score": 1.0,
    "bank_slope_source": "nc-dps-lidar-dem03-cross-section",
    "beach_dist_km": 113.8,
    "bridge_proximity_bonus": 0.0,
    "catchment_area_km2": 10.3584,
    "channel_width_m": 5.19,
    "channel_width_score": 1.0,
    "composite_score": 35.5415,
    "cso_density": 0.0,
    "ej_index": 0.3603,
    "elevation_m": 37.9957,
    "estuary_dist_km": 186.9,
    "feasibility_score": 33.3333,
    "flood_q10_cfs": 489.92,
    "flow_score": 81.0258,
    "flow_velocity_ms": 0.0649,
    "generation_score": 12.087,
    "impact_score": 22.1966,
    "impervious_pct": 4.91,
    "land_ownership": 0.5,
    "lat": 35.2019,
    "litter_complaint_density": 0.0,
    "lon": -78.0967,
    "navigable_dist_m": null,
    "npdes_points": 0,
    "pixel_col": 21.0,
    "pixel_row": 287.0,
    "population_density": 76.5,
    "position_along": 0.5,
    "protected_area_score": 3.9144,
    "rank": 8,
    "road_access_m": 809.0,
    "road_access_score": 0.6,
    "road_density_km_km2": 1.262,
    "robustness_pct": 9.0,
    "runoff_coeff_C": 0.0942,
    "seasonal_cv": 0.4244,
    "segment_id": 7,
    "segment_length_m": 92.3974,
    "stream_order": 3,
    "superfund_score": 0.0,
    "tourism_amenity_density": 0.3183,
    "tri_facility_density": 0.0,
    "usgs_mean_q_cfs": 11.123,
    "velocity_feasibility": 0.7,
    "water_intake_score": 0.1968
   },
   "type": "Feature"
  },
  {
   "geometry": {
    "coordinates": [
     -78.090385,
     35.203636
    ],
    "type": "Point"
   },
   "properties": {
    "accumulation": 34496.0,
    "bank_slope_deg": 3.31,
    "bank_slope_score": 1.0,
    "bank_slope_source": "nc-dps-lidar-dem03-cross-section",
    "beach_dist_km": 113.85,
    "bridge_proximity_bonus": 0.0,
    "catchment_area_km2": 3.4474,
    "channel_width_m": 3.48,
    "channel_width_score": 1.0,
    "composite_score": 31.7639,
    "cso_density": 0.0,
    "ej_index": 0.3568,
    "elevation_m": 40.2435,
    "estuary_dist_km": 186.34,
    "feasibility_score": 33.3333,
    "flood_q10_cfs": 264.45,
    "flow_score": 36.6552,
    "flow_velocity_ms": 0.1223,
    "generation_score": 24.4144,
    "impact_score": 34.2525,
    "impervious_pct": 6.8,
    "land_ownership": 0.5,
    "lat": 35.2036,
    "litter_complaint_density": 0.0,
    "lon": -78.0904,
    "navigable_dist_m": null,
    "npdes_points": 0,
    "pixel_col": 80.0,
    "pixel_row": 267.0,
    "population_density": 70.4,
    "position_along": 0.5,
    "protected_area_score": 3.9681,
    "rank": 9,
    "road_access_m": 569.0,
    "road_access_score": 0.6,
    "road_density_km_km2": 1.388,
    "robustness_pct": 0.0,
    "runoff_coeff_C": 0.1112,
    "seasonal_cv": 0.4627,
    "segment_id": 2,
    "segment_length_m": 1758.6875,
    "stream_order": 3,
    "superfund_score": 0.0,
    "tourism_amenity_density": 2.3873,
    "tri_facility_density": 0.0,
    "usgs_mean_q_cfs": 1.774,
    "velocity_feasibility": 0.7,
    "water_intake_score": 0.203
   },
   "type": "Feature"
  },
  {
   "geometry": {
    "coordinates": [
     -78.047262,
     35.188869
    ],
    "type": "Point"
   },
   "properties": {
    "accumulation": 30199.0,
    "bank_slope_deg": 4.87,
    "bank_slope_score": 1.0,
    "bank_slope_source": "nc-dps-lidar-dem03-cross-section",
    "beach_dist_km": 111.36,
    "bridge_proximity_bonus": 0.0,
    "catchment_area_km2": 3.018,
    "channel_width_m": 3.32,
    "channel_width_score": 1.0,
    "composite_score": 27.5726,
    "cso_density": 0.0,
    "ej_index": 0.3983,
    "elevation_m": 39.0425,
    "estuary_dist_km": 182.31,
    "feasibility_score": 0.0,
    "flood_q10_cfs": 246.2,
    "flow_score": 42.1209,
    "flow_velocity_ms": 0.048,
    "generation_score": 18.7573,
    "impact_score": 38.0505,
    "impervious_pct": 7.16,
    "land_ownership": 0.5,
    "lat": 35.1889,
    "litter_complaint_density": 0.0,
    "lon": -78.0473,
    "navigable_dist_m": null,
    "npdes_points": 0,
    "pixel_col": 480.0,
    "pixel_row": 415.0,
    "population_density": 36.8,
    "position_along": 0.5,
    "protected_area_score": 3.7764,
    "rank": 10,
    "road_access_m": 649.0,
    "road_access_score": 0.6,
    "road_density_km_km2": 1.113,
    "robustness_pct": 0.0,
    "runoff_coeff_C": 0.1144,
    "seasonal_cv": 0.4267,
    "segment_id": 8,
    "segment_length_m": 1343.9647,
    "stream_order": 3,
    "superfund_score": 0.0,
    "tourism_amenity_density": 0.1592,
    "tri_facility_density": 0.0,
    "usgs_mean_q_cfs": 6.902,
    "velocity_feasibility": 0.3,
    "water_intake_score": 0.1815
   },
   "type": "Feature"
  }
 ],
 "note": "GRIME region 'Mount Olive, NC' \u2014 real-data pipeline (DEM\u2192streams\u2192candidates\u2192stream mask (sites confined to \u00b1150 m of mapped OSM/NHD waterways)\u2192region-appropriate real parameters\u2192shipped scoring, math unchanged). Width curve: Bieger et al. 2015 JAWRA Table 3, Atlantic Plain. Flood: SIR 2014-5030 HR4 (I24H50Y: NOAA Atlas 14). NC Coastal Plain (SIR 2014-5030 HR4; I24H50Y from NOAA Atlas 14 at region center)",
 "provenance": {
  "candidates_pre_gate": 10,
  "constant": [
   "bank_slope_score",
   "bridge_proximity_bonus",
   "channel_width_score",
   "cso_density",
   "litter_complaint_density",
   "superfund_score"
  ],
  "gated_navigable": 0,
  "hard_gate_removed": 0,
  "n_parameters": 27,
  "parameters": {
   "bank_slope_score": {
    "kind": "real",
    "n_3dep_10m_fallback": 0,
    "n_nc_lidar_3_125ft": 10,
    "n_real": 10,
    "n_sites": 10,
    "source": "NC OneMap / NC DPS DEM03 statewide lidar-derived 3.125-ft (0.953 m) elevations (perpendicular 50 m transect; robust 5 m bank-rise metric); unavailable profiles use the region 10 m 3DEP DEM-gradient fallback",
    "source_mosaics": [
     "Wayne_Ground_3ft"
    ]
   },
   "beach_dist_km": {
    "kind": "real",
    "n_real": 10,
    "n_sites": 10,
    "source": "haversine to region ref: Wrightsville Beach (shipped NC reference)"
   },
   "bridge_proximity_bonus": {
    "kind": "real",
    "n_real": 10,
    "n_sites": 10,
    "source": "FHWA/BTS NBI (NTAD), 50 m proximity"
   },
   "catchment_area_km2": {
    "kind": "real",
    "n_real": 10,
    "n_sites": 10,
    "source": "DEM flow accumulation (pipeline)"
   },
   "channel_width_score": {
    "kind": "real",
    "n_real": 10,
    "n_sites": 10,
    "source": "Bieger 2015 APL width curve on DEM drainage area \u2192 shipped width curve"
   },
   "cso_density": {
    "kind": "real",
    "n_real": 10,
    "n_sites": 10,
    "source": "EPA ECHO open CSO/TCS outfall PF coordinates states=NC, Cauchy proximity"
   },
   "ej_index": {
    "kind": "real",
    "n_real": 10,
    "n_sites": 10,
    "source": "Census ACS C17002+B03002 two-component demographic index, percentile-ranked within region"
   },
   "estuary_dist_km": {
    "kind": "real",
    "n_real": 10,
    "n_sites": 10,
    "source": "haversine to region ref: Pamlico Sound (shipped NC reference)"
   },
   "flood_q10_cfs": {
    "kind": "real",
    "n_real": 10,
    "n_sites": 10,
    "source": "USGS SIR 2014-5030 Table 7 HR4 (NC Coastal Plain; I24H50Y from NOAA Atlas 14 at region center)"
   },
   "flow_velocity_ms": {
    "kind": "real",
    "n_fallback": 0,
    "n_real": 10,
    "n_sites": 10,
    "source": "Manning (region DEM/D8) blended with EROM continuity (shipped M4 logic)"
   },
   "impervious_pct": {
    "kind": "real",
    "n_real": 10,
    "n_sites": 10,
    "source": "EPA StreamCat pctimp2019 (per NHDPlus watershed)"
   },
   "land_ownership": {
    "kind": "real",
    "n_fallback": 0,
    "n_real": 10,
    "n_sites": 10,
    "source": "NC OneMap statewide parcels (NC Parcels Transformer) ownname"
   },
   "litter_complaint_density": {
    "kind": "fallback",
    "n_real": 0,
    "n_sites": 10,
    "source": "no public machine-readable litter/illegal-dumping feed for this region"
   },
   "navigable_dist_m": {
    "kind": "real",
    "n_real": 10,
    "n_sites": 10,
    "source": "USACE/BTS NWN (NTAD): no navigable segment within this bbox (+2 km) \u2014 computed absence, gate passes all sites"
   },
   "npdes_points": {
    "kind": "real",
    "n_real": 10,
    "n_sites": 10,
    "source": "EPA ECHO active NPDES outfalls states=NC (types NPD/GPC/NGP; statuses ADC/EFF/EXP), per catchment"
   },
   "population_density": {
    "kind": "real",
    "n_real": 10,
    "n_sites": 10,
    "source": "Census ACS 2022 B01003 block groups (bbox, multi-county), area-weighted"
   },
   "protected_area_score": {
    "kind": "real",
    "n_real": 10,
    "n_sites": 10,
    "source": "USGS PAD-US 4.1 state GDB; states=NC; shipped designation-weighted proximity curve"
   },
   "road_access_score": {
    "kind": "real",
    "n_real": 10,
    "n_sites": 10,
    "source": "OSM drive network nearest-node distance"
   },
   "road_density_km_km2": {
    "kind": "real",
    "n_real": 10,
    "n_sites": 10,
    "source": "OSM drive network (osmnx, cached) clipped per catchment"
   },
   "runoff_coeff_C": {
    "kind": "real",
    "n_real": 10,
    "n_sites": 10,
    "source": "derived from real impervious_pct (C=0.05+0.009*I)"
   },
   "seasonal_cv": {
    "kind": "real",
    "n_real": 10,
    "n_sites": 10,
    "source": "CV of NHDPlus EROM monthly flows per COMID"
   },
   "stream_order": {
    "kind": "real",
    "n_real": 10,
    "n_sites": 10,
    "source": "DEM stream-network confluence heuristic (pipeline)"
   },
   "superfund_score": {
    "kind": "real",
    "n_real": 10,
    "n_sites": 10,
    "source": "EPA DataMap SEMS active sites states=NC (non-archived, georeferenced), shipped 500 m inverse-distance curve"
   },
   "tourism_amenity_density": {
    "kind": "real",
    "n_real": 10,
    "n_sites": 10,
    "source": "OSM leisure/tourism features per 2 km radius"
   },
   "tri_facility_density": {
    "kind": "real",
    "n_real": 10,
    "n_sites": 10,
    "source": "EPA DataMap TRI open facilities states=NC (preferred decimal or packed-DMS recovery), per catchment"
   },
   "usgs_mean_q_cfs": {
    "kind": "real",
    "n_real": 10,
    "n_sites": 10,
    "source": "NHDPlus EROM qe_ma per COMID (snap-guarded)"
   },
   "velocity_feasibility": {
    "kind": "real",
    "n_fallback": 0,
    "n_real": 10,
    "n_sites": 10,
    "source": "shipped step curve on the computed velocity"
   },
   "velocity_transport_favorability": {
    "kind": "derived",
    "n_real": 10,
    "n_sites": 10,
    "source": "scored form of flow_velocity_ms inside the Flow family \u2014 peaked Gaussian exp(-((v-0.9)/0.6)^2), model.json curves.velocity_transport_favorability; construct: transport/delivery favorability, deliberately distinct from velocity_feasibility (device operability)"
   },
   "water_intake_score": {
    "kind": "real",
    "n_real": 10,
    "n_sites": 10,
    "source": "NC OneMap / NC DEQ SWAP public water supply sources (source_typ='Surface Water'), shipped exp(-d/10km) curve"
   }
  },
  "stream_mask": {
   "buffer_m": 150.0,
   "pre_mask": 10,
   "removed": 0,
   "sources": [
    "osm-overpass (all waterway ways)",
    "usgs-nhdplus flowlines"
   ]
  },
  "varying": [
   "beach_dist_km",
   "catchment_area_km2",
   "ej_index",
   "estuary_dist_km",
   "flood_q10_cfs",
   "flow_velocity_ms",
   "impervious_pct",
   "land_ownership",
   "npdes_points",
   "population_density",
   "protected_area_score",
   "road_access_score",
   "road_density_km_km2",
   "runoff_coeff_C",
   "seasonal_cv",
   "stream_order",
   "tourism_amenity_density",
   "tri_facility_density",
   "usgs_mean_q_cfs",
   "velocity_feasibility",
   "water_intake_score"
  ]
 },
 "region": {
  "bbox": [
   -78.0984,
   35.1734,
   -78.0338,
   35.2262
  ],
  "beach_ref": {
   "label": "Wrightsville Beach (shipped NC reference)",
   "lat": 34.21,
   "lon": -77.79
  },
  "center": [
   -78.066131,
   35.199807
  ],
  "estuary_ref": {
   "label": "Pamlico Sound (shipped NC reference)",
   "lat": 35.05,
   "lon": -76.05
  },
  "flood_method": "sir2014_hr4",
  "name": "Mount Olive, NC",
  "notes": "NC Coastal Plain (SIR 2014-5030 HR4; I24H50Y from NOAA Atlas 14 at region center)",
  "slug": "mount-olive",
  "state": "NC",
  "utm_epsg": 32617,
  "width_curve": {
   "a": 2.22,
   "b": 0.363,
   "code": "APL",
   "source": "Bieger et al. 2015 JAWRA Table 3, Atlantic Plain"
  }
 },
 "type": "FeatureCollection"
}
