{
 "features": [
  {
   "geometry": {
    "coordinates": [
     -80.454435,
     35.407385
    ],
    "type": "Point"
   },
   "properties": {
    "accumulation": 31071.0,
    "bank_slope_deg": 9.81,
    "bank_slope_score": 1.0,
    "bank_slope_source": "nc-dps-lidar-dem03-cross-section",
    "beach_dist_km": 277.3,
    "bridge_proximity_bonus": 0.0,
    "catchment_area_km2": 3.0969,
    "channel_width_m": 4.99,
    "channel_width_score": 1.0,
    "composite_score": 56.0786,
    "cso_density": 0.0,
    "ej_index": 0.3737,
    "elevation_m": 184.1934,
    "estuary_dist_km": 401.99,
    "feasibility_score": 100.0,
    "flood_q10_cfs": 435.94,
    "flow_score": 42.2424,
    "flow_velocity_ms": 0.5,
    "generation_score": 47.4642,
    "impact_score": 54.2626,
    "impervious_pct": null,
    "land_ownership": 0.5,
    "lat": 35.4074,
    "litter_complaint_density": 0.0,
    "lon": -80.4544,
    "navigable_dist_m": null,
    "npdes_points": 3,
    "pixel_col": 136.0,
    "pixel_row": 196.0,
    "population_density": 104.3,
    "position_along": 0.5,
    "protected_area_score": 6.4181,
    "rank": 1,
    "road_access_m": 70.3,
    "road_access_score": 1.0,
    "road_density_km_km2": 4.653,
    "robustness_pct": 100.0,
    "runoff_coeff_C": null,
    "seasonal_cv": null,
    "segment_id": 0,
    "segment_length_m": 1715.6992,
    "stream_order": 3,
    "superfund_score": 0.0015,
    "tourism_amenity_density": 1.512,
    "tri_facility_density": 0.0,
    "usgs_mean_q_cfs": null,
    "velocity_feasibility": 1.0,
    "water_intake_score": 1.8205
   },
   "type": "Feature"
  },
  {
   "geometry": {
    "coordinates": [
     -80.418276,
     35.391974
    ],
    "type": "Point"
   },
   "properties": {
    "accumulation": 89299.0,
    "bank_slope_deg": 19.87,
    "bank_slope_score": 0.5,
    "bank_slope_source": "nc-dps-lidar-dem03-cross-section",
    "beach_dist_km": 273.6,
    "bridge_proximity_bonus": 0.0,
    "catchment_area_km2": 8.9005,
    "channel_width_m": 7.73,
    "channel_width_score": 1.0,
    "composite_score": 52.1605,
    "cso_density": 0.0,
    "ej_index": 0.375,
    "elevation_m": 155.5299,
    "estuary_dist_km": 398.59,
    "feasibility_score": 88.6364,
    "flood_q10_cfs": 958.96,
    "flow_score": 54.5081,
    "flow_velocity_ms": 0.5,
    "generation_score": 36.613,
    "impact_score": 47.5137,
    "impervious_pct": null,
    "land_ownership": 0.5,
    "lat": 35.392,
    "litter_complaint_density": 0.0,
    "lon": -80.4183,
    "navigable_dist_m": null,
    "npdes_points": 1,
    "pixel_col": 464.0,
    "pixel_row": 365.0,
    "population_density": 48.6,
    "position_along": 0.5,
    "protected_area_score": 6.0923,
    "rank": 2,
    "road_access_m": 143.5,
    "road_access_score": 1.0,
    "road_density_km_km2": 2.142,
    "robustness_pct": 100.0,
    "runoff_coeff_C": null,
    "seasonal_cv": null,
    "segment_id": 3,
    "segment_length_m": 4583.5901,
    "stream_order": 3,
    "superfund_score": 0.0026,
    "tourism_amenity_density": 0.557,
    "tri_facility_density": 0.1124,
    "usgs_mean_q_cfs": null,
    "velocity_feasibility": 1.0,
    "water_intake_score": 1.5982
   },
   "type": "Feature"
  },
  {
   "geometry": {
    "coordinates": [
     -80.451555,
     35.397236
    ],
    "type": "Point"
   },
   "properties": {
    "accumulation": 79559.0,
    "bank_slope_deg": 22.34,
    "bank_slope_score": 0.5,
    "bank_slope_source": "nc-dps-lidar-dem03-cross-section",
    "beach_dist_km": 276.54,
    "bridge_proximity_bonus": 0.0,
    "catchment_area_km2": 7.9297,
    "channel_width_m": 7.37,
    "channel_width_score": 1.0,
    "composite_score": 51.5359,
    "cso_density": 0.0,
    "ej_index": 0.3004,
    "elevation_m": 170.5244,
    "estuary_dist_km": 401.65,
    "feasibility_score": 50.3247,
    "flood_q10_cfs": 948.02,
    "flow_score": 57.7524,
    "flow_velocity_ms": 0.1449,
    "generation_score": 65.9086,
    "impact_score": 32.5882,
    "impervious_pct": 3.8,
    "land_ownership": 0.5,
    "lat": 35.3972,
    "litter_complaint_density": 0.0,
    "lon": -80.4516,
    "navigable_dist_m": null,
    "npdes_points": 3,
    "pixel_col": 163.0,
    "pixel_row": 306.0,
    "population_density": 94.7,
    "position_along": 0.5,
    "protected_area_score": 6.0734,
    "rank": 3,
    "road_access_m": 409.9,
    "road_access_score": 0.8,
    "road_density_km_km2": 3.232,
    "robustness_pct": 90.5,
    "runoff_coeff_C": 0.0842,
    "seasonal_cv": 0.4526,
    "segment_id": 5,
    "segment_length_m": 1553.2463,
    "stream_order": 3,
    "superfund_score": 0.0017,
    "tourism_amenity_density": 0.7958,
    "tri_facility_density": 0.0,
    "usgs_mean_q_cfs": 19.455,
    "velocity_feasibility": 0.7,
    "water_intake_score": 1.7043
   },
   "type": "Feature"
  },
  {
   "geometry": {
    "coordinates": [
     -80.460453,
     35.401947
    ],
    "type": "Point"
   },
   "properties": {
    "accumulation": 25921.0,
    "bank_slope_deg": 23.9,
    "bank_slope_score": 0.5,
    "bank_slope_source": "nc-dps-lidar-dem03-cross-section",
    "beach_dist_km": 277.5,
    "bridge_proximity_bonus": 0.0,
    "catchment_area_km2": 2.5836,
    "channel_width_m": 4.63,
    "channel_width_score": 1.0,
    "composite_score": 41.4691,
    "cso_density": 0.0,
    "ej_index": 0.3369,
    "elevation_m": 176.3283,
    "estuary_dist_km": 402.49,
    "feasibility_score": 50.3247,
    "flood_q10_cfs": 391.5,
    "flow_score": 25.3691,
    "flow_velocity_ms": 0.0962,
    "generation_score": 53.1887,
    "impact_score": 38.7385,
    "impervious_pct": 1.66,
    "land_ownership": 0.5,
    "lat": 35.4019,
    "litter_complaint_density": 0.0,
    "lon": -80.4605,
    "navigable_dist_m": null,
    "npdes_points": 2,
    "pixel_col": 80.0,
    "pixel_row": 257.0,
    "population_density": 117.8,
    "position_along": 0.5,
    "protected_area_score": 6.4868,
    "rank": 4,
    "road_access_m": 233.2,
    "road_access_score": 0.8,
    "road_density_km_km2": 3.332,
    "robustness_pct": 40.5,
    "runoff_coeff_C": 0.0649,
    "seasonal_cv": 0.4172,
    "segment_id": 4,
    "segment_length_m": 1149.6477,
    "stream_order": 3,
    "superfund_score": 0.0015,
    "tourism_amenity_density": 0.0,
    "tri_facility_density": 0.0,
    "usgs_mean_q_cfs": 3.211,
    "velocity_feasibility": 0.7,
    "water_intake_score": 1.7603
   },
   "type": "Feature"
  },
  {
   "geometry": {
    "coordinates": [
     -80.432826,
     35.38243
    ],
    "type": "Point"
   },
   "properties": {
    "accumulation": 66089.0,
    "bank_slope_deg": 22.31,
    "bank_slope_score": 0.5,
    "bank_slope_source": "nc-dps-lidar-dem03-cross-section",
    "beach_dist_km": 274.27,
    "bridge_proximity_bonus": 0.0,
    "catchment_area_km2": 6.5872,
    "channel_width_m": 6.82,
    "channel_width_score": 1.0,
    "composite_score": 41.162,
    "cso_density": 0.0,
    "ej_index": 0.2875,
    "elevation_m": 154.4973,
    "estuary_dist_km": 399.83,
    "feasibility_score": 52.2727,
    "flood_q10_cfs": 822.84,
    "flow_score": 52.4932,
    "flow_velocity_ms": 0.0419,
    "generation_score": 35.1455,
    "impact_score": 32.1804,
    "impervious_pct": 3.8,
    "land_ownership": 0.5,
    "lat": 35.3824,
    "litter_complaint_density": 0.0,
    "lon": -80.4328,
    "navigable_dist_m": null,
    "npdes_points": 0,
    "pixel_col": 334.0,
    "pixel_row": 472.0,
    "population_density": 55.6,
    "position_along": 0.75,
    "protected_area_score": 6.1097,
    "rank": 5,
    "road_access_m": 91.1,
    "road_access_score": 1.0,
    "road_density_km_km2": 1.862,
    "robustness_pct": 57.0,
    "runoff_coeff_C": 0.0842,
    "seasonal_cv": 0.4526,
    "segment_id": 6,
    "segment_length_m": 3149.143,
    "stream_order": 3,
    "superfund_score": 0.0027,
    "tourism_amenity_density": 0.3183,
    "tri_facility_density": 0.0,
    "usgs_mean_q_cfs": 19.455,
    "velocity_feasibility": 0.3,
    "water_intake_score": 1.5213
   },
   "type": "Feature"
  },
  {
   "geometry": {
    "coordinates": [
     -80.429762,
     35.372984
    ],
    "type": "Point"
   },
   "properties": {
    "accumulation": 197786.0,
    "bank_slope_deg": 25.65,
    "bank_slope_score": 0.5,
    "bank_slope_source": "nc-dps-lidar-dem03-cross-section",
    "beach_dist_km": 273.54,
    "bridge_proximity_bonus": 0.0,
    "catchment_area_km2": 19.7135,
    "channel_width_m": 10.75,
    "channel_width_score": 1.0,
    "composite_score": 40.2795,
    "cso_density": 0.0,
    "ej_index": 0.3318,
    "elevation_m": 152.3275,
    "estuary_dist_km": 399.48,
    "feasibility_score": 65.9091,
    "flood_q10_cfs": 1489.67,
    "flow_score": 72.0,
    "flow_velocity_ms": 0.5,
    "generation_score": 8.1188,
    "impact_score": 33.1918,
    "impervious_pct": null,
    "land_ownership": 0.5,
    "lat": 35.373,
    "litter_complaint_density": 0.0,
    "lon": -80.4298,
    "navigable_dist_m": null,
    "npdes_points": 0,
    "pixel_col": 360.0,
    "pixel_row": 577.0,
    "population_density": 59.7,
    "position_along": 0.5,
    "protected_area_score": 6.1188,
    "rank": 6,
    "road_access_m": 418.8,
    "road_access_score": 0.8,
    "road_density_km_km2": 1.055,
    "robustness_pct": 37.5,
    "runoff_coeff_C": null,
    "seasonal_cv": null,
    "segment_id": 7,
    "segment_length_m": 2195.0307,
    "stream_order": 3,
    "superfund_score": 0.0033,
    "tourism_amenity_density": 0.0796,
    "tri_facility_density": 0.0,
    "usgs_mean_q_cfs": null,
    "velocity_feasibility": 1.0,
    "water_intake_score": 1.4188
   },
   "type": "Feature"
  },
  {
   "geometry": {
    "coordinates": [
     -80.412532,
     35.408345
    ],
    "type": "Point"
   },
   "properties": {
    "accumulation": 26059.0,
    "bank_slope_deg": 12.59,
    "bank_slope_score": 1.0,
    "bank_slope_source": "nc-dps-lidar-dem03-cross-section",
    "beach_dist_km": 274.0,
    "bridge_proximity_bonus": 0.0,
    "catchment_area_km2": 2.5973,
    "channel_width_m": 4.64,
    "channel_width_score": 1.0,
    "composite_score": 39.8078,
    "cso_density": 0.0,
    "ej_index": 0.5292,
    "elevation_m": 157.3461,
    "estuary_dist_km": 398.21,
    "feasibility_score": 77.2727,
    "flood_q10_cfs": 381.81,
    "flow_score": 41.0765,
    "flow_velocity_ms": 0.5,
    "generation_score": 0.5519,
    "impact_score": 59.274,
    "impervious_pct": null,
    "land_ownership": 0.5,
    "lat": 35.4083,
    "litter_complaint_density": 0.0,
    "lon": -80.4125,
    "navigable_dist_m": null,
    "npdes_points": 0,
    "pixel_col": 513.0,
    "pixel_row": 183.0,
    "population_density": 36.2,
    "position_along": 0.5,
    "protected_area_score": 5.9013,
    "rank": 7,
    "road_access_m": 451.4,
    "road_access_score": 0.8,
    "road_density_km_km2": 0.763,
    "robustness_pct": 40.5,
    "runoff_coeff_C": null,
    "seasonal_cv": null,
    "segment_id": 2,
    "segment_length_m": 847.0096,
    "stream_order": 3,
    "superfund_score": 0.002,
    "tourism_amenity_density": 0.2387,
    "tri_facility_density": 0.0,
    "usgs_mean_q_cfs": null,
    "velocity_feasibility": 1.0,
    "water_intake_score": 1.7803
   },
   "type": "Feature"
  },
  {
   "geometry": {
    "coordinates": [
     -80.413382,
     35.409716
    ],
    "type": "Point"
   },
   "properties": {
    "accumulation": 21547.0,
    "bank_slope_deg": 0.78,
    "bank_slope_score": 1.0,
    "bank_slope_source": "nc-dps-lidar-dem03-cross-section",
    "beach_dist_km": 274.14,
    "bridge_proximity_bonus": 0.0,
    "catchment_area_km2": 2.1476,
    "channel_width_m": 4.28,
    "channel_width_score": 1.0,
    "composite_score": 39.561,
    "cso_density": 0.0,
    "ej_index": 0.5292,
    "elevation_m": 158.2504,
    "estuary_dist_km": 398.3,
    "feasibility_score": 77.2727,
    "flood_q10_cfs": 330.85,
    "flow_score": 40.0,
    "flow_velocity_ms": 0.5,
    "generation_score": 0.3343,
    "impact_score": 59.5661,
    "impervious_pct": null,
    "land_ownership": 0.5,
    "lat": 35.4097,
    "litter_complaint_density": 0.0,
    "lon": -80.4134,
    "navigable_dist_m": null,
    "npdes_points": 0,
    "pixel_col": 506.0,
    "pixel_row": 168.0,
    "population_density": 36.2,
    "position_along": 0.5,
    "protected_area_score": 5.863,
    "rank": 8,
    "road_access_m": 436.7,
    "road_access_score": 0.8,
    "road_density_km_km2": 0.694,
    "robustness_pct": 23.5,
    "runoff_coeff_C": null,
    "seasonal_cv": null,
    "segment_id": 1,
    "segment_length_m": 825.3296,
    "stream_order": 3,
    "superfund_score": 0.0019,
    "tourism_amenity_density": 0.3979,
    "tri_facility_density": 0.0,
    "usgs_mean_q_cfs": null,
    "velocity_feasibility": 1.0,
    "water_intake_score": 1.8006
   },
   "type": "Feature"
  },
  {
   "geometry": {
    "coordinates": [
     -80.442204,
     35.389272
    ],
    "type": "Point"
   },
   "properties": {
    "accumulation": 44446.0,
    "bank_slope_deg": 17.33,
    "bank_slope_score": 0.5,
    "bank_slope_source": "nc-dps-lidar-dem03-cross-section",
    "beach_dist_km": 275.38,
    "bridge_proximity_bonus": 0.0,
    "catchment_area_km2": 4.43,
    "channel_width_m": 5.79,
    "channel_width_score": 1.0,
    "composite_score": 36.586,
    "cso_density": 0.0,
    "ej_index": 0.2874,
    "elevation_m": 160.0844,
    "estuary_dist_km": 400.74,
    "feasibility_score": 27.5974,
    "flood_q10_cfs": 610.2,
    "flow_score": 49.2073,
    "flow_velocity_ms": 0.1106,
    "generation_score": 34.6027,
    "impact_score": 32.5459,
    "impervious_pct": 3.8,
    "land_ownership": 0.5,
    "lat": 35.3893,
    "litter_complaint_density": 0.0,
    "lon": -80.4422,
    "navigable_dist_m": null,
    "npdes_points": 0,
    "pixel_col": 248.0,
    "pixel_row": 395.0,
    "population_density": 55.9,
    "position_along": 0.25,
    "protected_area_score": 6.1155,
    "rank": 9,
    "road_access_m": 644.6,
    "road_access_score": 0.6,
    "road_density_km_km2": 1.663,
    "robustness_pct": 0.0,
    "runoff_coeff_C": 0.0842,
    "seasonal_cv": 0.4526,
    "segment_id": 6,
    "segment_length_m": 3149.143,
    "stream_order": 3,
    "superfund_score": 0.0021,
    "tourism_amenity_density": 0.6366,
    "tri_facility_density": 0.0,
    "usgs_mean_q_cfs": 19.455,
    "velocity_feasibility": 0.7,
    "water_intake_score": 1.6083
   },
   "type": "Feature"
  },
  {
   "geometry": {
    "coordinates": [
     -80.412067,
     35.403335
    ],
    "type": "Point"
   },
   "properties": {
    "accumulation": 52429.0,
    "bank_slope_deg": 33.22,
    "bank_slope_score": 0.2,
    "bank_slope_source": "nc-dps-lidar-dem03-cross-section",
    "beach_dist_km": 273.7,
    "bridge_proximity_bonus": 0.0,
    "catchment_area_km2": 5.2257,
    "channel_width_m": 6.2,
    "channel_width_score": 1.0,
    "composite_score": 35.8998,
    "cso_density": 0.0,
    "ej_index": 0.5106,
    "elevation_m": 156.5454,
    "estuary_dist_km": 398.13,
    "feasibility_score": 36.3636,
    "flood_q10_cfs": 646.63,
    "flow_score": 46.9692,
    "flow_velocity_ms": 0.5,
    "generation_score": 7.3817,
    "impact_score": 54.9615,
    "impervious_pct": null,
    "land_ownership": 0.5,
    "lat": 35.4033,
    "litter_complaint_density": 0.0,
    "lon": -80.4121,
    "navigable_dist_m": null,
    "npdes_points": 1,
    "pixel_col": 520.0,
    "pixel_row": 239.0,
    "population_density": 37.7,
    "position_along": 0.1667,
    "protected_area_score": 5.8512,
    "rank": 10,
    "road_access_m": 629.3,
    "road_access_score": 0.6,
    "road_density_km_km2": 1.168,
    "robustness_pct": 7.0,
    "runoff_coeff_C": null,
    "seasonal_cv": null,
    "segment_id": 3,
    "segment_length_m": 4583.5901,
    "stream_order": 3,
    "superfund_score": 0.0022,
    "tourism_amenity_density": 0.2387,
    "tri_facility_density": 0.0,
    "usgs_mean_q_cfs": null,
    "velocity_feasibility": 1.0,
    "water_intake_score": 1.718
   },
   "type": "Feature"
  },
  {
   "geometry": {
    "coordinates": [
     -80.396957,
     35.380082
    ],
    "type": "Point"
   },
   "properties": {
    "accumulation": 23074.0,
    "bank_slope_deg": 2.97,
    "bank_slope_score": 1.0,
    "bank_slope_source": "nc-dps-lidar-dem03-cross-section",
    "beach_dist_km": 271.27,
    "bridge_proximity_bonus": 0.0,
    "catchment_area_km2": 2.2998,
    "channel_width_m": 4.41,
    "channel_width_score": 1.0,
    "composite_score": 31.4969,
    "cso_density": 0.0,
    "ej_index": 0.2875,
    "elevation_m": 178.434,
    "estuary_dist_km": 396.57,
    "feasibility_score": 84.4156,
    "flood_q10_cfs": 354.76,
    "flow_score": 9.9169,
    "flow_velocity_ms": 0.0698,
    "generation_score": 13.0401,
    "impact_score": 41.4775,
    "impervious_pct": 1.04,
    "land_ownership": 0.5,
    "lat": 35.3801,
    "litter_complaint_density": 0.0,
    "lon": -80.397,
    "navigable_dist_m": null,
    "npdes_points": 0,
    "pixel_col": 660.0,
    "pixel_row": 493.0,
    "population_density": 55.6,
    "position_along": 0.5,
    "protected_area_score": 6.0799,
    "rank": 11,
    "road_access_m": 65.2,
    "road_access_score": 1.0,
    "road_density_km_km2": 0.758,
    "robustness_pct": 3.5,
    "runoff_coeff_C": 0.0594,
    "seasonal_cv": 0.4275,
    "segment_id": 9,
    "segment_length_m": 834.3098,
    "stream_order": 1,
    "superfund_score": 0.0041,
    "tourism_amenity_density": 0.0,
    "tri_facility_density": 0.0,
    "usgs_mean_q_cfs": 3.643,
    "velocity_feasibility": 0.7,
    "water_intake_score": 1.406
   },
   "type": "Feature"
  },
  {
   "geometry": {
    "coordinates": [
     -80.449415,
     35.367655
    ],
    "type": "Point"
   },
   "properties": {
    "accumulation": 25773.0,
    "bank_slope_deg": 16.38,
    "bank_slope_score": 0.5,
    "bank_slope_source": "nc-dps-lidar-dem03-cross-section",
    "beach_dist_km": 274.85,
    "bridge_proximity_bonus": 0.0,
    "catchment_area_km2": 2.5688,
    "channel_width_m": 4.62,
    "channel_width_score": 1.0,
    "composite_score": 27.8848,
    "cso_density": 0.0,
    "ej_index": 0.4579,
    "elevation_m": 164.6376,
    "estuary_dist_km": 401.22,
    "feasibility_score": 50.3247,
    "flood_q10_cfs": 395.1,
    "flow_score": 11.038,
    "flow_velocity_ms": 0.1202,
    "generation_score": 26.91,
    "impact_score": 31.6787,
    "impervious_pct": 2.43,
    "land_ownership": 0.5,
    "lat": 35.3677,
    "litter_complaint_density": 0.0,
    "lon": -80.4494,
    "navigable_dist_m": null,
    "npdes_points": 0,
    "pixel_col": 184.0,
    "pixel_row": 637.0,
    "population_density": 71.2,
    "position_along": 0.5,
    "protected_area_score": 6.0866,
    "rank": 12,
    "road_access_m": 451.2,
    "road_access_score": 0.8,
    "road_density_km_km2": 0.783,
    "robustness_pct": 0.0,
    "runoff_coeff_C": 0.0719,
    "seasonal_cv": 0.4097,
    "segment_id": 10,
    "segment_length_m": 943.4192,
    "stream_order": 1,
    "superfund_score": 0.0027,
    "tourism_amenity_density": 0.0796,
    "tri_facility_density": 0.0,
    "usgs_mean_q_cfs": 1.794,
    "velocity_feasibility": 0.7,
    "water_intake_score": 1.386
   },
   "type": "Feature"
  },
  {
   "geometry": {
    "coordinates": [
     -80.427802,
     35.370458
    ],
    "type": "Point"
   },
   "properties": {
    "accumulation": 38366.0,
    "bank_slope_deg": 5.51,
    "bank_slope_score": 1.0,
    "bank_slope_source": "nc-dps-lidar-dem03-cross-section",
    "beach_dist_km": 273.25,
    "bridge_proximity_bonus": 0.0,
    "catchment_area_km2": 3.824,
    "channel_width_m": 5.44,
    "channel_width_score": 1.0,
    "composite_score": 24.221,
    "cso_density": 0.0,
    "ej_index": 0.2875,
    "elevation_m": 154.7159,
    "estuary_dist_km": 399.29,
    "feasibility_score": 61.6883,
    "flood_q10_cfs": 518.42,
    "flow_score": 12.5797,
    "flow_velocity_ms": 0.1104,
    "generation_score": 11.0195,
    "impact_score": 28.3899,
    "impervious_pct": 0.82,
    "land_ownership": 0.5,
    "lat": 35.3705,
    "litter_complaint_density": 0.0,
    "lon": -80.4278,
    "navigable_dist_m": null,
    "npdes_points": 0,
    "pixel_col": 378.0,
    "pixel_row": 605.0,
    "population_density": 55.6,
    "position_along": 0.75,
    "protected_area_score": 6.0875,
    "rank": 13,
    "road_access_m": 450.2,
    "road_access_score": 0.8,
    "road_density_km_km2": 0.588,
    "robustness_pct": 0.0,
    "runoff_coeff_C": 0.0574,
    "seasonal_cv": 0.4197,
    "segment_id": 8,
    "segment_length_m": 3730.3167,
    "stream_order": 1,
    "superfund_score": 0.0035,
    "tourism_amenity_density": 0.0796,
    "tri_facility_density": 0.0,
    "usgs_mean_q_cfs": 2.025,
    "velocity_feasibility": 0.7,
    "water_intake_score": 1.371
   },
   "type": "Feature"
  },
  {
   "geometry": {
    "coordinates": [
     -80.416966,
     35.379467
    ],
    "type": "Point"
   },
   "properties": {
    "accumulation": 28109.0,
    "bank_slope_deg": 5.29,
    "bank_slope_score": 1.0,
    "bank_slope_source": "nc-dps-lidar-dem03-cross-section",
    "beach_dist_km": 272.84,
    "bridge_proximity_bonus": 0.0,
    "catchment_area_km2": 2.8017,
    "channel_width_m": 4.78,
    "channel_width_score": 1.0,
    "composite_score": 23.0869,
    "cso_density": 0.0,
    "ej_index": 0.2875,
    "elevation_m": 173.2623,
    "estuary_dist_km": 398.38,
    "feasibility_score": 38.961,
    "flood_q10_cfs": 410.08,
    "flow_score": 9.9914,
    "flow_velocity_ms": 0.1007,
    "generation_score": 12.7257,
    "impact_score": 36.4239,
    "impervious_pct": 0.82,
    "land_ownership": 0.5,
    "lat": 35.3795,
    "litter_complaint_density": 0.0,
    "lon": -80.417,
    "navigable_dist_m": null,
    "npdes_points": 0,
    "pixel_col": 477.0,
    "pixel_row": 504.0,
    "population_density": 55.6,
    "position_along": 0.25,
    "protected_area_score": 6.1598,
    "rank": 14,
    "road_access_m": 512.2,
    "road_access_score": 0.6,
    "road_density_km_km2": 1.129,
    "robustness_pct": 0.0,
    "runoff_coeff_C": 0.0574,
    "seasonal_cv": 0.4197,
    "segment_id": 8,
    "segment_length_m": 3730.3167,
    "stream_order": 1,
    "superfund_score": 0.0034,
    "tourism_amenity_density": 0.0,
    "tri_facility_density": 0.0,
    "usgs_mean_q_cfs": 2.025,
    "velocity_feasibility": 0.7,
    "water_intake_score": 1.4549
   },
   "type": "Feature"
  }
 ],
 "note": "GRIME region 'Mount Pleasant, NC' \u2014 real-data pipeline (DEM\u2192streams\u2192candidates\u2192stream mask (sites confined to \u00b1150 m of mapped OSM/NHD waterways)\u2192region-appropriate real parameters\u2192shipped scoring, math unchanged). Width curve: Bieger et al. 2015 JAWRA Table 3, Appalachian Highlands. Flood: SIR 2014-5030 HR1. NC Piedmont (DEQ physiography polygon)",
 "provenance": {
  "candidates_pre_gate": 14,
  "constant": [
   "bridge_proximity_bonus",
   "channel_width_score",
   "cso_density",
   "land_ownership",
   "litter_complaint_density"
  ],
  "gated_navigable": 0,
  "hard_gate_removed": 0,
  "n_parameters": 27,
  "parameters": {
   "bank_slope_score": {
    "kind": "real",
    "n_3dep_10m_fallback": 0,
    "n_nc_lidar_3_125ft": 14,
    "n_real": 14,
    "n_sites": 14,
    "source": "NC OneMap / NC DPS DEM03 statewide lidar-derived 3.125-ft (0.953 m) elevations (perpendicular 50 m transect; robust 5 m bank-rise metric); unavailable profiles use the region 10 m 3DEP DEM-gradient fallback",
    "source_mosaics": [
     "Cabarrus_Ground_3ft"
    ]
   },
   "beach_dist_km": {
    "kind": "real",
    "n_real": 14,
    "n_sites": 14,
    "source": "haversine to region ref: Wrightsville Beach (shipped NC reference)"
   },
   "bridge_proximity_bonus": {
    "kind": "real",
    "n_real": 14,
    "n_sites": 14,
    "source": "FHWA/BTS NBI (NTAD), 50 m proximity"
   },
   "catchment_area_km2": {
    "kind": "real",
    "n_real": 14,
    "n_sites": 14,
    "source": "DEM flow accumulation (pipeline)"
   },
   "channel_width_score": {
    "kind": "real",
    "n_real": 14,
    "n_sites": 14,
    "source": "Bieger 2015 AHI width curve on DEM drainage area \u2192 shipped width curve"
   },
   "cso_density": {
    "kind": "real",
    "n_real": 14,
    "n_sites": 14,
    "source": "EPA ECHO open CSO/TCS outfall PF coordinates states=NC, Cauchy proximity"
   },
   "ej_index": {
    "kind": "real",
    "n_real": 14,
    "n_sites": 14,
    "source": "Census ACS C17002+B03002 two-component demographic index, percentile-ranked within region"
   },
   "estuary_dist_km": {
    "kind": "real",
    "n_real": 14,
    "n_sites": 14,
    "source": "haversine to region ref: Pamlico Sound (shipped NC reference)"
   },
   "flood_q10_cfs": {
    "impervious_fallback_reason": "StreamCat imperviousness unavailable; the existing regression-input fallback of 0.0% impervious was used and is disclosed here",
    "kind": "real",
    "n_impervious_fallback": 6,
    "n_real": 14,
    "n_sites": 14,
    "source": "USGS SIR 2014-5030 Table 7 HR1 (NC Piedmont)"
   },
   "flow_velocity_ms": {
    "fallback_reason": "EROM/DEM continuity input unavailable; shipped 0.5 m/s default used",
    "kind": "real",
    "n_fallback": 6,
    "n_real": 8,
    "n_sites": 14,
    "source": "Manning (region DEM/D8) blended with EROM continuity (shipped M4 logic)"
   },
   "impervious_pct": {
    "fallback_reason": "NLDI/StreamCat did not return a snap-compatible catchment value; value remains null and is removed by constant-column handling",
    "kind": "real",
    "n_fallback": 6,
    "n_real": 8,
    "n_sites": 14,
    "source": "EPA StreamCat pctimp2019 (per NHDPlus watershed)"
   },
   "land_ownership": {
    "fallback_reason": "no containing parcel owner returned; shipped unknown ownership 0.5 used",
    "kind": "real",
    "n_fallback": 1,
    "n_real": 13,
    "n_sites": 14,
    "source": "NC OneMap statewide parcels (NC Parcels Transformer) ownname"
   },
   "litter_complaint_density": {
    "kind": "fallback",
    "n_real": 0,
    "n_sites": 14,
    "source": "no public machine-readable litter/illegal-dumping feed for this region"
   },
   "navigable_dist_m": {
    "kind": "real",
    "n_real": 14,
    "n_sites": 14,
    "source": "USACE/BTS NWN (NTAD): no navigable segment within this bbox (+2 km) \u2014 computed absence, gate passes all sites"
   },
   "npdes_points": {
    "kind": "real",
    "n_real": 14,
    "n_sites": 14,
    "source": "EPA ECHO active NPDES outfalls states=NC (types NPD/GPC/NGP; statuses ADC/EFF/EXP), per catchment"
   },
   "population_density": {
    "kind": "real",
    "n_real": 14,
    "n_sites": 14,
    "source": "Census ACS 2022 B01003 block groups (bbox, multi-county), area-weighted"
   },
   "protected_area_score": {
    "kind": "real",
    "n_real": 14,
    "n_sites": 14,
    "source": "USGS PAD-US 4.1 state GDB; states=NC; shipped designation-weighted proximity curve"
   },
   "road_access_score": {
    "kind": "real",
    "n_real": 14,
    "n_sites": 14,
    "source": "OSM drive network nearest-node distance"
   },
   "road_density_km_km2": {
    "kind": "real",
    "n_real": 14,
    "n_sites": 14,
    "source": "OSM drive network (osmnx, cached) clipped per catchment"
   },
   "runoff_coeff_C": {
    "fallback_reason": "source impervious_pct was unavailable; derived value remains null",
    "kind": "real",
    "n_fallback": 6,
    "n_real": 8,
    "n_sites": 14,
    "source": "derived from real impervious_pct (C=0.05+0.009*I)"
   },
   "seasonal_cv": {
    "fallback_reason": "NHDPlus monthly EROM was unavailable or failed the drainage-area snap guard; value remains null",
    "kind": "real",
    "n_fallback": 6,
    "n_real": 8,
    "n_sites": 14,
    "source": "CV of NHDPlus EROM monthly flows per COMID"
   },
   "stream_order": {
    "kind": "real",
    "n_real": 14,
    "n_sites": 14,
    "source": "DEM stream-network confluence heuristic (pipeline)"
   },
   "superfund_score": {
    "kind": "real",
    "n_real": 14,
    "n_sites": 14,
    "source": "EPA DataMap SEMS active sites states=NC (non-archived, georeferenced), shipped 500 m inverse-distance curve"
   },
   "tourism_amenity_density": {
    "kind": "real",
    "n_real": 14,
    "n_sites": 14,
    "source": "OSM leisure/tourism features per 2 km radius"
   },
   "tri_facility_density": {
    "kind": "real",
    "n_real": 14,
    "n_sites": 14,
    "source": "EPA DataMap TRI open facilities states=NC (preferred decimal or packed-DMS recovery), per catchment"
   },
   "usgs_mean_q_cfs": {
    "fallback_reason": "NHDPlus EROM was unavailable or failed the drainage-area snap guard; value remains null",
    "kind": "real",
    "n_fallback": 6,
    "n_real": 8,
    "n_sites": 14,
    "source": "NHDPlus EROM qe_ma per COMID (snap-guarded)"
   },
   "velocity_feasibility": {
    "fallback_reason": "derived from the shipped 0.5 m/s velocity fallback",
    "kind": "real",
    "n_fallback": 6,
    "n_real": 8,
    "n_sites": 14,
    "source": "shipped step curve on the computed velocity"
   },
   "velocity_transport_favorability": {
    "fallback_reason": "EROM/DEM continuity input unavailable; shipped 0.5 m/s default used",
    "kind": "derived",
    "n_fallback": 6,
    "n_real": 8,
    "n_sites": 14,
    "source": "scored form of flow_velocity_ms inside the Flow family \u2014 peaked Gaussian exp(-((v-0.9)/0.6)^2), model.json curves.velocity_transport_favorability; construct: transport/delivery favorability, deliberately distinct from velocity_feasibility (device operability)"
   },
   "water_intake_score": {
    "kind": "real",
    "n_real": 14,
    "n_sites": 14,
    "source": "NC OneMap / NC DEQ SWAP public water supply sources (source_typ='Surface Water'), shipped exp(-d/10km) curve"
   }
  },
  "stream_mask": {
   "buffer_m": 150.0,
   "pre_mask": 15,
   "removed": 1,
   "sources": [
    "osm-overpass (all waterway ways)",
    "usgs-nhdplus flowlines"
   ]
  },
  "varying": [
   "bank_slope_score",
   "beach_dist_km",
   "catchment_area_km2",
   "ej_index",
   "estuary_dist_km",
   "flood_q10_cfs",
   "flow_velocity_ms",
   "impervious_pct",
   "npdes_points",
   "population_density",
   "protected_area_score",
   "road_access_score",
   "road_density_km_km2",
   "runoff_coeff_C",
   "seasonal_cv",
   "stream_order",
   "superfund_score",
   "tourism_amenity_density",
   "tri_facility_density",
   "usgs_mean_q_cfs",
   "velocity_feasibility",
   "water_intake_score"
  ]
 },
 "region": {
  "bbox": [
   -80.4691,
   35.3639,
   -80.3946,
   35.4246
  ],
  "beach_ref": {
   "label": "Wrightsville Beach (shipped NC reference)",
   "lat": 34.21,
   "lon": -77.79
  },
  "center": [
   -80.431831,
   35.394268
  ],
  "estuary_ref": {
   "label": "Pamlico Sound (shipped NC reference)",
   "lat": 35.05,
   "lon": -76.05
  },
  "flood_method": "sir2014_hr1",
  "name": "Mount Pleasant, NC",
  "notes": "NC Piedmont (DEQ physiography polygon)",
  "slug": "mount-pleasant",
  "state": "NC",
  "utm_epsg": 32617,
  "width_curve": {
   "a": 3.12,
   "b": 0.415,
   "code": "AHI",
   "source": "Bieger et al. 2015 JAWRA Table 3, Appalachian Highlands"
  }
 },
 "type": "FeatureCollection"
}
