{
 "features": [
  {
   "geometry": {
    "coordinates": [
     -77.091848,
     36.434301
    ],
    "type": "Point"
   },
   "properties": {
    "accumulation": 21526.0,
    "bank_slope_deg": 0.17,
    "bank_slope_score": 1.0,
    "bank_slope_source": "nc-dps-lidar-dem03-cross-section",
    "beach_dist_km": 255.31,
    "bridge_proximity_bonus": 0.0,
    "catchment_area_km2": 2.1488,
    "channel_width_m": 2.93,
    "channel_width_score": 1.0,
    "composite_score": 69.2541,
    "cso_density": 0.0,
    "ej_index": 0.5923,
    "elevation_m": 13.6074,
    "estuary_dist_km": 180.37,
    "feasibility_score": 28.5714,
    "flood_q10_cfs": 210.26,
    "flow_score": 41.5144,
    "flow_velocity_ms": 0.2266,
    "generation_score": 100.0,
    "impact_score": 81.9658,
    "impervious_pct": 13.76,
    "land_ownership": 0.5,
    "lat": 36.4343,
    "litter_complaint_density": 0.0,
    "lon": -77.0918,
    "navigable_dist_m": 1636.7,
    "npdes_points": 0,
    "pixel_col": 325.0,
    "pixel_row": 360.0,
    "population_density": 301.6,
    "position_along": 0.5,
    "protected_area_score": 13.6758,
    "rank": 1,
    "road_access_m": 206.2,
    "road_access_score": 0.8,
    "road_density_km_km2": 3.705,
    "robustness_pct": 100.0,
    "runoff_coeff_C": 0.1738,
    "seasonal_cv": 0.4155,
    "segment_id": 1,
    "segment_length_m": 760.4493,
    "stream_order": 3,
    "superfund_score": 0.0,
    "tourism_amenity_density": 1.8303,
    "tri_facility_density": 0.0,
    "usgs_mean_q_cfs": 1.557,
    "velocity_feasibility": 0.7,
    "water_intake_score": 0.0
   },
   "type": "Feature"
  },
  {
   "geometry": {
    "coordinates": [
     -77.082688,
     36.44101
    ],
    "type": "Point"
   },
   "properties": {
    "accumulation": 84969.0,
    "bank_slope_deg": 27.68,
    "bank_slope_score": 0.5,
    "bank_slope_source": "nc-dps-lidar-dem03-cross-section",
    "beach_dist_km": 256.24,
    "bridge_proximity_bonus": 0.0,
    "catchment_area_km2": 8.4818,
    "channel_width_m": 4.82,
    "channel_width_score": 1.0,
    "composite_score": 58.66,
    "cso_density": 0.0,
    "ej_index": 0.544,
    "elevation_m": 2.5663,
    "estuary_dist_km": 180.58,
    "feasibility_score": 71.4286,
    "flood_q10_cfs": 407.64,
    "flow_score": 80.5024,
    "flow_velocity_ms": 0.1285,
    "generation_score": 38.8003,
    "impact_score": 53.9336,
    "impervious_pct": 6.78,
    "land_ownership": 0.5,
    "lat": 36.441,
    "litter_complaint_density": 0.0,
    "lon": -77.0827,
    "navigable_dist_m": 723.9,
    "npdes_points": 0,
    "pixel_col": 409.0,
    "pixel_row": 285.0,
    "population_density": 107.7,
    "position_along": 0.5,
    "protected_area_score": 13.4404,
    "rank": 2,
    "road_access_m": 113.6,
    "road_access_score": 1.0,
    "road_density_km_km2": 2.899,
    "robustness_pct": 100.0,
    "runoff_coeff_C": 0.111,
    "seasonal_cv": 0.4088,
    "segment_id": 3,
    "segment_length_m": 2757.7357,
    "stream_order": 3,
    "superfund_score": 0.0,
    "tourism_amenity_density": 1.8303,
    "tri_facility_density": 0.0,
    "usgs_mean_q_cfs": 5.339,
    "velocity_feasibility": 0.7,
    "water_intake_score": 0.0
   },
   "type": "Feature"
  },
  {
   "geometry": {
    "coordinates": [
     -77.091955,
     36.428128
    ],
    "type": "Point"
   },
   "properties": {
    "accumulation": 23810.0,
    "bank_slope_deg": 14.9,
    "bank_slope_score": 1.0,
    "bank_slope_source": "nc-dps-lidar-dem03-cross-section",
    "beach_dist_km": 254.64,
    "bridge_proximity_bonus": 0.0,
    "catchment_area_km2": 2.3768,
    "channel_width_m": 3.04,
    "channel_width_score": 1.0,
    "composite_score": 40.0848,
    "cso_density": 0.0,
    "ej_index": 0.4699,
    "elevation_m": 8.7047,
    "estuary_dist_km": 179.79,
    "feasibility_score": 28.5714,
    "flood_q10_cfs": 178.27,
    "flow_score": 15.0339,
    "flow_velocity_ms": 0.1143,
    "generation_score": 39.071,
    "impact_score": 67.731,
    "impervious_pct": 4.06,
    "land_ownership": 0.5,
    "lat": 36.4281,
    "litter_complaint_density": 0.0,
    "lon": -77.092,
    "navigable_dist_m": 2273.0,
    "npdes_points": 0,
    "pixel_col": 322.0,
    "pixel_row": 425.0,
    "population_density": 176.6,
    "position_along": 0.5,
    "protected_area_score": 13.6015,
    "rank": 3,
    "road_access_m": 493.6,
    "road_access_score": 0.8,
    "road_density_km_km2": 3.1,
    "robustness_pct": 100.0,
    "runoff_coeff_C": 0.0865,
    "seasonal_cv": 0.4189,
    "segment_id": 2,
    "segment_length_m": 1067.8708,
    "stream_order": 3,
    "superfund_score": 0.0,
    "tourism_amenity_density": 1.6711,
    "tri_facility_density": 0.0,
    "usgs_mean_q_cfs": 1.45,
    "velocity_feasibility": 0.7,
    "water_intake_score": 0.0
   },
   "type": "Feature"
  },
  {
   "geometry": {
    "coordinates": [
     -77.112575,
     36.463321
    ],
    "type": "Point"
   },
   "properties": {
    "accumulation": 34703.0,
    "bank_slope_deg": 18.07,
    "bank_slope_score": 0.5,
    "bank_slope_source": "nc-dps-lidar-dem03-cross-section",
    "beach_dist_km": 257.98,
    "bridge_proximity_bonus": 0.0,
    "catchment_area_km2": 3.4641,
    "channel_width_m": 3.49,
    "channel_width_score": 1.0,
    "composite_score": 13.9281,
    "cso_density": 0.0,
    "ej_index": 0.6977,
    "elevation_m": 7.6739,
    "estuary_dist_km": 184.09,
    "feasibility_score": 0.0,
    "flood_q10_cfs": 220.06,
    "flow_score": 24.8551,
    "flow_velocity_ms": 0.1373,
    "generation_score": 0.0,
    "impact_score": 25.7143,
    "impervious_pct": 3.39,
    "land_ownership": 0.5,
    "lat": 36.4633,
    "litter_complaint_density": 0.0,
    "lon": -77.1126,
    "navigable_dist_m": 3131.3,
    "npdes_points": 0,
    "pixel_col": 145.0,
    "pixel_row": 30.0,
    "population_density": 38.8,
    "position_along": 0.5,
    "protected_area_score": 13.3561,
    "rank": 4,
    "road_access_m": 438.7,
    "road_access_score": 0.8,
    "road_density_km_km2": 0.644,
    "robustness_pct": 100.0,
    "runoff_coeff_C": 0.0805,
    "seasonal_cv": 0.4074,
    "segment_id": 0,
    "segment_length_m": 1416.2609,
    "stream_order": 1,
    "superfund_score": 0.0,
    "tourism_amenity_density": 0.0,
    "tri_facility_density": 0.0,
    "usgs_mean_q_cfs": 2.454,
    "velocity_feasibility": 0.7,
    "water_intake_score": 0.0
   },
   "type": "Feature"
  }
 ],
 "note": "GRIME region 'Murfreesboro, NC' \u2014 real-data pipeline (DEM\u2192streams\u2192candidates\u2192stream mask (sites confined to \u00b1150 m of mapped OSM/NHD waterways)\u2192region-appropriate real parameters\u2192shipped scoring, math unchanged). Width curve: Bieger et al. 2015 JAWRA Table 3, Atlantic Plain. Flood: SIR 2014-5030 HR4 (I24H50Y: NOAA Atlas 14). NC Coastal Plain (SIR 2014-5030 HR4; I24H50Y from NOAA Atlas 14 at region center)",
 "provenance": {
  "candidates_pre_gate": 4,
  "constant": [
   "bridge_proximity_bonus",
   "channel_width_score",
   "cso_density",
   "land_ownership",
   "litter_complaint_density",
   "npdes_points",
   "superfund_score",
   "tri_facility_density",
   "velocity_feasibility",
   "water_intake_score"
  ],
  "gated_navigable": 0,
  "hard_gate_removed": 0,
  "n_parameters": 27,
  "parameters": {
   "bank_slope_score": {
    "kind": "real",
    "n_3dep_10m_fallback": 0,
    "n_nc_lidar_3_125ft": 4,
    "n_real": 4,
    "n_sites": 4,
    "source": "NC OneMap / NC DPS DEM03 statewide lidar-derived 3.125-ft (0.953 m) elevations (perpendicular 50 m transect; robust 5 m bank-rise metric); unavailable profiles use the region 10 m 3DEP DEM-gradient fallback",
    "source_mosaics": [
     "Hertford_Ground_3ft",
     "Northampton_Ground_3ft"
    ]
   },
   "beach_dist_km": {
    "kind": "real",
    "n_real": 4,
    "n_sites": 4,
    "source": "haversine to region ref: Wrightsville Beach (shipped NC reference)"
   },
   "bridge_proximity_bonus": {
    "kind": "real",
    "n_real": 4,
    "n_sites": 4,
    "source": "FHWA/BTS NBI (NTAD), 50 m proximity"
   },
   "catchment_area_km2": {
    "kind": "real",
    "n_real": 4,
    "n_sites": 4,
    "source": "DEM flow accumulation (pipeline)"
   },
   "channel_width_score": {
    "kind": "real",
    "n_real": 4,
    "n_sites": 4,
    "source": "Bieger 2015 APL width curve on DEM drainage area \u2192 shipped width curve"
   },
   "cso_density": {
    "kind": "real",
    "n_real": 4,
    "n_sites": 4,
    "source": "EPA ECHO open CSO/TCS outfall PF coordinates states=NC, Cauchy proximity"
   },
   "ej_index": {
    "kind": "real",
    "n_real": 4,
    "n_sites": 4,
    "source": "Census ACS C17002+B03002 two-component demographic index, percentile-ranked within region"
   },
   "estuary_dist_km": {
    "kind": "real",
    "n_real": 4,
    "n_sites": 4,
    "source": "haversine to region ref: Pamlico Sound (shipped NC reference)"
   },
   "flood_q10_cfs": {
    "kind": "real",
    "n_real": 4,
    "n_sites": 4,
    "source": "USGS SIR 2014-5030 Table 7 HR4 (NC Coastal Plain; I24H50Y from NOAA Atlas 14 at region center)"
   },
   "flow_velocity_ms": {
    "kind": "real",
    "n_fallback": 0,
    "n_real": 4,
    "n_sites": 4,
    "source": "Manning (region DEM/D8) blended with EROM continuity (shipped M4 logic)"
   },
   "impervious_pct": {
    "kind": "real",
    "n_real": 4,
    "n_sites": 4,
    "source": "EPA StreamCat pctimp2019 (per NHDPlus watershed)"
   },
   "land_ownership": {
    "kind": "real",
    "n_fallback": 0,
    "n_real": 4,
    "n_sites": 4,
    "source": "NC OneMap statewide parcels (NC Parcels Transformer) ownname"
   },
   "litter_complaint_density": {
    "kind": "fallback",
    "n_real": 0,
    "n_sites": 4,
    "source": "no public machine-readable litter/illegal-dumping feed for this region"
   },
   "navigable_dist_m": {
    "kind": "real",
    "n_real": 4,
    "n_sites": 4,
    "source": "USACE/BTS National Waterway Network lines (NTAD, retrieved 2026-07-10), distance to nearest navigable segment"
   },
   "npdes_points": {
    "kind": "real",
    "n_real": 4,
    "n_sites": 4,
    "source": "EPA ECHO active NPDES outfalls states=NC (types NPD/GPC/NGP; statuses ADC/EFF/EXP), per catchment"
   },
   "population_density": {
    "kind": "real",
    "n_real": 4,
    "n_sites": 4,
    "source": "Census ACS 2022 B01003 block groups (bbox, multi-county), area-weighted"
   },
   "protected_area_score": {
    "kind": "real",
    "n_real": 4,
    "n_sites": 4,
    "source": "USGS PAD-US 4.1 state GDB; states=NC; shipped designation-weighted proximity curve"
   },
   "road_access_score": {
    "kind": "real",
    "n_real": 4,
    "n_sites": 4,
    "source": "OSM drive network nearest-node distance"
   },
   "road_density_km_km2": {
    "kind": "real",
    "n_real": 4,
    "n_sites": 4,
    "source": "OSM drive network (osmnx, cached) clipped per catchment"
   },
   "runoff_coeff_C": {
    "kind": "real",
    "n_real": 4,
    "n_sites": 4,
    "source": "derived from real impervious_pct (C=0.05+0.009*I)"
   },
   "seasonal_cv": {
    "kind": "real",
    "n_real": 4,
    "n_sites": 4,
    "source": "CV of NHDPlus EROM monthly flows per COMID"
   },
   "stream_order": {
    "kind": "real",
    "n_real": 4,
    "n_sites": 4,
    "source": "DEM stream-network confluence heuristic (pipeline)"
   },
   "superfund_score": {
    "kind": "real",
    "n_real": 4,
    "n_sites": 4,
    "source": "EPA DataMap SEMS active sites states=NC (non-archived, georeferenced), shipped 500 m inverse-distance curve"
   },
   "tourism_amenity_density": {
    "kind": "real",
    "n_real": 4,
    "n_sites": 4,
    "source": "OSM leisure/tourism features per 2 km radius"
   },
   "tri_facility_density": {
    "kind": "real",
    "n_real": 4,
    "n_sites": 4,
    "source": "EPA DataMap TRI open facilities states=NC (preferred decimal or packed-DMS recovery), per catchment"
   },
   "usgs_mean_q_cfs": {
    "kind": "real",
    "n_real": 4,
    "n_sites": 4,
    "source": "NHDPlus EROM qe_ma per COMID (snap-guarded)"
   },
   "velocity_feasibility": {
    "kind": "real",
    "n_fallback": 0,
    "n_real": 4,
    "n_sites": 4,
    "source": "shipped step curve on the computed velocity"
   },
   "velocity_transport_favorability": {
    "kind": "derived",
    "n_real": 4,
    "n_sites": 4,
    "source": "scored form of flow_velocity_ms inside the Flow family \u2014 peaked Gaussian exp(-((v-0.9)/0.6)^2), model.json curves.velocity_transport_favorability; construct: transport/delivery favorability, deliberately distinct from velocity_feasibility (device operability)"
   },
   "water_intake_score": {
    "kind": "real",
    "n_real": 4,
    "n_sites": 4,
    "source": "NC OneMap / NC DEQ SWAP public water supply sources (source_typ='Surface Water'), shipped exp(-d/10km) curve"
   }
  },
  "stream_mask": {
   "buffer_m": 150.0,
   "pre_mask": 4,
   "removed": 0,
   "sources": [
    "osm-overpass (all waterway ways)",
    "usgs-nhdplus flowlines"
   ]
  },
  "varying": [
   "bank_slope_score",
   "beach_dist_km",
   "catchment_area_km2",
   "ej_index",
   "estuary_dist_km",
   "flood_q10_cfs",
   "flow_velocity_ms",
   "impervious_pct",
   "population_density",
   "protected_area_score",
   "road_access_score",
   "road_density_km_km2",
   "runoff_coeff_C",
   "seasonal_cv",
   "stream_order",
   "tourism_amenity_density",
   "usgs_mean_q_cfs"
  ]
 },
 "region": {
  "bbox": [
   -77.1275,
   36.4179,
   -77.0678,
   36.466
  ],
  "beach_ref": {
   "label": "Wrightsville Beach (shipped NC reference)",
   "lat": 34.21,
   "lon": -77.79
  },
  "center": [
   -77.097663,
   36.441967
  ],
  "estuary_ref": {
   "label": "Pamlico Sound (shipped NC reference)",
   "lat": 35.05,
   "lon": -76.05
  },
  "flood_method": "sir2014_hr4",
  "name": "Murfreesboro, NC",
  "notes": "NC Coastal Plain (SIR 2014-5030 HR4; I24H50Y from NOAA Atlas 14 at region center)",
  "slug": "murfreesboro",
  "state": "NC",
  "utm_epsg": 32618,
  "width_curve": {
   "a": 2.22,
   "b": 0.363,
   "code": "APL",
   "source": "Bieger et al. 2015 JAWRA Table 3, Atlantic Plain"
  }
 },
 "type": "FeatureCollection"
}
