{
 "features": [
  {
   "geometry": {
    "coordinates": [
     -76.831023,
     34.751689
    ],
    "type": "Point"
   },
   "properties": {
    "accumulation": 110811.0,
    "bank_slope_deg": 0.96,
    "bank_slope_score": 1.0,
    "bank_slope_source": "nc-dps-lidar-dem03-cross-section",
    "beach_dist_km": 106.56,
    "bridge_proximity_bonus": 0.0,
    "catchment_area_km2": 11.0654,
    "channel_width_m": 5.31,
    "channel_width_score": 1.0,
    "composite_score": 53.8829,
    "cso_density": 0.0,
    "ej_index": 0.7658,
    "elevation_m": 0.6503,
    "estuary_dist_km": 78.57,
    "feasibility_score": 41.6667,
    "flood_q10_cfs": 707.63,
    "flow_score": 33.2326,
    "flow_velocity_ms": 0.1597,
    "generation_score": 76.1882,
    "impact_score": 54.8944,
    "impervious_pct": 9.52,
    "land_ownership": 0.5,
    "lat": 34.7517,
    "litter_complaint_density": 0.0,
    "lon": -76.831,
    "navigable_dist_m": 3131.5,
    "npdes_points": 1,
    "pixel_col": 946.0,
    "pixel_row": 724.0,
    "population_density": 193.7,
    "position_along": 0.8333,
    "protected_area_score": 8.0902,
    "rank": 1,
    "road_access_m": 109.7,
    "road_access_score": 1.0,
    "road_density_km_km2": 2.35,
    "robustness_pct": 100.0,
    "runoff_coeff_C": 0.1357,
    "seasonal_cv": 0.6185,
    "segment_id": 13,
    "segment_length_m": 5647.6857,
    "stream_order": 1,
    "superfund_score": 0.0084,
    "tourism_amenity_density": 0.3979,
    "tri_facility_density": 0.0,
    "usgs_mean_q_cfs": 9.452,
    "velocity_feasibility": 0.7,
    "water_intake_score": 0.0
   },
   "type": "Feature"
  },
  {
   "geometry": {
    "coordinates": [
     -76.886584,
     34.788128
    ],
    "type": "Point"
   },
   "properties": {
    "accumulation": 204517.0,
    "bank_slope_deg": 2.12,
    "bank_slope_score": 1.0,
    "bank_slope_source": "nc-dps-lidar-dem03-cross-section",
    "beach_dist_km": 104.82,
    "bridge_proximity_bonus": 0.0,
    "catchment_area_km2": 20.4228,
    "channel_width_m": 6.64,
    "channel_width_score": 1.0,
    "composite_score": 51.604,
    "cso_density": 0.0,
    "ej_index": 0.6135,
    "elevation_m": 0.2206,
    "estuary_dist_km": 81.64,
    "feasibility_score": 20.8333,
    "flood_q10_cfs": 843.09,
    "flow_score": 74.8517,
    "flow_velocity_ms": 0.0881,
    "generation_score": 55.8191,
    "impact_score": 43.401,
    "impervious_pct": 1.23,
    "land_ownership": 0.5,
    "lat": 34.7881,
    "litter_complaint_density": 0.0,
    "lon": -76.8866,
    "navigable_dist_m": 7319.0,
    "npdes_points": 3,
    "pixel_col": 444.0,
    "pixel_row": 312.0,
    "population_density": 168.0,
    "position_along": 0.5,
    "protected_area_score": 7.5447,
    "rank": 2,
    "road_access_m": 205.1,
    "road_access_score": 0.8,
    "road_density_km_km2": 3.627,
    "robustness_pct": 90.0,
    "runoff_coeff_C": 0.0611,
    "seasonal_cv": 0.4815,
    "segment_id": 8,
    "segment_length_m": 1197.974,
    "stream_order": 3,
    "superfund_score": 0.0923,
    "tourism_amenity_density": 0.3183,
    "tri_facility_density": 0.0,
    "usgs_mean_q_cfs": 63.073,
    "velocity_feasibility": 0.7,
    "water_intake_score": 0.0
   },
   "type": "Feature"
  },
  {
   "geometry": {
    "coordinates": [
     -76.874601,
     34.780373
    ],
    "type": "Point"
   },
   "properties": {
    "accumulation": 20917.0,
    "bank_slope_deg": 3.22,
    "bank_slope_score": 1.0,
    "bank_slope_source": "nc-dps-lidar-dem03-cross-section",
    "beach_dist_km": 105.17,
    "bridge_proximity_bonus": 0.0,
    "catchment_area_km2": 2.0887,
    "channel_width_m": 2.9,
    "channel_width_score": 1.0,
    "composite_score": 44.4062,
    "cso_density": 0.0,
    "ej_index": 0.6091,
    "elevation_m": 0.1631,
    "estuary_dist_km": 80.94,
    "feasibility_score": 54.1667,
    "flood_q10_cfs": 208.41,
    "flow_score": 26.0247,
    "flow_velocity_ms": 0.5,
    "generation_score": 34.1393,
    "impact_score": 65.1107,
    "impervious_pct": null,
    "land_ownership": 0.5,
    "lat": 34.7804,
    "litter_complaint_density": 0.0,
    "lon": -76.8746,
    "navigable_dist_m": 6277.7,
    "npdes_points": 0,
    "pixel_col": 552.0,
    "pixel_row": 399.0,
    "population_density": 142.6,
    "position_along": 0.5,
    "protected_area_score": 7.9098,
    "rank": 3,
    "road_access_m": 370.7,
    "road_access_score": 0.8,
    "road_density_km_km2": 3.307,
    "robustness_pct": 56.0,
    "runoff_coeff_C": null,
    "seasonal_cv": null,
    "segment_id": 9,
    "segment_length_m": 19.9858,
    "stream_order": 1,
    "superfund_score": 0.183,
    "tourism_amenity_density": 2.069,
    "tri_facility_density": 0.0,
    "usgs_mean_q_cfs": null,
    "velocity_feasibility": 1.0,
    "water_intake_score": 0.0
   },
   "type": "Feature"
  },
  {
   "geometry": {
    "coordinates": [
     -76.897492,
     34.789569
    ],
    "type": "Point"
   },
   "properties": {
    "accumulation": 137943.0,
    "bank_slope_deg": 0.42,
    "bank_slope_score": 1.0,
    "bank_slope_source": "nc-dps-lidar-dem03-cross-section",
    "beach_dist_km": 104.13,
    "bridge_proximity_bonus": 0.0,
    "catchment_area_km2": 13.7748,
    "channel_width_m": 5.75,
    "channel_width_score": 1.0,
    "composite_score": 44.3472,
    "cso_density": 0.0,
    "ej_index": 0.6395,
    "elevation_m": 0.4723,
    "estuary_dist_km": 82.52,
    "feasibility_score": 20.8333,
    "flood_q10_cfs": 654.51,
    "flow_score": 62.4843,
    "flow_velocity_ms": 0.1481,
    "generation_score": 44.497,
    "impact_score": 40.8401,
    "impervious_pct": 0.51,
    "land_ownership": 0.5,
    "lat": 34.7896,
    "litter_complaint_density": 0.0,
    "lon": -76.8975,
    "navigable_dist_m": 7653.8,
    "npdes_points": 4,
    "pixel_col": 345.0,
    "pixel_row": 293.0,
    "population_density": 104.8,
    "position_along": 0.5,
    "protected_area_score": 7.5924,
    "rank": 4,
    "road_access_m": 283.2,
    "road_access_score": 0.8,
    "road_density_km_km2": 2.98,
    "robustness_pct": 57.5,
    "runoff_coeff_C": 0.0546,
    "seasonal_cv": 0.4882,
    "segment_id": 7,
    "segment_length_m": 1235.521,
    "stream_order": 3,
    "superfund_score": 0.0366,
    "tourism_amenity_density": 0.2387,
    "tri_facility_density": 0.0,
    "usgs_mean_q_cfs": 54.988,
    "velocity_feasibility": 0.7,
    "water_intake_score": 0.0
   },
   "type": "Feature"
  },
  {
   "geometry": {
    "coordinates": [
     -76.862271,
     34.747317
    ],
    "type": "Point"
   },
   "properties": {
    "accumulation": 29678.0,
    "bank_slope_deg": 4.02,
    "bank_slope_score": 1.0,
    "bank_slope_source": "nc-dps-lidar-dem03-cross-section",
    "beach_dist_km": 103.93,
    "bridge_proximity_bonus": 0.0,
    "catchment_area_km2": 2.9636,
    "channel_width_m": 3.29,
    "channel_width_score": 1.0,
    "composite_score": 43.0663,
    "cso_density": 0.0,
    "ej_index": 0.8968,
    "elevation_m": 5.9735,
    "estuary_dist_km": 81.36,
    "feasibility_score": 41.6667,
    "flood_q10_cfs": 301.6,
    "flow_score": 12.5603,
    "flow_velocity_ms": 0.1268,
    "generation_score": 46.8765,
    "impact_score": 65.3774,
    "impervious_pct": 6.86,
    "land_ownership": 0.5,
    "lat": 34.7473,
    "litter_complaint_density": 0.0,
    "lon": -76.8623,
    "navigable_dist_m": 2503.5,
    "npdes_points": 0,
    "pixel_col": 659.0,
    "pixel_row": 769.0,
    "population_density": 116.1,
    "position_along": 0.1667,
    "protected_area_score": 8.4471,
    "rank": 5,
    "road_access_m": 180.4,
    "road_access_score": 1.0,
    "road_density_km_km2": 1.482,
    "robustness_pct": 38.5,
    "runoff_coeff_C": 0.1117,
    "seasonal_cv": 0.6558,
    "segment_id": 13,
    "segment_length_m": 5647.6857,
    "stream_order": 1,
    "superfund_score": 0.0114,
    "tourism_amenity_density": 0.6366,
    "tri_facility_density": 0.0,
    "usgs_mean_q_cfs": 5.708,
    "velocity_feasibility": 0.7,
    "water_intake_score": 0.0
   },
   "type": "Feature"
  },
  {
   "geometry": {
    "coordinates": [
     -76.85388,
     34.796234
    ],
    "type": "Point"
   },
   "properties": {
    "accumulation": 36044.0,
    "bank_slope_deg": 7.18,
    "bank_slope_score": 1.0,
    "bank_slope_source": "nc-dps-lidar-dem03-cross-section",
    "beach_dist_km": 107.74,
    "bridge_proximity_bonus": 0.0,
    "catchment_area_km2": 3.5993,
    "channel_width_m": 3.53,
    "channel_width_score": 1.0,
    "composite_score": 42.2332,
    "cso_density": 0.0,
    "ej_index": 0.4793,
    "elevation_m": 0.5271,
    "estuary_dist_km": 78.53,
    "feasibility_score": 41.6667,
    "flood_q10_cfs": 321.79,
    "flow_score": 17.2921,
    "flow_velocity_ms": 0.1378,
    "generation_score": 61.8803,
    "impact_score": 43.6536,
    "impervious_pct": 4.63,
    "land_ownership": 0.5,
    "lat": 34.7962,
    "litter_complaint_density": 0.0,
    "lon": -76.8539,
    "navigable_dist_m": 7957.6,
    "npdes_points": 0,
    "pixel_col": 744.0,
    "pixel_row": 228.0,
    "population_density": 187.6,
    "position_along": 0.5,
    "protected_area_score": 7.8358,
    "rank": 6,
    "road_access_m": 168.6,
    "road_access_score": 1.0,
    "road_density_km_km2": 4.402,
    "robustness_pct": 35.0,
    "runoff_coeff_C": 0.0917,
    "seasonal_cv": 0.5744,
    "segment_id": 1,
    "segment_length_m": 2233.9306,
    "stream_order": 1,
    "superfund_score": 0.0848,
    "tourism_amenity_density": 0.4775,
    "tri_facility_density": 0.0,
    "usgs_mean_q_cfs": 14.704,
    "velocity_feasibility": 0.7,
    "water_intake_score": 0.0
   },
   "type": "Feature"
  },
  {
   "geometry": {
    "coordinates": [
     -76.847095,
     34.745566
    ],
    "type": "Point"
   },
   "properties": {
    "accumulation": 55144.0,
    "bank_slope_deg": 3.4,
    "bank_slope_score": 1.0,
    "bank_slope_source": "nc-dps-lidar-dem03-cross-section",
    "beach_dist_km": 104.96,
    "bridge_proximity_bonus": 0.0,
    "catchment_area_km2": 5.5066,
    "channel_width_m": 4.12,
    "channel_width_score": 1.0,
    "composite_score": 42.0881,
    "cso_density": 0.0,
    "ej_index": 0.8446,
    "elevation_m": 2.694,
    "estuary_dist_km": 80.19,
    "feasibility_score": 20.8333,
    "flood_q10_cfs": 437.49,
    "flow_score": 17.7243,
    "flow_velocity_ms": 0.1139,
    "generation_score": 57.1288,
    "impact_score": 57.9779,
    "impervious_pct": 6.86,
    "land_ownership": 0.5,
    "lat": 34.7456,
    "litter_complaint_density": 0.0,
    "lon": -76.8471,
    "navigable_dist_m": 2376.6,
    "npdes_points": 0,
    "pixel_col": 797.0,
    "pixel_row": 790.0,
    "population_density": 142.4,
    "position_along": 0.5,
    "protected_area_score": 8.0448,
    "rank": 7,
    "road_access_m": 423.4,
    "road_access_score": 0.8,
    "road_density_km_km2": 3.045,
    "robustness_pct": 36.5,
    "runoff_coeff_C": 0.1117,
    "seasonal_cv": 0.6558,
    "segment_id": 13,
    "segment_length_m": 5647.6857,
    "stream_order": 1,
    "superfund_score": 0.0091,
    "tourism_amenity_density": 0.557,
    "tri_facility_density": 0.0,
    "usgs_mean_q_cfs": 5.708,
    "velocity_feasibility": 0.7,
    "water_intake_score": 0.0
   },
   "type": "Feature"
  },
  {
   "geometry": {
    "coordinates": [
     -76.914472,
     34.798253
    ],
    "type": "Point"
   },
   "properties": {
    "accumulation": 34537.0,
    "bank_slope_deg": 9.01,
    "bank_slope_score": 1.0,
    "bank_slope_source": "nc-dps-lidar-dem03-cross-section",
    "beach_dist_km": 103.51,
    "bridge_proximity_bonus": 0.0,
    "catchment_area_km2": 3.4488,
    "channel_width_m": 3.48,
    "channel_width_score": 1.0,
    "composite_score": 42.0105,
    "cso_density": 0.0,
    "ej_index": 0.6359,
    "elevation_m": 1.8702,
    "estuary_dist_km": 83.64,
    "feasibility_score": 79.1667,
    "flood_q10_cfs": 281.63,
    "flow_score": 42.9733,
    "flow_velocity_ms": 0.5,
    "generation_score": 36.1694,
    "impact_score": 28.4714,
    "impervious_pct": null,
    "land_ownership": 1.0,
    "lat": 34.7983,
    "litter_complaint_density": 0.0,
    "lon": -76.9145,
    "navigable_dist_m": 8878.3,
    "npdes_points": 3,
    "pixel_col": 191.0,
    "pixel_row": 195.0,
    "population_density": 111.3,
    "position_along": 0.5,
    "protected_area_score": 6.8688,
    "rank": 8,
    "road_access_m": 330.4,
    "road_access_score": 0.8,
    "road_density_km_km2": 2.033,
    "robustness_pct": 42.0,
    "runoff_coeff_C": null,
    "seasonal_cv": null,
    "segment_id": 2,
    "segment_length_m": 1703.3014,
    "stream_order": 3,
    "superfund_score": 0.0137,
    "tourism_amenity_density": 0.1592,
    "tri_facility_density": 0.0,
    "usgs_mean_q_cfs": null,
    "velocity_feasibility": 1.0,
    "water_intake_score": 0.0
   },
   "type": "Feature"
  },
  {
   "geometry": {
    "coordinates": [
     -76.870068,
     34.775037
    ],
    "type": "Point"
   },
   "properties": {
    "accumulation": 41322.0,
    "bank_slope_deg": 10.08,
    "bank_slope_score": 1.0,
    "bank_slope_source": "nc-dps-lidar-dem03-cross-section",
    "beach_dist_km": 105.14,
    "bridge_proximity_bonus": 0.0,
    "catchment_area_km2": 4.1264,
    "channel_width_m": 3.71,
    "channel_width_score": 1.0,
    "composite_score": 41.6089,
    "cso_density": 0.0,
    "ej_index": 0.5841,
    "elevation_m": 2.9992,
    "estuary_dist_km": 80.79,
    "feasibility_score": 54.1667,
    "flood_q10_cfs": 313.65,
    "flow_score": 30.3439,
    "flow_velocity_ms": 0.5,
    "generation_score": 28.7283,
    "impact_score": 57.5979,
    "impervious_pct": null,
    "land_ownership": 0.5,
    "lat": 34.775,
    "litter_complaint_density": 0.0,
    "lon": -76.8701,
    "navigable_dist_m": 5627.5,
    "npdes_points": 0,
    "pixel_col": 593.0,
    "pixel_row": 459.0,
    "population_density": 116.2,
    "position_along": 0.5,
    "protected_area_score": 7.9276,
    "rank": 9,
    "road_access_m": 260.6,
    "road_access_score": 0.8,
    "road_density_km_km2": 3.02,
    "robustness_pct": 22.0,
    "runoff_coeff_C": null,
    "seasonal_cv": null,
    "segment_id": 10,
    "segment_length_m": 2358.1067,
    "stream_order": 1,
    "superfund_score": 0.0954,
    "tourism_amenity_density": 1.7507,
    "tri_facility_density": 0.0,
    "usgs_mean_q_cfs": null,
    "velocity_feasibility": 1.0,
    "water_intake_score": 0.0
   },
   "type": "Feature"
  },
  {
   "geometry": {
    "coordinates": [
     -76.907443,
     34.738914
    ],
    "type": "Point"
   },
   "properties": {
    "accumulation": 61382.0,
    "bank_slope_deg": 5.06,
    "bank_slope_score": 1.0,
    "bank_slope_source": "nc-dps-lidar-dem03-cross-section",
    "beach_dist_km": 100.02,
    "bridge_proximity_bonus": 0.0,
    "catchment_area_km2": 6.1295,
    "channel_width_m": 4.29,
    "channel_width_score": 1.0,
    "composite_score": 39.2969,
    "cso_density": 0.0,
    "ej_index": 0.6826,
    "elevation_m": -0.762,
    "estuary_dist_km": 85.51,
    "feasibility_score": 41.6667,
    "flood_q10_cfs": 444.95,
    "flow_score": 30.623,
    "flow_velocity_ms": 0.0688,
    "generation_score": 33.1103,
    "impact_score": 51.5268,
    "impervious_pct": 4.82,
    "land_ownership": 0.5,
    "lat": 34.7389,
    "litter_complaint_density": 0.0,
    "lon": -76.9074,
    "navigable_dist_m": 2286.2,
    "npdes_points": 0,
    "pixel_col": 240.0,
    "pixel_row": 855.0,
    "population_density": 79.1,
    "position_along": 0.5,
    "protected_area_score": 8.1302,
    "rank": 10,
    "road_access_m": 168.7,
    "road_access_score": 1.0,
    "road_density_km_km2": 1.332,
    "robustness_pct": 0.5,
    "runoff_coeff_C": 0.0934,
    "seasonal_cv": 0.6517,
    "segment_id": 16,
    "segment_length_m": 90.6465,
    "stream_order": 3,
    "superfund_score": 0.0058,
    "tourism_amenity_density": 0.7162,
    "tri_facility_density": 0.0,
    "usgs_mean_q_cfs": 5.476,
    "velocity_feasibility": 0.7,
    "water_intake_score": 0.0
   },
   "type": "Feature"
  },
  {
   "geometry": {
    "coordinates": [
     -76.843543,
     34.780619
    ],
    "type": "Point"
   },
   "properties": {
    "accumulation": 64320.0,
    "bank_slope_deg": 4.47,
    "bank_slope_score": 1.0,
    "bank_slope_source": "nc-dps-lidar-dem03-cross-section",
    "beach_dist_km": 107.47,
    "bridge_proximity_bonus": 0.0,
    "catchment_area_km2": 6.4229,
    "channel_width_m": 4.36,
    "channel_width_score": 1.0,
    "composite_score": 37.685,
    "cso_density": 0.0,
    "ej_index": 0.4373,
    "elevation_m": 0.4161,
    "estuary_dist_km": 78.31,
    "feasibility_score": 45.8333,
    "flood_q10_cfs": 441.52,
    "flow_score": 23.4287,
    "flow_velocity_ms": 0.0823,
    "generation_score": 32.3054,
    "impact_score": 50.8707,
    "impervious_pct": 3.28,
    "land_ownership": 1.0,
    "lat": 34.7806,
    "litter_complaint_density": 0.0,
    "lon": -76.8435,
    "navigable_dist_m": 6276.8,
    "npdes_points": 0,
    "pixel_col": 835.0,
    "pixel_row": 403.0,
    "population_density": 108.4,
    "position_along": 0.75,
    "protected_area_score": 8.1577,
    "rank": 11,
    "road_access_m": 479.7,
    "road_access_score": 0.8,
    "road_density_km_km2": 1.278,
    "robustness_pct": 0.0,
    "runoff_coeff_C": 0.0795,
    "seasonal_cv": 0.5504,
    "segment_id": 3,
    "segment_length_m": 3589.7827,
    "stream_order": 1,
    "superfund_score": 0.0372,
    "tourism_amenity_density": 1.512,
    "tri_facility_density": 0.0,
    "usgs_mean_q_cfs": 21.294,
    "velocity_feasibility": 0.7,
    "water_intake_score": 0.0
   },
   "type": "Feature"
  },
  {
   "geometry": {
    "coordinates": [
     -76.906103,
     34.792201
    ],
    "type": "Point"
   },
   "properties": {
    "accumulation": 103845.0,
    "bank_slope_deg": 4.1,
    "bank_slope_score": 1.0,
    "bank_slope_source": "nc-dps-lidar-dem03-cross-section",
    "beach_dist_km": 103.69,
    "bridge_proximity_bonus": 0.0,
    "catchment_area_km2": 10.3698,
    "channel_width_m": 5.19,
    "channel_width_score": 1.0,
    "composite_score": 37.5078,
    "cso_density": 0.0,
    "ej_index": 0.6413,
    "elevation_m": 0.8963,
    "estuary_dist_km": 83.15,
    "feasibility_score": 0.0,
    "flood_q10_cfs": 551.02,
    "flow_score": 53.0375,
    "flow_velocity_ms": 0.0818,
    "generation_score": 44.6201,
    "impact_score": 36.208,
    "impervious_pct": 0.44,
    "land_ownership": 0.5,
    "lat": 34.7922,
    "litter_complaint_density": 0.0,
    "lon": -76.9061,
    "navigable_dist_m": 8081.3,
    "npdes_points": 5,
    "pixel_col": 266.0,
    "pixel_row": 264.0,
    "population_density": 101.1,
    "position_along": 0.5,
    "protected_area_score": 7.3701,
    "rank": 12,
    "road_access_m": 629.5,
    "road_access_score": 0.6,
    "road_density_km_km2": 2.185,
    "robustness_pct": 18.5,
    "runoff_coeff_C": 0.054,
    "seasonal_cv": 0.4943,
    "segment_id": 6,
    "segment_length_m": 947.4407,
    "stream_order": 3,
    "superfund_score": 0.0215,
    "tourism_amenity_density": 0.1592,
    "tri_facility_density": 0.0,
    "usgs_mean_q_cfs": 49.075,
    "velocity_feasibility": 0.7,
    "water_intake_score": 0.0
   },
   "type": "Feature"
  },
  {
   "geometry": {
    "coordinates": [
     -76.915289,
     34.789958
    ],
    "type": "Point"
   },
   "properties": {
    "accumulation": 36691.0,
    "bank_slope_deg": 9.82,
    "bank_slope_score": 1.0,
    "bank_slope_source": "nc-dps-lidar-dem03-cross-section",
    "beach_dist_km": 102.88,
    "bridge_proximity_bonus": 0.0,
    "catchment_area_km2": 3.6639,
    "channel_width_m": 3.56,
    "channel_width_score": 1.0,
    "composite_score": 37.357,
    "cso_density": 0.0,
    "ej_index": 0.6424,
    "elevation_m": 1.3021,
    "estuary_dist_km": 84.02,
    "feasibility_score": 54.1667,
    "flood_q10_cfs": 292.05,
    "flow_score": 43.414,
    "flow_velocity_ms": 0.5,
    "generation_score": 28.0826,
    "impact_score": 33.1789,
    "impervious_pct": null,
    "land_ownership": 0.5,
    "lat": 34.79,
    "litter_complaint_density": 0.0,
    "lon": -76.9153,
    "navigable_dist_m": 7986.1,
    "npdes_points": 2,
    "pixel_col": 182.0,
    "pixel_row": 284.0,
    "population_density": 99.0,
    "position_along": 0.5,
    "protected_area_score": 7.192,
    "rank": 13,
    "road_access_m": 264.5,
    "road_access_score": 0.8,
    "road_density_km_km2": 1.488,
    "robustness_pct": 3.5,
    "runoff_coeff_C": null,
    "seasonal_cv": null,
    "segment_id": 5,
    "segment_length_m": 1234.5166,
    "stream_order": 3,
    "superfund_score": 0.014,
    "tourism_amenity_density": 0.1592,
    "tri_facility_density": 0.0,
    "usgs_mean_q_cfs": null,
    "velocity_feasibility": 1.0,
    "water_intake_score": 0.0
   },
   "type": "Feature"
  },
  {
   "geometry": {
    "coordinates": [
     -76.908286,
     34.739971
    ],
    "type": "Point"
   },
   "properties": {
    "accumulation": 31291.0,
    "bank_slope_deg": 4.7,
    "bank_slope_score": 1.0,
    "bank_slope_source": "nc-dps-lidar-dem03-cross-section",
    "beach_dist_km": 100.03,
    "bridge_proximity_bonus": 0.0,
    "catchment_area_km2": 3.1247,
    "channel_width_m": 3.36,
    "channel_width_score": 1.0,
    "composite_score": 35.8023,
    "cso_density": 0.0,
    "ej_index": 0.7063,
    "elevation_m": -0.0594,
    "estuary_dist_km": 85.53,
    "feasibility_score": 45.8333,
    "flood_q10_cfs": 289.61,
    "flow_score": 21.7278,
    "flow_velocity_ms": 0.0586,
    "generation_score": 25.1717,
    "impact_score": 53.1461,
    "impervious_pct": 3.75,
    "land_ownership": 1.0,
    "lat": 34.74,
    "litter_complaint_density": 0.0,
    "lon": -76.9083,
    "navigable_dist_m": 2415.3,
    "npdes_points": 0,
    "pixel_col": 234.0,
    "pixel_row": 843.0,
    "population_density": 72.3,
    "position_along": 0.5,
    "protected_area_score": 8.1863,
    "rank": 14,
    "road_access_m": 291.1,
    "road_access_score": 0.8,
    "road_density_km_km2": 0.523,
    "robustness_pct": 0.0,
    "runoff_coeff_C": 0.0837,
    "seasonal_cv": 0.7135,
    "segment_id": 15,
    "segment_length_m": 308.7762,
    "stream_order": 3,
    "superfund_score": 0.0059,
    "tourism_amenity_density": 0.7162,
    "tri_facility_density": 0.0,
    "usgs_mean_q_cfs": 2.529,
    "velocity_feasibility": 0.7,
    "water_intake_score": 0.0
   },
   "type": "Feature"
  },
  {
   "geometry": {
    "coordinates": [
     -76.891412,
     34.797004
    ],
    "type": "Point"
   },
   "properties": {
    "accumulation": 34106.0,
    "bank_slope_deg": 6.56,
    "bank_slope_score": 1.0,
    "bank_slope_source": "nc-dps-lidar-dem03-cross-section",
    "beach_dist_km": 105.07,
    "bridge_proximity_bonus": 0.0,
    "catchment_area_km2": 3.4058,
    "channel_width_m": 3.46,
    "channel_width_score": 1.0,
    "composite_score": 35.4419,
    "cso_density": 0.0,
    "ej_index": 0.6355,
    "elevation_m": 1.7066,
    "estuary_dist_km": 81.71,
    "feasibility_score": 20.8333,
    "flood_q10_cfs": 313.47,
    "flow_score": 26.8017,
    "flow_velocity_ms": 0.1331,
    "generation_score": 46.7612,
    "impact_score": 38.6269,
    "impervious_pct": 4.93,
    "land_ownership": 0.5,
    "lat": 34.797,
    "litter_complaint_density": 0.0,
    "lon": -76.8914,
    "navigable_dist_m": 8366.6,
    "npdes_points": 0,
    "pixel_col": 402.0,
    "pixel_row": 213.0,
    "population_density": 112.0,
    "position_along": 0.5,
    "protected_area_score": 7.3753,
    "rank": 15,
    "road_access_m": 293.0,
    "road_access_score": 0.8,
    "road_density_km_km2": 3.403,
    "robustness_pct": 0.0,
    "runoff_coeff_C": 0.0944,
    "seasonal_cv": 0.6435,
    "segment_id": 0,
    "segment_length_m": 2161.8497,
    "stream_order": 3,
    "superfund_score": 0.0491,
    "tourism_amenity_density": 0.2387,
    "tri_facility_density": 0.0,
    "usgs_mean_q_cfs": 5.643,
    "velocity_feasibility": 0.7,
    "water_intake_score": 0.0
   },
   "type": "Feature"
  },
  {
   "geometry": {
    "coordinates": [
     -76.834132,
     34.7673
    ],
    "type": "Point"
   },
   "properties": {
    "accumulation": 27795.0,
    "bank_slope_deg": 3.54,
    "bank_slope_score": 1.0,
    "bank_slope_source": "nc-dps-lidar-dem03-cross-section",
    "beach_dist_km": 107.31,
    "bridge_proximity_bonus": 0.0,
    "catchment_area_km2": 2.7756,
    "channel_width_m": 3.22,
    "channel_width_score": 1.0,
    "composite_score": 35.4326,
    "cso_density": 0.0,
    "ej_index": 0.6295,
    "elevation_m": 0.051,
    "estuary_dist_km": 78.11,
    "feasibility_score": 54.1667,
    "flood_q10_cfs": 247.2,
    "flow_score": 27.5538,
    "flow_velocity_ms": 0.5,
    "generation_score": 22.2082,
    "impact_score": 45.8558,
    "impervious_pct": null,
    "land_ownership": 0.5,
    "lat": 34.7673,
    "litter_complaint_density": 0.0,
    "lon": -76.8341,
    "navigable_dist_m": 4846.0,
    "npdes_points": 0,
    "pixel_col": 920.0,
    "pixel_row": 552.0,
    "population_density": 103.5,
    "position_along": 0.5,
    "protected_area_score": 7.9553,
    "rank": 16,
    "road_access_m": 225.3,
    "road_access_score": 0.8,
    "road_density_km_km2": 1.853,
    "robustness_pct": 0.0,
    "runoff_coeff_C": null,
    "seasonal_cv": null,
    "segment_id": 11,
    "segment_length_m": 2737.1276,
    "stream_order": 1,
    "superfund_score": 0.0152,
    "tourism_amenity_density": 0.0796,
    "tri_facility_density": 0.0,
    "usgs_mean_q_cfs": null,
    "velocity_feasibility": 1.0,
    "water_intake_score": 0.0
   },
   "type": "Feature"
  },
  {
   "geometry": {
    "coordinates": [
     -76.900818,
     34.740504
    ],
    "type": "Point"
   },
   "properties": {
    "accumulation": 25777.0,
    "bank_slope_deg": 5.63,
    "bank_slope_score": 1.0,
    "bank_slope_source": "nc-dps-lidar-dem03-cross-section",
    "beach_dist_km": 100.61,
    "bridge_proximity_bonus": 0.0,
    "catchment_area_km2": 2.5741,
    "channel_width_m": 3.13,
    "channel_width_score": 1.0,
    "composite_score": 35.3845,
    "cso_density": 0.0,
    "ej_index": 0.7063,
    "elevation_m": 1.6295,
    "estuary_dist_km": 84.89,
    "feasibility_score": 20.8333,
    "flood_q10_cfs": 270.13,
    "flow_score": 23.3739,
    "flow_velocity_ms": 0.1457,
    "generation_score": 34.3185,
    "impact_score": 53.735,
    "impervious_pct": 5.76,
    "land_ownership": 0.5,
    "lat": 34.7405,
    "litter_complaint_density": 0.0,
    "lon": -76.9008,
    "navigable_dist_m": 2351.8,
    "npdes_points": 0,
    "pixel_col": 300.0,
    "pixel_row": 838.0,
    "population_density": 72.3,
    "position_along": 0.5,
    "protected_area_score": 8.1683,
    "rank": 17,
    "road_access_m": 344.7,
    "road_access_score": 0.8,
    "road_density_km_km2": 1.077,
    "robustness_pct": 0.0,
    "runoff_coeff_C": 0.1018,
    "seasonal_cv": 0.7263,
    "segment_id": 14,
    "segment_length_m": 1932.4285,
    "stream_order": 3,
    "superfund_score": 0.0067,
    "tourism_amenity_density": 0.7958,
    "tri_facility_density": 0.0,
    "usgs_mean_q_cfs": 2.256,
    "velocity_feasibility": 0.7,
    "water_intake_score": 0.0
   },
   "type": "Feature"
  },
  {
   "geometry": {
    "coordinates": [
     -76.93338,
     34.730905
    ],
    "type": "Point"
   },
   "properties": {
    "accumulation": 20664.0,
    "bank_slope_deg": 2.92,
    "bank_slope_score": 1.0,
    "bank_slope_source": "nc-dps-lidar-dem03-cross-section",
    "beach_dist_km": 97.58,
    "bridge_proximity_bonus": 0.0,
    "catchment_area_km2": 2.0635,
    "channel_width_m": 2.89,
    "channel_width_score": 1.0,
    "composite_score": 30.3082,
    "cso_density": 0.0,
    "ej_index": 0.6439,
    "elevation_m": 1.7454,
    "estuary_dist_km": 88.04,
    "feasibility_score": 41.6667,
    "flood_q10_cfs": 229.56,
    "flow_score": 6.654,
    "flow_velocity_ms": 0.0519,
    "generation_score": 33.453,
    "impact_score": 41.1961,
    "impervious_pct": 4.47,
    "land_ownership": 0.5,
    "lat": 34.7309,
    "litter_complaint_density": 0.0,
    "lon": -76.9334,
    "navigable_dist_m": 1846.3,
    "npdes_points": 0,
    "pixel_col": 1.0,
    "pixel_row": 938.0,
    "population_density": 65.6,
    "position_along": 0.5,
    "protected_area_score": 7.6465,
    "rank": 18,
    "road_access_m": 60.5,
    "road_access_score": 1.0,
    "road_density_km_km2": 2.324,
    "robustness_pct": 0.0,
    "runoff_coeff_C": 0.0902,
    "seasonal_cv": 0.6699,
    "segment_id": 17,
    "segment_length_m": 24.125,
    "stream_order": 1,
    "superfund_score": 0.0033,
    "tourism_amenity_density": 0.4775,
    "tri_facility_density": 0.0,
    "usgs_mean_q_cfs": 4.079,
    "velocity_feasibility": 0.7,
    "water_intake_score": 0.0
   },
   "type": "Feature"
  },
  {
   "geometry": {
    "coordinates": [
     -76.891531,
     34.77103
    ],
    "type": "Point"
   },
   "properties": {
    "accumulation": 51564.0,
    "bank_slope_deg": 0.62,
    "bank_slope_score": 1.0,
    "bank_slope_source": "nc-dps-lidar-dem03-cross-section",
    "beach_dist_km": 103.31,
    "bridge_proximity_bonus": 0.0,
    "catchment_area_km2": 5.1491,
    "channel_width_m": 4.02,
    "channel_width_score": 1.0,
    "composite_score": 28.017,
    "cso_density": 0.0,
    "ej_index": 0.6626,
    "elevation_m": 2.0455,
    "estuary_dist_km": 82.77,
    "feasibility_score": 20.8333,
    "flood_q10_cfs": 377.93,
    "flow_score": 14.3913,
    "flow_velocity_ms": 0.1252,
    "generation_score": 26.1078,
    "impact_score": 44.8729,
    "impervious_pct": 2.3,
    "land_ownership": 0.5,
    "lat": 34.771,
    "litter_complaint_density": 0.0,
    "lon": -76.8915,
    "navigable_dist_m": 5533.0,
    "npdes_points": 0,
    "pixel_col": 396.0,
    "pixel_row": 497.0,
    "population_density": 80.9,
    "position_along": 0.75,
    "protected_area_score": 7.8848,
    "rank": 19,
    "road_access_m": 467.6,
    "road_access_score": 0.8,
    "road_density_km_km2": 1.733,
    "robustness_pct": 0.0,
    "runoff_coeff_C": 0.0707,
    "seasonal_cv": 0.6529,
    "segment_id": 12,
    "segment_length_m": 3186.2207,
    "stream_order": 1,
    "superfund_score": 0.0303,
    "tourism_amenity_density": 0.0796,
    "tri_facility_density": 0.0,
    "usgs_mean_q_cfs": 5.188,
    "velocity_feasibility": 0.7,
    "water_intake_score": 0.0
   },
   "type": "Feature"
  },
  {
   "geometry": {
    "coordinates": [
     -76.90523,
     34.765572
    ],
    "type": "Point"
   },
   "properties": {
    "accumulation": 33380.0,
    "bank_slope_deg": 3.41,
    "bank_slope_score": 1.0,
    "bank_slope_source": "nc-dps-lidar-dem03-cross-section",
    "beach_dist_km": 101.94,
    "bridge_proximity_bonus": 0.0,
    "catchment_area_km2": 3.3333,
    "channel_width_m": 3.44,
    "channel_width_score": 1.0,
    "composite_score": 25.4144,
    "cso_density": 0.0,
    "ej_index": 0.6738,
    "elevation_m": 5.209,
    "estuary_dist_km": 84.16,
    "feasibility_score": 25.0,
    "flood_q10_cfs": 291.08,
    "flow_score": 11.0762,
    "flow_velocity_ms": 0.1397,
    "generation_score": 19.2419,
    "impact_score": 43.7428,
    "impervious_pct": 2.3,
    "land_ownership": 1.0,
    "lat": 34.7656,
    "litter_complaint_density": 0.0,
    "lon": -76.9052,
    "navigable_dist_m": 5160.2,
    "npdes_points": 0,
    "pixel_col": 269.0,
    "pixel_row": 558.0,
    "population_density": 78.7,
    "position_along": 0.25,
    "protected_area_score": 7.8672,
    "rank": 20,
    "road_access_m": 949.6,
    "road_access_score": 0.6,
    "road_density_km_km2": 0.024,
    "robustness_pct": 0.0,
    "runoff_coeff_C": 0.0707,
    "seasonal_cv": 0.6529,
    "segment_id": 12,
    "segment_length_m": 3186.2207,
    "stream_order": 1,
    "superfund_score": 0.0142,
    "tourism_amenity_density": 0.0796,
    "tri_facility_density": 0.0,
    "usgs_mean_q_cfs": 5.188,
    "velocity_feasibility": 0.7,
    "water_intake_score": 0.0
   },
   "type": "Feature"
  },
  {
   "geometry": {
    "coordinates": [
     -76.904358,
     34.792296
    ],
    "type": "Point"
   },
   "properties": {
    "accumulation": 23133.0,
    "bank_slope_deg": 1.46,
    "bank_slope_score": 1.0,
    "bank_slope_source": "nc-dps-lidar-dem03-cross-section",
    "beach_dist_km": 103.82,
    "bridge_proximity_bonus": 0.0,
    "catchment_area_km2": 2.31,
    "channel_width_m": 3.01,
    "channel_width_score": 1.0,
    "composite_score": 23.187,
    "cso_density": 0.0,
    "ej_index": 0.6413,
    "elevation_m": 1.004,
    "estuary_dist_km": 83.0,
    "feasibility_score": 0.0,
    "flood_q10_cfs": 223.99,
    "flow_score": 21.3814,
    "flow_velocity_ms": 0.103,
    "generation_score": 23.4407,
    "impact_score": 36.0314,
    "impervious_pct": 0.5,
    "land_ownership": 0.5,
    "lat": 34.7923,
    "litter_complaint_density": 0.0,
    "lon": -76.9044,
    "navigable_dist_m": 8063.3,
    "npdes_points": 0,
    "pixel_col": 282.0,
    "pixel_row": 263.0,
    "population_density": 101.1,
    "position_along": 0.5,
    "protected_area_score": 7.3419,
    "rank": 21,
    "road_access_m": 603.9,
    "road_access_score": 0.6,
    "road_density_km_km2": 1.82,
    "robustness_pct": 0.0,
    "runoff_coeff_C": 0.0545,
    "seasonal_cv": 0.6375,
    "segment_id": 4,
    "segment_length_m": 673.0766,
    "stream_order": 3,
    "superfund_score": 0.0236,
    "tourism_amenity_density": 0.1592,
    "tri_facility_density": 0.0,
    "usgs_mean_q_cfs": 5.834,
    "velocity_feasibility": 0.7,
    "water_intake_score": 0.0
   },
   "type": "Feature"
  },
  {
   "geometry": {
    "coordinates": [
     -76.836557,
     34.793234
    ],
    "type": "Point"
   },
   "properties": {
    "accumulation": 36045.0,
    "bank_slope_deg": 4.54,
    "bank_slope_score": 1.0,
    "bank_slope_source": "nc-dps-lidar-dem03-cross-section",
    "beach_dist_km": 108.81,
    "bridge_proximity_bonus": 0.0,
    "catchment_area_km2": 3.5994,
    "channel_width_m": 3.53,
    "channel_width_score": 1.0,
    "composite_score": 13.4326,
    "cso_density": 0.0,
    "ej_index": 0.3095,
    "elevation_m": 0.5405,
    "estuary_dist_km": 77.19,
    "feasibility_score": 0.0,
    "flood_q10_cfs": 290.83,
    "flow_score": 10.2285,
    "flow_velocity_ms": 0.0972,
    "generation_score": 3.8508,
    "impact_score": 32.4007,
    "impervious_pct": 0.28,
    "land_ownership": 0.5,
    "lat": 34.7932,
    "litter_complaint_density": 0.0,
    "lon": -76.8366,
    "navigable_dist_m": 7707.5,
    "npdes_points": 0,
    "pixel_col": 902.0,
    "pixel_row": 264.0,
    "population_density": 10.3,
    "position_along": 0.25,
    "protected_area_score": 7.8802,
    "rank": 22,
    "road_access_m": 592.4,
    "road_access_score": 0.6,
    "road_density_km_km2": 0.778,
    "robustness_pct": 0.0,
    "runoff_coeff_C": 0.0525,
    "seasonal_cv": 0.6357,
    "segment_id": 3,
    "segment_length_m": 3589.7827,
    "stream_order": 1,
    "superfund_score": 0.0262,
    "tourism_amenity_density": 0.0796,
    "tri_facility_density": 0.0,
    "usgs_mean_q_cfs": 6.723,
    "velocity_feasibility": 0.7,
    "water_intake_score": 0.0
   },
   "type": "Feature"
  }
 ],
 "note": "GRIME region 'Newport, NC' \u2014 real-data pipeline (DEM\u2192streams\u2192candidates\u2192stream mask (sites confined to \u00b1150 m of mapped OSM/NHD waterways)\u2192region-appropriate real parameters\u2192shipped scoring, math unchanged). Width curve: Bieger et al. 2015 JAWRA Table 3, Atlantic Plain. Flood: SIR 2014-5030 HR4 (I24H50Y: NOAA Atlas 14). NC Coastal Plain (SIR 2014-5030 HR4; I24H50Y from NOAA Atlas 14 at region center)",
 "provenance": {
  "candidates_pre_gate": 22,
  "constant": [
   "bank_slope_score",
   "bridge_proximity_bonus",
   "channel_width_score",
   "cso_density",
   "litter_complaint_density",
   "tri_facility_density",
   "water_intake_score"
  ],
  "gated_navigable": 0,
  "hard_gate_removed": 0,
  "n_parameters": 27,
  "parameters": {
   "bank_slope_score": {
    "kind": "real",
    "n_3dep_10m_fallback": 0,
    "n_nc_lidar_3_125ft": 22,
    "n_real": 22,
    "n_sites": 22,
    "source": "NC OneMap / NC DPS DEM03 statewide lidar-derived 3.125-ft (0.953 m) elevations (perpendicular 50 m transect; robust 5 m bank-rise metric); unavailable profiles use the region 10 m 3DEP DEM-gradient fallback",
    "source_mosaics": [
     "Carteret_Ground_3ft"
    ]
   },
   "beach_dist_km": {
    "kind": "real",
    "n_real": 22,
    "n_sites": 22,
    "source": "haversine to region ref: Wrightsville Beach (shipped NC reference)"
   },
   "bridge_proximity_bonus": {
    "kind": "real",
    "n_real": 22,
    "n_sites": 22,
    "source": "FHWA/BTS NBI (NTAD), 50 m proximity"
   },
   "catchment_area_km2": {
    "kind": "real",
    "n_real": 22,
    "n_sites": 22,
    "source": "DEM flow accumulation (pipeline)"
   },
   "channel_width_score": {
    "kind": "real",
    "n_real": 22,
    "n_sites": 22,
    "source": "Bieger 2015 APL width curve on DEM drainage area \u2192 shipped width curve"
   },
   "cso_density": {
    "kind": "real",
    "n_real": 22,
    "n_sites": 22,
    "source": "EPA ECHO open CSO/TCS outfall PF coordinates states=NC, Cauchy proximity"
   },
   "ej_index": {
    "kind": "real",
    "n_real": 22,
    "n_sites": 22,
    "source": "Census ACS C17002+B03002 two-component demographic index, percentile-ranked within region"
   },
   "estuary_dist_km": {
    "kind": "real",
    "n_real": 22,
    "n_sites": 22,
    "source": "haversine to region ref: Pamlico Sound (shipped NC reference)"
   },
   "flood_q10_cfs": {
    "impervious_fallback_reason": "StreamCat imperviousness unavailable; the existing regression-input fallback of 0.0% impervious was used and is disclosed here",
    "kind": "real",
    "n_impervious_fallback": 5,
    "n_real": 22,
    "n_sites": 22,
    "source": "USGS SIR 2014-5030 Table 7 HR4 (NC Coastal Plain; I24H50Y from NOAA Atlas 14 at region center)"
   },
   "flow_velocity_ms": {
    "fallback_reason": "EROM/DEM continuity input unavailable; shipped 0.5 m/s default used",
    "kind": "real",
    "n_fallback": 5,
    "n_real": 17,
    "n_sites": 22,
    "source": "Manning (region DEM/D8) blended with EROM continuity (shipped M4 logic)"
   },
   "impervious_pct": {
    "fallback_reason": "NLDI/StreamCat did not return a snap-compatible catchment value; value remains null and is removed by constant-column handling",
    "kind": "real",
    "n_fallback": 5,
    "n_real": 17,
    "n_sites": 22,
    "source": "EPA StreamCat pctimp2019 (per NHDPlus watershed)"
   },
   "land_ownership": {
    "kind": "real",
    "n_fallback": 0,
    "n_real": 22,
    "n_sites": 22,
    "source": "NC OneMap statewide parcels (NC Parcels Transformer) ownname"
   },
   "litter_complaint_density": {
    "kind": "fallback",
    "n_real": 0,
    "n_sites": 22,
    "source": "no public machine-readable litter/illegal-dumping feed for this region"
   },
   "navigable_dist_m": {
    "kind": "real",
    "n_real": 22,
    "n_sites": 22,
    "source": "USACE/BTS National Waterway Network lines (NTAD, retrieved 2026-07-10), distance to nearest navigable segment"
   },
   "npdes_points": {
    "kind": "real",
    "n_real": 22,
    "n_sites": 22,
    "source": "EPA ECHO active NPDES outfalls states=NC (types NPD/GPC/NGP; statuses ADC/EFF/EXP), per catchment"
   },
   "population_density": {
    "kind": "real",
    "n_real": 22,
    "n_sites": 22,
    "source": "Census ACS 2022 B01003 block groups (bbox, multi-county), area-weighted"
   },
   "protected_area_score": {
    "kind": "real",
    "n_real": 22,
    "n_sites": 22,
    "source": "USGS PAD-US 4.1 state GDB; states=NC; shipped designation-weighted proximity curve"
   },
   "road_access_score": {
    "kind": "real",
    "n_real": 22,
    "n_sites": 22,
    "source": "OSM drive network nearest-node distance"
   },
   "road_density_km_km2": {
    "kind": "real",
    "n_real": 22,
    "n_sites": 22,
    "source": "OSM drive network (osmnx, cached) clipped per catchment"
   },
   "runoff_coeff_C": {
    "fallback_reason": "source impervious_pct was unavailable; derived value remains null",
    "kind": "real",
    "n_fallback": 5,
    "n_real": 17,
    "n_sites": 22,
    "source": "derived from real impervious_pct (C=0.05+0.009*I)"
   },
   "seasonal_cv": {
    "fallback_reason": "NHDPlus monthly EROM was unavailable or failed the drainage-area snap guard; value remains null",
    "kind": "real",
    "n_fallback": 5,
    "n_real": 17,
    "n_sites": 22,
    "source": "CV of NHDPlus EROM monthly flows per COMID"
   },
   "stream_order": {
    "kind": "real",
    "n_real": 22,
    "n_sites": 22,
    "source": "DEM stream-network confluence heuristic (pipeline)"
   },
   "superfund_score": {
    "kind": "real",
    "n_real": 22,
    "n_sites": 22,
    "source": "EPA DataMap SEMS active sites states=NC (non-archived, georeferenced), shipped 500 m inverse-distance curve"
   },
   "tourism_amenity_density": {
    "kind": "real",
    "n_real": 22,
    "n_sites": 22,
    "source": "OSM leisure/tourism features per 2 km radius"
   },
   "tri_facility_density": {
    "kind": "real",
    "n_real": 22,
    "n_sites": 22,
    "source": "EPA DataMap TRI open facilities states=NC (preferred decimal or packed-DMS recovery), per catchment"
   },
   "usgs_mean_q_cfs": {
    "fallback_reason": "NHDPlus EROM was unavailable or failed the drainage-area snap guard; value remains null",
    "kind": "real",
    "n_fallback": 5,
    "n_real": 17,
    "n_sites": 22,
    "source": "NHDPlus EROM qe_ma per COMID (snap-guarded)"
   },
   "velocity_feasibility": {
    "fallback_reason": "derived from the shipped 0.5 m/s velocity fallback",
    "kind": "real",
    "n_fallback": 5,
    "n_real": 17,
    "n_sites": 22,
    "source": "shipped step curve on the computed velocity"
   },
   "velocity_transport_favorability": {
    "fallback_reason": "EROM/DEM continuity input unavailable; shipped 0.5 m/s default used",
    "kind": "derived",
    "n_fallback": 5,
    "n_real": 17,
    "n_sites": 22,
    "source": "scored form of flow_velocity_ms inside the Flow family \u2014 peaked Gaussian exp(-((v-0.9)/0.6)^2), model.json curves.velocity_transport_favorability; construct: transport/delivery favorability, deliberately distinct from velocity_feasibility (device operability)"
   },
   "water_intake_score": {
    "kind": "real",
    "n_real": 22,
    "n_sites": 22,
    "source": "NC OneMap / NC DEQ SWAP public water supply sources (source_typ='Surface Water'), shipped exp(-d/10km) curve"
   }
  },
  "stream_mask": {
   "buffer_m": 150.0,
   "pre_mask": 23,
   "removed": 1,
   "sources": [
    "osm-overpass (all waterway ways)",
    "usgs-nhdplus flowlines"
   ]
  },
  "varying": [
   "beach_dist_km",
   "catchment_area_km2",
   "ej_index",
   "estuary_dist_km",
   "flood_q10_cfs",
   "flow_velocity_ms",
   "impervious_pct",
   "land_ownership",
   "npdes_points",
   "population_density",
   "protected_area_score",
   "road_access_score",
   "road_density_km_km2",
   "runoff_coeff_C",
   "seasonal_cv",
   "stream_order",
   "superfund_score",
   "tourism_amenity_density",
   "usgs_mean_q_cfs",
   "velocity_feasibility"
  ]
 },
 "region": {
  "bbox": [
   -76.9335,
   34.726,
   -76.8246,
   34.8154
  ],
  "beach_ref": {
   "label": "Wrightsville Beach (shipped NC reference)",
   "lat": 34.21,
   "lon": -77.79
  },
  "center": [
   -76.879076,
   34.770703
  ],
  "estuary_ref": {
   "label": "Pamlico Sound (shipped NC reference)",
   "lat": 35.05,
   "lon": -76.05
  },
  "flood_method": "sir2014_hr4",
  "name": "Newport, NC",
  "notes": "NC Coastal Plain (SIR 2014-5030 HR4; I24H50Y from NOAA Atlas 14 at region center)",
  "slug": "newport",
  "state": "NC",
  "utm_epsg": 32618,
  "width_curve": {
   "a": 2.22,
   "b": 0.363,
   "code": "APL",
   "source": "Bieger et al. 2015 JAWRA Table 3, Atlantic Plain"
  }
 },
 "type": "FeatureCollection"
}
