{
 "features": [
  {
   "geometry": {
    "coordinates": [
     -81.23077,
     35.627328
    ],
    "type": "Point"
   },
   "properties": {
    "accumulation": 371824.0,
    "bank_slope_deg": 4.11,
    "bank_slope_score": 1.0,
    "bank_slope_source": "nc-dps-lidar-dem03-cross-section",
    "beach_dist_km": 351.05,
    "bridge_proximity_bonus": 0.0,
    "catchment_area_km2": 37.0955,
    "channel_width_m": 13.98,
    "channel_width_score": 1.0,
    "composite_score": 54.7767,
    "cso_density": 0.0,
    "ej_index": 0.4577,
    "elevation_m": 246.9307,
    "estuary_dist_km": 474.24,
    "feasibility_score": 74.2857,
    "flood_q10_cfs": 2799.15,
    "flow_score": 63.8786,
    "flow_velocity_ms": 0.065,
    "generation_score": 43.4349,
    "impact_score": 48.7792,
    "impervious_pct": 20.31,
    "land_ownership": 1.0,
    "lat": 35.6273,
    "litter_complaint_density": 0.0,
    "lon": -81.2308,
    "navigable_dist_m": null,
    "npdes_points": 3,
    "pixel_col": 673.0,
    "pixel_row": 1048.0,
    "population_density": 172.7,
    "position_along": 0.25,
    "protected_area_score": 9.9468,
    "rank": 1,
    "road_access_m": 240.3,
    "road_access_score": 0.8,
    "road_density_km_km2": 2.8,
    "robustness_pct": 87.0,
    "runoff_coeff_C": 0.2328,
    "seasonal_cv": 0.422,
    "segment_id": 30,
    "segment_length_m": 4120.9335,
    "stream_order": 3,
    "superfund_score": 0.0091,
    "tourism_amenity_density": 0.3183,
    "tri_facility_density": 0.1078,
    "usgs_mean_q_cfs": 40.043,
    "velocity_feasibility": 0.7,
    "water_intake_score": 2.2982
   },
   "type": "Feature"
  },
  {
   "geometry": {
    "coordinates": [
     -81.236218,
     35.669411
    ],
    "type": "Point"
   },
   "properties": {
    "accumulation": 58767.0,
    "bank_slope_deg": 18.68,
    "bank_slope_score": 0.5,
    "bank_slope_source": "nc-dps-lidar-dem03-cross-section",
    "beach_dist_km": 353.54,
    "bridge_proximity_bonus": 0.0,
    "catchment_area_km2": 5.863,
    "channel_width_m": 6.5,
    "channel_width_score": 1.0,
    "composite_score": 51.4603,
    "cso_density": 0.0,
    "ej_index": 0.5597,
    "elevation_m": 263.7121,
    "estuary_dist_km": 475.26,
    "feasibility_score": 60.1786,
    "flood_q10_cfs": 1176.98,
    "flow_score": 29.2977,
    "flow_velocity_ms": 0.1234,
    "generation_score": 58.2016,
    "impact_score": 58.8285,
    "impervious_pct": 29.27,
    "land_ownership": 0.5,
    "lat": 35.6694,
    "litter_complaint_density": 0.0,
    "lon": -81.2362,
    "navigable_dist_m": null,
    "npdes_points": 0,
    "pixel_col": 625.0,
    "pixel_row": 578.0,
    "population_density": 436.9,
    "position_along": 0.5,
    "protected_area_score": 9.901,
    "rank": 2,
    "road_access_m": 141.9,
    "road_access_score": 1.0,
    "road_density_km_km2": 6.748,
    "robustness_pct": 59.0,
    "runoff_coeff_C": 0.3134,
    "seasonal_cv": 0.393,
    "segment_id": 14,
    "segment_length_m": 5118.4666,
    "stream_order": 3,
    "superfund_score": 0.0416,
    "tourism_amenity_density": 2.4669,
    "tri_facility_density": 0.1706,
    "usgs_mean_q_cfs": 5.127,
    "velocity_feasibility": 0.7,
    "water_intake_score": 2.3536
   },
   "type": "Feature"
  },
  {
   "geometry": {
    "coordinates": [
     -81.270893,
     35.697477
    ],
    "type": "Point"
   },
   "properties": {
    "accumulation": 80672.0,
    "bank_slope_deg": 1.55,
    "bank_slope_score": 1.0,
    "bank_slope_source": "nc-dps-lidar-dem03-cross-section",
    "beach_dist_km": 357.73,
    "bridge_proximity_bonus": 0.0,
    "catchment_area_km2": 8.0483,
    "channel_width_m": 7.41,
    "channel_width_score": 1.0,
    "composite_score": 51.2135,
    "cso_density": 0.0,
    "ej_index": 0.8907,
    "elevation_m": 267.2873,
    "estuary_dist_km": 478.75,
    "feasibility_score": 74.2857,
    "flood_q10_cfs": 1499.24,
    "flow_score": 37.1579,
    "flow_velocity_ms": 0.197,
    "generation_score": 51.8946,
    "impact_score": 50.7094,
    "impervious_pct": 36.38,
    "land_ownership": 1.0,
    "lat": 35.6975,
    "litter_complaint_density": 0.0,
    "lon": -81.2709,
    "navigable_dist_m": null,
    "npdes_points": 1,
    "pixel_col": 314.0,
    "pixel_row": 268.0,
    "population_density": 158.8,
    "position_along": 0.5,
    "protected_area_score": 10.037,
    "rank": 3,
    "road_access_m": 299.3,
    "road_access_score": 0.8,
    "road_density_km_km2": 3.863,
    "robustness_pct": 53.5,
    "runoff_coeff_C": 0.3774,
    "seasonal_cv": 0.3868,
    "segment_id": 5,
    "segment_length_m": 2363.0416,
    "stream_order": 3,
    "superfund_score": 0.0369,
    "tourism_amenity_density": 0.557,
    "tri_facility_density": 0.3727,
    "usgs_mean_q_cfs": 9.725,
    "velocity_feasibility": 0.7,
    "water_intake_score": 2.2447
   },
   "type": "Feature"
  },
  {
   "geometry": {
    "coordinates": [
     -81.232065,
     35.643098
    ],
    "type": "Point"
   },
   "properties": {
    "accumulation": 155112.0,
    "bank_slope_deg": 38.75,
    "bank_slope_score": 0.2,
    "bank_slope_source": "nc-dps-lidar-dem03-cross-section",
    "beach_dist_km": 351.91,
    "bridge_proximity_bonus": 0.0,
    "catchment_area_km2": 15.475,
    "channel_width_m": 9.72,
    "channel_width_score": 1.0,
    "composite_score": 51.1485,
    "cso_density": 0.0,
    "ej_index": 0.4597,
    "elevation_m": 250.3646,
    "estuary_dist_km": 474.55,
    "feasibility_score": 49.2857,
    "flood_q10_cfs": 1842.19,
    "flow_score": 46.1607,
    "flow_velocity_ms": 0.0889,
    "generation_score": 52.6415,
    "impact_score": 54.7433,
    "impervious_pct": 25.08,
    "land_ownership": 0.5,
    "lat": 35.6431,
    "litter_complaint_density": 0.0,
    "lon": -81.2321,
    "navigable_dist_m": null,
    "npdes_points": 2,
    "pixel_col": 666.0,
    "pixel_row": 873.0,
    "population_density": 248.5,
    "position_along": 0.5,
    "protected_area_score": 10.0513,
    "rank": 4,
    "road_access_m": 327.4,
    "road_access_score": 0.8,
    "road_density_km_km2": 4.182,
    "robustness_pct": 63.5,
    "runoff_coeff_C": 0.2757,
    "seasonal_cv": 0.4096,
    "segment_id": 22,
    "segment_length_m": 2181.2442,
    "stream_order": 3,
    "superfund_score": 0.0138,
    "tourism_amenity_density": 1.512,
    "tri_facility_density": 0.2585,
    "usgs_mean_q_cfs": 28.175,
    "velocity_feasibility": 0.7,
    "water_intake_score": 2.3851
   },
   "type": "Feature"
  },
  {
   "geometry": {
    "coordinates": [
     -81.237764,
     35.657404
    ],
    "type": "Point"
   },
   "properties": {
    "accumulation": 83465.0,
    "bank_slope_deg": 14.48,
    "bank_slope_score": 1.0,
    "bank_slope_source": "nc-dps-lidar-dem03-cross-section",
    "beach_dist_km": 353.08,
    "bridge_proximity_bonus": 0.0,
    "catchment_area_km2": 8.327,
    "channel_width_m": 7.52,
    "channel_width_score": 1.0,
    "composite_score": 50.3825,
    "cso_density": 0.0,
    "ej_index": 0.464,
    "elevation_m": 255.6386,
    "estuary_dist_km": 475.24,
    "feasibility_score": 66.4286,
    "flood_q10_cfs": 1384.84,
    "flow_score": 31.4095,
    "flow_velocity_ms": 0.1283,
    "generation_score": 50.0978,
    "impact_score": 58.4551,
    "impervious_pct": 29.27,
    "land_ownership": 0.5,
    "lat": 35.6574,
    "litter_complaint_density": 0.0,
    "lon": -81.2378,
    "navigable_dist_m": null,
    "npdes_points": 0,
    "pixel_col": 613.0,
    "pixel_row": 714.0,
    "population_density": 360.7,
    "position_along": 0.8333,
    "protected_area_score": 10.13,
    "rank": 5,
    "road_access_m": 106.1,
    "road_access_score": 1.0,
    "road_density_km_km2": 5.583,
    "robustness_pct": 42.5,
    "runoff_coeff_C": 0.3134,
    "seasonal_cv": 0.393,
    "segment_id": 14,
    "segment_length_m": 5118.4666,
    "stream_order": 3,
    "superfund_score": 0.0225,
    "tourism_amenity_density": 2.2282,
    "tri_facility_density": 0.1201,
    "usgs_mean_q_cfs": 5.127,
    "velocity_feasibility": 0.7,
    "water_intake_score": 2.4663
   },
   "type": "Feature"
  },
  {
   "geometry": {
    "coordinates": [
     -81.232467,
     35.678474
    ],
    "type": "Point"
   },
   "properties": {
    "accumulation": 39752.0,
    "bank_slope_deg": 6.83,
    "bank_slope_score": 1.0,
    "bank_slope_source": "nc-dps-lidar-dem03-cross-section",
    "beach_dist_km": 353.69,
    "bridge_proximity_bonus": 0.0,
    "catchment_area_km2": 3.9659,
    "channel_width_m": 5.53,
    "channel_width_score": 1.0,
    "composite_score": 50.2294,
    "cso_density": 0.0,
    "ej_index": 0.5601,
    "elevation_m": 276.419,
    "estuary_dist_km": 475.05,
    "feasibility_score": 66.4286,
    "flood_q10_cfs": 876.65,
    "flow_score": 26.8097,
    "flow_velocity_ms": 0.1126,
    "generation_score": 48.6467,
    "impact_score": 63.2289,
    "impervious_pct": 29.27,
    "land_ownership": 0.5,
    "lat": 35.6785,
    "litter_complaint_density": 0.0,
    "lon": -81.2325,
    "navigable_dist_m": null,
    "npdes_points": 0,
    "pixel_col": 661.0,
    "pixel_row": 480.0,
    "population_density": 368.7,
    "position_along": 0.1667,
    "protected_area_score": 9.9647,
    "rank": 6,
    "road_access_m": 51.3,
    "road_access_score": 1.0,
    "road_density_km_km2": 6.466,
    "robustness_pct": 33.5,
    "runoff_coeff_C": 0.3134,
    "seasonal_cv": 0.393,
    "segment_id": 14,
    "segment_length_m": 5118.4666,
    "stream_order": 3,
    "superfund_score": 0.0938,
    "tourism_amenity_density": 2.9444,
    "tri_facility_density": 0.0,
    "usgs_mean_q_cfs": 5.127,
    "velocity_feasibility": 0.7,
    "water_intake_score": 2.2368
   },
   "type": "Feature"
  },
  {
   "geometry": {
    "coordinates": [
     -81.25705,
     35.671114
    ],
    "type": "Point"
   },
   "properties": {
    "accumulation": 263950.0,
    "bank_slope_deg": 24.85,
    "bank_slope_score": 0.5,
    "bank_slope_source": "nc-dps-lidar-dem03-cross-section",
    "beach_dist_km": 355.31,
    "bridge_proximity_bonus": 0.0,
    "catchment_area_km2": 26.3333,
    "channel_width_m": 12.12,
    "channel_width_score": 1.0,
    "composite_score": 49.724,
    "cso_density": 0.0,
    "ej_index": 0.6651,
    "elevation_m": 257.5917,
    "estuary_dist_km": 477.15,
    "feasibility_score": 53.0357,
    "flood_q10_cfs": 2536.98,
    "flow_score": 52.0387,
    "flow_velocity_ms": 0.149,
    "generation_score": 44.4141,
    "impact_score": 51.4489,
    "impervious_pct": 26.93,
    "land_ownership": 0.5,
    "lat": 35.6711,
    "litter_complaint_density": 0.0,
    "lon": -81.2571,
    "navigable_dist_m": null,
    "npdes_points": 2,
    "pixel_col": 440.0,
    "pixel_row": 561.0,
    "population_density": 206.2,
    "position_along": 0.5,
    "protected_area_score": 9.8761,
    "rank": 7,
    "road_access_m": 232.4,
    "road_access_score": 0.8,
    "road_density_km_km2": 3.346,
    "robustness_pct": 40.5,
    "runoff_coeff_C": 0.2924,
    "seasonal_cv": 0.4015,
    "segment_id": 12,
    "segment_length_m": 1980.3524,
    "stream_order": 3,
    "superfund_score": 0.0281,
    "tourism_amenity_density": 0.2387,
    "tri_facility_density": 0.0759,
    "usgs_mean_q_cfs": 20.782,
    "velocity_feasibility": 0.7,
    "water_intake_score": 2.4865
   },
   "type": "Feature"
  },
  {
   "geometry": {
    "coordinates": [
     -81.23344,
     35.612489
    ],
    "type": "Point"
   },
   "properties": {
    "accumulation": 400382.0,
    "bank_slope_deg": 17.79,
    "bank_slope_score": 0.5,
    "bank_slope_source": "nc-dps-lidar-dem03-cross-section",
    "beach_dist_km": 350.55,
    "bridge_proximity_bonus": 0.0,
    "catchment_area_km2": 39.9446,
    "channel_width_m": 14.41,
    "channel_width_score": 1.0,
    "composite_score": 48.654,
    "cso_density": 0.0,
    "ej_index": 0.4001,
    "elevation_m": 245.7478,
    "estuary_dist_km": 474.3,
    "feasibility_score": 45.8929,
    "flood_q10_cfs": 2916.27,
    "flow_score": 67.7853,
    "flow_velocity_ms": 0.1563,
    "generation_score": 36.6218,
    "impact_score": 46.1242,
    "impervious_pct": 20.31,
    "land_ownership": 0.5,
    "lat": 35.6125,
    "litter_complaint_density": 0.0,
    "lon": -81.2334,
    "navigable_dist_m": null,
    "npdes_points": 3,
    "pixel_col": 651.0,
    "pixel_row": 1213.0,
    "population_density": 128.7,
    "position_along": 0.75,
    "protected_area_score": 10.0561,
    "rank": 8,
    "road_access_m": 596.6,
    "road_access_score": 0.6,
    "road_density_km_km2": 1.406,
    "robustness_pct": 37.0,
    "runoff_coeff_C": 0.2328,
    "seasonal_cv": 0.422,
    "segment_id": 30,
    "segment_length_m": 4120.9335,
    "stream_order": 3,
    "superfund_score": 0.0068,
    "tourism_amenity_density": 0.0796,
    "tri_facility_density": 0.0501,
    "usgs_mean_q_cfs": 40.043,
    "velocity_feasibility": 0.7,
    "water_intake_score": 2.233
   },
   "type": "Feature"
  },
  {
   "geometry": {
    "coordinates": [
     -81.19647,
     35.685769
    ],
    "type": "Point"
   },
   "properties": {
    "accumulation": 44558.0,
    "bank_slope_deg": 1.59,
    "bank_slope_score": 1.0,
    "bank_slope_source": "nc-dps-lidar-dem03-cross-section",
    "beach_dist_km": 351.14,
    "bridge_proximity_bonus": 0.2,
    "catchment_area_km2": 4.4454,
    "channel_width_m": 5.79,
    "channel_width_score": 1.0,
    "composite_score": 48.3243,
    "cso_density": 0.0,
    "ej_index": 0.5402,
    "elevation_m": 282.5177,
    "estuary_dist_km": 471.92,
    "feasibility_score": 76.4286,
    "flood_q10_cfs": 888.15,
    "flow_score": 26.712,
    "flow_velocity_ms": 0.1601,
    "generation_score": 54.7378,
    "impact_score": 45.8689,
    "impervious_pct": 25.1,
    "land_ownership": 0.5,
    "lat": 35.6858,
    "litter_complaint_density": 0.0,
    "lon": -81.1965,
    "navigable_dist_m": null,
    "npdes_points": 0,
    "pixel_col": 989.0,
    "pixel_row": 398.0,
    "population_density": 230.5,
    "position_along": 0.1667,
    "protected_area_score": 9.392,
    "rank": 9,
    "road_access_m": 170.3,
    "road_access_score": 1.0,
    "road_density_km_km2": 4.86,
    "robustness_pct": 17.0,
    "runoff_coeff_C": 0.2759,
    "seasonal_cv": 0.4035,
    "segment_id": 9,
    "segment_length_m": 5323.3235,
    "stream_order": 3,
    "superfund_score": 0.0449,
    "tourism_amenity_density": 0.7958,
    "tri_facility_density": 0.6749,
    "usgs_mean_q_cfs": 3.509,
    "velocity_feasibility": 0.7,
    "water_intake_score": 1.908
   },
   "type": "Feature"
  },
  {
   "geometry": {
    "coordinates": [
     -81.225609,
     35.635479
    ],
    "type": "Point"
   },
   "properties": {
    "accumulation": 181056.0,
    "bank_slope_deg": 20.08,
    "bank_slope_score": 0.5,
    "bank_slope_source": "nc-dps-lidar-dem03-cross-section",
    "beach_dist_km": 351.02,
    "bridge_proximity_bonus": 0.0,
    "catchment_area_km2": 18.0633,
    "channel_width_m": 10.37,
    "channel_width_score": 1.0,
    "composite_score": 47.9213,
    "cso_density": 0.0,
    "ej_index": 0.4838,
    "elevation_m": 250.318,
    "estuary_dist_km": 473.88,
    "feasibility_score": 75.1786,
    "flood_q10_cfs": 1671.01,
    "flow_score": 37.3119,
    "flow_velocity_ms": 0.1581,
    "generation_score": 37.7579,
    "impact_score": 53.2974,
    "impervious_pct": 11.82,
    "land_ownership": 1.0,
    "lat": 35.6355,
    "litter_complaint_density": 0.0,
    "lon": -81.2256,
    "navigable_dist_m": null,
    "npdes_points": 2,
    "pixel_col": 720.0,
    "pixel_row": 956.0,
    "population_density": 200.6,
    "position_along": 0.5,
    "protected_area_score": 9.9631,
    "rank": 10,
    "road_access_m": 190.0,
    "road_access_score": 1.0,
    "road_density_km_km2": 3.524,
    "robustness_pct": 8.0,
    "runoff_coeff_C": 0.1564,
    "seasonal_cv": 0.4052,
    "segment_id": 29,
    "segment_length_m": 590.4359,
    "stream_order": 3,
    "superfund_score": 0.011,
    "tourism_amenity_density": 1.2732,
    "tri_facility_density": 0.1661,
    "usgs_mean_q_cfs": 9.876,
    "velocity_feasibility": 0.7,
    "water_intake_score": 2.293
   },
   "type": "Feature"
  },
  {
   "geometry": {
    "coordinates": [
     -81.212379,
     35.655652
    ],
    "type": "Point"
   },
   "properties": {
    "accumulation": 22683.0,
    "bank_slope_deg": 0.55,
    "bank_slope_score": 1.0,
    "bank_slope_source": "nc-dps-lidar-dem03-cross-section",
    "beach_dist_km": 350.93,
    "bridge_proximity_bonus": 0.0,
    "catchment_area_km2": 2.263,
    "channel_width_m": 4.38,
    "channel_width_score": 1.0,
    "composite_score": 47.7942,
    "cso_density": 0.0,
    "ej_index": 0.7825,
    "elevation_m": 264.6131,
    "estuary_dist_km": 472.94,
    "feasibility_score": 81.4286,
    "flood_q10_cfs": 451.95,
    "flow_score": 20.1256,
    "flow_velocity_ms": 0.1262,
    "generation_score": 38.1782,
    "impact_score": 63.6501,
    "impervious_pct": 15.57,
    "land_ownership": 1.0,
    "lat": 35.6557,
    "litter_complaint_density": 0.0,
    "lon": -81.2124,
    "navigable_dist_m": null,
    "npdes_points": 0,
    "pixel_col": 843.0,
    "pixel_row": 734.0,
    "population_density": 314.3,
    "position_along": 0.5,
    "protected_area_score": 9.9196,
    "rank": 11,
    "road_access_m": 82.4,
    "road_access_score": 1.0,
    "road_density_km_km2": 7.123,
    "robustness_pct": 24.0,
    "runoff_coeff_C": 0.1901,
    "seasonal_cv": 0.4192,
    "segment_id": 20,
    "segment_length_m": 777.7902,
    "stream_order": 3,
    "superfund_score": 0.0201,
    "tourism_amenity_density": 2.3873,
    "tri_facility_density": 0.0,
    "usgs_mean_q_cfs": 1.311,
    "velocity_feasibility": 0.7,
    "water_intake_score": 2.1735
   },
   "type": "Feature"
  },
  {
   "geometry": {
    "coordinates": [
     -81.247725,
     35.702963
    ],
    "type": "Point"
   },
   "properties": {
    "accumulation": 50862.0,
    "bank_slope_deg": 3.0,
    "bank_slope_score": 1.0,
    "bank_slope_source": "nc-dps-lidar-dem03-cross-section",
    "beach_dist_km": 356.14,
    "bridge_proximity_bonus": 0.0,
    "catchment_area_km2": 5.0743,
    "channel_width_m": 6.12,
    "channel_width_score": 1.0,
    "composite_score": 47.736,
    "cso_density": 0.0,
    "ej_index": 0.7292,
    "elevation_m": 271.3601,
    "estuary_dist_km": 476.75,
    "feasibility_score": 66.4286,
    "flood_q10_cfs": 1083.65,
    "flow_score": 27.4933,
    "flow_velocity_ms": 0.1054,
    "generation_score": 55.0083,
    "impact_score": 47.9862,
    "impervious_pct": 30.77,
    "land_ownership": 0.5,
    "lat": 35.703,
    "litter_complaint_density": 0.0,
    "lon": -81.2477,
    "navigable_dist_m": null,
    "npdes_points": 0,
    "pixel_col": 524.0,
    "pixel_row": 208.0,
    "population_density": 171.3,
    "position_along": 0.5,
    "protected_area_score": 9.9322,
    "rank": 12,
    "road_access_m": 136.9,
    "road_access_score": 1.0,
    "road_density_km_km2": 3.185,
    "robustness_pct": 4.0,
    "runoff_coeff_C": 0.3269,
    "seasonal_cv": 0.3958,
    "segment_id": 3,
    "segment_length_m": 1696.5424,
    "stream_order": 3,
    "superfund_score": 0.0514,
    "tourism_amenity_density": 0.557,
    "tri_facility_density": 0.7883,
    "usgs_mean_q_cfs": 3.693,
    "velocity_feasibility": 0.7,
    "water_intake_score": 2.1008
   },
   "type": "Feature"
  },
  {
   "geometry": {
    "coordinates": [
     -81.274071,
     35.70666
    ],
    "type": "Point"
   },
   "properties": {
    "accumulation": 24757.0,
    "bank_slope_deg": 0.38,
    "bank_slope_score": 1.0,
    "bank_slope_source": "nc-dps-lidar-dem03-cross-section",
    "beach_dist_km": 358.45,
    "bridge_proximity_bonus": 0.0,
    "catchment_area_km2": 2.4699,
    "channel_width_m": 4.54,
    "channel_width_score": 1.0,
    "composite_score": 46.522,
    "cso_density": 0.0,
    "ej_index": 0.9362,
    "elevation_m": 276.6599,
    "estuary_dist_km": 479.16,
    "feasibility_score": 66.4286,
    "flood_q10_cfs": 763.02,
    "flow_score": 29.8251,
    "flow_velocity_ms": 0.1915,
    "generation_score": 48.6205,
    "impact_score": 48.3842,
    "impervious_pct": 41.73,
    "land_ownership": 0.5,
    "lat": 35.7067,
    "litter_complaint_density": 0.0,
    "lon": -81.2741,
    "navigable_dist_m": null,
    "npdes_points": 1,
    "pixel_col": 284.0,
    "pixel_row": 166.0,
    "population_density": 176.8,
    "position_along": 0.5,
    "protected_area_score": 9.9129,
    "rank": 13,
    "road_access_m": 194.8,
    "road_access_score": 1.0,
    "road_density_km_km2": 5.685,
    "robustness_pct": 0.0,
    "runoff_coeff_C": 0.4256,
    "seasonal_cv": 0.386,
    "segment_id": 4,
    "segment_length_m": 70.628,
    "stream_order": 3,
    "superfund_score": 0.0424,
    "tourism_amenity_density": 0.4775,
    "tri_facility_density": 0.0,
    "usgs_mean_q_cfs": 5.629,
    "velocity_feasibility": 0.7,
    "water_intake_score": 2.1697
   },
   "type": "Feature"
  },
  {
   "geometry": {
    "coordinates": [
     -81.252948,
     35.687051
    ],
    "type": "Point"
   },
   "properties": {
    "accumulation": 107981.0,
    "bank_slope_deg": 5.32,
    "bank_slope_score": 1.0,
    "bank_slope_source": "nc-dps-lidar-dem03-cross-section",
    "beach_dist_km": 355.77,
    "bridge_proximity_bonus": 0.0,
    "catchment_area_km2": 10.7729,
    "channel_width_m": 8.37,
    "channel_width_score": 1.0,
    "composite_score": 46.5132,
    "cso_density": 0.0,
    "ej_index": 0.8303,
    "elevation_m": 264.558,
    "estuary_dist_km": 477.0,
    "feasibility_score": 66.4286,
    "flood_q10_cfs": 1547.21,
    "flow_score": 35.2465,
    "flow_velocity_ms": 0.1819,
    "generation_score": 39.0931,
    "impact_score": 53.3646,
    "impervious_pct": 26.97,
    "land_ownership": 0.5,
    "lat": 35.6871,
    "litter_complaint_density": 0.0,
    "lon": -81.2529,
    "navigable_dist_m": null,
    "npdes_points": 0,
    "pixel_col": 475.0,
    "pixel_row": 384.0,
    "population_density": 170.7,
    "position_along": 0.5,
    "protected_area_score": 9.9272,
    "rank": 14,
    "road_access_m": 118.0,
    "road_access_score": 1.0,
    "road_density_km_km2": 2.442,
    "robustness_pct": 0.0,
    "runoff_coeff_C": 0.2927,
    "seasonal_cv": 0.3956,
    "segment_id": 8,
    "segment_length_m": 2454.7719,
    "stream_order": 3,
    "superfund_score": 0.0456,
    "tourism_amenity_density": 0.3979,
    "tri_facility_density": 0.3713,
    "usgs_mean_q_cfs": 7.022,
    "velocity_feasibility": 0.7,
    "water_intake_score": 2.2809
   },
   "type": "Feature"
  },
  {
   "geometry": {
    "coordinates": [
     -81.263891,
     35.683237
    ],
    "type": "Point"
   },
   "properties": {
    "accumulation": 121841.0,
    "bank_slope_deg": 16.01,
    "bank_slope_score": 0.5,
    "bank_slope_source": "nc-dps-lidar-dem03-cross-section",
    "beach_dist_km": 356.46,
    "bridge_proximity_bonus": 0.0,
    "catchment_area_km2": 12.1556,
    "channel_width_m": 8.8,
    "channel_width_score": 1.0,
    "composite_score": 46.103,
    "cso_density": 0.0,
    "ej_index": 0.8371,
    "elevation_m": 260.6486,
    "estuary_dist_km": 477.93,
    "feasibility_score": 53.0357,
    "flood_q10_cfs": 1787.3,
    "flow_score": 36.9504,
    "flow_velocity_ms": 0.0531,
    "generation_score": 42.3251,
    "impact_score": 54.0418,
    "impervious_pct": 32.57,
    "land_ownership": 0.5,
    "lat": 35.6832,
    "litter_complaint_density": 0.0,
    "lon": -81.2639,
    "navigable_dist_m": null,
    "npdes_points": 2,
    "pixel_col": 377.0,
    "pixel_row": 426.0,
    "population_density": 141.9,
    "position_along": 0.5,
    "protected_area_score": 9.9845,
    "rank": 15,
    "road_access_m": 291.2,
    "road_access_score": 0.8,
    "road_density_km_km2": 2.279,
    "robustness_pct": 0.0,
    "runoff_coeff_C": 0.3431,
    "seasonal_cv": 0.3885,
    "segment_id": 11,
    "segment_length_m": 1461.6702,
    "stream_order": 3,
    "superfund_score": 0.0325,
    "tourism_amenity_density": 0.7162,
    "tri_facility_density": 0.0823,
    "usgs_mean_q_cfs": 11.6,
    "velocity_feasibility": 0.7,
    "water_intake_score": 2.3711
   },
   "type": "Feature"
  },
  {
   "geometry": {
    "coordinates": [
     -81.231398,
     35.604064
    ],
    "type": "Point"
   },
   "properties": {
    "accumulation": 481822.0,
    "bank_slope_deg": 19.42,
    "bank_slope_score": 0.5,
    "bank_slope_source": "nc-dps-lidar-dem03-cross-section",
    "beach_dist_km": 349.98,
    "bridge_proximity_bonus": 0.0,
    "catchment_area_km2": 48.0696,
    "channel_width_m": 15.56,
    "channel_width_score": 0.5,
    "composite_score": 46.1006,
    "cso_density": 0.0,
    "ej_index": 0.4051,
    "elevation_m": 243.6845,
    "estuary_dist_km": 474.02,
    "feasibility_score": 25.8929,
    "flood_q10_cfs": 3171.96,
    "flow_score": 75.3058,
    "flow_velocity_ms": 0.2046,
    "generation_score": 33.4381,
    "impact_score": 44.5292,
    "impervious_pct": 18.97,
    "land_ownership": 0.5,
    "lat": 35.6041,
    "litter_complaint_density": 0.0,
    "lon": -81.2314,
    "navigable_dist_m": null,
    "npdes_points": 3,
    "pixel_col": 669.0,
    "pixel_row": 1306.0,
    "population_density": 116.5,
    "position_along": 0.5,
    "protected_area_score": 9.8791,
    "rank": 16,
    "road_access_m": 523.7,
    "road_access_score": 0.6,
    "road_density_km_km2": 0.974,
    "robustness_pct": 27.0,
    "runoff_coeff_C": 0.2207,
    "seasonal_cv": 0.4252,
    "segment_id": 34,
    "segment_length_m": 297.6415,
    "stream_order": 3,
    "superfund_score": 0.0058,
    "tourism_amenity_density": 0.0796,
    "tri_facility_density": 0.0208,
    "usgs_mean_q_cfs": 43.821,
    "velocity_feasibility": 0.7,
    "water_intake_score": 2.1761
   },
   "type": "Feature"
  },
  {
   "geometry": {
    "coordinates": [
     -81.217538,
     35.645481
    ],
    "type": "Point"
   },
   "properties": {
    "accumulation": 71751.0,
    "bank_slope_deg": 12.91,
    "bank_slope_score": 1.0,
    "bank_slope_source": "nc-dps-lidar-dem03-cross-section",
    "beach_dist_km": 350.85,
    "bridge_proximity_bonus": 0.0,
    "catchment_area_km2": 7.1583,
    "channel_width_m": 7.06,
    "channel_width_score": 1.0,
    "composite_score": 45.7587,
    "cso_density": 0.0,
    "ej_index": 0.517,
    "elevation_m": 255.2277,
    "estuary_dist_km": 473.28,
    "feasibility_score": 47.8571,
    "flood_q10_cfs": 1074.35,
    "flow_score": 25.4806,
    "flow_velocity_ms": 0.0465,
    "generation_score": 50.5186,
    "impact_score": 56.8481,
    "impervious_pct": 15.46,
    "land_ownership": 0.5,
    "lat": 35.6455,
    "litter_complaint_density": 0.0,
    "lon": -81.2175,
    "navigable_dist_m": null,
    "npdes_points": 1,
    "pixel_col": 796.0,
    "pixel_row": 847.0,
    "population_density": 299.1,
    "position_along": 0.5,
    "protected_area_score": 9.9322,
    "rank": 17,
    "road_access_m": 263.5,
    "road_access_score": 0.8,
    "road_density_km_km2": 4.853,
    "robustness_pct": 0.5,
    "runoff_coeff_C": 0.1891,
    "seasonal_cv": 0.4001,
    "segment_id": 24,
    "segment_length_m": 2504.2976,
    "stream_order": 3,
    "superfund_score": 0.0143,
    "tourism_amenity_density": 2.1486,
    "tri_facility_density": 0.4191,
    "usgs_mean_q_cfs": 4.762,
    "velocity_feasibility": 0.3,
    "water_intake_score": 2.238
   },
   "type": "Feature"
  },
  {
   "geometry": {
    "coordinates": [
     -81.280399,
     35.707481
    ],
    "type": "Point"
   },
   "properties": {
    "accumulation": 31085.0,
    "bank_slope_deg": 1.32,
    "bank_slope_score": 1.0,
    "bank_slope_source": "nc-dps-lidar-dem03-cross-section",
    "beach_dist_km": 359.0,
    "bridge_proximity_bonus": 0.0,
    "catchment_area_km2": 3.1012,
    "channel_width_m": 4.99,
    "channel_width_score": 1.0,
    "composite_score": 42.4931,
    "cso_density": 0.0,
    "ej_index": 0.8701,
    "elevation_m": 272.6792,
    "estuary_dist_km": 479.74,
    "feasibility_score": 47.8571,
    "flood_q10_cfs": 905.8,
    "flow_score": 27.0419,
    "flow_velocity_ms": 0.0403,
    "generation_score": 47.9688,
    "impact_score": 47.2113,
    "impervious_pct": 41.73,
    "land_ownership": 0.5,
    "lat": 35.7075,
    "litter_complaint_density": 0.0,
    "lon": -81.2804,
    "navigable_dist_m": null,
    "npdes_points": 1,
    "pixel_col": 230.0,
    "pixel_row": 157.0,
    "population_density": 161.2,
    "position_along": 0.5,
    "protected_area_score": 10.0004,
    "rank": 18,
    "road_access_m": 215.4,
    "road_access_score": 0.8,
    "road_density_km_km2": 5.838,
    "robustness_pct": 0.0,
    "runoff_coeff_C": 0.4256,
    "seasonal_cv": 0.386,
    "segment_id": 2,
    "segment_length_m": 1274.4881,
    "stream_order": 3,
    "superfund_score": 0.0474,
    "tourism_amenity_density": 0.557,
    "tri_facility_density": 0.0,
    "usgs_mean_q_cfs": 5.629,
    "velocity_feasibility": 0.3,
    "water_intake_score": 2.1849
   },
   "type": "Feature"
  },
  {
   "geometry": {
    "coordinates": [
     -81.209573,
     35.65307
    ],
    "type": "Point"
   },
   "properties": {
    "accumulation": 23470.0,
    "bank_slope_deg": 11.37,
    "bank_slope_score": 1.0,
    "bank_slope_source": "nc-dps-lidar-dem03-cross-section",
    "beach_dist_km": 350.58,
    "bridge_proximity_bonus": 0.0,
    "catchment_area_km2": 2.3415,
    "channel_width_m": 4.44,
    "channel_width_score": 1.0,
    "composite_score": 42.3066,
    "cso_density": 0.0,
    "ej_index": 0.8757,
    "elevation_m": 264.0133,
    "estuary_dist_km": 472.66,
    "feasibility_score": 66.4286,
    "flood_q10_cfs": 401.58,
    "flow_score": 18.8303,
    "flow_velocity_ms": 0.1056,
    "generation_score": 28.551,
    "impact_score": 63.5648,
    "impervious_pct": 7.35,
    "land_ownership": 0.5,
    "lat": 35.6531,
    "litter_complaint_density": 0.0,
    "lon": -81.2096,
    "navigable_dist_m": null,
    "npdes_points": 0,
    "pixel_col": 866.0,
    "pixel_row": 761.0,
    "population_density": 296.2,
    "position_along": 0.5,
    "protected_area_score": 9.7886,
    "rank": 19,
    "road_access_m": 54.2,
    "road_access_score": 1.0,
    "road_density_km_km2": 5.178,
    "robustness_pct": 2.0,
    "runoff_coeff_C": 0.1161,
    "seasonal_cv": 0.4125,
    "segment_id": 23,
    "segment_length_m": 1020.6431,
    "stream_order": 3,
    "superfund_score": 0.0176,
    "tourism_amenity_density": 1.9894,
    "tri_facility_density": 0.0,
    "usgs_mean_q_cfs": 1.94,
    "velocity_feasibility": 0.7,
    "water_intake_score": 2.1479
   },
   "type": "Feature"
  },
  {
   "geometry": {
    "coordinates": [
     -81.244142,
     35.653357
    ],
    "type": "Point"
   },
   "properties": {
    "accumulation": 33086.0,
    "bank_slope_deg": 26.5,
    "bank_slope_score": 0.5,
    "bank_slope_source": "nc-dps-lidar-dem03-cross-section",
    "beach_dist_km": 353.4,
    "bridge_proximity_bonus": 0.0,
    "catchment_area_km2": 3.3009,
    "channel_width_m": 5.12,
    "channel_width_score": 1.0,
    "composite_score": 42.1433,
    "cso_density": 0.0,
    "ej_index": 0.5045,
    "elevation_m": 253.5639,
    "estuary_dist_km": 475.76,
    "feasibility_score": 68.75,
    "flood_q10_cfs": 457.41,
    "flow_score": 41.1157,
    "flow_velocity_ms": 0.5,
    "generation_score": 13.8469,
    "impact_score": 57.9928,
    "impervious_pct": null,
    "land_ownership": 0.5,
    "lat": 35.6534,
    "litter_complaint_density": 0.0,
    "lon": -81.2441,
    "navigable_dist_m": null,
    "npdes_points": 0,
    "pixel_col": 557.0,
    "pixel_row": 759.0,
    "population_density": 208.0,
    "position_along": 0.5,
    "protected_area_score": 10.1519,
    "rank": 20,
    "road_access_m": 171.7,
    "road_access_score": 1.0,
    "road_density_km_km2": 2.43,
    "robustness_pct": 1.0,
    "runoff_coeff_C": null,
    "seasonal_cv": null,
    "segment_id": 21,
    "segment_length_m": 1424.4345,
    "stream_order": 3,
    "superfund_score": 0.0186,
    "tourism_amenity_density": 1.512,
    "tri_facility_density": 0.0,
    "usgs_mean_q_cfs": null,
    "velocity_feasibility": 1.0,
    "water_intake_score": 2.5621
   },
   "type": "Feature"
  },
  {
   "geometry": {
    "coordinates": [
     -81.214098,
     35.635591
    ],
    "type": "Point"
   },
   "properties": {
    "accumulation": 87947.0,
    "bank_slope_deg": 12.07,
    "bank_slope_score": 1.0,
    "bank_slope_source": "nc-dps-lidar-dem03-cross-section",
    "beach_dist_km": 350.09,
    "bridge_proximity_bonus": 0.0,
    "catchment_area_km2": 8.7741,
    "channel_width_m": 7.68,
    "channel_width_score": 1.0,
    "composite_score": 41.002,
    "cso_density": 0.0,
    "ej_index": 0.5786,
    "elevation_m": 253.3083,
    "estuary_dist_km": 472.84,
    "feasibility_score": 59.2857,
    "flood_q10_cfs": 1061.4,
    "flow_score": 26.7115,
    "flow_velocity_ms": 0.1177,
    "generation_score": 33.8635,
    "impact_score": 50.9073,
    "impervious_pct": 7.92,
    "land_ownership": 0.5,
    "lat": 35.6356,
    "litter_complaint_density": 0.0,
    "lon": -81.2141,
    "navigable_dist_m": null,
    "npdes_points": 1,
    "pixel_col": 824.0,
    "pixel_row": 954.0,
    "population_density": 199.8,
    "position_along": 0.75,
    "protected_area_score": 9.7589,
    "rank": 21,
    "road_access_m": 248.0,
    "road_access_score": 0.8,
    "road_density_km_km2": 2.708,
    "robustness_pct": 0.0,
    "runoff_coeff_C": 0.1213,
    "seasonal_cv": 0.4019,
    "segment_id": 28,
    "segment_length_m": 3401.9475,
    "stream_order": 3,
    "superfund_score": 0.0105,
    "tourism_amenity_density": 0.3979,
    "tri_facility_density": 0.3419,
    "usgs_mean_q_cfs": 4.93,
    "velocity_feasibility": 0.7,
    "water_intake_score": 2.1831
   },
   "type": "Feature"
  },
  {
   "geometry": {
    "coordinates": [
     -81.296434,
     35.677769
    ],
    "type": "Point"
   },
   "properties": {
    "accumulation": 36806.0,
    "bank_slope_deg": 20.77,
    "bank_slope_score": 0.5,
    "bank_slope_source": "nc-dps-lidar-dem03-cross-section",
    "beach_dist_km": 358.83,
    "bridge_proximity_bonus": 0.0,
    "catchment_area_km2": 3.672,
    "channel_width_m": 5.35,
    "channel_width_score": 1.0,
    "composite_score": 39.8109,
    "cso_density": 0.0,
    "ej_index": 0.5932,
    "elevation_m": 257.8653,
    "estuary_dist_km": 480.77,
    "feasibility_score": 60.1786,
    "flood_q10_cfs": 781.5,
    "flow_score": 24.3916,
    "flow_velocity_ms": 0.0852,
    "generation_score": 40.0028,
    "impact_score": 42.2847,
    "impervious_pct": 26.02,
    "land_ownership": 0.5,
    "lat": 35.6778,
    "litter_complaint_density": 0.0,
    "lon": -81.2964,
    "navigable_dist_m": null,
    "npdes_points": 1,
    "pixel_col": 84.0,
    "pixel_row": 486.0,
    "population_density": 269.6,
    "position_along": 0.5,
    "protected_area_score": 9.9535,
    "rank": 22,
    "road_access_m": 171.4,
    "road_access_score": 1.0,
    "road_density_km_km2": 3.196,
    "robustness_pct": 0.0,
    "runoff_coeff_C": 0.2842,
    "seasonal_cv": 0.3885,
    "segment_id": 13,
    "segment_length_m": 2076.514,
    "stream_order": 3,
    "superfund_score": 0.0308,
    "tourism_amenity_density": 0.2387,
    "tri_facility_density": 0.0,
    "usgs_mean_q_cfs": 3.357,
    "velocity_feasibility": 0.7,
    "water_intake_score": 2.4604
   },
   "type": "Feature"
  },
  {
   "geometry": {
    "coordinates": [
     -81.187064,
     35.676162
    ],
    "type": "Point"
   },
   "properties": {
    "accumulation": 87675.0,
    "bank_slope_deg": 12.71,
    "bank_slope_score": 1.0,
    "bank_slope_source": "nc-dps-lidar-dem03-cross-section",
    "beach_dist_km": 349.9,
    "bridge_proximity_bonus": 0.0,
    "catchment_area_km2": 8.747,
    "channel_width_m": 7.67,
    "channel_width_score": 1.0,
    "composite_score": 39.1448,
    "cso_density": 0.0,
    "ej_index": 0.3951,
    "elevation_m": 274.4016,
    "estuary_dist_km": 470.94,
    "feasibility_score": 66.4286,
    "flood_q10_cfs": 1206.52,
    "flow_score": 29.6094,
    "flow_velocity_ms": 0.1269,
    "generation_score": 34.9883,
    "impact_score": 37.6057,
    "impervious_pct": 17.32,
    "land_ownership": 0.5,
    "lat": 35.6762,
    "litter_complaint_density": 0.0,
    "lon": -81.1871,
    "navigable_dist_m": null,
    "npdes_points": 0,
    "pixel_col": 1074.0,
    "pixel_row": 506.0,
    "population_density": 224.6,
    "position_along": 0.5,
    "protected_area_score": 9.155,
    "rank": 23,
    "road_access_m": 161.9,
    "road_access_score": 1.0,
    "road_density_km_km2": 3.997,
    "robustness_pct": 0.0,
    "runoff_coeff_C": 0.2059,
    "seasonal_cv": 0.4047,
    "segment_id": 9,
    "segment_length_m": 5323.3235,
    "stream_order": 3,
    "superfund_score": 0.023,
    "tourism_amenity_density": 0.0,
    "tri_facility_density": 0.2286,
    "usgs_mean_q_cfs": 6.596,
    "velocity_feasibility": 0.7,
    "water_intake_score": 1.8813
   },
   "type": "Feature"
  },
  {
   "geometry": {
    "coordinates": [
     -81.199979,
     35.640568
    ],
    "type": "Point"
   },
   "properties": {
    "accumulation": 71943.0,
    "bank_slope_deg": 15.17,
    "bank_slope_score": 0.5,
    "bank_slope_source": "nc-dps-lidar-dem03-cross-section",
    "beach_dist_km": 349.19,
    "bridge_proximity_bonus": 0.0,
    "catchment_area_km2": 7.1775,
    "channel_width_m": 7.07,
    "channel_width_score": 1.0,
    "composite_score": 38.784,
    "cso_density": 0.0,
    "ej_index": 0.7455,
    "elevation_m": 259.7989,
    "estuary_dist_km": 471.64,
    "feasibility_score": 60.1786,
    "flood_q10_cfs": 941.8,
    "flow_score": 25.5887,
    "flow_velocity_ms": 0.1307,
    "generation_score": 27.9436,
    "impact_score": 49.9234,
    "impervious_pct": 7.82,
    "land_ownership": 0.5,
    "lat": 35.6406,
    "litter_complaint_density": 0.0,
    "lon": -81.2,
    "navigable_dist_m": null,
    "npdes_points": 0,
    "pixel_col": 953.0,
    "pixel_row": 900.0,
    "population_density": 210.0,
    "position_along": 0.25,
    "protected_area_score": 9.2407,
    "rank": 24,
    "road_access_m": 187.2,
    "road_access_score": 1.0,
    "road_density_km_km2": 2.995,
    "robustness_pct": 0.0,
    "runoff_coeff_C": 0.1204,
    "seasonal_cv": 0.4024,
    "segment_id": 28,
    "segment_length_m": 3401.9475,
    "stream_order": 3,
    "superfund_score": 0.0107,
    "tourism_amenity_density": 0.0796,
    "tri_facility_density": 0.2786,
    "usgs_mean_q_cfs": 4.505,
    "velocity_feasibility": 0.7,
    "water_intake_score": 2.0624
   },
   "type": "Feature"
  },
  {
   "geometry": {
    "coordinates": [
     -81.187088,
     35.6423
    ],
    "type": "Point"
   },
   "properties": {
    "accumulation": 30948.0,
    "bank_slope_deg": 11.92,
    "bank_slope_score": 1.0,
    "bank_slope_source": "nc-dps-lidar-dem03-cross-section",
    "beach_dist_km": 348.23,
    "bridge_proximity_bonus": 0.0,
    "catchment_area_km2": 3.0876,
    "channel_width_m": 4.98,
    "channel_width_score": 1.0,
    "composite_score": 36.1032,
    "cso_density": 0.0,
    "ej_index": 0.6532,
    "elevation_m": 265.1293,
    "estuary_dist_km": 470.5,
    "feasibility_score": 66.4286,
    "flood_q10_cfs": 498.74,
    "flow_score": 20.779,
    "flow_velocity_ms": 0.0881,
    "generation_score": 25.0399,
    "impact_score": 44.7741,
    "impervious_pct": 7.82,
    "land_ownership": 0.5,
    "lat": 35.6423,
    "litter_complaint_density": 0.0,
    "lon": -81.1871,
    "navigable_dist_m": null,
    "npdes_points": 1,
    "pixel_col": 1069.0,
    "pixel_row": 881.0,
    "population_density": 182.8,
    "position_along": 0.5,
    "protected_area_score": 8.9209,
    "rank": 25,
    "road_access_m": 48.0,
    "road_access_score": 1.0,
    "road_density_km_km2": 3.962,
    "robustness_pct": 0.0,
    "runoff_coeff_C": 0.1204,
    "seasonal_cv": 0.4024,
    "segment_id": 27,
    "segment_length_m": 984.8271,
    "stream_order": 3,
    "superfund_score": 0.0096,
    "tourism_amenity_density": 0.0,
    "tri_facility_density": 0.0,
    "usgs_mean_q_cfs": 4.505,
    "velocity_feasibility": 0.7,
    "water_intake_score": 1.9506
   },
   "type": "Feature"
  },
  {
   "geometry": {
    "coordinates": [
     -81.20079,
     35.610667
    ],
    "type": "Point"
   },
   "properties": {
    "accumulation": 99355.0,
    "bank_slope_deg": 10.68,
    "bank_slope_score": 1.0,
    "bank_slope_source": "nc-dps-lidar-dem03-cross-section",
    "beach_dist_km": 347.8,
    "bridge_proximity_bonus": 0.0,
    "catchment_area_km2": 9.9123,
    "channel_width_m": 8.08,
    "channel_width_score": 1.0,
    "composite_score": 35.2687,
    "cso_density": 0.0,
    "ej_index": 0.646,
    "elevation_m": 254.4057,
    "estuary_dist_km": 471.35,
    "feasibility_score": 59.2857,
    "flood_q10_cfs": 1078.55,
    "flow_score": 28.7344,
    "flow_velocity_ms": 0.1478,
    "generation_score": 14.816,
    "impact_score": 49.1583,
    "impervious_pct": 4.19,
    "land_ownership": 0.5,
    "lat": 35.6107,
    "litter_complaint_density": 0.0,
    "lon": -81.2008,
    "navigable_dist_m": null,
    "npdes_points": 1,
    "pixel_col": 946.0,
    "pixel_row": 1233.0,
    "population_density": 124.8,
    "position_along": 0.5,
    "protected_area_score": 9.5061,
    "rank": 26,
    "road_access_m": 483.3,
    "road_access_score": 0.8,
    "road_density_km_km2": 1.436,
    "robustness_pct": 0.0,
    "runoff_coeff_C": 0.0877,
    "seasonal_cv": 0.4036,
    "segment_id": 40,
    "segment_length_m": 2777.8252,
    "stream_order": 3,
    "superfund_score": 0.0058,
    "tourism_amenity_density": 0.0,
    "tri_facility_density": 0.0,
    "usgs_mean_q_cfs": 7.372,
    "velocity_feasibility": 0.7,
    "water_intake_score": 2.0079
   },
   "type": "Feature"
  },
  {
   "geometry": {
    "coordinates": [
     -81.190062,
     35.644138
    ],
    "type": "Point"
   },
   "properties": {
    "accumulation": 23891.0,
    "bank_slope_deg": 12.61,
    "bank_slope_score": 1.0,
    "bank_slope_source": "nc-dps-lidar-dem03-cross-section",
    "beach_dist_km": 348.56,
    "bridge_proximity_bonus": 0.0,
    "catchment_area_km2": 2.3835,
    "channel_width_m": 4.47,
    "channel_width_score": 1.0,
    "composite_score": 34.9236,
    "cso_density": 0.0,
    "ej_index": 0.6347,
    "elevation_m": 270.1272,
    "estuary_dist_km": 470.79,
    "feasibility_score": 66.4286,
    "flood_q10_cfs": 410.36,
    "flow_score": 22.4728,
    "flow_velocity_ms": 0.1804,
    "generation_score": 19.736,
    "impact_score": 44.7342,
    "impervious_pct": 7.82,
    "land_ownership": 0.5,
    "lat": 35.6441,
    "litter_complaint_density": 0.0,
    "lon": -81.1901,
    "navigable_dist_m": null,
    "npdes_points": 0,
    "pixel_col": 1044.0,
    "pixel_row": 862.0,
    "population_density": 203.8,
    "position_along": 0.5,
    "protected_area_score": 8.9908,
    "rank": 27,
    "road_access_m": 65.7,
    "road_access_score": 1.0,
    "road_density_km_km2": 3.171,
    "robustness_pct": 0.0,
    "runoff_coeff_C": 0.1204,
    "seasonal_cv": 0.4024,
    "segment_id": 26,
    "segment_length_m": 707.8721,
    "stream_order": 3,
    "superfund_score": 0.0104,
    "tourism_amenity_density": 0.0,
    "tri_facility_density": 0.0,
    "usgs_mean_q_cfs": 4.505,
    "velocity_feasibility": 0.7,
    "water_intake_score": 1.9738
   },
   "type": "Feature"
  },
  {
   "geometry": {
    "coordinates": [
     -81.269608,
     35.688132
    ],
    "type": "Point"
   },
   "properties": {
    "accumulation": 21562.0,
    "bank_slope_deg": 22.68,
    "bank_slope_score": 0.5,
    "bank_slope_source": "nc-dps-lidar-dem03-cross-section",
    "beach_dist_km": 357.17,
    "bridge_proximity_bonus": 0.0,
    "catchment_area_km2": 2.1512,
    "channel_width_m": 4.29,
    "channel_width_score": 1.0,
    "composite_score": 34.7907,
    "cso_density": 0.0,
    "ej_index": 0.9141,
    "elevation_m": 263.7604,
    "estuary_dist_km": 478.51,
    "feasibility_score": 45.8929,
    "flood_q10_cfs": 475.29,
    "flow_score": 21.1781,
    "flow_velocity_ms": 0.1328,
    "generation_score": 21.3265,
    "impact_score": 54.0475,
    "impervious_pct": 20.63,
    "land_ownership": 0.5,
    "lat": 35.6881,
    "litter_complaint_density": 0.0,
    "lon": -81.2696,
    "navigable_dist_m": null,
    "npdes_points": 0,
    "pixel_col": 327.0,
    "pixel_row": 371.0,
    "population_density": 142.7,
    "position_along": 0.5,
    "protected_area_score": 10.0618,
    "rank": 28,
    "road_access_m": 511.2,
    "road_access_score": 0.6,
    "road_density_km_km2": 1.699,
    "robustness_pct": 0.0,
    "runoff_coeff_C": 0.2357,
    "seasonal_cv": 0.4104,
    "segment_id": 10,
    "segment_length_m": 234.5783,
    "stream_order": 3,
    "superfund_score": 0.0329,
    "tourism_amenity_density": 0.6366,
    "tri_facility_density": 0.0,
    "usgs_mean_q_cfs": 1.238,
    "velocity_feasibility": 0.7,
    "water_intake_score": 2.3302
   },
   "type": "Feature"
  },
  {
   "geometry": {
    "coordinates": [
     -81.289797,
     35.612732
    ],
    "type": "Point"
   },
   "properties": {
    "accumulation": 62152.0,
    "bank_slope_deg": 19.11,
    "bank_slope_score": 0.5,
    "bank_slope_source": "nc-dps-lidar-dem03-cross-section",
    "beach_dist_km": 355.17,
    "bridge_proximity_bonus": 0.0,
    "catchment_area_km2": 6.2007,
    "channel_width_m": 6.65,
    "channel_width_score": 1.0,
    "composite_score": 34.6793,
    "cso_density": 0.0,
    "ej_index": 0.2879,
    "elevation_m": 241.4372,
    "estuary_dist_km": 479.37,
    "feasibility_score": 68.75,
    "flood_q10_cfs": 735.61,
    "flow_score": 43.6197,
    "flow_velocity_ms": 0.5,
    "generation_score": 6.6347,
    "impact_score": 38.2384,
    "impervious_pct": null,
    "land_ownership": 0.5,
    "lat": 35.6127,
    "litter_complaint_density": 0.0,
    "lon": -81.2898,
    "navigable_dist_m": null,
    "npdes_points": 1,
    "pixel_col": 140.0,
    "pixel_row": 1209.0,
    "population_density": 48.6,
    "position_along": 0.25,
    "protected_area_score": 10.0885,
    "rank": 29,
    "road_access_m": 74.7,
    "road_access_score": 1.0,
    "road_density_km_km2": 0.837,
    "robustness_pct": 0.0,
    "runoff_coeff_C": null,
    "seasonal_cv": null,
    "segment_id": 37,
    "segment_length_m": 3232.1463,
    "stream_order": 3,
    "superfund_score": 0.0071,
    "tourism_amenity_density": 0.0,
    "tri_facility_density": 0.0,
    "usgs_mean_q_cfs": null,
    "velocity_feasibility": 1.0,
    "water_intake_score": 2.478
   },
   "type": "Feature"
  },
  {
   "geometry": {
    "coordinates": [
     -81.163141,
     35.674356
    ],
    "type": "Point"
   },
   "properties": {
    "accumulation": 153192.0,
    "bank_slope_deg": 3.1,
    "bank_slope_score": 1.0,
    "bank_slope_source": "nc-dps-lidar-dem03-cross-section",
    "beach_dist_km": 347.89,
    "bridge_proximity_bonus": 0.0,
    "catchment_area_km2": 15.2834,
    "channel_width_m": 9.67,
    "channel_width_score": 1.0,
    "composite_score": 34.5407,
    "cso_density": 0.0,
    "ej_index": 0.3912,
    "elevation_m": 264.5602,
    "estuary_dist_km": 468.78,
    "feasibility_score": 66.4286,
    "flood_q10_cfs": 1554.96,
    "flow_score": 35.057,
    "flow_velocity_ms": 0.1445,
    "generation_score": 21.1627,
    "impact_score": 31.5446,
    "impervious_pct": 13.31,
    "land_ownership": 0.5,
    "lat": 35.6744,
    "litter_complaint_density": 0.0,
    "lon": -81.1631,
    "navigable_dist_m": null,
    "npdes_points": 0,
    "pixel_col": 1291.0,
    "pixel_row": 523.0,
    "population_density": 180.2,
    "position_along": 0.5,
    "protected_area_score": 8.2844,
    "rank": 30,
    "road_access_m": 117.9,
    "road_access_score": 1.0,
    "road_density_km_km2": 1.805,
    "robustness_pct": 0.0,
    "runoff_coeff_C": 0.1698,
    "seasonal_cv": 0.4083,
    "segment_id": 17,
    "segment_length_m": 820.5828,
    "stream_order": 3,
    "superfund_score": 0.0109,
    "tourism_amenity_density": 0.0,
    "tri_facility_density": 0.0654,
    "usgs_mean_q_cfs": 9.199,
    "velocity_feasibility": 0.7,
    "water_intake_score": 1.7413
   },
   "type": "Feature"
  },
  {
   "geometry": {
    "coordinates": [
     -81.171685,
     35.676259
    ],
    "type": "Point"
   },
   "properties": {
    "accumulation": 119305.0,
    "bank_slope_deg": 19.11,
    "bank_slope_score": 0.5,
    "bank_slope_source": "nc-dps-lidar-dem03-cross-section",
    "beach_dist_km": 348.67,
    "bridge_proximity_bonus": 0.0,
    "catchment_area_km2": 11.9026,
    "channel_width_m": 8.72,
    "channel_width_score": 1.0,
    "composite_score": 34.0,
    "cso_density": 0.0,
    "ej_index": 0.3415,
    "elevation_m": 268.2437,
    "estuary_dist_km": 469.57,
    "feasibility_score": 60.1786,
    "flood_q10_cfs": 1431.0,
    "flow_score": 31.1157,
    "flow_velocity_ms": 0.0924,
    "generation_score": 26.2488,
    "impact_score": 31.0655,
    "impervious_pct": 17.32,
    "land_ownership": 0.5,
    "lat": 35.6763,
    "litter_complaint_density": 0.0,
    "lon": -81.1717,
    "navigable_dist_m": null,
    "npdes_points": 0,
    "pixel_col": 1214.0,
    "pixel_row": 506.0,
    "population_density": 186.6,
    "position_along": 0.8333,
    "protected_area_score": 8.476,
    "rank": 31,
    "road_access_m": 166.0,
    "road_access_score": 1.0,
    "road_density_km_km2": 2.748,
    "robustness_pct": 0.0,
    "runoff_coeff_C": 0.2059,
    "seasonal_cv": 0.4047,
    "segment_id": 9,
    "segment_length_m": 5323.3235,
    "stream_order": 3,
    "superfund_score": 0.0139,
    "tourism_amenity_density": 0.0,
    "tri_facility_density": 0.084,
    "usgs_mean_q_cfs": 6.596,
    "velocity_feasibility": 0.7,
    "water_intake_score": 1.7773
   },
   "type": "Feature"
  },
  {
   "geometry": {
    "coordinates": [
     -81.276611,
     35.608587
    ],
    "type": "Point"
   },
   "properties": {
    "accumulation": 46994.0,
    "bank_slope_deg": 0.58,
    "bank_slope_score": 1.0,
    "bank_slope_source": "nc-dps-lidar-dem03-cross-section",
    "beach_dist_km": 353.9,
    "bridge_proximity_bonus": 0.0,
    "catchment_area_km2": 4.6884,
    "channel_width_m": 5.92,
    "channel_width_score": 1.0,
    "composite_score": 33.5414,
    "cso_density": 0.0,
    "ej_index": 0.2879,
    "elevation_m": 242.942,
    "estuary_dist_km": 478.14,
    "feasibility_score": 60.7143,
    "flood_q10_cfs": 595.87,
    "flow_score": 42.3401,
    "flow_velocity_ms": 0.5,
    "generation_score": 5.8122,
    "impact_score": 40.3518,
    "impervious_pct": null,
    "land_ownership": 0.5,
    "lat": 35.6086,
    "litter_complaint_density": 0.0,
    "lon": -81.2766,
    "navigable_dist_m": null,
    "npdes_points": 1,
    "pixel_col": 257.0,
    "pixel_row": 1251.0,
    "population_density": 48.6,
    "position_along": 0.5,
    "protected_area_score": 10.2218,
    "rank": 32,
    "road_access_m": 916.8,
    "road_access_score": 0.6,
    "road_density_km_km2": 0.38,
    "robustness_pct": 0.0,
    "runoff_coeff_C": null,
    "seasonal_cv": null,
    "segment_id": 42,
    "segment_length_m": 1164.7385,
    "stream_order": 3,
    "superfund_score": 0.0066,
    "tourism_amenity_density": 0.0,
    "tri_facility_density": 0.0,
    "usgs_mean_q_cfs": null,
    "velocity_feasibility": 1.0,
    "water_intake_score": 2.4101
   },
   "type": "Feature"
  },
  {
   "geometry": {
    "coordinates": [
     -81.221995,
     35.621429
    ],
    "type": "Point"
   },
   "properties": {
    "accumulation": 45758.0,
    "bank_slope_deg": 15.17,
    "bank_slope_score": 0.5,
    "bank_slope_source": "nc-dps-lidar-dem03-cross-section",
    "beach_dist_km": 350.05,
    "bridge_proximity_bonus": 0.0,
    "catchment_area_km2": 4.5651,
    "channel_width_m": 5.86,
    "channel_width_score": 1.0,
    "composite_score": 33.3679,
    "cso_density": 0.0,
    "ej_index": 0.4287,
    "elevation_m": 252.1682,
    "estuary_dist_km": 473.38,
    "feasibility_score": 60.1786,
    "flood_q10_cfs": 661.74,
    "flow_score": 22.3521,
    "flow_velocity_ms": 0.1243,
    "generation_score": 15.4901,
    "impact_score": 47.0202,
    "impervious_pct": 7.14,
    "land_ownership": 0.5,
    "lat": 35.6214,
    "litter_complaint_density": 0.0,
    "lon": -81.222,
    "navigable_dist_m": null,
    "npdes_points": 0,
    "pixel_col": 754.0,
    "pixel_row": 1114.0,
    "population_density": 136.6,
    "position_along": 0.5,
    "protected_area_score": 9.8489,
    "rank": 33,
    "road_access_m": 153.5,
    "road_access_score": 1.0,
    "road_density_km_km2": 3.263,
    "robustness_pct": 0.0,
    "runoff_coeff_C": 0.1143,
    "seasonal_cv": 0.4017,
    "segment_id": 33,
    "segment_length_m": 4602.5019,
    "stream_order": 3,
    "superfund_score": 0.0078,
    "tourism_amenity_density": 0.3183,
    "tri_facility_density": 0.0,
    "usgs_mean_q_cfs": 3.304,
    "velocity_feasibility": 0.7,
    "water_intake_score": 2.1973
   },
   "type": "Feature"
  },
  {
   "geometry": {
    "coordinates": [
     -81.292317,
     35.668793
    ],
    "type": "Point"
   },
   "properties": {
    "accumulation": 22139.0,
    "bank_slope_deg": 20.34,
    "bank_slope_score": 0.5,
    "bank_slope_source": "nc-dps-lidar-dem03-cross-section",
    "beach_dist_km": 358.06,
    "bridge_proximity_bonus": 0.0,
    "catchment_area_km2": 2.2087,
    "channel_width_m": 4.33,
    "channel_width_score": 1.0,
    "composite_score": 33.1838,
    "cso_density": 0.0,
    "ej_index": 0.6851,
    "elevation_m": 255.3378,
    "estuary_dist_km": 480.29,
    "feasibility_score": 53.0357,
    "flood_q10_cfs": 362.48,
    "flow_score": 18.0931,
    "flow_velocity_ms": 0.1041,
    "generation_score": 18.3868,
    "impact_score": 50.6305,
    "impervious_pct": 4.01,
    "land_ownership": 0.5,
    "lat": 35.6688,
    "litter_complaint_density": 0.0,
    "lon": -81.2923,
    "navigable_dist_m": null,
    "npdes_points": 0,
    "pixel_col": 116.0,
    "pixel_row": 583.0,
    "population_density": 237.6,
    "position_along": 0.5,
    "protected_area_score": 9.9224,
    "rank": 34,
    "road_access_m": 316.5,
    "road_access_score": 0.8,
    "road_density_km_km2": 2.606,
    "robustness_pct": 0.0,
    "runoff_coeff_C": 0.0861,
    "seasonal_cv": 0.401,
    "segment_id": 18,
    "segment_length_m": 592.1496,
    "stream_order": 3,
    "superfund_score": 0.0234,
    "tourism_amenity_density": 1.4324,
    "tri_facility_density": 0.0,
    "usgs_mean_q_cfs": 1.336,
    "velocity_feasibility": 0.7,
    "water_intake_score": 2.534
   },
   "type": "Feature"
  },
  {
   "geometry": {
    "coordinates": [
     -81.299476,
     35.666389
    ],
    "type": "Point"
   },
   "properties": {
    "accumulation": 73837.0,
    "bank_slope_deg": 15.83,
    "bank_slope_score": 0.5,
    "bank_slope_source": "nc-dps-lidar-dem03-cross-section",
    "beach_dist_km": 358.53,
    "bridge_proximity_bonus": 0.0,
    "catchment_area_km2": 7.3664,
    "channel_width_m": 7.15,
    "channel_width_score": 1.0,
    "composite_score": 32.8405,
    "cso_density": 0.0,
    "ej_index": 0.4793,
    "elevation_m": 251.5539,
    "estuary_dist_km": 480.9,
    "feasibility_score": 45.8929,
    "flood_q10_cfs": 1081.22,
    "flow_score": 28.7057,
    "flow_velocity_ms": 0.1339,
    "generation_score": 19.4911,
    "impact_score": 43.1094,
    "impervious_pct": 14.59,
    "land_ownership": 0.5,
    "lat": 35.6664,
    "litter_complaint_density": 0.0,
    "lon": -81.2995,
    "navigable_dist_m": null,
    "npdes_points": 0,
    "pixel_col": 52.0,
    "pixel_row": 612.0,
    "population_density": 164.3,
    "position_along": 0.5,
    "protected_area_score": 9.8358,
    "rank": 35,
    "road_access_m": 644.1,
    "road_access_score": 0.6,
    "road_density_km_km2": 2.028,
    "robustness_pct": 0.0,
    "runoff_coeff_C": 0.1813,
    "seasonal_cv": 0.3861,
    "segment_id": 19,
    "segment_length_m": 1139.2049,
    "stream_order": 3,
    "superfund_score": 0.023,
    "tourism_amenity_density": 1.1937,
    "tri_facility_density": 0.0,
    "usgs_mean_q_cfs": 6.566,
    "velocity_feasibility": 0.7,
    "water_intake_score": 2.5459
   },
   "type": "Feature"
  },
  {
   "geometry": {
    "coordinates": [
     -81.224714,
     35.609278
    ],
    "type": "Point"
   },
   "properties": {
    "accumulation": 63902.0,
    "bank_slope_deg": 3.11,
    "bank_slope_score": 1.0,
    "bank_slope_source": "nc-dps-lidar-dem03-cross-section",
    "beach_dist_km": 349.69,
    "bridge_proximity_bonus": 0.0,
    "catchment_area_km2": 6.3753,
    "channel_width_m": 6.73,
    "channel_width_score": 1.0,
    "composite_score": 32.7605,
    "cso_density": 0.0,
    "ej_index": 0.3084,
    "elevation_m": 246.5507,
    "estuary_dist_km": 473.48,
    "feasibility_score": 59.2857,
    "flood_q10_cfs": 848.01,
    "flow_score": 23.5079,
    "flow_velocity_ms": 0.1038,
    "generation_score": 18.0591,
    "impact_score": 41.9096,
    "impervious_pct": 6.93,
    "land_ownership": 0.5,
    "lat": 35.6093,
    "litter_complaint_density": 0.0,
    "lon": -81.2247,
    "navigable_dist_m": null,
    "npdes_points": 1,
    "pixel_col": 729.0,
    "pixel_row": 1248.0,
    "population_density": 133.9,
    "position_along": 0.8333,
    "protected_area_score": 9.7693,
    "rank": 36,
    "road_access_m": 245.1,
    "road_access_score": 0.8,
    "road_density_km_km2": 2.002,
    "robustness_pct": 0.0,
    "runoff_coeff_C": 0.1124,
    "seasonal_cv": 0.4016,
    "segment_id": 33,
    "segment_length_m": 4602.5019,
    "stream_order": 3,
    "superfund_score": 0.0062,
    "tourism_amenity_density": 0.0796,
    "tri_facility_density": 0.0,
    "usgs_mean_q_cfs": 3.418,
    "velocity_feasibility": 0.7,
    "water_intake_score": 2.1598
   },
   "type": "Feature"
  },
  {
   "geometry": {
    "coordinates": [
     -81.27753,
     35.607986
    ],
    "type": "Point"
   },
   "properties": {
    "accumulation": 82248.0,
    "bank_slope_deg": 34.39,
    "bank_slope_score": 0.2,
    "bank_slope_source": "nc-dps-lidar-dem03-cross-section",
    "beach_dist_km": 353.94,
    "bridge_proximity_bonus": 0.0,
    "catchment_area_km2": 8.2056,
    "channel_width_m": 7.47,
    "channel_width_score": 1.0,
    "composite_score": 32.75,
    "cso_density": 0.0,
    "ej_index": 0.2879,
    "elevation_m": 239.7276,
    "estuary_dist_km": 478.21,
    "feasibility_score": 50.7143,
    "flood_q10_cfs": 916.74,
    "flow_score": 45.2958,
    "flow_velocity_ms": 0.5,
    "generation_score": 5.922,
    "impact_score": 40.1412,
    "impervious_pct": null,
    "land_ownership": 0.5,
    "lat": 35.608,
    "litter_complaint_density": 0.0,
    "lon": -81.2775,
    "navigable_dist_m": null,
    "npdes_points": 1,
    "pixel_col": 253.0,
    "pixel_row": 1262.0,
    "population_density": 48.6,
    "position_along": 0.75,
    "protected_area_score": 10.2161,
    "rank": 37,
    "road_access_m": 964.6,
    "road_access_score": 0.6,
    "road_density_km_km2": 0.441,
    "robustness_pct": 0.0,
    "runoff_coeff_C": null,
    "seasonal_cv": null,
    "segment_id": 37,
    "segment_length_m": 3232.1463,
    "stream_order": 3,
    "superfund_score": 0.0066,
    "tourism_amenity_density": 0.0,
    "tri_facility_density": 0.0,
    "usgs_mean_q_cfs": null,
    "velocity_feasibility": 1.0,
    "water_intake_score": 2.4078
   },
   "type": "Feature"
  },
  {
   "geometry": {
    "coordinates": [
     -81.256769,
     35.63095
    ],
    "type": "Point"
   },
   "properties": {
    "accumulation": 29923.0,
    "bank_slope_deg": 13.92,
    "bank_slope_score": 1.0,
    "bank_slope_source": "nc-dps-lidar-dem03-cross-section",
    "beach_dist_km": 353.34,
    "bridge_proximity_bonus": 0.0,
    "catchment_area_km2": 2.9853,
    "channel_width_m": 4.91,
    "channel_width_score": 1.0,
    "composite_score": 32.6486,
    "cso_density": 0.0,
    "ej_index": 0.4181,
    "elevation_m": 260.3691,
    "estuary_dist_km": 476.62,
    "feasibility_score": 59.2857,
    "flood_q10_cfs": 470.01,
    "flow_score": 7.117,
    "flow_velocity_ms": 0.1019,
    "generation_score": 25.3279,
    "impact_score": 47.9271,
    "impervious_pct": 5.88,
    "land_ownership": 0.5,
    "lat": 35.6309,
    "litter_complaint_density": 0.0,
    "lon": -81.2568,
    "navigable_dist_m": null,
    "npdes_points": 0,
    "pixel_col": 440.0,
    "pixel_row": 1007.0,
    "population_density": 163.2,
    "position_along": 0.1667,
    "protected_area_score": 10.1408,
    "rank": 38,
    "road_access_m": 309.2,
    "road_access_score": 0.8,
    "road_density_km_km2": 2.832,
    "robustness_pct": 0.0,
    "runoff_coeff_C": 0.1029,
    "seasonal_cv": 0.3945,
    "segment_id": 31,
    "segment_length_m": 4816.8095,
    "stream_order": 1,
    "superfund_score": 0.0101,
    "tourism_amenity_density": 0.0796,
    "tri_facility_density": 0.335,
    "usgs_mean_q_cfs": 5.029,
    "velocity_feasibility": 0.7,
    "water_intake_score": 2.5038
   },
   "type": "Feature"
  },
  {
   "geometry": {
    "coordinates": [
     -81.206358,
     35.717332
    ],
    "type": "Point"
   },
   "properties": {
    "accumulation": 21475.0,
    "bank_slope_deg": 16.37,
    "bank_slope_score": 0.5,
    "bank_slope_source": "nc-dps-lidar-dem03-cross-section",
    "beach_dist_km": 353.54,
    "bridge_proximity_bonus": 0.0,
    "catchment_area_km2": 2.1425,
    "channel_width_m": 4.28,
    "channel_width_score": 1.0,
    "composite_score": 32.3098,
    "cso_density": 0.0,
    "ej_index": 0.3579,
    "elevation_m": 281.965,
    "estuary_dist_km": 473.25,
    "feasibility_score": 60.1786,
    "flood_q10_cfs": 474.34,
    "flow_score": 7.076,
    "flow_velocity_ms": 0.1142,
    "generation_score": 37.2981,
    "impact_score": 34.4154,
    "impervious_pct": 20.69,
    "land_ownership": 0.5,
    "lat": 35.7173,
    "litter_complaint_density": 0.0,
    "lon": -81.2064,
    "navigable_dist_m": null,
    "npdes_points": 0,
    "pixel_col": 900.0,
    "pixel_row": 45.0,
    "population_density": 262.0,
    "position_along": 0.5,
    "protected_area_score": 9.2595,
    "rank": 39,
    "road_access_m": 82.6,
    "road_access_score": 1.0,
    "road_density_km_km2": 6.613,
    "robustness_pct": 0.0,
    "runoff_coeff_C": 0.2362,
    "seasonal_cv": 0.4089,
    "segment_id": 0,
    "segment_length_m": 126.4206,
    "stream_order": 1,
    "superfund_score": 0.0304,
    "tourism_amenity_density": 1.2732,
    "tri_facility_density": 0.0,
    "usgs_mean_q_cfs": 1.901,
    "velocity_feasibility": 0.7,
    "water_intake_score": 1.7979
   },
   "type": "Feature"
  },
  {
   "geometry": {
    "coordinates": [
     -81.185164,
     35.613844
    ],
    "type": "Point"
   },
   "properties": {
    "accumulation": 23366.0,
    "bank_slope_deg": 18.76,
    "bank_slope_score": 0.5,
    "bank_slope_source": "nc-dps-lidar-dem03-cross-section",
    "beach_dist_km": 346.68,
    "bridge_proximity_bonus": 0.0,
    "catchment_area_km2": 2.3311,
    "channel_width_m": 4.43,
    "channel_width_score": 1.0,
    "composite_score": 31.618,
    "cso_density": 0.0,
    "ej_index": 0.7659,
    "elevation_m": 261.2548,
    "estuary_dist_km": 469.98,
    "feasibility_score": 60.1786,
    "flood_q10_cfs": 365.05,
    "flow_score": 18.1263,
    "flow_velocity_ms": 0.1266,
    "generation_score": 9.2336,
    "impact_score": 50.9653,
    "impervious_pct": 2.09,
    "land_ownership": 0.5,
    "lat": 35.6138,
    "litter_complaint_density": 0.0,
    "lon": -81.1852,
    "navigable_dist_m": null,
    "npdes_points": 0,
    "pixel_col": 1086.0,
    "pixel_row": 1197.0,
    "population_density": 132.6,
    "position_along": 0.5,
    "protected_area_score": 9.2456,
    "rank": 40,
    "road_access_m": 153.2,
    "road_access_score": 1.0,
    "road_density_km_km2": 1.643,
    "robustness_pct": 0.0,
    "runoff_coeff_C": 0.0688,
    "seasonal_cv": 0.4227,
    "segment_id": 39,
    "segment_length_m": 666.9149,
    "stream_order": 3,
    "superfund_score": 0.0055,
    "tourism_amenity_density": 0.0,
    "tri_facility_density": 0.0,
    "usgs_mean_q_cfs": 1.676,
    "velocity_feasibility": 0.7,
    "water_intake_score": 1.9175
   },
   "type": "Feature"
  },
  {
   "geometry": {
    "coordinates": [
     -81.18227,
     35.62233
    ],
    "type": "Point"
   },
   "properties": {
    "accumulation": 34849.0,
    "bank_slope_deg": 18.43,
    "bank_slope_score": 0.5,
    "bank_slope_source": "nc-dps-lidar-dem03-cross-section",
    "beach_dist_km": 346.86,
    "bridge_proximity_bonus": 0.0,
    "catchment_area_km2": 3.4768,
    "channel_width_m": 5.23,
    "channel_width_score": 1.0,
    "composite_score": 31.4614,
    "cso_density": 0.0,
    "ej_index": 0.7897,
    "elevation_m": 264.2654,
    "estuary_dist_km": 469.82,
    "feasibility_score": 53.0357,
    "flood_q10_cfs": 506.23,
    "flow_score": 20.8346,
    "flow_velocity_ms": 0.1381,
    "generation_score": 11.4537,
    "impact_score": 49.5377,
    "impervious_pct": 3.56,
    "land_ownership": 0.5,
    "lat": 35.6223,
    "litter_complaint_density": 0.0,
    "lon": -81.1823,
    "navigable_dist_m": null,
    "npdes_points": 0,
    "pixel_col": 1115.0,
    "pixel_row": 1104.0,
    "population_density": 134.8,
    "position_along": 0.5,
    "protected_area_score": 8.9785,
    "rank": 41,
    "road_access_m": 320.9,
    "road_access_score": 0.8,
    "road_density_km_km2": 2.302,
    "robustness_pct": 0.0,
    "runoff_coeff_C": 0.082,
    "seasonal_cv": 0.4086,
    "segment_id": 35,
    "segment_length_m": 2203.3504,
    "stream_order": 3,
    "superfund_score": 0.0062,
    "tourism_amenity_density": 0.0,
    "tri_facility_density": 0.0,
    "usgs_mean_q_cfs": 3.173,
    "velocity_feasibility": 0.7,
    "water_intake_score": 1.91
   },
   "type": "Feature"
  },
  {
   "geometry": {
    "coordinates": [
     -81.163069,
     35.701323
    ],
    "type": "Point"
   },
   "properties": {
    "accumulation": 31505.0,
    "bank_slope_deg": 6.88,
    "bank_slope_score": 1.0,
    "bank_slope_source": "nc-dps-lidar-dem03-cross-section",
    "beach_dist_km": 349.25,
    "bridge_proximity_bonus": 0.0,
    "catchment_area_km2": 3.1431,
    "channel_width_m": 5.02,
    "channel_width_score": 1.0,
    "composite_score": 30.4941,
    "cso_density": 0.0,
    "ej_index": 0.5562,
    "elevation_m": 272.473,
    "estuary_dist_km": 469.15,
    "feasibility_score": 59.2857,
    "flood_q10_cfs": 632.17,
    "flow_score": 9.6158,
    "flow_velocity_ms": 0.149,
    "generation_score": 28.841,
    "impact_score": 35.15,
    "impervious_pct": 20.6,
    "land_ownership": 0.5,
    "lat": 35.7013,
    "litter_complaint_density": 0.0,
    "lon": -81.1631,
    "navigable_dist_m": null,
    "npdes_points": 0,
    "pixel_col": 1292.0,
    "pixel_row": 226.0,
    "population_density": 132.7,
    "position_along": 0.5,
    "protected_area_score": 8.6156,
    "rank": 42,
    "road_access_m": 302.2,
    "road_access_score": 0.8,
    "road_density_km_km2": 1.039,
    "robustness_pct": 0.0,
    "runoff_coeff_C": 0.2354,
    "seasonal_cv": 0.4082,
    "segment_id": 6,
    "segment_length_m": 1181.2876,
    "stream_order": 1,
    "superfund_score": 0.0119,
    "tourism_amenity_density": 0.0,
    "tri_facility_density": 0.3182,
    "usgs_mean_q_cfs": 2.832,
    "velocity_feasibility": 0.7,
    "water_intake_score": 1.6832
   },
   "type": "Feature"
  },
  {
   "geometry": {
    "coordinates": [
     -81.208759,
     35.625883
    ],
    "type": "Point"
   },
   "properties": {
    "accumulation": 25408.0,
    "bank_slope_deg": 10.22,
    "bank_slope_score": 1.0,
    "bank_slope_source": "nc-dps-lidar-dem03-cross-section",
    "beach_dist_km": 349.18,
    "bridge_proximity_bonus": 0.0,
    "catchment_area_km2": 2.5349,
    "channel_width_m": 4.59,
    "channel_width_score": 1.0,
    "composite_score": 30.487,
    "cso_density": 0.0,
    "ej_index": 0.6465,
    "elevation_m": 259.7228,
    "estuary_dist_km": 472.24,
    "feasibility_score": 52.1429,
    "flood_q10_cfs": 424.76,
    "flow_score": 19.499,
    "flow_velocity_ms": 0.0869,
    "generation_score": 11.1756,
    "impact_score": 48.1271,
    "impervious_pct": 7.14,
    "land_ownership": 0.5,
    "lat": 35.6259,
    "litter_complaint_density": 0.0,
    "lon": -81.2088,
    "navigable_dist_m": null,
    "npdes_points": 0,
    "pixel_col": 874.0,
    "pixel_row": 1064.0,
    "population_density": 122.0,
    "position_along": 0.1667,
    "protected_area_score": 9.2871,
    "rank": 43,
    "road_access_m": 509.6,
    "road_access_score": 0.6,
    "road_density_km_km2": 1.348,
    "robustness_pct": 0.0,
    "runoff_coeff_C": 0.1143,
    "seasonal_cv": 0.4017,
    "segment_id": 33,
    "segment_length_m": 4602.5019,
    "stream_order": 3,
    "superfund_score": 0.0081,
    "tourism_amenity_density": 0.1592,
    "tri_facility_density": 0.0,
    "usgs_mean_q_cfs": 3.304,
    "velocity_feasibility": 0.7,
    "water_intake_score": 2.1083
   },
   "type": "Feature"
  },
  {
   "geometry": {
    "coordinates": [
     -81.252539,
     35.618624
    ],
    "type": "Point"
   },
   "properties": {
    "accumulation": 52193.0,
    "bank_slope_deg": 2.01,
    "bank_slope_score": 1.0,
    "bank_slope_source": "nc-dps-lidar-dem03-cross-section",
    "beach_dist_km": 352.4,
    "bridge_proximity_bonus": 0.0,
    "catchment_area_km2": 5.2071,
    "channel_width_m": 6.19,
    "channel_width_score": 1.0,
    "composite_score": 30.4504,
    "cso_density": 0.0,
    "ej_index": 0.3926,
    "elevation_m": 253.6548,
    "estuary_dist_km": 476.09,
    "feasibility_score": 66.4286,
    "flood_q10_cfs": 714.79,
    "flow_score": 9.0625,
    "flow_velocity_ms": 0.0964,
    "generation_score": 12.3605,
    "impact_score": 48.3743,
    "impervious_pct": 5.88,
    "land_ownership": 0.5,
    "lat": 35.6186,
    "litter_complaint_density": 0.0,
    "lon": -81.2525,
    "navigable_dist_m": null,
    "npdes_points": 0,
    "pixel_col": 478.0,
    "pixel_row": 1144.0,
    "population_density": 140.7,
    "position_along": 0.5,
    "protected_area_score": 10.4615,
    "rank": 44,
    "road_access_m": 195.7,
    "road_access_score": 1.0,
    "road_density_km_km2": 1.819,
    "robustness_pct": 0.0,
    "runoff_coeff_C": 0.1029,
    "seasonal_cv": 0.3945,
    "segment_id": 31,
    "segment_length_m": 4816.8095,
    "stream_order": 1,
    "superfund_score": 0.0079,
    "tourism_amenity_density": 0.0796,
    "tri_facility_density": 0.0,
    "usgs_mean_q_cfs": 5.029,
    "velocity_feasibility": 0.7,
    "water_intake_score": 2.3848
   },
   "type": "Feature"
  },
  {
   "geometry": {
    "coordinates": [
     -81.289887,
     35.617929
    ],
    "type": "Point"
   },
   "properties": {
    "accumulation": 21095.0,
    "bank_slope_deg": 28.47,
    "bank_slope_score": 0.5,
    "bank_slope_source": "nc-dps-lidar-dem03-cross-section",
    "beach_dist_km": 355.42,
    "bridge_proximity_bonus": 0.0,
    "catchment_area_km2": 2.1046,
    "channel_width_m": 4.25,
    "channel_width_score": 1.0,
    "composite_score": 30.3653,
    "cso_density": 0.0,
    "ej_index": 0.2879,
    "elevation_m": 241.5402,
    "estuary_dist_km": 479.44,
    "feasibility_score": 54.4643,
    "flood_q10_cfs": 325.84,
    "flow_score": 40.0,
    "flow_velocity_ms": 0.5,
    "generation_score": 1.9349,
    "impact_score": 38.7174,
    "impervious_pct": null,
    "land_ownership": 0.5,
    "lat": 35.6179,
    "litter_complaint_density": 0.0,
    "lon": -81.2899,
    "navigable_dist_m": null,
    "npdes_points": 0,
    "pixel_col": 140.0,
    "pixel_row": 1151.0,
    "population_density": 48.6,
    "position_along": 0.5,
    "protected_area_score": 10.0415,
    "rank": 45,
    "road_access_m": 502.7,
    "road_access_score": 0.6,
    "road_density_km_km2": 1.075,
    "robustness_pct": 0.0,
    "runoff_coeff_C": null,
    "seasonal_cv": null,
    "segment_id": 36,
    "segment_length_m": 448.8859,
    "stream_order": 3,
    "superfund_score": 0.0078,
    "tourism_amenity_density": 0.0,
    "tri_facility_density": 0.0,
    "usgs_mean_q_cfs": null,
    "velocity_feasibility": 1.0,
    "water_intake_score": 2.5281
   },
   "type": "Feature"
  },
  {
   "geometry": {
    "coordinates": [
     -81.289361,
     35.673433
    ],
    "type": "Point"
   },
   "properties": {
    "accumulation": 24375.0,
    "bank_slope_deg": 12.89,
    "bank_slope_score": 1.0,
    "bank_slope_source": "nc-dps-lidar-dem03-cross-section",
    "beach_dist_km": 358.05,
    "bridge_proximity_bonus": 0.0,
    "catchment_area_km2": 2.4318,
    "channel_width_m": 4.51,
    "channel_width_score": 1.0,
    "composite_score": 29.5399,
    "cso_density": 0.0,
    "ej_index": 0.7612,
    "elevation_m": 257.1163,
    "estuary_dist_km": 480.08,
    "feasibility_score": 59.2857,
    "flood_q10_cfs": 389.2,
    "flow_score": 4.5729,
    "flow_velocity_ms": 0.1063,
    "generation_score": 16.5321,
    "impact_score": 48.4806,
    "impervious_pct": 3.93,
    "land_ownership": 0.5,
    "lat": 35.6734,
    "litter_complaint_density": 0.0,
    "lon": -81.2894,
    "navigable_dist_m": null,
    "npdes_points": 0,
    "pixel_col": 144.0,
    "pixel_row": 535.0,
    "population_density": 230.6,
    "position_along": 0.5,
    "protected_area_score": 9.8932,
    "rank": 46,
    "road_access_m": 263.6,
    "road_access_score": 0.8,
    "road_density_km_km2": 1.834,
    "robustness_pct": 0.0,
    "runoff_coeff_C": 0.0854,
    "seasonal_cv": 0.3949,
    "segment_id": 15,
    "segment_length_m": 900.9051,
    "stream_order": 1,
    "superfund_score": 0.0257,
    "tourism_amenity_density": 0.3979,
    "tri_facility_density": 0.0,
    "usgs_mean_q_cfs": 1.487,
    "velocity_feasibility": 0.7,
    "water_intake_score": 2.4975
   },
   "type": "Feature"
  },
  {
   "geometry": {
    "coordinates": [
     -81.245438,
     35.608055
    ],
    "type": "Point"
   },
   "properties": {
    "accumulation": 71999.0,
    "bank_slope_deg": 1.05,
    "bank_slope_score": 1.0,
    "bank_slope_source": "nc-dps-lidar-dem03-cross-section",
    "beach_dist_km": 351.32,
    "bridge_proximity_bonus": 0.0,
    "catchment_area_km2": 7.1831,
    "channel_width_m": 7.07,
    "channel_width_score": 1.0,
    "composite_score": 28.8584,
    "cso_density": 0.0,
    "ej_index": 0.358,
    "elevation_m": 248.339,
    "estuary_dist_km": 475.33,
    "feasibility_score": 59.2857,
    "flood_q10_cfs": 910.89,
    "flow_score": 11.2228,
    "flow_velocity_ms": 0.1141,
    "generation_score": 10.909,
    "impact_score": 46.2906,
    "impervious_pct": 5.88,
    "land_ownership": 0.5,
    "lat": 35.6081,
    "litter_complaint_density": 0.0,
    "lon": -81.2454,
    "navigable_dist_m": null,
    "npdes_points": 0,
    "pixel_col": 544.0,
    "pixel_row": 1261.0,
    "population_density": 144.2,
    "position_along": 0.8333,
    "protected_area_score": 10.3827,
    "rank": 47,
    "road_access_m": 429.9,
    "road_access_score": 0.8,
    "road_density_km_km2": 0.897,
    "robustness_pct": 0.0,
    "runoff_coeff_C": 0.1029,
    "seasonal_cv": 0.3945,
    "segment_id": 31,
    "segment_length_m": 4816.8095,
    "stream_order": 1,
    "superfund_score": 0.0064,
    "tourism_amenity_density": 0.0796,
    "tri_facility_density": 0.0,
    "usgs_mean_q_cfs": 5.029,
    "velocity_feasibility": 0.7,
    "water_intake_score": 2.2715
   },
   "type": "Feature"
  },
  {
   "geometry": {
    "coordinates": [
     -81.166445,
     35.671019
    ],
    "type": "Point"
   },
   "properties": {
    "accumulation": 27036.0,
    "bank_slope_deg": 2.66,
    "bank_slope_score": 1.0,
    "bank_slope_source": "nc-dps-lidar-dem03-cross-section",
    "beach_dist_km": 347.98,
    "bridge_proximity_bonus": 0.0,
    "catchment_area_km2": 2.6973,
    "channel_width_m": 4.71,
    "channel_width_score": 1.0,
    "composite_score": 27.0521,
    "cso_density": 0.0,
    "ej_index": 0.2586,
    "elevation_m": 267.1441,
    "estuary_dist_km": 469.03,
    "feasibility_score": 59.2857,
    "flood_q10_cfs": 421.39,
    "flow_score": 18.5704,
    "flow_velocity_ms": 0.1256,
    "generation_score": 15.552,
    "impact_score": 29.5036,
    "impervious_pct": 4.01,
    "land_ownership": 0.5,
    "lat": 35.671,
    "litter_complaint_density": 0.0,
    "lon": -81.1664,
    "navigable_dist_m": null,
    "npdes_points": 0,
    "pixel_col": 1260.0,
    "pixel_row": 560.0,
    "population_density": 200.5,
    "position_along": 0.5,
    "protected_area_score": 8.4144,
    "rank": 48,
    "road_access_m": 218.8,
    "road_access_score": 0.8,
    "road_density_km_km2": 2.256,
    "robustness_pct": 0.0,
    "runoff_coeff_C": 0.0861,
    "seasonal_cv": 0.4276,
    "segment_id": 16,
    "segment_length_m": 265.253,
    "stream_order": 3,
    "superfund_score": 0.0114,
    "tourism_amenity_density": 0.0,
    "tri_facility_density": 0.0,
    "usgs_mean_q_cfs": 1.516,
    "velocity_feasibility": 0.7,
    "water_intake_score": 1.772
   },
   "type": "Feature"
  },
  {
   "geometry": {
    "coordinates": [
     -81.288509,
     35.624712
    ],
    "type": "Point"
   },
   "properties": {
    "accumulation": 27779.0,
    "bank_slope_deg": 1.07,
    "bank_slope_score": 1.0,
    "bank_slope_source": "nc-dps-lidar-dem03-cross-section",
    "beach_dist_km": 355.63,
    "bridge_proximity_bonus": 0.0,
    "catchment_area_km2": 2.7714,
    "channel_width_m": 4.76,
    "channel_width_score": 1.0,
    "composite_score": 26.0069,
    "cso_density": 0.0,
    "ej_index": 0.2879,
    "elevation_m": 251.451,
    "estuary_dist_km": 479.4,
    "feasibility_score": 52.1429,
    "flood_q10_cfs": 435.47,
    "flow_score": 21.1677,
    "flow_velocity_ms": 0.1863,
    "generation_score": 4.4103,
    "impact_score": 38.568,
    "impervious_pct": 4.72,
    "land_ownership": 0.5,
    "lat": 35.6247,
    "litter_complaint_density": 0.0,
    "lon": -81.2885,
    "navigable_dist_m": null,
    "npdes_points": 0,
    "pixel_col": 153.0,
    "pixel_row": 1076.0,
    "population_density": 48.6,
    "position_along": 0.5,
    "protected_area_score": 9.8536,
    "rank": 49,
    "road_access_m": 508.0,
    "road_access_score": 0.6,
    "road_density_km_km2": 0.839,
    "robustness_pct": 0.0,
    "runoff_coeff_C": 0.0925,
    "seasonal_cv": 0.4041,
    "segment_id": 32,
    "segment_length_m": 1709.9582,
    "stream_order": 3,
    "superfund_score": 0.0088,
    "tourism_amenity_density": 0.0,
    "tri_facility_density": 0.0,
    "usgs_mean_q_cfs": 1.869,
    "velocity_feasibility": 0.7,
    "water_intake_score": 2.5874
   },
   "type": "Feature"
  },
  {
   "geometry": {
    "coordinates": [
     -81.183812,
     35.71686
    ],
    "type": "Point"
   },
   "properties": {
    "accumulation": 32144.0,
    "bank_slope_deg": 15.02,
    "bank_slope_score": 0.5,
    "bank_slope_source": "nc-dps-lidar-dem03-cross-section",
    "beach_dist_km": 351.71,
    "bridge_proximity_bonus": 0.0,
    "catchment_area_km2": 3.2069,
    "channel_width_m": 5.06,
    "channel_width_score": 1.0,
    "composite_score": 25.6001,
    "cso_density": 0.0,
    "ej_index": 0.4056,
    "elevation_m": 271.6529,
    "estuary_dist_km": 471.23,
    "feasibility_score": 53.0357,
    "flood_q10_cfs": 552.24,
    "flow_score": 9.5375,
    "flow_velocity_ms": 0.1261,
    "generation_score": 22.7339,
    "impact_score": 28.1341,
    "impervious_pct": 12.01,
    "land_ownership": 0.5,
    "lat": 35.7169,
    "litter_complaint_density": 0.0,
    "lon": -81.1838,
    "navigable_dist_m": null,
    "npdes_points": 1,
    "pixel_col": 1104.0,
    "pixel_row": 55.0,
    "population_density": 162.4,
    "position_along": 0.25,
    "protected_area_score": 8.5453,
    "rank": 50,
    "road_access_m": 216.9,
    "road_access_score": 0.8,
    "road_density_km_km2": 1.924,
    "robustness_pct": 0.0,
    "runoff_coeff_C": 0.1581,
    "seasonal_cv": 0.4045,
    "segment_id": 1,
    "segment_length_m": 4189.3816,
    "stream_order": 1,
    "superfund_score": 0.0172,
    "tourism_amenity_density": 0.2387,
    "tri_facility_density": 0.0,
    "usgs_mean_q_cfs": 6.607,
    "velocity_feasibility": 0.7,
    "water_intake_score": 1.7186
   },
   "type": "Feature"
  },
  {
   "geometry": {
    "coordinates": [
     -81.294432,
     35.64163
    ],
    "type": "Point"
   },
   "properties": {
    "accumulation": 49776.0,
    "bank_slope_deg": 4.43,
    "bank_slope_score": 1.0,
    "bank_slope_source": "nc-dps-lidar-dem03-cross-section",
    "beach_dist_km": 356.92,
    "bridge_proximity_bonus": 0.0,
    "catchment_area_km2": 4.966,
    "channel_width_m": 6.07,
    "channel_width_score": 1.0,
    "composite_score": 25.5339,
    "cso_density": 0.0,
    "ej_index": 0.2157,
    "elevation_m": 249.4103,
    "estuary_dist_km": 480.13,
    "feasibility_score": 52.1429,
    "flood_q10_cfs": 691.63,
    "flow_score": 8.8778,
    "flow_velocity_ms": 0.1313,
    "generation_score": 10.9459,
    "impact_score": 40.6975,
    "impervious_pct": 6.04,
    "land_ownership": 0.5,
    "lat": 35.6416,
    "litter_complaint_density": 0.0,
    "lon": -81.2944,
    "navigable_dist_m": null,
    "npdes_points": 0,
    "pixel_col": 98.0,
    "pixel_row": 888.0,
    "population_density": 96.8,
    "position_along": 0.5,
    "protected_area_score": 9.8223,
    "rank": 51,
    "road_access_m": 515.4,
    "road_access_score": 0.6,
    "road_density_km_km2": 2.428,
    "robustness_pct": 0.0,
    "runoff_coeff_C": 0.1044,
    "seasonal_cv": 0.3907,
    "segment_id": 25,
    "segment_length_m": 2794.0803,
    "stream_order": 1,
    "superfund_score": 0.0124,
    "tourism_amenity_density": 1.1141,
    "tri_facility_density": 0.0,
    "usgs_mean_q_cfs": 3.155,
    "velocity_feasibility": 0.7,
    "water_intake_score": 2.6871
   },
   "type": "Feature"
  },
  {
   "geometry": {
    "coordinates": [
     -81.274352,
     35.611304
    ],
    "type": "Point"
   },
   "properties": {
    "accumulation": 23796.0,
    "bank_slope_deg": 6.79,
    "bank_slope_score": 1.0,
    "bank_slope_source": "nc-dps-lidar-dem03-cross-section",
    "beach_dist_km": 353.84,
    "bridge_proximity_bonus": 0.0,
    "catchment_area_km2": 2.374,
    "channel_width_m": 4.47,
    "channel_width_score": 1.0,
    "composite_score": 25.0502,
    "cso_density": 0.0,
    "ej_index": 0.2879,
    "elevation_m": 244.1268,
    "estuary_dist_km": 477.97,
    "feasibility_score": 52.1429,
    "flood_q10_cfs": 370.81,
    "flow_score": 17.8797,
    "flow_velocity_ms": 0.1027,
    "generation_score": 1.4922,
    "impact_score": 41.0372,
    "impervious_pct": 2.2,
    "land_ownership": 0.5,
    "lat": 35.6113,
    "litter_complaint_density": 0.0,
    "lon": -81.2744,
    "navigable_dist_m": null,
    "npdes_points": 0,
    "pixel_col": 279.0,
    "pixel_row": 1225.0,
    "population_density": 48.6,
    "position_along": 0.5,
    "protected_area_score": 10.2307,
    "rank": 52,
    "road_access_m": 689.4,
    "road_access_score": 0.6,
    "road_density_km_km2": 0.078,
    "robustness_pct": 0.0,
    "runoff_coeff_C": 0.0698,
    "seasonal_cv": 0.4072,
    "segment_id": 38,
    "segment_length_m": 1199.4288,
    "stream_order": 3,
    "superfund_score": 0.007,
    "tourism_amenity_density": 0.0,
    "tri_facility_density": 0.0,
    "usgs_mean_q_cfs": 1.513,
    "velocity_feasibility": 0.7,
    "water_intake_score": 2.4254
   },
   "type": "Feature"
  },
  {
   "geometry": {
    "coordinates": [
     -81.167983,
     35.71604
    ],
    "type": "Point"
   },
   "properties": {
    "accumulation": 59047.0,
    "bank_slope_deg": 1.36,
    "bank_slope_score": 1.0,
    "bank_slope_source": "nc-dps-lidar-dem03-cross-section",
    "beach_dist_km": 350.4,
    "bridge_proximity_bonus": 0.0,
    "catchment_area_km2": 5.8909,
    "channel_width_m": 6.51,
    "channel_width_score": 1.0,
    "composite_score": 24.496,
    "cso_density": 0.0,
    "ej_index": 0.4511,
    "elevation_m": 261.5486,
    "estuary_dist_km": 469.8,
    "feasibility_score": 52.1429,
    "flood_q10_cfs": 873.27,
    "flow_score": 11.9693,
    "flow_velocity_ms": 0.1182,
    "generation_score": 17.9484,
    "impact_score": 27.6592,
    "impervious_pct": 12.01,
    "land_ownership": 0.5,
    "lat": 35.716,
    "litter_complaint_density": 0.0,
    "lon": -81.168,
    "navigable_dist_m": null,
    "npdes_points": 0,
    "pixel_col": 1248.0,
    "pixel_row": 60.0,
    "population_density": 128.5,
    "position_along": 0.75,
    "protected_area_score": 8.2511,
    "rank": 53,
    "road_access_m": 727.3,
    "road_access_score": 0.6,
    "road_density_km_km2": 0.472,
    "robustness_pct": 0.0,
    "runoff_coeff_C": 0.1581,
    "seasonal_cv": 0.4045,
    "segment_id": 1,
    "segment_length_m": 4189.3816,
    "stream_order": 1,
    "superfund_score": 0.0119,
    "tourism_amenity_density": 0.0,
    "tri_facility_density": 0.1698,
    "usgs_mean_q_cfs": 6.607,
    "velocity_feasibility": 0.7,
    "water_intake_score": 1.6667
   },
   "type": "Feature"
  },
  {
   "geometry": {
    "coordinates": [
     -81.271966,
     35.60688
    ],
    "type": "Point"
   },
   "properties": {
    "accumulation": 44883.0,
    "bank_slope_deg": 0.42,
    "bank_slope_score": 1.0,
    "bank_slope_source": "nc-dps-lidar-dem03-cross-section",
    "beach_dist_km": 353.44,
    "bridge_proximity_bonus": 0.0,
    "catchment_area_km2": 4.4778,
    "channel_width_m": 5.81,
    "channel_width_score": 1.0,
    "composite_score": 21.815,
    "cso_density": 0.0,
    "ej_index": 0.2879,
    "elevation_m": 241.8289,
    "estuary_dist_km": 477.7,
    "feasibility_score": 30.0,
    "flood_q10_cfs": 598.17,
    "flow_score": 18.5415,
    "flow_velocity_ms": 0.043,
    "generation_score": 1.3518,
    "impact_score": 40.9137,
    "impervious_pct": 2.2,
    "land_ownership": 0.5,
    "lat": 35.6069,
    "litter_complaint_density": 0.0,
    "lon": -81.272,
    "navigable_dist_m": null,
    "npdes_points": 0,
    "pixel_col": 300.0,
    "pixel_row": 1274.0,
    "population_density": 48.6,
    "position_along": 0.5,
    "protected_area_score": 10.2544,
    "rank": 54,
    "road_access_m": 1224.6,
    "road_access_score": 0.3,
    "road_density_km_km2": 0.0,
    "robustness_pct": 0.0,
    "runoff_coeff_C": 0.0698,
    "seasonal_cv": 0.4072,
    "segment_id": 41,
    "segment_length_m": 14.1256,
    "stream_order": 3,
    "superfund_score": 0.0064,
    "tourism_amenity_density": 0.0,
    "tri_facility_density": 0.0,
    "usgs_mean_q_cfs": 1.513,
    "velocity_feasibility": 0.3,
    "water_intake_score": 2.3817
   },
   "type": "Feature"
  }
 ],
 "note": "GRIME region 'Newton, NC' \u2014 real-data pipeline (DEM\u2192streams\u2192candidates\u2192stream mask (sites confined to \u00b1150 m of mapped OSM/NHD waterways)\u2192region-appropriate real parameters\u2192shipped scoring, math unchanged). Width curve: Bieger et al. 2015 JAWRA Table 3, Appalachian Highlands. Flood: SIR 2014-5030 HR1. NC Piedmont (DEQ physiography polygon)",
 "provenance": {
  "candidates_pre_gate": 54,
  "constant": [
   "cso_density",
   "litter_complaint_density"
  ],
  "gated_navigable": 0,
  "hard_gate_removed": 0,
  "n_parameters": 27,
  "parameters": {
   "bank_slope_score": {
    "kind": "real",
    "n_3dep_10m_fallback": 0,
    "n_nc_lidar_3_125ft": 54,
    "n_real": 54,
    "n_sites": 54,
    "source": "NC OneMap / NC DPS DEM03 statewide lidar-derived 3.125-ft (0.953 m) elevations (perpendicular 50 m transect; robust 5 m bank-rise metric); unavailable profiles use the region 10 m 3DEP DEM-gradient fallback",
    "source_mosaics": [
     "Catawba_Ground_3ft"
    ]
   },
   "beach_dist_km": {
    "kind": "real",
    "n_real": 54,
    "n_sites": 54,
    "source": "haversine to region ref: Wrightsville Beach (shipped NC reference)"
   },
   "bridge_proximity_bonus": {
    "kind": "real",
    "n_real": 54,
    "n_sites": 54,
    "source": "FHWA/BTS NBI (NTAD), 50 m proximity"
   },
   "catchment_area_km2": {
    "kind": "real",
    "n_real": 54,
    "n_sites": 54,
    "source": "DEM flow accumulation (pipeline)"
   },
   "channel_width_score": {
    "kind": "real",
    "n_real": 54,
    "n_sites": 54,
    "source": "Bieger 2015 AHI width curve on DEM drainage area \u2192 shipped width curve"
   },
   "cso_density": {
    "kind": "real",
    "n_real": 54,
    "n_sites": 54,
    "source": "EPA ECHO open CSO/TCS outfall PF coordinates states=NC, Cauchy proximity"
   },
   "ej_index": {
    "kind": "real",
    "n_real": 54,
    "n_sites": 54,
    "source": "Census ACS C17002+B03002 two-component demographic index, percentile-ranked within region"
   },
   "estuary_dist_km": {
    "kind": "real",
    "n_real": 54,
    "n_sites": 54,
    "source": "haversine to region ref: Pamlico Sound (shipped NC reference)"
   },
   "flood_q10_cfs": {
    "impervious_fallback_reason": "StreamCat imperviousness unavailable; the existing regression-input fallback of 0.0% impervious was used and is disclosed here",
    "kind": "real",
    "n_impervious_fallback": 5,
    "n_real": 54,
    "n_sites": 54,
    "source": "USGS SIR 2014-5030 Table 7 HR1 (NC Piedmont)"
   },
   "flow_velocity_ms": {
    "fallback_reason": "EROM/DEM continuity input unavailable; shipped 0.5 m/s default used",
    "kind": "real",
    "n_fallback": 5,
    "n_real": 49,
    "n_sites": 54,
    "source": "Manning (region DEM/D8) blended with EROM continuity (shipped M4 logic)"
   },
   "impervious_pct": {
    "fallback_reason": "NLDI/StreamCat did not return a snap-compatible catchment value; value remains null and is removed by constant-column handling",
    "kind": "real",
    "n_fallback": 5,
    "n_real": 49,
    "n_sites": 54,
    "source": "EPA StreamCat pctimp2019 (per NHDPlus watershed)"
   },
   "land_ownership": {
    "fallback_reason": "no containing parcel owner returned; shipped unknown ownership 0.5 used",
    "kind": "real",
    "n_fallback": 4,
    "n_real": 50,
    "n_sites": 54,
    "source": "NC OneMap statewide parcels (NC Parcels Transformer) ownname"
   },
   "litter_complaint_density": {
    "kind": "fallback",
    "n_real": 0,
    "n_sites": 54,
    "source": "no public machine-readable litter/illegal-dumping feed for this region"
   },
   "navigable_dist_m": {
    "kind": "real",
    "n_real": 54,
    "n_sites": 54,
    "source": "USACE/BTS NWN (NTAD): no navigable segment within this bbox (+2 km) \u2014 computed absence, gate passes all sites"
   },
   "npdes_points": {
    "kind": "real",
    "n_real": 54,
    "n_sites": 54,
    "source": "EPA ECHO active NPDES outfalls states=NC (types NPD/GPC/NGP; statuses ADC/EFF/EXP), per catchment"
   },
   "population_density": {
    "kind": "real",
    "n_real": 54,
    "n_sites": 54,
    "source": "Census ACS 2022 B01003 block groups (bbox, multi-county), area-weighted"
   },
   "protected_area_score": {
    "kind": "real",
    "n_real": 54,
    "n_sites": 54,
    "source": "USGS PAD-US 4.1 state GDB; states=NC; shipped designation-weighted proximity curve"
   },
   "road_access_score": {
    "kind": "real",
    "n_real": 54,
    "n_sites": 54,
    "source": "OSM drive network nearest-node distance"
   },
   "road_density_km_km2": {
    "kind": "real",
    "n_real": 54,
    "n_sites": 54,
    "source": "OSM drive network (osmnx, cached) clipped per catchment"
   },
   "runoff_coeff_C": {
    "fallback_reason": "source impervious_pct was unavailable; derived value remains null",
    "kind": "real",
    "n_fallback": 5,
    "n_real": 49,
    "n_sites": 54,
    "source": "derived from real impervious_pct (C=0.05+0.009*I)"
   },
   "seasonal_cv": {
    "fallback_reason": "NHDPlus monthly EROM was unavailable or failed the drainage-area snap guard; value remains null",
    "kind": "real",
    "n_fallback": 5,
    "n_real": 49,
    "n_sites": 54,
    "source": "CV of NHDPlus EROM monthly flows per COMID"
   },
   "stream_order": {
    "kind": "real",
    "n_real": 54,
    "n_sites": 54,
    "source": "DEM stream-network confluence heuristic (pipeline)"
   },
   "superfund_score": {
    "kind": "real",
    "n_real": 54,
    "n_sites": 54,
    "source": "EPA DataMap SEMS active sites states=NC (non-archived, georeferenced), shipped 500 m inverse-distance curve"
   },
   "tourism_amenity_density": {
    "kind": "real",
    "n_real": 54,
    "n_sites": 54,
    "source": "OSM leisure/tourism features per 2 km radius"
   },
   "tri_facility_density": {
    "kind": "real",
    "n_real": 54,
    "n_sites": 54,
    "source": "EPA DataMap TRI open facilities states=NC (preferred decimal or packed-DMS recovery), per catchment"
   },
   "usgs_mean_q_cfs": {
    "fallback_reason": "NHDPlus EROM was unavailable or failed the drainage-area snap guard; value remains null",
    "kind": "real",
    "n_fallback": 5,
    "n_real": 49,
    "n_sites": 54,
    "source": "NHDPlus EROM qe_ma per COMID (snap-guarded)"
   },
   "velocity_feasibility": {
    "fallback_reason": "derived from the shipped 0.5 m/s velocity fallback",
    "kind": "real",
    "n_fallback": 5,
    "n_real": 49,
    "n_sites": 54,
    "source": "shipped step curve on the computed velocity"
   },
   "velocity_transport_favorability": {
    "fallback_reason": "EROM/DEM continuity input unavailable; shipped 0.5 m/s default used",
    "kind": "derived",
    "n_fallback": 5,
    "n_real": 49,
    "n_sites": 54,
    "source": "scored form of flow_velocity_ms inside the Flow family \u2014 peaked Gaussian exp(-((v-0.9)/0.6)^2), model.json curves.velocity_transport_favorability; construct: transport/delivery favorability, deliberately distinct from velocity_feasibility (device operability)"
   },
   "water_intake_score": {
    "kind": "real",
    "n_real": 54,
    "n_sites": 54,
    "source": "NC OneMap / NC DEQ SWAP public water supply sources (source_typ='Surface Water'), shipped exp(-d/10km) curve"
   }
  },
  "stream_mask": {
   "buffer_m": 150.0,
   "pre_mask": 55,
   "removed": 1,
   "sources": [
    "osm-overpass (all waterway ways)",
    "usgs-nhdplus flowlines"
   ]
  },
  "varying": [
   "bank_slope_score",
   "beach_dist_km",
   "bridge_proximity_bonus",
   "catchment_area_km2",
   "channel_width_score",
   "ej_index",
   "estuary_dist_km",
   "flood_q10_cfs",
   "flow_velocity_ms",
   "impervious_pct",
   "land_ownership",
   "npdes_points",
   "population_density",
   "protected_area_score",
   "road_access_score",
   "road_density_km_km2",
   "runoff_coeff_C",
   "seasonal_cv",
   "stream_order",
   "superfund_score",
   "tourism_amenity_density",
   "tri_facility_density",
   "usgs_mean_q_cfs",
   "velocity_feasibility",
   "water_intake_score"
  ]
 },
 "region": {
  "bbox": [
   -81.3052,
   35.6029,
   -81.1594,
   35.7214
  ],
  "beach_ref": {
   "label": "Wrightsville Beach (shipped NC reference)",
   "lat": 34.21,
   "lon": -77.79
  },
  "center": [
   -81.232269,
   35.662162
  ],
  "estuary_ref": {
   "label": "Pamlico Sound (shipped NC reference)",
   "lat": 35.05,
   "lon": -76.05
  },
  "flood_method": "sir2014_hr1",
  "name": "Newton, NC",
  "notes": "NC Piedmont (DEQ physiography polygon)",
  "slug": "newton",
  "state": "NC",
  "utm_epsg": 32617,
  "width_curve": {
   "a": 3.12,
   "b": 0.415,
   "code": "AHI",
   "source": "Bieger et al. 2015 JAWRA Table 3, Appalachian Highlands"
  }
 },
 "type": "FeatureCollection"
}
