{
 "features": [
  {
   "geometry": {
    "coordinates": [
     -78.196858,
     36.431257
    ],
    "type": "Point"
   },
   "properties": {
    "accumulation": 28738.0,
    "bank_slope_deg": 8.81,
    "bank_slope_score": 1.0,
    "bank_slope_source": "nc-dps-lidar-dem03-cross-section",
    "beach_dist_km": 249.74,
    "bridge_proximity_bonus": 0.0,
    "catchment_area_km2": 2.8706,
    "channel_width_m": 4.83,
    "channel_width_score": 1.0,
    "composite_score": 73.1859,
    "cso_density": 0.0,
    "ej_index": 0.4603,
    "elevation_m": 103.32,
    "estuary_dist_km": 247.24,
    "feasibility_score": 70.0,
    "flood_q10_cfs": 443.49,
    "flow_score": 63.7041,
    "flow_velocity_ms": 0.1265,
    "generation_score": 89.2083,
    "impact_score": 66.6581,
    "impervious_pct": 4.25,
    "land_ownership": 0.5,
    "lat": 36.4313,
    "litter_complaint_density": 0.0,
    "lon": -78.1969,
    "navigable_dist_m": null,
    "npdes_points": 0,
    "pixel_col": 196.0,
    "pixel_row": 360.0,
    "population_density": 51.3,
    "position_along": 0.5,
    "protected_area_score": 6.8655,
    "rank": 1,
    "road_access_m": 357.7,
    "road_access_score": 0.8,
    "road_density_km_km2": 0.789,
    "robustness_pct": 100.0,
    "runoff_coeff_C": 0.0882,
    "seasonal_cv": 0.4297,
    "segment_id": 1,
    "segment_length_m": 1302.2309,
    "stream_order": 1,
    "superfund_score": 0.0,
    "tourism_amenity_density": 0.1592,
    "tri_facility_density": 0.0,
    "usgs_mean_q_cfs": 1.615,
    "velocity_feasibility": 0.7,
    "water_intake_score": 0.2857
   },
   "type": "Feature"
  },
  {
   "geometry": {
    "coordinates": [
     -78.190852,
     36.427258
    ],
    "type": "Point"
   },
   "properties": {
    "accumulation": 22262.0,
    "bank_slope_deg": 7.02,
    "bank_slope_score": 1.0,
    "bank_slope_source": "nc-dps-lidar-dem03-cross-section",
    "beach_dist_km": 249.22,
    "bridge_proximity_bonus": 0.0,
    "catchment_area_km2": 2.2237,
    "channel_width_m": 4.35,
    "channel_width_score": 1.0,
    "composite_score": 56.7972,
    "cso_density": 0.0,
    "ej_index": 0.4474,
    "elevation_m": 99.7066,
    "estuary_dist_km": 246.54,
    "feasibility_score": 70.0,
    "flood_q10_cfs": 360.15,
    "flow_score": 48.5104,
    "flow_velocity_ms": 0.0879,
    "generation_score": 54.1873,
    "impact_score": 59.7113,
    "impervious_pct": 3.35,
    "land_ownership": 0.5,
    "lat": 36.4273,
    "litter_complaint_density": 0.0,
    "lon": -78.1909,
    "navigable_dist_m": null,
    "npdes_points": 0,
    "pixel_col": 249.0,
    "pixel_row": 403.0,
    "population_density": 41.8,
    "position_along": 0.5,
    "protected_area_score": 7.2508,
    "rank": 2,
    "road_access_m": 375.4,
    "road_access_score": 0.8,
    "road_density_km_km2": 0.315,
    "robustness_pct": 100.0,
    "runoff_coeff_C": 0.0801,
    "seasonal_cv": 0.4183,
    "segment_id": 2,
    "segment_length_m": 313.671,
    "stream_order": 1,
    "superfund_score": 0.0,
    "tourism_amenity_density": 0.1592,
    "tri_facility_density": 0.0,
    "usgs_mean_q_cfs": 3.348,
    "velocity_feasibility": 0.7,
    "water_intake_score": 0.2741
   },
   "type": "Feature"
  },
  {
   "geometry": {
    "coordinates": [
     -78.208945,
     36.427598
    ],
    "type": "Point"
   },
   "properties": {
    "accumulation": 20928.0,
    "bank_slope_deg": 10.57,
    "bank_slope_score": 1.0,
    "bank_slope_source": "nc-dps-lidar-dem03-cross-section",
    "beach_dist_km": 249.5,
    "bridge_proximity_bonus": 0.0,
    "catchment_area_km2": 2.0904,
    "channel_width_m": 4.24,
    "channel_width_score": 1.0,
    "composite_score": 45.4831,
    "cso_density": 0.0,
    "ej_index": 0.4653,
    "elevation_m": 93.842,
    "estuary_dist_km": 247.85,
    "feasibility_score": 50.0,
    "flood_q10_cfs": 333.68,
    "flow_score": 12.1848,
    "flow_velocity_ms": 0.1137,
    "generation_score": 37.5,
    "impact_score": 78.9562,
    "impervious_pct": 1.65,
    "land_ownership": 1.0,
    "lat": 36.4276,
    "litter_complaint_density": 0.0,
    "lon": -78.2089,
    "navigable_dist_m": null,
    "npdes_points": 0,
    "pixel_col": 89.0,
    "pixel_row": 404.0,
    "population_density": 54.9,
    "position_along": 0.5,
    "protected_area_score": 6.8135,
    "rank": 3,
    "road_access_m": 918.1,
    "road_access_score": 0.6,
    "road_density_km_km2": 0.0,
    "robustness_pct": 100.0,
    "runoff_coeff_C": 0.0649,
    "seasonal_cv": 0.4298,
    "segment_id": 3,
    "segment_length_m": 214.7318,
    "stream_order": 1,
    "superfund_score": 0.0,
    "tourism_amenity_density": 0.0796,
    "tri_facility_density": 0.0,
    "usgs_mean_q_cfs": 1.471,
    "velocity_feasibility": 0.7,
    "water_intake_score": 0.3143
   },
   "type": "Feature"
  },
  {
   "geometry": {
    "coordinates": [
     -78.206266,
     36.461062
    ],
    "type": "Point"
   },
   "properties": {
    "accumulation": 25942.0,
    "bank_slope_deg": 20.64,
    "bank_slope_score": 0.5,
    "bank_slope_source": "nc-dps-lidar-dem03-cross-section",
    "beach_dist_km": 253.14,
    "bridge_proximity_bonus": 0.0,
    "catchment_area_km2": 2.5913,
    "channel_width_m": 4.63,
    "channel_width_score": 1.0,
    "composite_score": 32.2442,
    "cso_density": 0.0,
    "ej_index": 0.4333,
    "elevation_m": 94.3414,
    "estuary_dist_km": 249.94,
    "feasibility_score": 0.0,
    "flood_q10_cfs": 414.25,
    "flow_score": 46.2187,
    "flow_velocity_ms": 0.1143,
    "generation_score": 48.8752,
    "impact_score": 20.0898,
    "impervious_pct": 4.76,
    "land_ownership": 0.5,
    "lat": 36.4611,
    "litter_complaint_density": 0.0,
    "lon": -78.2063,
    "navigable_dist_m": null,
    "npdes_points": 0,
    "pixel_col": 100.0,
    "pixel_row": 28.0,
    "population_density": 20.8,
    "position_along": 0.5,
    "protected_area_score": 5.0003,
    "rank": 4,
    "road_access_m": 775.9,
    "road_access_score": 0.6,
    "road_density_km_km2": 0.273,
    "robustness_pct": 100.0,
    "runoff_coeff_C": 0.0928,
    "seasonal_cv": 0.4295,
    "segment_id": 0,
    "segment_length_m": 574.9452,
    "stream_order": 1,
    "superfund_score": 0.0,
    "tourism_amenity_density": 0.2387,
    "tri_facility_density": 0.0,
    "usgs_mean_q_cfs": 1.55,
    "velocity_feasibility": 0.7,
    "water_intake_score": 0.2896
   },
   "type": "Feature"
  }
 ],
 "note": "GRIME region 'Norlina, NC' \u2014 real-data pipeline (DEM\u2192streams\u2192candidates\u2192stream mask (sites confined to \u00b1150 m of mapped OSM/NHD waterways)\u2192region-appropriate real parameters\u2192shipped scoring, math unchanged). Width curve: Bieger et al. 2015 JAWRA Table 3, Appalachian Highlands. Flood: SIR 2014-5030 HR1. NC Piedmont (DEQ physiography polygon)",
 "provenance": {
  "candidates_pre_gate": 4,
  "constant": [
   "bridge_proximity_bonus",
   "channel_width_score",
   "cso_density",
   "litter_complaint_density",
   "npdes_points",
   "stream_order",
   "superfund_score",
   "tri_facility_density",
   "velocity_feasibility"
  ],
  "gated_navigable": 0,
  "hard_gate_removed": 0,
  "n_parameters": 27,
  "parameters": {
   "bank_slope_score": {
    "kind": "real",
    "n_3dep_10m_fallback": 0,
    "n_nc_lidar_3_125ft": 4,
    "n_real": 4,
    "n_sites": 4,
    "source": "NC OneMap / NC DPS DEM03 statewide lidar-derived 3.125-ft (0.953 m) elevations (perpendicular 50 m transect; robust 5 m bank-rise metric); unavailable profiles use the region 10 m 3DEP DEM-gradient fallback",
    "source_mosaics": [
     "Warren_Ground_3ft"
    ]
   },
   "beach_dist_km": {
    "kind": "real",
    "n_real": 4,
    "n_sites": 4,
    "source": "haversine to region ref: Wrightsville Beach (shipped NC reference)"
   },
   "bridge_proximity_bonus": {
    "kind": "real",
    "n_real": 4,
    "n_sites": 4,
    "source": "FHWA/BTS NBI (NTAD), 50 m proximity"
   },
   "catchment_area_km2": {
    "kind": "real",
    "n_real": 4,
    "n_sites": 4,
    "source": "DEM flow accumulation (pipeline)"
   },
   "channel_width_score": {
    "kind": "real",
    "n_real": 4,
    "n_sites": 4,
    "source": "Bieger 2015 AHI width curve on DEM drainage area \u2192 shipped width curve"
   },
   "cso_density": {
    "kind": "real",
    "n_real": 4,
    "n_sites": 4,
    "source": "EPA ECHO open CSO/TCS outfall PF coordinates states=NC, Cauchy proximity"
   },
   "ej_index": {
    "kind": "real",
    "n_real": 4,
    "n_sites": 4,
    "source": "Census ACS C17002+B03002 two-component demographic index, percentile-ranked within region"
   },
   "estuary_dist_km": {
    "kind": "real",
    "n_real": 4,
    "n_sites": 4,
    "source": "haversine to region ref: Pamlico Sound (shipped NC reference)"
   },
   "flood_q10_cfs": {
    "kind": "real",
    "n_real": 4,
    "n_sites": 4,
    "source": "USGS SIR 2014-5030 Table 7 HR1 (NC Piedmont)"
   },
   "flow_velocity_ms": {
    "kind": "real",
    "n_fallback": 0,
    "n_real": 4,
    "n_sites": 4,
    "source": "Manning (region DEM/D8) blended with EROM continuity (shipped M4 logic)"
   },
   "impervious_pct": {
    "kind": "real",
    "n_real": 4,
    "n_sites": 4,
    "source": "EPA StreamCat pctimp2019 (per NHDPlus watershed)"
   },
   "land_ownership": {
    "kind": "real",
    "n_fallback": 0,
    "n_real": 4,
    "n_sites": 4,
    "source": "NC OneMap statewide parcels (NC Parcels Transformer) ownname"
   },
   "litter_complaint_density": {
    "kind": "fallback",
    "n_real": 0,
    "n_sites": 4,
    "source": "no public machine-readable litter/illegal-dumping feed for this region"
   },
   "navigable_dist_m": {
    "kind": "real",
    "n_real": 4,
    "n_sites": 4,
    "source": "USACE/BTS NWN (NTAD): no navigable segment within this bbox (+2 km) \u2014 computed absence, gate passes all sites"
   },
   "npdes_points": {
    "kind": "real",
    "n_real": 4,
    "n_sites": 4,
    "source": "EPA ECHO active NPDES outfalls states=NC (types NPD/GPC/NGP; statuses ADC/EFF/EXP), per catchment"
   },
   "population_density": {
    "kind": "real",
    "n_real": 4,
    "n_sites": 4,
    "source": "Census ACS 2022 B01003 block groups (bbox, multi-county), area-weighted"
   },
   "protected_area_score": {
    "kind": "real",
    "n_real": 4,
    "n_sites": 4,
    "source": "USGS PAD-US 4.1 state GDB; states=NC; shipped designation-weighted proximity curve"
   },
   "road_access_score": {
    "kind": "real",
    "n_real": 4,
    "n_sites": 4,
    "source": "OSM drive network nearest-node distance"
   },
   "road_density_km_km2": {
    "kind": "real",
    "n_real": 4,
    "n_sites": 4,
    "source": "OSM drive network (osmnx, cached) clipped per catchment"
   },
   "runoff_coeff_C": {
    "kind": "real",
    "n_real": 4,
    "n_sites": 4,
    "source": "derived from real impervious_pct (C=0.05+0.009*I)"
   },
   "seasonal_cv": {
    "kind": "real",
    "n_real": 4,
    "n_sites": 4,
    "source": "CV of NHDPlus EROM monthly flows per COMID"
   },
   "stream_order": {
    "kind": "real",
    "n_real": 4,
    "n_sites": 4,
    "source": "DEM stream-network confluence heuristic (pipeline)"
   },
   "superfund_score": {
    "kind": "real",
    "n_real": 4,
    "n_sites": 4,
    "source": "EPA DataMap SEMS active sites states=NC (non-archived, georeferenced), shipped 500 m inverse-distance curve"
   },
   "tourism_amenity_density": {
    "kind": "real",
    "n_real": 4,
    "n_sites": 4,
    "source": "OSM leisure/tourism features per 2 km radius"
   },
   "tri_facility_density": {
    "kind": "real",
    "n_real": 4,
    "n_sites": 4,
    "source": "EPA DataMap TRI open facilities states=NC (preferred decimal or packed-DMS recovery), per catchment"
   },
   "usgs_mean_q_cfs": {
    "kind": "real",
    "n_real": 4,
    "n_sites": 4,
    "source": "NHDPlus EROM qe_ma per COMID (snap-guarded)"
   },
   "velocity_feasibility": {
    "kind": "real",
    "n_fallback": 0,
    "n_real": 4,
    "n_sites": 4,
    "source": "shipped step curve on the computed velocity"
   },
   "velocity_transport_favorability": {
    "kind": "derived",
    "n_real": 4,
    "n_sites": 4,
    "source": "scored form of flow_velocity_ms inside the Flow family \u2014 peaked Gaussian exp(-((v-0.9)/0.6)^2), model.json curves.velocity_transport_favorability; construct: transport/delivery favorability, deliberately distinct from velocity_feasibility (device operability)"
   },
   "water_intake_score": {
    "kind": "real",
    "n_real": 4,
    "n_sites": 4,
    "source": "NC OneMap / NC DEQ SWAP public water supply sources (source_typ='Surface Water'), shipped exp(-d/10km) curve"
   }
  },
  "stream_mask": {
   "buffer_m": 150.0,
   "pre_mask": 4,
   "removed": 0,
   "sources": [
    "osm-overpass (all waterway ways)",
    "usgs-nhdplus flowlines"
   ]
  },
  "varying": [
   "bank_slope_score",
   "beach_dist_km",
   "catchment_area_km2",
   "ej_index",
   "estuary_dist_km",
   "flood_q10_cfs",
   "flow_velocity_ms",
   "impervious_pct",
   "land_ownership",
   "population_density",
   "protected_area_score",
   "road_access_score",
   "road_density_km_km2",
   "runoff_coeff_C",
   "seasonal_cv",
   "tourism_amenity_density",
   "usgs_mean_q_cfs",
   "water_intake_score"
  ]
 },
 "region": {
  "bbox": [
   -78.2176,
   36.4269,
   -78.1728,
   36.463
  ],
  "beach_ref": {
   "label": "Wrightsville Beach (shipped NC reference)",
   "lat": 34.21,
   "lon": -77.79
  },
  "center": [
   -78.19517,
   36.444941
  ],
  "estuary_ref": {
   "label": "Pamlico Sound (shipped NC reference)",
   "lat": 35.05,
   "lon": -76.05
  },
  "flood_method": "sir2014_hr1",
  "name": "Norlina, NC",
  "notes": "NC Piedmont (DEQ physiography polygon)",
  "slug": "norlina",
  "state": "NC",
  "utm_epsg": 32617,
  "width_curve": {
   "a": 3.12,
   "b": 0.415,
   "code": "AHI",
   "source": "Bieger et al. 2015 JAWRA Table 3, Appalachian Highlands"
  }
 },
 "type": "FeatureCollection"
}
