{
 "features": [
  {
   "geometry": {
    "coordinates": [
     -78.105186,
     33.928731
    ],
    "type": "Point"
   },
   "properties": {
    "accumulation": 178246.0,
    "bank_slope_deg": 0.49,
    "bank_slope_score": 1.0,
    "beach_dist_km": 42.67,
    "bridge_proximity_bonus": 0.0,
    "catchment_area_km2": 17.8193,
    "channel_width_m": 6.32,
    "channel_width_score": 1.0,
    "composite_score": 48.1764,
    "cso_density": 0.0,
    "ej_index": 0.3893,
    "elevation_m": -1.21,
    "estuary_dist_km": 225.88,
    "feasibility_score": 25.5102,
    "flood_q10_cfs": 1186.43,
    "flow_score": 73.6902,
    "flow_velocity_ms": 0.0933,
    "generation_score": 53.5222,
    "impact_score": 32.9021,
    "impervious_pct": 11.0,
    "land_ownership": 0.5,
    "lat": 33.9287,
    "litter_complaint_density": 0.0,
    "lon": -78.1052,
    "navigable_dist_m": 726.8,
    "npdes_points": 1,
    "pixel_col": 935.0,
    "pixel_row": 733.0,
    "population_density": 322.3,
    "position_along": 0.5,
    "protected_area_score": 32.5426,
    "rank": 1,
    "road_access_m": 275.1,
    "road_access_score": 0.8,
    "road_density_km_km2": 6.353,
    "robustness_pct": 81.5,
    "runoff_coeff_C": 0.149,
    "seasonal_cv": 0.7273,
    "segment_id": 20,
    "segment_length_m": 94.1282,
    "stream_order": 3,
    "superfund_score": 0.0025,
    "tourism_amenity_density": 1.2732,
    "tri_facility_density": null,
    "usgs_mean_q_cfs": 15.218,
    "velocity_feasibility": 0.7,
    "water_intake_score": 0.0076
   },
   "type": "Feature"
  },
  {
   "geometry": {
    "coordinates": [
     -78.037392,
     33.953012
    ],
    "type": "Point"
   },
   "properties": {
    "accumulation": 104540.0,
    "bank_slope_deg": 0.77,
    "bank_slope_score": 1.0,
    "beach_dist_km": 36.55,
    "bridge_proximity_bonus": 0.0,
    "catchment_area_km2": 10.4509,
    "channel_width_m": 5.2,
    "channel_width_score": 1.0,
    "composite_score": 47.7922,
    "cso_density": 0.0,
    "ej_index": 0.5599,
    "elevation_m": 1.6522,
    "estuary_dist_km": 219.19,
    "feasibility_score": 35.7143,
    "flood_q10_cfs": 739.35,
    "flow_score": 49.1672,
    "flow_velocity_ms": 0.1851,
    "generation_score": 37.6419,
    "impact_score": 62.8357,
    "impervious_pct": 4.44,
    "land_ownership": 0.5,
    "lat": 33.953,
    "litter_complaint_density": 0.0,
    "lon": -78.0374,
    "navigable_dist_m": 3881.6,
    "npdes_points": 5,
    "pixel_col": 1554.0,
    "pixel_row": 445.0,
    "population_density": 65.2,
    "position_along": 0.5,
    "protected_area_score": 37.7784,
    "rank": 2,
    "road_access_m": 135.4,
    "road_access_score": 1.0,
    "road_density_km_km2": 3.739,
    "robustness_pct": 87.0,
    "runoff_coeff_C": 0.09,
    "seasonal_cv": 0.7799,
    "segment_id": 10,
    "segment_length_m": 2260.0321,
    "stream_order": 3,
    "superfund_score": 0.0012,
    "tourism_amenity_density": 2.8648,
    "tri_facility_density": null,
    "usgs_mean_q_cfs": 8.271,
    "velocity_feasibility": 0.7,
    "water_intake_score": 0.0083
   },
   "type": "Feature"
  },
  {
   "geometry": {
    "coordinates": [
     -78.058248,
     33.935335
    ],
    "type": "Point"
   },
   "properties": {
    "accumulation": 23913.0,
    "bank_slope_deg": 2.11,
    "bank_slope_score": 1.0,
    "beach_dist_km": 39.28,
    "bridge_proximity_bonus": 0.0,
    "catchment_area_km2": 2.3906,
    "channel_width_m": 3.05,
    "channel_width_score": 1.0,
    "composite_score": 46.4489,
    "cso_density": 0.0,
    "ej_index": 0.5709,
    "elevation_m": -0.7376,
    "estuary_dist_km": 221.89,
    "feasibility_score": 46.9388,
    "flood_q10_cfs": 508.04,
    "flow_score": 12.3411,
    "flow_velocity_ms": 0.0586,
    "generation_score": 70.9218,
    "impact_score": 50.1541,
    "impervious_pct": 26.39,
    "land_ownership": 1.0,
    "lat": 33.9353,
    "litter_complaint_density": 0.0,
    "lon": -78.0582,
    "navigable_dist_m": 1661.6,
    "npdes_points": 1,
    "pixel_col": 1368.0,
    "pixel_row": 647.0,
    "population_density": 356.9,
    "position_along": 0.5,
    "protected_area_score": 35.0579,
    "rank": 3,
    "road_access_m": 309.4,
    "road_access_score": 0.8,
    "road_density_km_km2": 4.375,
    "robustness_pct": 79.0,
    "runoff_coeff_C": 0.2875,
    "seasonal_cv": 0.8882,
    "segment_id": 17,
    "segment_length_m": 484.4869,
    "stream_order": 1,
    "superfund_score": 0.0014,
    "tourism_amenity_density": 1.6711,
    "tri_facility_density": null,
    "usgs_mean_q_cfs": 1.488,
    "velocity_feasibility": 0.7,
    "water_intake_score": 0.0073
   },
   "type": "Feature"
  },
  {
   "geometry": {
    "coordinates": [
     -78.04208,
     33.963164
    ],
    "type": "Point"
   },
   "properties": {
    "accumulation": 60973.0,
    "bank_slope_deg": 0.34,
    "bank_slope_score": 1.0,
    "beach_dist_km": 35.95,
    "bridge_proximity_bonus": 0.2,
    "catchment_area_km2": 6.0955,
    "channel_width_m": 4.28,
    "channel_width_score": 1.0,
    "composite_score": 43.1995,
    "cso_density": 0.0,
    "ej_index": 0.6308,
    "elevation_m": 7.2518,
    "estuary_dist_km": 218.91,
    "feasibility_score": 39.7959,
    "flood_q10_cfs": 534.9,
    "flow_score": 40.3739,
    "flow_velocity_ms": 0.1599,
    "generation_score": 21.3026,
    "impact_score": 69.1528,
    "impervious_pct": 4.44,
    "land_ownership": 0.5,
    "lat": 33.9632,
    "litter_complaint_density": 0.0,
    "lon": -78.0421,
    "navigable_dist_m": 4948.6,
    "npdes_points": 2,
    "pixel_col": 1508.0,
    "pixel_row": 334.0,
    "population_density": 18.8,
    "position_along": 0.5,
    "protected_area_score": 40.3579,
    "rank": 4,
    "road_access_m": 224.5,
    "road_access_score": 0.8,
    "road_density_km_km2": 3.231,
    "robustness_pct": 47.5,
    "runoff_coeff_C": 0.09,
    "seasonal_cv": 0.7799,
    "segment_id": 9,
    "segment_length_m": 2033.7913,
    "stream_order": 3,
    "superfund_score": 0.0013,
    "tourism_amenity_density": 2.7852,
    "tri_facility_density": null,
    "usgs_mean_q_cfs": 8.271,
    "velocity_feasibility": 0.7,
    "water_intake_score": 0.0094
   },
   "type": "Feature"
  },
  {
   "geometry": {
    "coordinates": [
     -78.098091,
     33.937239
    ],
    "type": "Point"
   },
   "properties": {
    "accumulation": 102521.0,
    "bank_slope_deg": 1.54,
    "bank_slope_score": 1.0,
    "beach_dist_km": 41.53,
    "bridge_proximity_bonus": 0.0,
    "catchment_area_km2": 10.2491,
    "channel_width_m": 5.17,
    "channel_width_score": 1.0,
    "composite_score": 42.5814,
    "cso_density": 0.0,
    "ej_index": 0.3836,
    "elevation_m": 0.0558,
    "estuary_dist_km": 224.8,
    "feasibility_score": 35.7143,
    "flood_q10_cfs": 822.0,
    "flow_score": 56.268,
    "flow_velocity_ms": 0.1571,
    "generation_score": 42.1709,
    "impact_score": 35.0198,
    "impervious_pct": 9.5,
    "land_ownership": 0.5,
    "lat": 33.9372,
    "litter_complaint_density": 0.0,
    "lon": -78.0981,
    "navigable_dist_m": 1670.2,
    "npdes_points": 1,
    "pixel_col": 996.0,
    "pixel_row": 637.0,
    "population_density": 249.2,
    "position_along": 0.5,
    "protected_area_score": 34.3964,
    "rank": 5,
    "road_access_m": 121.9,
    "road_access_score": 1.0,
    "road_density_km_km2": 4.382,
    "robustness_pct": 45.5,
    "runoff_coeff_C": 0.1355,
    "seasonal_cv": 0.7436,
    "segment_id": 14,
    "segment_length_m": 2951.7676,
    "stream_order": 3,
    "superfund_score": 0.0025,
    "tourism_amenity_density": 0.6366,
    "tri_facility_density": null,
    "usgs_mean_q_cfs": 12.112,
    "velocity_feasibility": 0.7,
    "water_intake_score": 0.0082
   },
   "type": "Feature"
  },
  {
   "geometry": {
    "coordinates": [
     -78.13094,
     33.926428
    ],
    "type": "Point"
   },
   "properties": {
    "accumulation": 49911.0,
    "bank_slope_deg": 2.07,
    "bank_slope_score": 1.0,
    "beach_dist_km": 44.5,
    "bridge_proximity_bonus": 0.0,
    "catchment_area_km2": 4.9896,
    "channel_width_m": 3.98,
    "channel_width_score": 1.0,
    "composite_score": 42.3925,
    "cso_density": 0.0,
    "ej_index": 0.3558,
    "elevation_m": 1.7667,
    "estuary_dist_km": 227.99,
    "feasibility_score": 64.2857,
    "flood_q10_cfs": 427.79,
    "flow_score": 45.9397,
    "flow_velocity_ms": 0.5,
    "generation_score": 46.6667,
    "impact_score": 24.2156,
    "impervious_pct": null,
    "land_ownership": 0.5,
    "lat": 33.9264,
    "litter_complaint_density": 0.0,
    "lon": -78.1309,
    "navigable_dist_m": 176.6,
    "npdes_points": 0,
    "pixel_col": 699.0,
    "pixel_row": 765.0,
    "population_density": 446.8,
    "position_along": 0.5,
    "protected_area_score": 30.3223,
    "rank": 6,
    "road_access_m": 158.7,
    "road_access_score": 1.0,
    "road_density_km_km2": 7.446,
    "robustness_pct": 45.5,
    "runoff_coeff_C": null,
    "seasonal_cv": null,
    "segment_id": 25,
    "segment_length_m": 354.5061,
    "stream_order": 3,
    "superfund_score": 0.0034,
    "tourism_amenity_density": 0.8754,
    "tri_facility_density": null,
    "usgs_mean_q_cfs": null,
    "velocity_feasibility": 1.0,
    "water_intake_score": 0.0077
   },
   "type": "Feature"
  },
  {
   "geometry": {
    "coordinates": [
     -78.051801,
     33.947523
    ],
    "type": "Point"
   },
   "properties": {
    "accumulation": 37070.0,
    "bank_slope_deg": 2.93,
    "bank_slope_score": 1.0,
    "beach_dist_km": 37.86,
    "bridge_proximity_bonus": 0.0,
    "catchment_area_km2": 3.7059,
    "channel_width_m": 3.57,
    "channel_width_score": 1.0,
    "composite_score": 41.8797,
    "cso_density": 0.0,
    "ej_index": 0.534,
    "elevation_m": 1.5727,
    "estuary_dist_km": 220.63,
    "feasibility_score": 35.7143,
    "flood_q10_cfs": 452.88,
    "flow_score": 18.4634,
    "flow_velocity_ms": 0.0917,
    "generation_score": 53.8616,
    "impact_score": 52.4941,
    "impervious_pct": 10.13,
    "land_ownership": 0.5,
    "lat": 33.9475,
    "litter_complaint_density": 0.0,
    "lon": -78.0518,
    "navigable_dist_m": 3079.9,
    "npdes_points": 3,
    "pixel_col": 1423.0,
    "pixel_row": 510.0,
    "population_density": 250.8,
    "position_along": 0.5,
    "protected_area_score": 37.244,
    "rank": 7,
    "road_access_m": 59.6,
    "road_access_score": 1.0,
    "road_density_km_km2": 5.626,
    "robustness_pct": 25.0,
    "runoff_coeff_C": 0.1412,
    "seasonal_cv": 0.7956,
    "segment_id": 12,
    "segment_length_m": 1785.5437,
    "stream_order": 1,
    "superfund_score": 0.0014,
    "tourism_amenity_density": 1.1141,
    "tri_facility_density": null,
    "usgs_mean_q_cfs": 6.147,
    "velocity_feasibility": 0.7,
    "water_intake_score": 0.0082
   },
   "type": "Feature"
  },
  {
   "geometry": {
    "coordinates": [
     -78.112944,
     33.935947
    ],
    "type": "Point"
   },
   "properties": {
    "accumulation": 20658.0,
    "bank_slope_deg": 1.03,
    "bank_slope_score": 1.0,
    "beach_dist_km": 42.58,
    "bridge_proximity_bonus": 0.0,
    "catchment_area_km2": 2.0652,
    "channel_width_m": 2.89,
    "channel_width_score": 1.0,
    "composite_score": 40.4589,
    "cso_density": 0.0,
    "ej_index": 0.3623,
    "elevation_m": 2.1802,
    "estuary_dist_km": 226.02,
    "feasibility_score": 35.7143,
    "flood_q10_cfs": 382.48,
    "flow_score": 27.9162,
    "flow_velocity_ms": 0.1553,
    "generation_score": 61.0963,
    "impact_score": 32.6461,
    "impervious_pct": 17.96,
    "land_ownership": 0.5,
    "lat": 33.9359,
    "litter_complaint_density": 0.0,
    "lon": -78.1129,
    "navigable_dist_m": 1488.9,
    "npdes_points": 1,
    "pixel_col": 862.0,
    "pixel_row": 655.0,
    "population_density": 316.6,
    "position_along": 0.5,
    "protected_area_score": 33.3066,
    "rank": 8,
    "road_access_m": 191.5,
    "road_access_score": 1.0,
    "road_density_km_km2": 5.985,
    "robustness_pct": 26.5,
    "runoff_coeff_C": 0.2116,
    "seasonal_cv": 0.8207,
    "segment_id": 16,
    "segment_length_m": 794.1468,
    "stream_order": 3,
    "superfund_score": 0.0031,
    "tourism_amenity_density": 1.1141,
    "tri_facility_density": null,
    "usgs_mean_q_cfs": 3.073,
    "velocity_feasibility": 0.7,
    "water_intake_score": 0.0083
   },
   "type": "Feature"
  },
  {
   "geometry": {
    "coordinates": [
     -78.11518,
     33.933769
    ],
    "type": "Point"
   },
   "properties": {
    "accumulation": 21963.0,
    "bank_slope_deg": 0.27,
    "bank_slope_score": 1.0,
    "beach_dist_km": 42.9,
    "bridge_proximity_bonus": 0.0,
    "catchment_area_km2": 2.1957,
    "channel_width_m": 2.95,
    "channel_width_score": 1.0,
    "composite_score": 40.2098,
    "cso_density": 0.0,
    "ej_index": 0.3702,
    "elevation_m": 1.1025,
    "estuary_dist_km": 226.33,
    "feasibility_score": 35.7143,
    "flood_q10_cfs": 396.8,
    "flow_score": 27.2549,
    "flow_velocity_ms": 0.117,
    "generation_score": 61.7616,
    "impact_score": 31.7016,
    "impervious_pct": 17.96,
    "land_ownership": 0.5,
    "lat": 33.9338,
    "litter_complaint_density": 0.0,
    "lon": -78.1152,
    "navigable_dist_m": 1212.9,
    "npdes_points": 1,
    "pixel_col": 843.0,
    "pixel_row": 678.0,
    "population_density": 330.1,
    "position_along": 0.5,
    "protected_area_score": 32.8166,
    "rank": 9,
    "road_access_m": 87.5,
    "road_access_score": 1.0,
    "road_density_km_km2": 5.866,
    "robustness_pct": 17.0,
    "runoff_coeff_C": 0.2116,
    "seasonal_cv": 0.8207,
    "segment_id": 18,
    "segment_length_m": 551.0456,
    "stream_order": 3,
    "superfund_score": 0.0031,
    "tourism_amenity_density": 1.1141,
    "tri_facility_density": null,
    "usgs_mean_q_cfs": 3.073,
    "velocity_feasibility": 0.7,
    "water_intake_score": 0.0082
   },
   "type": "Feature"
  },
  {
   "geometry": {
    "coordinates": [
     -78.108348,
     33.930995
    ],
    "type": "Point"
   },
   "properties": {
    "accumulation": 50099.0,
    "bank_slope_deg": 1.38,
    "bank_slope_score": 1.0,
    "beach_dist_km": 42.69,
    "bridge_proximity_bonus": 0.0,
    "catchment_area_km2": 5.0084,
    "channel_width_m": 3.98,
    "channel_width_score": 1.0,
    "composite_score": 39.4146,
    "cso_density": 0.0,
    "ej_index": 0.3907,
    "elevation_m": -0.3292,
    "estuary_dist_km": 225.98,
    "feasibility_score": 25.5102,
    "flood_q10_cfs": 651.03,
    "flow_score": 34.9186,
    "flow_velocity_ms": 0.1408,
    "generation_score": 56.9166,
    "impact_score": 32.6114,
    "impervious_pct": 17.96,
    "land_ownership": 0.5,
    "lat": 33.931,
    "litter_complaint_density": 0.0,
    "lon": -78.1083,
    "navigable_dist_m": 969.8,
    "npdes_points": 1,
    "pixel_col": 907.0,
    "pixel_row": 706.0,
    "population_density": 305.4,
    "position_along": 0.5,
    "protected_area_score": 32.7426,
    "rank": 10,
    "road_access_m": 431.0,
    "road_access_score": 0.8,
    "road_density_km_km2": 4.463,
    "robustness_pct": 4.5,
    "runoff_coeff_C": 0.2116,
    "seasonal_cv": 0.8207,
    "segment_id": 19,
    "segment_length_m": 1377.614,
    "stream_order": 3,
    "superfund_score": 0.0027,
    "tourism_amenity_density": 1.1141,
    "tri_facility_density": null,
    "usgs_mean_q_cfs": 3.073,
    "velocity_feasibility": 0.7,
    "water_intake_score": 0.0078
   },
   "type": "Feature"
  },
  {
   "geometry": {
    "coordinates": [
     -78.031672,
     33.965748
    ],
    "type": "Point"
   },
   "properties": {
    "accumulation": 25713.0,
    "bank_slope_deg": 1.25,
    "bank_slope_score": 1.0,
    "beach_dist_km": 35.11,
    "bridge_proximity_bonus": 0.0,
    "catchment_area_km2": 2.5705,
    "channel_width_m": 3.13,
    "channel_width_score": 1.0,
    "composite_score": 39.2783,
    "cso_density": 0.0,
    "ej_index": 0.6158,
    "elevation_m": 7.1607,
    "estuary_dist_km": 217.95,
    "feasibility_score": 35.7143,
    "flood_q10_cfs": 318.51,
    "flow_score": 32.5499,
    "flow_velocity_ms": 0.1404,
    "generation_score": 16.403,
    "impact_score": 69.5425,
    "impervious_pct": 4.44,
    "land_ownership": 0.5,
    "lat": 33.9657,
    "litter_complaint_density": 0.0,
    "lon": -78.0317,
    "navigable_dist_m": 5372.7,
    "npdes_points": 1,
    "pixel_col": 1603.0,
    "pixel_row": 303.0,
    "population_density": 23.7,
    "position_along": 0.5,
    "protected_area_score": 40.0808,
    "rank": 11,
    "road_access_m": 67.4,
    "road_access_score": 1.0,
    "road_density_km_km2": 2.678,
    "robustness_pct": 27.5,
    "runoff_coeff_C": 0.09,
    "seasonal_cv": 0.7799,
    "segment_id": 2,
    "segment_length_m": 1465.1747,
    "stream_order": 3,
    "superfund_score": 0.0011,
    "tourism_amenity_density": 2.6261,
    "tri_facility_density": null,
    "usgs_mean_q_cfs": 8.271,
    "velocity_feasibility": 0.7,
    "water_intake_score": 0.0093
   },
   "type": "Feature"
  },
  {
   "geometry": {
    "coordinates": [
     -78.134651,
     33.928244
    ],
    "type": "Point"
   },
   "properties": {
    "accumulation": 26249.0,
    "bank_slope_deg": 2.24,
    "bank_slope_score": 1.0,
    "beach_dist_km": 44.6,
    "bridge_proximity_bonus": 0.0,
    "catchment_area_km2": 2.6241,
    "channel_width_m": 3.15,
    "channel_width_score": 1.0,
    "composite_score": 37.3031,
    "cso_density": 0.0,
    "ej_index": 0.3547,
    "elevation_m": 2.6235,
    "estuary_dist_km": 228.16,
    "feasibility_score": 35.7143,
    "flood_q10_cfs": 375.63,
    "flow_score": 28.606,
    "flow_velocity_ms": 0.1376,
    "generation_score": 58.9324,
    "impact_score": 23.7156,
    "impervious_pct": 11.0,
    "land_ownership": 0.5,
    "lat": 33.9282,
    "litter_complaint_density": 0.0,
    "lon": -78.1347,
    "navigable_dist_m": 320.9,
    "npdes_points": 0,
    "pixel_col": 664.0,
    "pixel_row": 744.0,
    "population_density": 442.6,
    "position_along": 0.5,
    "protected_area_score": 30.2682,
    "rank": 12,
    "road_access_m": 54.5,
    "road_access_score": 1.0,
    "road_density_km_km2": 6.848,
    "robustness_pct": 0.0,
    "runoff_coeff_C": 0.149,
    "seasonal_cv": 0.7917,
    "segment_id": 24,
    "segment_length_m": 524.481,
    "stream_order": 3,
    "superfund_score": 0.0038,
    "tourism_amenity_density": 0.7958,
    "tri_facility_density": null,
    "usgs_mean_q_cfs": 4.197,
    "velocity_feasibility": 0.7,
    "water_intake_score": 0.0079
   },
   "type": "Feature"
  },
  {
   "geometry": {
    "coordinates": [
     -78.09497,
     33.947668
    ],
    "type": "Point"
   },
   "properties": {
    "accumulation": 22291.0,
    "bank_slope_deg": 2.72,
    "bank_slope_score": 1.0,
    "beach_dist_km": 40.49,
    "bridge_proximity_bonus": 0.0,
    "catchment_area_km2": 2.2284,
    "channel_width_m": 2.97,
    "channel_width_score": 1.0,
    "composite_score": 35.9236,
    "cso_density": 0.0,
    "ej_index": 0.2884,
    "elevation_m": 5.7256,
    "estuary_dist_km": 223.92,
    "feasibility_score": 35.7143,
    "flood_q10_cfs": 348.53,
    "flow_score": 25.1571,
    "flow_velocity_ms": 0.1431,
    "generation_score": 42.9416,
    "impact_score": 37.9825,
    "impervious_pct": 12.0,
    "land_ownership": 0.5,
    "lat": 33.9477,
    "litter_complaint_density": 0.0,
    "lon": -78.095,
    "navigable_dist_m": 2816.2,
    "npdes_points": 0,
    "pixel_col": 1025.0,
    "pixel_row": 520.0,
    "population_density": 221.1,
    "position_along": 0.5,
    "protected_area_score": 36.5578,
    "rank": 13,
    "road_access_m": 160.4,
    "road_access_score": 1.0,
    "road_density_km_km2": 5.969,
    "robustness_pct": 0.0,
    "runoff_coeff_C": 0.158,
    "seasonal_cv": 0.8409,
    "segment_id": 13,
    "segment_length_m": 1143.8008,
    "stream_order": 3,
    "superfund_score": 0.0027,
    "tourism_amenity_density": 1.0345,
    "tri_facility_density": null,
    "usgs_mean_q_cfs": 2.556,
    "velocity_feasibility": 0.7,
    "water_intake_score": 0.0091
   },
   "type": "Feature"
  },
  {
   "geometry": {
    "coordinates": [
     -78.183191,
     33.96531
    ],
    "type": "Point"
   },
   "properties": {
    "accumulation": 118555.0,
    "bank_slope_deg": 0.36,
    "bank_slope_score": 1.0,
    "beach_dist_km": 45.29,
    "bridge_proximity_bonus": 0.0,
    "catchment_area_km2": 11.852,
    "channel_width_m": 5.45,
    "channel_width_score": 1.0,
    "composite_score": 35.2638,
    "cso_density": 0.0,
    "ej_index": 0.395,
    "elevation_m": 0.4374,
    "estuary_dist_km": 229.67,
    "feasibility_score": 35.7143,
    "flood_q10_cfs": 750.58,
    "flow_score": 55.699,
    "flow_velocity_ms": 0.13,
    "generation_score": 14.7963,
    "impact_score": 38.4767,
    "impervious_pct": 1.84,
    "land_ownership": 0.5,
    "lat": 33.9653,
    "litter_complaint_density": 0.0,
    "lon": -78.1832,
    "navigable_dist_m": 4037.5,
    "npdes_points": 2,
    "pixel_col": 200.0,
    "pixel_row": 347.0,
    "population_density": 20.5,
    "position_along": 0.5,
    "protected_area_score": 27.5132,
    "rank": 14,
    "road_access_m": 153.8,
    "road_access_score": 1.0,
    "road_density_km_km2": 1.739,
    "robustness_pct": 6.0,
    "runoff_coeff_C": 0.0666,
    "seasonal_cv": 0.7122,
    "segment_id": 8,
    "segment_length_m": 1897.2429,
    "stream_order": 3,
    "superfund_score": 0.0444,
    "tourism_amenity_density": 0.0,
    "tri_facility_density": null,
    "usgs_mean_q_cfs": 12.464,
    "velocity_feasibility": 0.7,
    "water_intake_score": 0.0397
   },
   "type": "Feature"
  },
  {
   "geometry": {
    "coordinates": [
     -78.169301,
     33.91935
    ],
    "type": "Point"
   },
   "properties": {
    "accumulation": 49312.0,
    "bank_slope_deg": 2.26,
    "bank_slope_score": 1.0,
    "beach_dist_km": 47.59,
    "bridge_proximity_bonus": 0.0,
    "catchment_area_km2": 4.9297,
    "channel_width_m": 3.96,
    "channel_width_score": 1.0,
    "composite_score": 34.0098,
    "cso_density": 0.0,
    "ej_index": 0.4505,
    "elevation_m": -1.1422,
    "estuary_dist_km": 231.37,
    "feasibility_score": 35.7143,
    "flood_q10_cfs": 667.92,
    "flow_score": 20.7791,
    "flow_velocity_ms": 0.0667,
    "generation_score": 63.6505,
    "impact_score": 14.5424,
    "impervious_pct": 19.47,
    "land_ownership": 0.5,
    "lat": 33.9194,
    "litter_complaint_density": 0.0,
    "lon": -78.1693,
    "navigable_dist_m": 1031.2,
    "npdes_points": 0,
    "pixel_col": 342.0,
    "pixel_row": 850.0,
    "population_density": 356.3,
    "position_along": 0.75,
    "protected_area_score": 25.2322,
    "rank": 15,
    "road_access_m": 72.5,
    "road_access_score": 1.0,
    "road_density_km_km2": 6.837,
    "robustness_pct": 2.5,
    "runoff_coeff_C": 0.2252,
    "seasonal_cv": 0.7875,
    "segment_id": 26,
    "segment_length_m": 3639.412,
    "stream_order": 1,
    "superfund_score": 0.0043,
    "tourism_amenity_density": 0.6366,
    "tri_facility_density": null,
    "usgs_mean_q_cfs": 3.652,
    "velocity_feasibility": 0.7,
    "water_intake_score": 0.0074
   },
   "type": "Feature"
  },
  {
   "geometry": {
    "coordinates": [
     -78.087315,
     33.95182
    ],
    "type": "Point"
   },
   "properties": {
    "accumulation": 33582.0,
    "bank_slope_deg": 2.0,
    "bank_slope_score": 1.0,
    "beach_dist_km": 39.67,
    "bridge_proximity_bonus": 0.0,
    "catchment_area_km2": 3.3572,
    "channel_width_m": 3.45,
    "channel_width_score": 1.0,
    "composite_score": 34.0091,
    "cso_density": 0.0,
    "ej_index": 0.2811,
    "elevation_m": 5.4464,
    "estuary_dist_km": 223.08,
    "feasibility_score": 25.5102,
    "flood_q10_cfs": 380.56,
    "flow_score": 31.2849,
    "flow_velocity_ms": 0.1332,
    "generation_score": 33.6047,
    "impact_score": 40.9333,
    "impervious_pct": 5.2,
    "land_ownership": 0.5,
    "lat": 33.9518,
    "litter_complaint_density": 0.0,
    "lon": -78.0873,
    "navigable_dist_m": 3271.8,
    "npdes_points": 0,
    "pixel_col": 1093.0,
    "pixel_row": 472.0,
    "population_density": 239.0,
    "position_along": 0.5,
    "protected_area_score": 37.8608,
    "rank": 16,
    "road_access_m": 227.3,
    "road_access_score": 0.8,
    "road_density_km_km2": 5.083,
    "robustness_pct": 0.0,
    "runoff_coeff_C": 0.0968,
    "seasonal_cv": 0.7894,
    "segment_id": 11,
    "segment_length_m": 2411.7254,
    "stream_order": 3,
    "superfund_score": 0.0024,
    "tourism_amenity_density": 1.0345,
    "tri_facility_density": null,
    "usgs_mean_q_cfs": 6.238,
    "velocity_feasibility": 0.7,
    "water_intake_score": 0.0094
   },
   "type": "Feature"
  },
  {
   "geometry": {
    "coordinates": [
     -78.151567,
     33.917131
    ],
    "type": "Point"
   },
   "properties": {
    "accumulation": 37684.0,
    "bank_slope_deg": 3.47,
    "bank_slope_score": 1.0,
    "beach_dist_km": 46.58,
    "bridge_proximity_bonus": 0.0,
    "catchment_area_km2": 3.7673,
    "channel_width_m": 3.59,
    "channel_width_score": 1.0,
    "composite_score": 31.6656,
    "cso_density": 0.0,
    "ej_index": 0.2624,
    "elevation_m": -1.1431,
    "estuary_dist_km": 230.15,
    "feasibility_score": 35.7143,
    "flood_q10_cfs": 594.56,
    "flow_score": 16.1826,
    "flow_velocity_ms": 0.0772,
    "generation_score": 61.4342,
    "impact_score": 12.7751,
    "impervious_pct": 21.41,
    "land_ownership": 0.5,
    "lat": 33.9171,
    "litter_complaint_density": 0.0,
    "lon": -78.1516,
    "navigable_dist_m": 1083.1,
    "npdes_points": 0,
    "pixel_col": 507.0,
    "pixel_row": 872.0,
    "population_density": 274.7,
    "position_along": 0.25,
    "protected_area_score": 26.7749,
    "rank": 17,
    "road_access_m": 50.3,
    "road_access_score": 1.0,
    "road_density_km_km2": 7.268,
    "robustness_pct": 0.0,
    "runoff_coeff_C": 0.2427,
    "seasonal_cv": 0.8325,
    "segment_id": 26,
    "segment_length_m": 3639.412,
    "stream_order": 1,
    "superfund_score": 0.0036,
    "tourism_amenity_density": 0.8754,
    "tri_facility_density": null,
    "usgs_mean_q_cfs": 2.093,
    "velocity_feasibility": 0.7,
    "water_intake_score": 0.0071
   },
   "type": "Feature"
  },
  {
   "geometry": {
    "coordinates": [
     -78.128799,
     33.978511
    ],
    "type": "Point"
   },
   "properties": {
    "accumulation": 21365.0,
    "bank_slope_deg": 0.71,
    "bank_slope_score": 1.0,
    "beach_dist_km": 40.45,
    "bridge_proximity_bonus": 0.0,
    "catchment_area_km2": 2.1359,
    "channel_width_m": 2.92,
    "channel_width_score": 1.0,
    "composite_score": 30.8585,
    "cso_density": 0.0,
    "ej_index": 0.6338,
    "elevation_m": 9.9088,
    "estuary_dist_km": 224.65,
    "feasibility_score": 25.5102,
    "flood_q10_cfs": 266.53,
    "flow_score": 19.5442,
    "flow_velocity_ms": 0.1352,
    "generation_score": 7.2721,
    "impact_score": 66.5476,
    "impervious_pct": 1.56,
    "land_ownership": 0.5,
    "lat": 33.9785,
    "litter_complaint_density": 0.0,
    "lon": -78.1288,
    "navigable_dist_m": 5922.4,
    "npdes_points": 0,
    "pixel_col": 700.0,
    "pixel_row": 183.0,
    "population_density": 26.0,
    "position_along": 0.5,
    "protected_area_score": 38.4444,
    "rank": 18,
    "road_access_m": 408.4,
    "road_access_score": 0.8,
    "road_density_km_km2": 1.94,
    "robustness_pct": 5.0,
    "runoff_coeff_C": 0.064,
    "seasonal_cv": 0.7473,
    "segment_id": 1,
    "segment_length_m": 418.6388,
    "stream_order": 1,
    "superfund_score": 0.0078,
    "tourism_amenity_density": 0.1592,
    "tri_facility_density": null,
    "usgs_mean_q_cfs": 10.062,
    "velocity_feasibility": 0.7,
    "water_intake_score": 0.0412
   },
   "type": "Feature"
  },
  {
   "geometry": {
    "coordinates": [
     -78.177301,
     33.97149
    ],
    "type": "Point"
   },
   "properties": {
    "accumulation": 36715.0,
    "bank_slope_deg": 0.22,
    "bank_slope_score": 1.0,
    "beach_dist_km": 44.45,
    "bridge_proximity_bonus": 0.0,
    "catchment_area_km2": 3.6704,
    "channel_width_m": 3.56,
    "channel_width_score": 1.0,
    "composite_score": 29.6623,
    "cso_density": 0.0,
    "ej_index": 0.4238,
    "elevation_m": 2.0659,
    "estuary_dist_km": 228.85,
    "feasibility_score": 35.7143,
    "flood_q10_cfs": 367.28,
    "flow_score": 30.956,
    "flow_velocity_ms": 0.1308,
    "generation_score": 9.9707,
    "impact_score": 45.2497,
    "impervious_pct": 1.37,
    "land_ownership": 0.5,
    "lat": 33.9715,
    "litter_complaint_density": 0.0,
    "lon": -78.1773,
    "navigable_dist_m": 4763.0,
    "npdes_points": 0,
    "pixel_col": 254.0,
    "pixel_row": 277.0,
    "population_density": 21.0,
    "position_along": 0.5,
    "protected_area_score": 28.7811,
    "rank": 19,
    "road_access_m": 194.1,
    "road_access_score": 1.0,
    "road_density_km_km2": 3.407,
    "robustness_pct": 0.0,
    "runoff_coeff_C": 0.0623,
    "seasonal_cv": 0.752,
    "segment_id": 4,
    "segment_length_m": 734.1557,
    "stream_order": 3,
    "superfund_score": 0.0635,
    "tourism_amenity_density": 0.0,
    "tri_facility_density": null,
    "usgs_mean_q_cfs": 6.153,
    "velocity_feasibility": 0.7,
    "water_intake_score": 0.0421
   },
   "type": "Feature"
  },
  {
   "geometry": {
    "coordinates": [
     -78.171988,
     33.968979
    ],
    "type": "Point"
   },
   "properties": {
    "accumulation": 69938.0,
    "bank_slope_deg": 1.0,
    "bank_slope_score": 1.0,
    "beach_dist_km": 44.22,
    "bridge_proximity_bonus": 0.0,
    "catchment_area_km2": 6.9917,
    "channel_width_m": 4.5,
    "channel_width_score": 1.0,
    "composite_score": 26.3444,
    "cso_density": 0.0,
    "ej_index": 0.256,
    "elevation_m": 2.0152,
    "estuary_dist_km": 228.58,
    "feasibility_score": 15.3061,
    "flood_q10_cfs": 549.03,
    "flow_score": 37.098,
    "flow_velocity_ms": 0.1278,
    "generation_score": 11.0748,
    "impact_score": 38.1717,
    "impervious_pct": 2.02,
    "land_ownership": 0.5,
    "lat": 33.969,
    "litter_complaint_density": 0.0,
    "lon": -78.172,
    "navigable_dist_m": 4444.8,
    "npdes_points": 1,
    "pixel_col": 302.0,
    "pixel_row": 303.0,
    "population_density": 16.7,
    "position_along": 0.5,
    "protected_area_score": 29.3517,
    "rank": 20,
    "road_access_m": 553.9,
    "road_access_score": 0.6,
    "road_density_km_km2": 1.879,
    "robustness_pct": 0.0,
    "runoff_coeff_C": 0.0682,
    "seasonal_cv": 0.7656,
    "segment_id": 7,
    "segment_length_m": 954.8337,
    "stream_order": 3,
    "superfund_score": 0.0402,
    "tourism_amenity_density": 0.0,
    "tri_facility_density": null,
    "usgs_mean_q_cfs": 5.963,
    "velocity_feasibility": 0.7,
    "water_intake_score": 0.0406
   },
   "type": "Feature"
  },
  {
   "geometry": {
    "coordinates": [
     -78.17012,
     33.930268
    ],
    "type": "Point"
   },
   "properties": {
    "accumulation": 73064.0,
    "bank_slope_deg": 3.74,
    "bank_slope_score": 1.0,
    "beach_dist_km": 46.83,
    "bridge_proximity_bonus": 0.0,
    "catchment_area_km2": 7.3042,
    "channel_width_m": 4.57,
    "channel_width_score": 1.0,
    "composite_score": 25.287,
    "cso_density": 0.0,
    "ej_index": 0.2409,
    "elevation_m": -0.4573,
    "estuary_dist_km": 230.77,
    "feasibility_score": 25.5102,
    "flood_q10_cfs": 554.15,
    "flow_score": 41.9191,
    "flow_velocity_ms": 0.1552,
    "generation_score": 27.6525,
    "impact_score": 8.95,
    "impervious_pct": 1.29,
    "land_ownership": 0.5,
    "lat": 33.9303,
    "litter_complaint_density": 0.0,
    "lon": -78.1701,
    "navigable_dist_m": 151.1,
    "npdes_points": 0,
    "pixel_col": 332.0,
    "pixel_row": 733.0,
    "population_density": 256.1,
    "position_along": 0.5,
    "protected_area_score": 26.1517,
    "rank": 21,
    "road_access_m": 280.7,
    "road_access_score": 0.8,
    "road_density_km_km2": 4.103,
    "robustness_pct": 0.0,
    "runoff_coeff_C": 0.0616,
    "seasonal_cv": 0.7343,
    "segment_id": 22,
    "segment_length_m": 366.2201,
    "stream_order": 3,
    "superfund_score": 0.0061,
    "tourism_amenity_density": 0.1592,
    "tri_facility_density": null,
    "usgs_mean_q_cfs": 8.334,
    "velocity_feasibility": 0.7,
    "water_intake_score": 0.0084
   },
   "type": "Feature"
  },
  {
   "geometry": {
    "coordinates": [
     -78.176536,
     33.978277
    ],
    "type": "Point"
   },
   "properties": {
    "accumulation": 20874.0,
    "bank_slope_deg": 0.76,
    "bank_slope_score": 1.0,
    "beach_dist_km": 43.94,
    "bridge_proximity_bonus": 0.0,
    "catchment_area_km2": 2.0868,
    "channel_width_m": 2.9,
    "channel_width_score": 1.0,
    "composite_score": 24.3085,
    "cso_density": 0.0,
    "ej_index": 0.4883,
    "elevation_m": 3.8818,
    "estuary_dist_km": 228.39,
    "feasibility_score": 25.5102,
    "flood_q10_cfs": 258.53,
    "flow_score": 6.5189,
    "flow_velocity_ms": 0.1355,
    "generation_score": 8.6522,
    "impact_score": 54.1887,
    "impervious_pct": 0.85,
    "land_ownership": 0.5,
    "lat": 33.9783,
    "litter_complaint_density": 0.0,
    "lon": -78.1765,
    "navigable_dist_m": 5293.2,
    "npdes_points": 0,
    "pixel_col": 259.0,
    "pixel_row": 201.0,
    "population_density": 25.1,
    "position_along": 0.5,
    "protected_area_score": 29.3974,
    "rank": 22,
    "road_access_m": 248.7,
    "road_access_score": 0.8,
    "road_density_km_km2": 2.985,
    "robustness_pct": 0.0,
    "runoff_coeff_C": 0.0576,
    "seasonal_cv": 0.8296,
    "segment_id": 0,
    "segment_length_m": 477.9193,
    "stream_order": 1,
    "superfund_score": 0.108,
    "tourism_amenity_density": 0.0,
    "tri_facility_density": null,
    "usgs_mean_q_cfs": 1.902,
    "velocity_feasibility": 0.7,
    "water_intake_score": 0.0453
   },
   "type": "Feature"
  },
  {
   "geometry": {
    "coordinates": [
     -78.168614,
     33.968058
    ],
    "type": "Point"
   },
   "properties": {
    "accumulation": 20177.0,
    "bank_slope_deg": 0.76,
    "bank_slope_score": 1.0,
    "beach_dist_km": 44.04,
    "bridge_proximity_bonus": 0.0,
    "catchment_area_km2": 2.0171,
    "channel_width_m": 2.86,
    "channel_width_score": 1.0,
    "composite_score": 19.8618,
    "cso_density": 0.0,
    "ej_index": 0.0978,
    "elevation_m": 3.4127,
    "estuary_dist_km": 228.37,
    "feasibility_score": 15.3061,
    "flood_q10_cfs": 260.3,
    "flow_score": 27.6358,
    "flow_velocity_ms": 0.1486,
    "generation_score": 2.5584,
    "impact_score": 32.9649,
    "impervious_pct": 2.02,
    "land_ownership": 0.5,
    "lat": 33.9681,
    "litter_complaint_density": 0.0,
    "lon": -78.1686,
    "navigable_dist_m": 4344.0,
    "npdes_points": 0,
    "pixel_col": 336.0,
    "pixel_row": 309.0,
    "population_density": 12.2,
    "position_along": 0.5,
    "protected_area_score": 29.9076,
    "rank": 23,
    "road_access_m": 871.8,
    "road_access_score": 0.6,
    "road_density_km_km2": 0.0,
    "robustness_pct": 0.0,
    "runoff_coeff_C": 0.0682,
    "seasonal_cv": 0.7656,
    "segment_id": 6,
    "segment_length_m": 126.5499,
    "stream_order": 3,
    "superfund_score": 0.0324,
    "tourism_amenity_density": 0.0,
    "tri_facility_density": null,
    "usgs_mean_q_cfs": 5.963,
    "velocity_feasibility": 0.7,
    "water_intake_score": 0.04
   },
   "type": "Feature"
  },
  {
   "geometry": {
    "coordinates": [
     -78.163939,
     33.96935
    ],
    "type": "Point"
   },
   "properties": {
    "accumulation": 33595.0,
    "bank_slope_deg": 0.72,
    "bank_slope_score": 1.0,
    "beach_dist_km": 43.61,
    "bridge_proximity_bonus": 0.0,
    "catchment_area_km2": 3.3585,
    "channel_width_m": 3.45,
    "channel_width_score": 1.0,
    "composite_score": 18.5967,
    "cso_density": 0.0,
    "ej_index": 0.0922,
    "elevation_m": 5.0409,
    "estuary_dist_km": 227.93,
    "feasibility_score": 0.0,
    "flood_q10_cfs": 355.91,
    "flow_score": 29.7955,
    "flow_velocity_ms": 0.158,
    "generation_score": 2.9178,
    "impact_score": 34.2415,
    "impervious_pct": 2.31,
    "land_ownership": 0.5,
    "lat": 33.9694,
    "litter_complaint_density": 0.0,
    "lon": -78.1639,
    "navigable_dist_m": 4524.7,
    "npdes_points": 0,
    "pixel_col": 377.0,
    "pixel_row": 295.0,
    "population_density": 12.1,
    "position_along": 0.5,
    "protected_area_score": 30.6892,
    "rank": 24,
    "road_access_m": 1143.5,
    "road_access_score": 0.3,
    "road_density_km_km2": 0.0,
    "robustness_pct": 0.0,
    "runoff_coeff_C": 0.0708,
    "seasonal_cv": 0.7754,
    "segment_id": 5,
    "segment_length_m": 1133.8023,
    "stream_order": 3,
    "superfund_score": 0.0277,
    "tourism_amenity_density": 0.0,
    "tri_facility_density": null,
    "usgs_mean_q_cfs": 5.258,
    "velocity_feasibility": 0.7,
    "water_intake_score": 0.0402
   },
   "type": "Feature"
  },
  {
   "geometry": {
    "coordinates": [
     -78.165037,
     33.933839
    ],
    "type": "Point"
   },
   "properties": {
    "accumulation": 24250.0,
    "bank_slope_deg": 0.34,
    "bank_slope_score": 1.0,
    "beach_dist_km": 46.22,
    "bridge_proximity_bonus": 0.0,
    "catchment_area_km2": 2.4243,
    "channel_width_m": 3.06,
    "channel_width_score": 1.0,
    "composite_score": 13.8048,
    "cso_density": 0.0,
    "ej_index": 0.146,
    "elevation_m": 2.2663,
    "estuary_dist_km": 230.16,
    "feasibility_score": 15.3061,
    "flood_q10_cfs": 292.03,
    "flow_score": 22.8327,
    "flow_velocity_ms": 0.1311,
    "generation_score": 11.2632,
    "impact_score": 8.0726,
    "impervious_pct": 2.22,
    "land_ownership": 0.5,
    "lat": 33.9338,
    "litter_complaint_density": 0.0,
    "lon": -78.165,
    "navigable_dist_m": 613.1,
    "npdes_points": 0,
    "pixel_col": 377.0,
    "pixel_row": 692.0,
    "population_density": 83.2,
    "position_along": 0.5,
    "protected_area_score": 27.2189,
    "rank": 25,
    "road_access_m": 701.4,
    "road_access_score": 0.6,
    "road_density_km_km2": 1.587,
    "robustness_pct": 0.0,
    "runoff_coeff_C": 0.07,
    "seasonal_cv": 0.8155,
    "segment_id": 21,
    "segment_length_m": 1224.4995,
    "stream_order": 3,
    "superfund_score": 0.0065,
    "tourism_amenity_density": 0.0796,
    "tri_facility_density": null,
    "usgs_mean_q_cfs": 2.679,
    "velocity_feasibility": 0.7,
    "water_intake_score": 0.0087
   },
   "type": "Feature"
  },
  {
   "geometry": {
    "coordinates": [
     -78.171642,
     33.937356
    ],
    "type": "Point"
   },
   "properties": {
    "accumulation": 39932.0,
    "bank_slope_deg": 0.58,
    "bank_slope_score": 1.0,
    "beach_dist_km": 46.42,
    "bridge_proximity_bonus": 0.0,
    "catchment_area_km2": 3.992,
    "channel_width_m": 3.67,
    "channel_width_score": 1.0,
    "composite_score": 10.4454,
    "cso_density": 0.0,
    "ej_index": 0.1078,
    "elevation_m": 3.4074,
    "estuary_dist_km": 230.45,
    "feasibility_score": 0.0,
    "flood_q10_cfs": 383.68,
    "flow_score": 31.0034,
    "flow_velocity_ms": 0.1337,
    "generation_score": 3.0716,
    "impact_score": 5.9102,
    "impervious_pct": 1.08,
    "land_ownership": 0.5,
    "lat": 33.9374,
    "litter_complaint_density": 0.0,
    "lon": -78.1716,
    "navigable_dist_m": 939.3,
    "npdes_points": 0,
    "pixel_col": 319.0,
    "pixel_row": 654.0,
    "population_density": 32.3,
    "position_along": 0.5,
    "protected_area_score": 26.7885,
    "rank": 26,
    "road_access_m": 1076.6,
    "road_access_score": 0.3,
    "road_density_km_km2": 0.14,
    "robustness_pct": 0.0,
    "runoff_coeff_C": 0.0597,
    "seasonal_cv": 0.7559,
    "segment_id": 15,
    "segment_length_m": 1788.2641,
    "stream_order": 3,
    "superfund_score": 0.0079,
    "tourism_amenity_density": 0.0,
    "tri_facility_density": null,
    "usgs_mean_q_cfs": 5.776,
    "velocity_feasibility": 0.7,
    "water_intake_score": 0.0091
   },
   "type": "Feature"
  }
 ],
 "note": "GRIME region 'Oak Island, NC' \u2014 real-data pipeline (DEM\u2192streams\u2192candidates\u2192stream mask (sites confined to \u00b1150 m of mapped OSM/NHD waterways)\u2192region-appropriate real parameters\u2192shipped scoring, math unchanged). Width curve: Bieger et al. 2015 JAWRA Table 3, Atlantic Plain. Flood: SIR 2014-5030 HR4 (I24H50Y: NOAA Atlas 14). NC Coastal Plain (SIR 2014-5030 HR4; I24H50Y from NOAA Atlas 14 at region center); merged nearby towns: St. James, Caswell Beach",
 "provenance": {
  "candidates_pre_gate": 26,
  "constant": [
   "bank_slope_score",
   "channel_width_score",
   "cso_density",
   "litter_complaint_density",
   "tri_facility_density"
  ],
  "gated_navigable": 0,
  "hard_gate_removed": 0,
  "n_parameters": 27,
  "parameters": {
   "bank_slope_score": {
    "kind": "real",
    "n_real": 26,
    "n_sites": 26,
    "source": "region DEM gradient (3x3)"
   },
   "beach_dist_km": {
    "kind": "real",
    "n_real": 26,
    "n_sites": 26,
    "source": "haversine to region ref: Wrightsville Beach (shipped NC reference)"
   },
   "bridge_proximity_bonus": {
    "kind": "real",
    "n_real": 26,
    "n_sites": 26,
    "source": "FHWA/BTS NBI (NTAD), 50 m proximity"
   },
   "catchment_area_km2": {
    "kind": "real",
    "n_real": 26,
    "n_sites": 26,
    "source": "DEM flow accumulation (pipeline)"
   },
   "channel_width_score": {
    "kind": "real",
    "n_real": 26,
    "n_sites": 26,
    "source": "Bieger 2015 APL width curve on DEM drainage area \u2192 shipped width curve"
   },
   "cso_density": {
    "kind": "real",
    "n_real": 26,
    "n_sites": 26,
    "source": "EPA ECHO CSO inventory (national bulk), Cauchy proximity"
   },
   "ej_index": {
    "kind": "real",
    "n_real": 26,
    "n_sites": 26,
    "source": "Census ACS C17002+B03002 two-component demographic index, percentile-ranked within region"
   },
   "estuary_dist_km": {
    "kind": "real",
    "n_real": 26,
    "n_sites": 26,
    "source": "haversine to region ref: Pamlico Sound (shipped NC reference)"
   },
   "flood_q10_cfs": {
    "kind": "real",
    "n_real": 26,
    "n_sites": 26,
    "source": "USGS SIR 2014-5030 Table 7 HR4 (NC Coastal Plain; I24H50Y from NOAA Atlas 14 at region center)"
   },
   "flow_velocity_ms": {
    "kind": "real",
    "n_real": 25,
    "n_sites": 26,
    "source": "Manning (region DEM/D8) blended with EROM continuity (shipped M4 logic)"
   },
   "impervious_pct": {
    "kind": "real",
    "n_real": 25,
    "n_sites": 26,
    "source": "EPA StreamCat pctimp2019 (per NHDPlus watershed)"
   },
   "land_ownership": {
    "kind": "real",
    "n_real": 22,
    "n_sites": 26,
    "source": "NC OneMap statewide parcels (NC Parcels Transformer) ownname"
   },
   "litter_complaint_density": {
    "kind": "fallback",
    "n_real": 0,
    "n_sites": 26,
    "source": "no machine-readable 311/litter source for this region"
   },
   "navigable_dist_m": {
    "kind": "real",
    "n_real": 26,
    "n_sites": 26,
    "source": "USACE/BTS National Waterway Network lines (NTAD, retrieved 2026-07-10), distance to nearest navigable segment"
   },
   "npdes_points": {
    "kind": "real",
    "n_real": 26,
    "n_sites": 26,
    "source": "EPA ECHO NPDES outfalls (national bulk), per catchment"
   },
   "population_density": {
    "kind": "real",
    "n_real": 26,
    "n_sites": 26,
    "source": "Census ACS 2022 B01003 block groups (bbox, multi-county), area-weighted"
   },
   "protected_area_score": {
    "kind": "real",
    "n_real": 26,
    "n_sites": 26,
    "source": "USGS PAD-US 4.1 NC state clip (local GDB, retrieved 2026-07-10), shipped designation-weighted proximity curve"
   },
   "road_access_score": {
    "kind": "real",
    "n_real": 26,
    "n_sites": 26,
    "source": "OSM drive network nearest-node distance"
   },
   "road_density_km_km2": {
    "kind": "real",
    "n_real": 26,
    "n_sites": 26,
    "source": "OSM drive network (osmnx, cached) clipped per catchment"
   },
   "runoff_coeff_C": {
    "kind": "real",
    "n_real": 25,
    "n_sites": 26,
    "source": "derived from real impervious_pct (C=0.05+0.009*I)"
   },
   "seasonal_cv": {
    "kind": "real",
    "n_real": 25,
    "n_sites": 26,
    "source": "CV of NHDPlus EROM monthly flows per COMID"
   },
   "stream_order": {
    "kind": "real",
    "n_real": 26,
    "n_sites": 26,
    "source": "DEM stream-network confluence heuristic (pipeline)"
   },
   "superfund_score": {
    "kind": "real",
    "n_real": 26,
    "n_sites": 26,
    "source": "EPA Envirofacts SEMS state=NC (sign-fixed, georeferenced sites), shipped 500 m inverse-distance curve"
   },
   "tourism_amenity_density": {
    "kind": "real",
    "n_real": 26,
    "n_sites": 26,
    "source": "OSM leisure/tourism features per 2 km radius"
   },
   "tri_facility_density": {
    "kind": "real",
    "n_real": 0,
    "n_sites": 26,
    "source": "EPA Envirofacts TRI state=NC (sign-fixed), per catchment"
   },
   "usgs_mean_q_cfs": {
    "kind": "real",
    "n_real": 25,
    "n_sites": 26,
    "source": "NHDPlus EROM qe_ma per COMID (snap-guarded)"
   },
   "velocity_feasibility": {
    "kind": "real",
    "n_real": 25,
    "n_sites": 26,
    "source": "shipped step curve on the computed velocity"
   },
   "velocity_transport_favorability": {
    "kind": "derived",
    "n_real": 25,
    "n_sites": 26,
    "source": "scored form of flow_velocity_ms inside the Flow family \u2014 peaked Gaussian exp(-((v-0.9)/0.6)^2), model.json curves.velocity_transport_favorability; construct: transport/delivery favorability, deliberately distinct from velocity_feasibility (device operability)"
   },
   "water_intake_score": {
    "kind": "real",
    "n_real": 26,
    "n_sites": 26,
    "source": "NC OneMap / NC DEQ SWAP public water supply sources (source_typ='Surface Water'), shipped exp(-d/10km) curve"
   }
  },
  "stream_mask": {
   "buffer_m": 150.0,
   "pre_mask": 49,
   "removed": 23,
   "sources": [
    "osm-overpass (all waterway ways)",
    "usgs-nhdplus flowlines"
   ]
  },
  "varying": [
   "beach_dist_km",
   "bridge_proximity_bonus",
   "catchment_area_km2",
   "ej_index",
   "estuary_dist_km",
   "flood_q10_cfs",
   "flow_velocity_ms",
   "impervious_pct",
   "land_ownership",
   "npdes_points",
   "population_density",
   "protected_area_score",
   "road_access_score",
   "road_density_km_km2",
   "runoff_coeff_C",
   "seasonal_cv",
   "stream_order",
   "superfund_score",
   "tourism_amenity_density",
   "usgs_mean_q_cfs",
   "velocity_feasibility",
   "water_intake_score"
  ]
 },
 "region": {
  "bbox": [
   -78.2042,
   33.8433,
   -78.0155,
   33.9925
  ],
  "beach_ref": {
   "label": "Wrightsville Beach (shipped NC reference)",
   "lat": 34.21,
   "lon": -77.79
  },
  "center": [
   -78.119793,
   33.913278
  ],
  "estuary_ref": {
   "label": "Pamlico Sound (shipped NC reference)",
   "lat": 35.05,
   "lon": -76.05
  },
  "flood_method": "sir2014_hr4",
  "name": "Oak Island, NC",
  "notes": "NC Coastal Plain (SIR 2014-5030 HR4; I24H50Y from NOAA Atlas 14 at region center); merged nearby towns: St. James, Caswell Beach",
  "slug": "oak-island",
  "state": "NC",
  "utm_epsg": 32617,
  "width_curve": {
   "a": 2.22,
   "b": 0.363,
   "code": "APL",
   "source": "Bieger et al. 2015 JAWRA Table 3, Atlantic Plain"
  }
 },
 "type": "FeatureCollection"
}
