{
 "features": [
  {
   "geometry": {
    "coordinates": [
     -78.59176,
     36.298657
    ],
    "type": "Point"
   },
   "properties": {
    "accumulation": 24574.0,
    "bank_slope_deg": 16.31,
    "bank_slope_score": 0.5,
    "bank_slope_source": "nc-dps-lidar-dem03-cross-section",
    "beach_dist_km": 243.39,
    "bridge_proximity_bonus": 0.0,
    "catchment_area_km2": 2.4535,
    "channel_width_m": 4.53,
    "channel_width_score": 1.0,
    "composite_score": 60.1769,
    "cso_density": 0.0,
    "ej_index": 0.8768,
    "elevation_m": 124.1424,
    "estuary_dist_km": 268.3,
    "feasibility_score": 66.2338,
    "flood_q10_cfs": 559.21,
    "flow_score": 24.6455,
    "flow_velocity_ms": 0.0734,
    "generation_score": 73.3053,
    "impact_score": 73.6295,
    "impervious_pct": 24.26,
    "land_ownership": 0.5,
    "lat": 36.2987,
    "litter_complaint_density": 0.0,
    "lon": -78.5918,
    "navigable_dist_m": null,
    "npdes_points": 1,
    "pixel_col": 422.0,
    "pixel_row": 717.0,
    "population_density": 261.2,
    "position_along": 0.5,
    "protected_area_score": 8.4465,
    "rank": 1,
    "road_access_m": 92.6,
    "road_access_score": 1.0,
    "road_density_km_km2": 4.901,
    "robustness_pct": 99.5,
    "runoff_coeff_C": 0.2683,
    "seasonal_cv": 0.4305,
    "segment_id": 12,
    "segment_length_m": 600.6459,
    "stream_order": 3,
    "superfund_score": 0.2708,
    "tourism_amenity_density": 0.8754,
    "tri_facility_density": 0.4076,
    "usgs_mean_q_cfs": 1.394,
    "velocity_feasibility": 0.7,
    "water_intake_score": 0.5633
   },
   "type": "Feature"
  },
  {
   "geometry": {
    "coordinates": [
     -78.562928,
     36.311124
    ],
    "type": "Point"
   },
   "properties": {
    "accumulation": 203114.0,
    "bank_slope_deg": 0.78,
    "bank_slope_score": 1.0,
    "bank_slope_source": "nc-dps-lidar-dem03-cross-section",
    "beach_dist_km": 243.94,
    "bridge_proximity_bonus": 0.0,
    "catchment_area_km2": 20.2789,
    "channel_width_m": 10.88,
    "channel_width_score": 1.0,
    "composite_score": 55.7779,
    "cso_density": 0.0,
    "ej_index": 0.59,
    "elevation_m": 112.5966,
    "estuary_dist_km": 266.78,
    "feasibility_score": 84.4156,
    "flood_q10_cfs": 1603.58,
    "flow_score": 71.254,
    "flow_velocity_ms": 0.0955,
    "generation_score": 44.5497,
    "impact_score": 39.7905,
    "impervious_pct": 4.2,
    "land_ownership": 0.5,
    "lat": 36.3111,
    "litter_complaint_density": 0.0,
    "lon": -78.5629,
    "navigable_dist_m": null,
    "npdes_points": 11,
    "pixel_col": 675.0,
    "pixel_row": 574.0,
    "population_density": 204.6,
    "position_along": 0.5,
    "protected_area_score": 7.0092,
    "rank": 2,
    "road_access_m": 186.8,
    "road_access_score": 1.0,
    "road_density_km_km2": 4.799,
    "robustness_pct": 100.0,
    "runoff_coeff_C": 0.0878,
    "seasonal_cv": 0.4268,
    "segment_id": 9,
    "segment_length_m": 1335.3265,
    "stream_order": 3,
    "superfund_score": 0.0516,
    "tourism_amenity_density": 0.3979,
    "tri_facility_density": 0.0986,
    "usgs_mean_q_cfs": 25.502,
    "velocity_feasibility": 0.7,
    "water_intake_score": 0.5212
   },
   "type": "Feature"
  },
  {
   "geometry": {
    "coordinates": [
     -78.594003,
     36.306235
    ],
    "type": "Point"
   },
   "properties": {
    "accumulation": 38921.0,
    "bank_slope_deg": 12.97,
    "bank_slope_score": 1.0,
    "bank_slope_source": "nc-dps-lidar-dem03-cross-section",
    "beach_dist_km": 244.25,
    "bridge_proximity_bonus": 0.0,
    "catchment_area_km2": 3.8859,
    "channel_width_m": 5.48,
    "channel_width_score": 1.0,
    "composite_score": 55.7352,
    "cso_density": 0.0,
    "ej_index": 0.6987,
    "elevation_m": 128.8192,
    "estuary_dist_km": 268.9,
    "feasibility_score": 63.6364,
    "flood_q10_cfs": 722.29,
    "flow_score": 27.4313,
    "flow_velocity_ms": 0.0397,
    "generation_score": 73.4282,
    "impact_score": 57.6783,
    "impervious_pct": 19.08,
    "land_ownership": 0.5,
    "lat": 36.3062,
    "litter_complaint_density": 0.0,
    "lon": -78.594,
    "navigable_dist_m": null,
    "npdes_points": 2,
    "pixel_col": 398.0,
    "pixel_row": 635.0,
    "population_density": 365.6,
    "position_along": 0.5,
    "protected_area_score": 8.3386,
    "rank": 3,
    "road_access_m": 52.9,
    "road_access_score": 1.0,
    "road_density_km_km2": 8.612,
    "robustness_pct": 99.0,
    "runoff_coeff_C": 0.2217,
    "seasonal_cv": 0.4168,
    "segment_id": 10,
    "segment_length_m": 2434.6897,
    "stream_order": 3,
    "superfund_score": 0.2411,
    "tourism_amenity_density": 0.7958,
    "tri_facility_density": 0.2573,
    "usgs_mean_q_cfs": 2.497,
    "velocity_feasibility": 0.3,
    "water_intake_score": 0.5403
   },
   "type": "Feature"
  },
  {
   "geometry": {
    "coordinates": [
     -78.581693,
     36.290509
    ],
    "type": "Point"
   },
   "properties": {
    "accumulation": 99972.0,
    "bank_slope_deg": 18.88,
    "bank_slope_score": 0.5,
    "bank_slope_source": "nc-dps-lidar-dem03-cross-section",
    "beach_dist_km": 242.25,
    "bridge_proximity_bonus": 0.0,
    "catchment_area_km2": 9.9812,
    "channel_width_m": 8.11,
    "channel_width_score": 1.0,
    "composite_score": 50.0947,
    "cso_density": 0.0,
    "ej_index": 0.7402,
    "elevation_m": 119.3991,
    "estuary_dist_km": 267.06,
    "feasibility_score": 43.5065,
    "flood_q10_cfs": 1296.6,
    "flow_score": 44.6973,
    "flow_velocity_ms": 0.1234,
    "generation_score": 42.6501,
    "impact_score": 65.3313,
    "impervious_pct": 17.24,
    "land_ownership": 0.5,
    "lat": 36.2905,
    "litter_complaint_density": 0.0,
    "lon": -78.5817,
    "navigable_dist_m": null,
    "npdes_points": 4,
    "pixel_col": 513.0,
    "pixel_row": 807.0,
    "population_density": 227.8,
    "position_along": 0.5,
    "protected_area_score": 8.2626,
    "rank": 4,
    "road_access_m": 205.6,
    "road_access_score": 0.8,
    "road_density_km_km2": 3.52,
    "robustness_pct": 100.0,
    "runoff_coeff_C": 0.2052,
    "seasonal_cv": 0.4098,
    "segment_id": 13,
    "segment_length_m": 2400.159,
    "stream_order": 3,
    "superfund_score": 0.1179,
    "tourism_amenity_density": 0.3979,
    "tri_facility_density": 0.0,
    "usgs_mean_q_cfs": 6.189,
    "velocity_feasibility": 0.7,
    "water_intake_score": 0.5869
   },
   "type": "Feature"
  },
  {
   "geometry": {
    "coordinates": [
     -78.601748,
     36.285336
    ],
    "type": "Point"
   },
   "properties": {
    "accumulation": 20155.0,
    "bank_slope_deg": 14.92,
    "bank_slope_score": 1.0,
    "bank_slope_source": "nc-dps-lidar-dem03-cross-section",
    "beach_dist_km": 242.25,
    "bridge_proximity_bonus": 0.0,
    "catchment_area_km2": 2.0123,
    "channel_width_m": 4.17,
    "channel_width_score": 1.0,
    "composite_score": 40.3364,
    "cso_density": 0.0,
    "ej_index": 0.8036,
    "elevation_m": 124.5854,
    "estuary_dist_km": 268.32,
    "feasibility_score": 38.961,
    "flood_q10_cfs": 419.21,
    "flow_score": 8.8172,
    "flow_velocity_ms": 0.1118,
    "generation_score": 30.5417,
    "impact_score": 77.0847,
    "impervious_pct": 16.33,
    "land_ownership": 0.5,
    "lat": 36.2853,
    "litter_complaint_density": 0.0,
    "lon": -78.6017,
    "navigable_dist_m": null,
    "npdes_points": 3,
    "pixel_col": 336.0,
    "pixel_row": 868.0,
    "population_density": 162.2,
    "position_along": 0.5,
    "protected_area_score": 8.95,
    "rank": 5,
    "road_access_m": 792.9,
    "road_access_score": 0.6,
    "road_density_km_km2": 0.005,
    "robustness_pct": 49.0,
    "runoff_coeff_C": 0.197,
    "seasonal_cv": 0.4197,
    "segment_id": 16,
    "segment_length_m": 92.3524,
    "stream_order": 1,
    "superfund_score": 0.2489,
    "tourism_amenity_density": 0.4775,
    "tri_facility_density": 0.0,
    "usgs_mean_q_cfs": 2.139,
    "velocity_feasibility": 0.7,
    "water_intake_score": 0.6139
   },
   "type": "Feature"
  },
  {
   "geometry": {
    "coordinates": [
     -78.586628,
     36.332506
    ],
    "type": "Point"
   },
   "properties": {
    "accumulation": 156524.0,
    "bank_slope_deg": 11.46,
    "bank_slope_score": 1.0,
    "bank_slope_source": "nc-dps-lidar-dem03-cross-section",
    "beach_dist_km": 246.84,
    "bridge_proximity_bonus": 0.0,
    "catchment_area_km2": 15.6274,
    "channel_width_m": 9.76,
    "channel_width_score": 1.0,
    "composite_score": 38.9167,
    "cso_density": 0.0,
    "ej_index": 0.6661,
    "elevation_m": 121.7204,
    "estuary_dist_km": 269.83,
    "feasibility_score": 61.6883,
    "flood_q10_cfs": 1412.06,
    "flow_score": 54.3581,
    "flow_velocity_ms": 0.1768,
    "generation_score": 18.5583,
    "impact_score": 35.0214,
    "impervious_pct": 5.44,
    "land_ownership": 0.5,
    "lat": 36.3325,
    "litter_complaint_density": 0.0,
    "lon": -78.5866,
    "navigable_dist_m": null,
    "npdes_points": 0,
    "pixel_col": 459.0,
    "pixel_row": 342.0,
    "population_density": 141.8,
    "position_along": 0.5,
    "protected_area_score": 7.0224,
    "rank": 6,
    "road_access_m": 289.9,
    "road_access_score": 0.8,
    "road_density_km_km2": 3.446,
    "robustness_pct": 44.5,
    "runoff_coeff_C": 0.099,
    "seasonal_cv": 0.4132,
    "segment_id": 7,
    "segment_length_m": 1660.3353,
    "stream_order": 3,
    "superfund_score": 0.0415,
    "tourism_amenity_density": 1.8303,
    "tri_facility_density": 0.0,
    "usgs_mean_q_cfs": 10.6,
    "velocity_feasibility": 0.7,
    "water_intake_score": 0.4676
   },
   "type": "Feature"
  },
  {
   "geometry": {
    "coordinates": [
     -78.573387,
     36.32082
    ],
    "type": "Point"
   },
   "properties": {
    "accumulation": 46733.0,
    "bank_slope_deg": 18.83,
    "bank_slope_score": 0.5,
    "bank_slope_source": "nc-dps-lidar-dem03-cross-section",
    "beach_dist_km": 245.25,
    "bridge_proximity_bonus": 0.0,
    "catchment_area_km2": 4.6658,
    "channel_width_m": 5.91,
    "channel_width_score": 1.0,
    "composite_score": 36.5899,
    "cso_density": 0.0,
    "ej_index": 0.5641,
    "elevation_m": 115.7898,
    "estuary_dist_km": 268.14,
    "feasibility_score": 66.2338,
    "flood_q10_cfs": 651.06,
    "flow_score": 34.3134,
    "flow_velocity_ms": 0.1029,
    "generation_score": 24.9948,
    "impact_score": 35.2601,
    "impervious_pct": 5.27,
    "land_ownership": 0.5,
    "lat": 36.3208,
    "litter_complaint_density": 0.0,
    "lon": -78.5734,
    "navigable_dist_m": null,
    "npdes_points": 2,
    "pixel_col": 581.0,
    "pixel_row": 465.0,
    "population_density": 189.2,
    "position_along": 0.5,
    "protected_area_score": 7.1202,
    "rank": 7,
    "road_access_m": 163.5,
    "road_access_score": 1.0,
    "road_density_km_km2": 3.821,
    "robustness_pct": 4.0,
    "runoff_coeff_C": 0.0974,
    "seasonal_cv": 0.4147,
    "segment_id": 8,
    "segment_length_m": 2268.9646,
    "stream_order": 3,
    "superfund_score": 0.0512,
    "tourism_amenity_density": 1.0345,
    "tri_facility_density": 0.0,
    "usgs_mean_q_cfs": 12.116,
    "velocity_feasibility": 0.7,
    "water_intake_score": 0.4959
   },
   "type": "Feature"
  },
  {
   "geometry": {
    "coordinates": [
     -78.559974,
     36.322869
    ],
    "type": "Point"
   },
   "properties": {
    "accumulation": 130354.0,
    "bank_slope_deg": 22.3,
    "bank_slope_score": 0.5,
    "bank_slope_source": "nc-dps-lidar-dem03-cross-section",
    "beach_dist_km": 245.12,
    "bridge_proximity_bonus": 0.0,
    "catchment_area_km2": 13.0145,
    "channel_width_m": 9.05,
    "channel_width_score": 1.0,
    "composite_score": 32.9901,
    "cso_density": 0.0,
    "ej_index": 0.51,
    "elevation_m": 115.6593,
    "estuary_dist_km": 267.23,
    "feasibility_score": 20.7792,
    "flood_q10_cfs": 1215.07,
    "flow_score": 50.0308,
    "flow_velocity_ms": 0.1663,
    "generation_score": 28.9616,
    "impact_score": 28.9236,
    "impervious_pct": 1.9,
    "land_ownership": 0.5,
    "lat": 36.3229,
    "litter_complaint_density": 0.0,
    "lon": -78.56,
    "navigable_dist_m": null,
    "npdes_points": 5,
    "pixel_col": 701.0,
    "pixel_row": 442.0,
    "population_density": 110.6,
    "position_along": 0.75,
    "protected_area_score": 6.7187,
    "rank": 8,
    "road_access_m": 701.6,
    "road_access_score": 0.6,
    "road_density_km_km2": 3.846,
    "robustness_pct": 3.5,
    "runoff_coeff_C": 0.0671,
    "seasonal_cv": 0.4141,
    "segment_id": 2,
    "segment_length_m": 3898.4919,
    "stream_order": 3,
    "superfund_score": 0.0443,
    "tourism_amenity_density": 0.557,
    "tri_facility_density": 0.1537,
    "usgs_mean_q_cfs": 12.33,
    "velocity_feasibility": 0.7,
    "water_intake_score": 0.4916
   },
   "type": "Feature"
  },
  {
   "geometry": {
    "coordinates": [
     -78.558867,
     36.300846
    ],
    "type": "Point"
   },
   "properties": {
    "accumulation": 23572.0,
    "bank_slope_deg": 19.45,
    "bank_slope_score": 0.5,
    "bank_slope_source": "nc-dps-lidar-dem03-cross-section",
    "beach_dist_km": 242.74,
    "bridge_proximity_bonus": 0.0,
    "catchment_area_km2": 2.3534,
    "channel_width_m": 4.45,
    "channel_width_score": 1.0,
    "composite_score": 32.652,
    "cso_density": 0.0,
    "ej_index": 0.6015,
    "elevation_m": 109.1108,
    "estuary_dist_km": 265.88,
    "feasibility_score": 59.0909,
    "flood_q10_cfs": 354.47,
    "flow_score": 26.3361,
    "flow_velocity_ms": 0.5,
    "generation_score": 11.1441,
    "impact_score": 46.2036,
    "impervious_pct": null,
    "land_ownership": 0.5,
    "lat": 36.3008,
    "litter_complaint_density": 0.0,
    "lon": -78.5589,
    "navigable_dist_m": null,
    "npdes_points": 0,
    "pixel_col": 717.0,
    "pixel_row": 687.0,
    "population_density": 104.0,
    "position_along": 0.5,
    "protected_area_score": 6.9796,
    "rank": 9,
    "road_access_m": 315.7,
    "road_access_score": 0.8,
    "road_density_km_km2": 4.074,
    "robustness_pct": 0.0,
    "runoff_coeff_C": null,
    "seasonal_cv": null,
    "segment_id": 11,
    "segment_length_m": 417.6553,
    "stream_order": 1,
    "superfund_score": 0.0515,
    "tourism_amenity_density": 0.3183,
    "tri_facility_density": 0.0,
    "usgs_mean_q_cfs": null,
    "velocity_feasibility": 1.0,
    "water_intake_score": 0.5435
   },
   "type": "Feature"
  },
  {
   "geometry": {
    "coordinates": [
     -78.616793,
     36.28576
    ],
    "type": "Point"
   },
   "properties": {
    "accumulation": 22762.0,
    "bank_slope_deg": 0.65,
    "bank_slope_score": 1.0,
    "bank_slope_source": "nc-dps-lidar-dem03-cross-section",
    "beach_dist_km": 242.72,
    "bridge_proximity_bonus": 0.0,
    "catchment_area_km2": 2.2726,
    "channel_width_m": 4.39,
    "channel_width_score": 1.0,
    "composite_score": 30.7612,
    "cso_density": 0.0,
    "ej_index": 0.5256,
    "elevation_m": 128.1216,
    "estuary_dist_km": 269.52,
    "feasibility_score": 61.6883,
    "flood_q10_cfs": 363.92,
    "flow_score": 6.1431,
    "flow_velocity_ms": 0.09,
    "generation_score": 5.6112,
    "impact_score": 60.9628,
    "impervious_pct": 3.01,
    "land_ownership": 0.5,
    "lat": 36.2858,
    "litter_complaint_density": 0.0,
    "lon": -78.6168,
    "navigable_dist_m": null,
    "npdes_points": 0,
    "pixel_col": 199.0,
    "pixel_row": 867.0,
    "population_density": 41.8,
    "position_along": 0.5,
    "protected_area_score": 9.2045,
    "rank": 10,
    "road_access_m": 392.8,
    "road_access_score": 0.8,
    "road_density_km_km2": 1.096,
    "robustness_pct": 0.5,
    "runoff_coeff_C": 0.0771,
    "seasonal_cv": 0.4144,
    "segment_id": 15,
    "segment_length_m": 1182.0178,
    "stream_order": 1,
    "superfund_score": 0.1945,
    "tourism_amenity_density": 0.4775,
    "tri_facility_density": 0.0,
    "usgs_mean_q_cfs": 3.018,
    "velocity_feasibility": 0.7,
    "water_intake_score": 0.6225
   },
   "type": "Feature"
  },
  {
   "geometry": {
    "coordinates": [
     -78.562812,
     36.287482
    ],
    "type": "Point"
   },
   "properties": {
    "accumulation": 30339.0,
    "bank_slope_deg": 27.74,
    "bank_slope_score": 0.5,
    "bank_slope_source": "nc-dps-lidar-dem03-cross-section",
    "beach_dist_km": 241.43,
    "bridge_proximity_bonus": 0.0,
    "catchment_area_km2": 3.029,
    "channel_width_m": 4.94,
    "channel_width_score": 1.0,
    "composite_score": 30.624,
    "cso_density": 0.0,
    "ej_index": 0.6154,
    "elevation_m": 106.8339,
    "estuary_dist_km": 265.43,
    "feasibility_score": 36.3636,
    "flood_q10_cfs": 428.72,
    "flow_score": 27.8341,
    "flow_velocity_ms": 0.5,
    "generation_score": 3.4626,
    "impact_score": 57.2406,
    "impervious_pct": null,
    "land_ownership": 0.5,
    "lat": 36.2875,
    "litter_complaint_density": 0.0,
    "lon": -78.5628,
    "navigable_dist_m": null,
    "npdes_points": 0,
    "pixel_col": 684.0,
    "pixel_row": 836.0,
    "population_density": 52.7,
    "position_along": 0.5,
    "protected_area_score": 7.3798,
    "rank": 11,
    "road_access_m": 593.8,
    "road_access_score": 0.6,
    "road_density_km_km2": 1.286,
    "robustness_pct": 0.0,
    "runoff_coeff_C": null,
    "seasonal_cv": null,
    "segment_id": 14,
    "segment_length_m": 1544.8643,
    "stream_order": 1,
    "superfund_score": 0.0573,
    "tourism_amenity_density": 0.3183,
    "tri_facility_density": 0.0,
    "usgs_mean_q_cfs": null,
    "velocity_feasibility": 1.0,
    "water_intake_score": 0.5865
   },
   "type": "Feature"
  },
  {
   "geometry": {
    "coordinates": [
     -78.597226,
     36.334611
    ],
    "type": "Point"
   },
   "properties": {
    "accumulation": 96318.0,
    "bank_slope_deg": 16.31,
    "bank_slope_score": 0.5,
    "bank_slope_source": "nc-dps-lidar-dem03-cross-section",
    "beach_dist_km": 247.35,
    "bridge_proximity_bonus": 0.0,
    "catchment_area_km2": 9.6164,
    "channel_width_m": 7.98,
    "channel_width_score": 1.0,
    "composite_score": 30.254,
    "cso_density": 0.0,
    "ej_index": 0.7525,
    "elevation_m": 129.1927,
    "estuary_dist_km": 270.76,
    "feasibility_score": 45.4545,
    "flood_q10_cfs": 1044.46,
    "flow_score": 35.9255,
    "flow_velocity_ms": 0.048,
    "generation_score": 14.8812,
    "impact_score": 33.3004,
    "impervious_pct": 3.08,
    "land_ownership": 0.5,
    "lat": 36.3346,
    "litter_complaint_density": 0.0,
    "lon": -78.5972,
    "navigable_dist_m": null,
    "npdes_points": 0,
    "pixel_col": 363.0,
    "pixel_row": 320.0,
    "population_density": 139.2,
    "position_along": 0.5,
    "protected_area_score": 7.1525,
    "rank": 12,
    "road_access_m": 196.0,
    "road_access_score": 1.0,
    "road_density_km_km2": 2.772,
    "robustness_pct": 0.0,
    "runoff_coeff_C": 0.0777,
    "seasonal_cv": 0.4103,
    "segment_id": 6,
    "segment_length_m": 784.3465,
    "stream_order": 3,
    "superfund_score": 0.0405,
    "tourism_amenity_density": 1.3528,
    "tri_facility_density": 0.0,
    "usgs_mean_q_cfs": 4.984,
    "velocity_feasibility": 0.3,
    "water_intake_score": 0.4635
   },
   "type": "Feature"
  },
  {
   "geometry": {
    "coordinates": [
     -78.561439,
     36.336163
    ],
    "type": "Point"
   },
   "properties": {
    "accumulation": 96549.0,
    "bank_slope_deg": 10.68,
    "bank_slope_score": 1.0,
    "bank_slope_source": "nc-dps-lidar-dem03-cross-section",
    "beach_dist_km": 246.57,
    "bridge_proximity_bonus": 0.0,
    "catchment_area_km2": 9.6395,
    "channel_width_m": 7.99,
    "channel_width_score": 1.0,
    "composite_score": 26.9564,
    "cso_density": 0.0,
    "ej_index": 0.5,
    "elevation_m": 121.797,
    "estuary_dist_km": 268.11,
    "feasibility_score": 61.6883,
    "flood_q10_cfs": 1022.41,
    "flow_score": 42.8872,
    "flow_velocity_ms": 0.1603,
    "generation_score": 4.5904,
    "impact_score": 18.6808,
    "impervious_pct": 1.44,
    "land_ownership": 0.5,
    "lat": 36.3362,
    "litter_complaint_density": 0.0,
    "lon": -78.5614,
    "navigable_dist_m": null,
    "npdes_points": 0,
    "pixel_col": 680.0,
    "pixel_row": 295.0,
    "population_density": 30.1,
    "position_along": 0.25,
    "protected_area_score": 6.3809,
    "rank": 13,
    "road_access_m": 219.0,
    "road_access_score": 0.8,
    "road_density_km_km2": 2.065,
    "robustness_pct": 0.0,
    "runoff_coeff_C": 0.063,
    "seasonal_cv": 0.4124,
    "segment_id": 2,
    "segment_length_m": 3898.4919,
    "stream_order": 3,
    "superfund_score": 0.0358,
    "tourism_amenity_density": 0.557,
    "tri_facility_density": 0.0,
    "usgs_mean_q_cfs": 10.664,
    "velocity_feasibility": 0.7,
    "water_intake_score": 0.4618
   },
   "type": "Feature"
  },
  {
   "geometry": {
    "coordinates": [
     -78.611035,
     36.334604
    ],
    "type": "Point"
   },
   "properties": {
    "accumulation": 33092.0,
    "bank_slope_deg": 12.33,
    "bank_slope_score": 1.0,
    "bank_slope_source": "nc-dps-lidar-dem03-cross-section",
    "beach_dist_km": 247.72,
    "bridge_proximity_bonus": 0.0,
    "catchment_area_km2": 3.3039,
    "channel_width_m": 5.12,
    "channel_width_score": 1.0,
    "composite_score": 24.5413,
    "cso_density": 0.0,
    "ej_index": 0.8205,
    "elevation_m": 139.3566,
    "estuary_dist_km": 271.82,
    "feasibility_score": 38.961,
    "flood_q10_cfs": 474.19,
    "flow_score": 21.4518,
    "flow_velocity_ms": 0.1048,
    "generation_score": 8.5085,
    "impact_score": 35.9389,
    "impervious_pct": 2.02,
    "land_ownership": 0.5,
    "lat": 36.3346,
    "litter_complaint_density": 0.0,
    "lon": -78.611,
    "navigable_dist_m": null,
    "npdes_points": 0,
    "pixel_col": 239.0,
    "pixel_row": 323.0,
    "population_density": 96.6,
    "position_along": 0.5,
    "protected_area_score": 7.5417,
    "rank": 14,
    "road_access_m": 689.4,
    "road_access_score": 0.6,
    "road_density_km_km2": 1.213,
    "robustness_pct": 0.0,
    "runoff_coeff_C": 0.0682,
    "seasonal_cv": 0.4217,
    "segment_id": 5,
    "segment_length_m": 2474.3636,
    "stream_order": 3,
    "superfund_score": 0.0397,
    "tourism_amenity_density": 1.3528,
    "tri_facility_density": 0.0,
    "usgs_mean_q_cfs": 1.954,
    "velocity_feasibility": 0.7,
    "water_intake_score": 0.4664
   },
   "type": "Feature"
  },
  {
   "geometry": {
    "coordinates": [
     -78.594899,
     36.342233
    ],
    "type": "Point"
   },
   "properties": {
    "accumulation": 34441.0,
    "bank_slope_deg": 15.64,
    "bank_slope_score": 0.5,
    "bank_slope_source": "nc-dps-lidar-dem03-cross-section",
    "beach_dist_km": 248.09,
    "bridge_proximity_bonus": 0.0,
    "catchment_area_km2": 3.4386,
    "channel_width_m": 5.21,
    "channel_width_score": 1.0,
    "composite_score": 21.9596,
    "cso_density": 0.0,
    "ej_index": 0.7255,
    "elevation_m": 131.748,
    "estuary_dist_km": 271.02,
    "feasibility_score": 43.5065,
    "flood_q10_cfs": 485.53,
    "flow_score": 22.1681,
    "flow_velocity_ms": 0.0642,
    "generation_score": 8.7076,
    "impact_score": 24.2645,
    "impervious_pct": 1.65,
    "land_ownership": 0.5,
    "lat": 36.3422,
    "litter_complaint_density": 0.0,
    "lon": -78.5949,
    "navigable_dist_m": null,
    "npdes_points": 0,
    "pixel_col": 380.0,
    "pixel_row": 235.0,
    "population_density": 79.8,
    "position_along": 0.5,
    "protected_area_score": 6.6625,
    "rank": 15,
    "road_access_m": 385.0,
    "road_access_score": 0.8,
    "road_density_km_km2": 2.385,
    "robustness_pct": 0.0,
    "runoff_coeff_C": 0.0649,
    "seasonal_cv": 0.4122,
    "segment_id": 3,
    "segment_length_m": 1659.2092,
    "stream_order": 3,
    "superfund_score": 0.0305,
    "tourism_amenity_density": 1.1937,
    "tri_facility_density": 0.0,
    "usgs_mean_q_cfs": 3.359,
    "velocity_feasibility": 0.7,
    "water_intake_score": 0.4454
   },
   "type": "Feature"
  },
  {
   "geometry": {
    "coordinates": [
     -78.609444,
     36.341378
    ],
    "type": "Point"
   },
   "properties": {
    "accumulation": 31285.0,
    "bank_slope_deg": 7.97,
    "bank_slope_score": 1.0,
    "bank_slope_source": "nc-dps-lidar-dem03-cross-section",
    "beach_dist_km": 248.4,
    "bridge_proximity_bonus": 0.0,
    "catchment_area_km2": 3.1235,
    "channel_width_m": 5.01,
    "channel_width_score": 1.0,
    "composite_score": 18.6998,
    "cso_density": 0.0,
    "ej_index": 0.8205,
    "elevation_m": 139.9845,
    "estuary_dist_km": 272.09,
    "feasibility_score": 18.1818,
    "flood_q10_cfs": 448.3,
    "flow_score": 19.4331,
    "flow_velocity_ms": 0.038,
    "generation_score": 7.8254,
    "impact_score": 29.2222,
    "impervious_pct": 1.23,
    "land_ownership": 0.5,
    "lat": 36.3414,
    "litter_complaint_density": 0.0,
    "lon": -78.6094,
    "navigable_dist_m": null,
    "npdes_points": 0,
    "pixel_col": 250.0,
    "pixel_row": 248.0,
    "population_density": 96.6,
    "position_along": 0.5,
    "protected_area_score": 7.2134,
    "rank": 16,
    "road_access_m": 707.1,
    "road_access_score": 0.6,
    "road_density_km_km2": 1.315,
    "robustness_pct": 0.0,
    "runoff_coeff_C": 0.0611,
    "seasonal_cv": 0.4213,
    "segment_id": 4,
    "segment_length_m": 2410.5669,
    "stream_order": 3,
    "superfund_score": 0.0304,
    "tourism_amenity_density": 1.1937,
    "tri_facility_density": 0.0,
    "usgs_mean_q_cfs": 1.978,
    "velocity_feasibility": 0.3,
    "water_intake_score": 0.4493
   },
   "type": "Feature"
  },
  {
   "geometry": {
    "coordinates": [
     -78.563908,
     36.350813
    ],
    "type": "Point"
   },
   "properties": {
    "accumulation": 37111.0,
    "bank_slope_deg": 7.2,
    "bank_slope_score": 1.0,
    "bank_slope_source": "nc-dps-lidar-dem03-cross-section",
    "beach_dist_km": 248.19,
    "bridge_proximity_bonus": 0.0,
    "catchment_area_km2": 3.7052,
    "channel_width_m": 5.37,
    "channel_width_score": 1.0,
    "composite_score": 15.899,
    "cso_density": 0.0,
    "ej_index": 0.5,
    "elevation_m": 127.3808,
    "estuary_dist_km": 269.15,
    "feasibility_score": 38.961,
    "flood_q10_cfs": 511.04,
    "flow_score": 26.2481,
    "flow_velocity_ms": 0.0816,
    "generation_score": 3.201,
    "impact_score": 8.4419,
    "impervious_pct": 1.36,
    "land_ownership": 0.5,
    "lat": 36.3508,
    "litter_complaint_density": 0.0,
    "lon": -78.5639,
    "navigable_dist_m": null,
    "npdes_points": 0,
    "pixel_col": 656.0,
    "pixel_row": 133.0,
    "population_density": 30.1,
    "position_along": 0.5,
    "protected_area_score": 6.0681,
    "rank": 17,
    "road_access_m": 886.3,
    "road_access_score": 0.6,
    "road_density_km_km2": 1.189,
    "robustness_pct": 0.0,
    "runoff_coeff_C": 0.0622,
    "seasonal_cv": 0.4084,
    "segment_id": 0,
    "segment_length_m": 2695.1918,
    "stream_order": 3,
    "superfund_score": 0.0261,
    "tourism_amenity_density": 0.557,
    "tri_facility_density": 0.0,
    "usgs_mean_q_cfs": 6.989,
    "velocity_feasibility": 0.7,
    "water_intake_score": 0.4326
   },
   "type": "Feature"
  },
  {
   "geometry": {
    "coordinates": [
     -78.558113,
     36.347242
    ],
    "type": "Point"
   },
   "properties": {
    "accumulation": 25971.0,
    "bank_slope_deg": 7.32,
    "bank_slope_score": 1.0,
    "bank_slope_source": "nc-dps-lidar-dem03-cross-section",
    "beach_dist_km": 247.67,
    "bridge_proximity_bonus": 0.0,
    "catchment_area_km2": 2.5929,
    "channel_width_m": 4.63,
    "channel_width_score": 1.0,
    "composite_score": 15.2456,
    "cso_density": 0.0,
    "ej_index": 0.5,
    "elevation_m": 125.7217,
    "estuary_dist_km": 268.5,
    "feasibility_score": 38.961,
    "flood_q10_cfs": 386.37,
    "flow_score": 20.221,
    "flow_velocity_ms": 0.0883,
    "generation_score": 2.9913,
    "impact_score": 11.4961,
    "impervious_pct": 0.75,
    "land_ownership": 0.5,
    "lat": 36.3472,
    "litter_complaint_density": 0.0,
    "lon": -78.5581,
    "navigable_dist_m": null,
    "npdes_points": 0,
    "pixel_col": 708.0,
    "pixel_row": 171.0,
    "population_density": 30.1,
    "position_along": 0.5,
    "protected_area_score": 6.0038,
    "rank": 18,
    "road_access_m": 562.1,
    "road_access_score": 0.6,
    "road_density_km_km2": 1.481,
    "robustness_pct": 0.0,
    "runoff_coeff_C": 0.0568,
    "seasonal_cv": 0.4113,
    "segment_id": 1,
    "segment_length_m": 1014.8725,
    "stream_order": 3,
    "superfund_score": 0.0297,
    "tourism_amenity_density": 0.557,
    "tri_facility_density": 0.0,
    "usgs_mean_q_cfs": 2.938,
    "velocity_feasibility": 0.7,
    "water_intake_score": 0.4412
   },
   "type": "Feature"
  }
 ],
 "note": "GRIME region 'Oxford, NC' \u2014 real-data pipeline (DEM\u2192streams\u2192candidates\u2192stream mask (sites confined to \u00b1150 m of mapped OSM/NHD waterways)\u2192region-appropriate real parameters\u2192shipped scoring, math unchanged). Width curve: Bieger et al. 2015 JAWRA Table 3, Appalachian Highlands. Flood: SIR 2014-5030 HR1. NC Piedmont (DEQ physiography polygon)",
 "provenance": {
  "candidates_pre_gate": 18,
  "constant": [
   "bridge_proximity_bonus",
   "channel_width_score",
   "cso_density",
   "land_ownership",
   "litter_complaint_density"
  ],
  "gated_navigable": 0,
  "hard_gate_removed": 0,
  "n_parameters": 27,
  "parameters": {
   "bank_slope_score": {
    "kind": "real",
    "n_3dep_10m_fallback": 0,
    "n_nc_lidar_3_125ft": 18,
    "n_real": 18,
    "n_sites": 18,
    "source": "NC OneMap / NC DPS DEM03 statewide lidar-derived 3.125-ft (0.953 m) elevations (perpendicular 50 m transect; robust 5 m bank-rise metric); unavailable profiles use the region 10 m 3DEP DEM-gradient fallback",
    "source_mosaics": [
     "Granville_2024_QL1_03ft_CountywideRaster"
    ]
   },
   "beach_dist_km": {
    "kind": "real",
    "n_real": 18,
    "n_sites": 18,
    "source": "haversine to region ref: Wrightsville Beach (shipped NC reference)"
   },
   "bridge_proximity_bonus": {
    "kind": "real",
    "n_real": 18,
    "n_sites": 18,
    "source": "FHWA/BTS NBI (NTAD), 50 m proximity"
   },
   "catchment_area_km2": {
    "kind": "real",
    "n_real": 18,
    "n_sites": 18,
    "source": "DEM flow accumulation (pipeline)"
   },
   "channel_width_score": {
    "kind": "real",
    "n_real": 18,
    "n_sites": 18,
    "source": "Bieger 2015 AHI width curve on DEM drainage area \u2192 shipped width curve"
   },
   "cso_density": {
    "kind": "real",
    "n_real": 18,
    "n_sites": 18,
    "source": "EPA ECHO open CSO/TCS outfall PF coordinates states=NC, Cauchy proximity"
   },
   "ej_index": {
    "kind": "real",
    "n_real": 18,
    "n_sites": 18,
    "source": "Census ACS C17002+B03002 two-component demographic index, percentile-ranked within region"
   },
   "estuary_dist_km": {
    "kind": "real",
    "n_real": 18,
    "n_sites": 18,
    "source": "haversine to region ref: Pamlico Sound (shipped NC reference)"
   },
   "flood_q10_cfs": {
    "impervious_fallback_reason": "StreamCat imperviousness unavailable; the existing regression-input fallback of 0.0% impervious was used and is disclosed here",
    "kind": "real",
    "n_impervious_fallback": 2,
    "n_real": 18,
    "n_sites": 18,
    "source": "USGS SIR 2014-5030 Table 7 HR1 (NC Piedmont)"
   },
   "flow_velocity_ms": {
    "fallback_reason": "EROM/DEM continuity input unavailable; shipped 0.5 m/s default used",
    "kind": "real",
    "n_fallback": 2,
    "n_real": 16,
    "n_sites": 18,
    "source": "Manning (region DEM/D8) blended with EROM continuity (shipped M4 logic)"
   },
   "impervious_pct": {
    "fallback_reason": "NLDI/StreamCat did not return a snap-compatible catchment value; value remains null and is removed by constant-column handling",
    "kind": "real",
    "n_fallback": 2,
    "n_real": 16,
    "n_sites": 18,
    "source": "EPA StreamCat pctimp2019 (per NHDPlus watershed)"
   },
   "land_ownership": {
    "kind": "real",
    "n_fallback": 0,
    "n_real": 18,
    "n_sites": 18,
    "source": "NC OneMap statewide parcels (NC Parcels Transformer) ownname"
   },
   "litter_complaint_density": {
    "kind": "fallback",
    "n_real": 0,
    "n_sites": 18,
    "source": "no public machine-readable litter/illegal-dumping feed for this region"
   },
   "navigable_dist_m": {
    "kind": "real",
    "n_real": 18,
    "n_sites": 18,
    "source": "USACE/BTS NWN (NTAD): no navigable segment within this bbox (+2 km) \u2014 computed absence, gate passes all sites"
   },
   "npdes_points": {
    "kind": "real",
    "n_real": 18,
    "n_sites": 18,
    "source": "EPA ECHO active NPDES outfalls states=NC (types NPD/GPC/NGP; statuses ADC/EFF/EXP), per catchment"
   },
   "population_density": {
    "kind": "real",
    "n_real": 18,
    "n_sites": 18,
    "source": "Census ACS 2022 B01003 block groups (bbox, multi-county), area-weighted"
   },
   "protected_area_score": {
    "kind": "real",
    "n_real": 18,
    "n_sites": 18,
    "source": "USGS PAD-US 4.1 state GDB; states=NC; shipped designation-weighted proximity curve"
   },
   "road_access_score": {
    "kind": "real",
    "n_real": 18,
    "n_sites": 18,
    "source": "OSM drive network nearest-node distance"
   },
   "road_density_km_km2": {
    "kind": "real",
    "n_real": 18,
    "n_sites": 18,
    "source": "OSM drive network (osmnx, cached) clipped per catchment"
   },
   "runoff_coeff_C": {
    "fallback_reason": "source impervious_pct was unavailable; derived value remains null",
    "kind": "real",
    "n_fallback": 2,
    "n_real": 16,
    "n_sites": 18,
    "source": "derived from real impervious_pct (C=0.05+0.009*I)"
   },
   "seasonal_cv": {
    "fallback_reason": "NHDPlus monthly EROM was unavailable or failed the drainage-area snap guard; value remains null",
    "kind": "real",
    "n_fallback": 2,
    "n_real": 16,
    "n_sites": 18,
    "source": "CV of NHDPlus EROM monthly flows per COMID"
   },
   "stream_order": {
    "kind": "real",
    "n_real": 18,
    "n_sites": 18,
    "source": "DEM stream-network confluence heuristic (pipeline)"
   },
   "superfund_score": {
    "kind": "real",
    "n_real": 18,
    "n_sites": 18,
    "source": "EPA DataMap SEMS active sites states=NC (non-archived, georeferenced), shipped 500 m inverse-distance curve"
   },
   "tourism_amenity_density": {
    "kind": "real",
    "n_real": 18,
    "n_sites": 18,
    "source": "OSM leisure/tourism features per 2 km radius"
   },
   "tri_facility_density": {
    "kind": "real",
    "n_real": 18,
    "n_sites": 18,
    "source": "EPA DataMap TRI open facilities states=NC (preferred decimal or packed-DMS recovery), per catchment"
   },
   "usgs_mean_q_cfs": {
    "fallback_reason": "NHDPlus EROM was unavailable or failed the drainage-area snap guard; value remains null",
    "kind": "real",
    "n_fallback": 2,
    "n_real": 16,
    "n_sites": 18,
    "source": "NHDPlus EROM qe_ma per COMID (snap-guarded)"
   },
   "velocity_feasibility": {
    "fallback_reason": "derived from the shipped 0.5 m/s velocity fallback",
    "kind": "real",
    "n_fallback": 2,
    "n_real": 16,
    "n_sites": 18,
    "source": "shipped step curve on the computed velocity"
   },
   "velocity_transport_favorability": {
    "fallback_reason": "EROM/DEM continuity input unavailable; shipped 0.5 m/s default used",
    "kind": "derived",
    "n_fallback": 2,
    "n_real": 16,
    "n_sites": 18,
    "source": "scored form of flow_velocity_ms inside the Flow family \u2014 peaked Gaussian exp(-((v-0.9)/0.6)^2), model.json curves.velocity_transport_favorability; construct: transport/delivery favorability, deliberately distinct from velocity_feasibility (device operability)"
   },
   "water_intake_score": {
    "kind": "real",
    "n_real": 18,
    "n_sites": 18,
    "source": "NC OneMap / NC DEQ SWAP public water supply sources (source_typ='Surface Water'), shipped exp(-d/10km) curve"
   }
  },
  "stream_mask": {
   "buffer_m": 150.0,
   "pre_mask": 18,
   "removed": 0,
   "sources": [
    "osm-overpass (all waterway ways)",
    "usgs-nhdplus flowlines"
   ]
  },
  "varying": [
   "bank_slope_score",
   "beach_dist_km",
   "catchment_area_km2",
   "ej_index",
   "estuary_dist_km",
   "flood_q10_cfs",
   "flow_velocity_ms",
   "impervious_pct",
   "npdes_points",
   "population_density",
   "protected_area_score",
   "road_access_score",
   "road_density_km_km2",
   "runoff_coeff_C",
   "seasonal_cv",
   "stream_order",
   "superfund_score",
   "tourism_amenity_density",
   "tri_facility_density",
   "usgs_mean_q_cfs",
   "velocity_feasibility",
   "water_intake_score"
  ]
 },
 "region": {
  "bbox": [
   -78.6366,
   36.2814,
   -78.5364,
   36.3621
  ],
  "beach_ref": {
   "label": "Wrightsville Beach (shipped NC reference)",
   "lat": 34.21,
   "lon": -77.79
  },
  "center": [
   -78.586529,
   36.321724
  ],
  "estuary_ref": {
   "label": "Pamlico Sound (shipped NC reference)",
   "lat": 35.05,
   "lon": -76.05
  },
  "flood_method": "sir2014_hr1",
  "name": "Oxford, NC",
  "notes": "NC Piedmont (DEQ physiography polygon)",
  "slug": "oxford",
  "state": "NC",
  "utm_epsg": 32617,
  "width_curve": {
   "a": 3.12,
   "b": 0.415,
   "code": "AHI",
   "source": "Bieger et al. 2015 JAWRA Table 3, Appalachian Highlands"
  }
 },
 "type": "FeatureCollection"
}
