{
 "features": [
  {
   "geometry": {
    "coordinates": [
     -80.4827,
     36.380366
    ],
    "type": "Point"
   },
   "properties": {
    "accumulation": 32178.0,
    "bank_slope_deg": 32.97,
    "bank_slope_score": 0.2,
    "bank_slope_source": "nc-dps-lidar-dem03-cross-section",
    "beach_dist_km": 343.43,
    "bridge_proximity_bonus": 0.0,
    "catchment_area_km2": 3.208,
    "channel_width_m": 5.06,
    "channel_width_score": 1.0,
    "composite_score": 60.3228,
    "cso_density": 0.0,
    "ej_index": 0.4538,
    "elevation_m": 306.0298,
    "estuary_dist_km": 426.61,
    "feasibility_score": 35.7143,
    "flood_q10_cfs": 511.09,
    "flow_score": 49.1367,
    "flow_velocity_ms": 0.1188,
    "generation_score": 74.1506,
    "impact_score": 68.121,
    "impervious_pct": 7.57,
    "land_ownership": 0.5,
    "lat": 36.3804,
    "litter_complaint_density": 0.0,
    "lon": -80.4827,
    "navigable_dist_m": null,
    "npdes_points": 0,
    "pixel_col": 178.0,
    "pixel_row": 292.0,
    "population_density": 93.0,
    "position_along": 0.25,
    "protected_area_score": 6.4004,
    "rank": 1,
    "road_access_m": 110.7,
    "road_access_score": 1.0,
    "road_density_km_km2": 5.079,
    "robustness_pct": 100.0,
    "runoff_coeff_C": 0.1181,
    "seasonal_cv": 0.4163,
    "segment_id": 3,
    "segment_length_m": 3353.6677,
    "stream_order": 1,
    "superfund_score": 0.118,
    "tourism_amenity_density": 2.6261,
    "tri_facility_density": 0.0,
    "usgs_mean_q_cfs": 3.607,
    "velocity_feasibility": 0.7,
    "water_intake_score": 0.7722
   },
   "type": "Feature"
  },
  {
   "geometry": {
    "coordinates": [
     -80.467443,
     36.403703
    ],
    "type": "Point"
   },
   "properties": {
    "accumulation": 25259.0,
    "bank_slope_deg": 10.65,
    "bank_slope_score": 1.0,
    "bank_slope_source": "nc-dps-lidar-dem03-cross-section",
    "beach_dist_km": 344.25,
    "bridge_proximity_bonus": 0.0,
    "catchment_area_km2": 2.5182,
    "channel_width_m": 4.58,
    "channel_width_score": 1.0,
    "composite_score": 53.6858,
    "cso_density": 0.0,
    "ej_index": 0.5172,
    "elevation_m": 298.1201,
    "estuary_dist_km": 426.17,
    "feasibility_score": 50.0,
    "flood_q10_cfs": 452.59,
    "flow_score": 27.735,
    "flow_velocity_ms": 0.1282,
    "generation_score": 78.0445,
    "impact_score": 52.7957,
    "impervious_pct": 11.05,
    "land_ownership": 0.5,
    "lat": 36.4037,
    "litter_complaint_density": 0.0,
    "lon": -80.4674,
    "navigable_dist_m": null,
    "npdes_points": 0,
    "pixel_col": 315.0,
    "pixel_row": 32.0,
    "population_density": 104.8,
    "position_along": 0.5,
    "protected_area_score": 6.2062,
    "rank": 2,
    "road_access_m": 184.7,
    "road_access_score": 1.0,
    "road_density_km_km2": 1.242,
    "robustness_pct": 100.0,
    "runoff_coeff_C": 0.1494,
    "seasonal_cv": 0.4753,
    "segment_id": 1,
    "segment_length_m": 942.1195,
    "stream_order": 1,
    "superfund_score": 0.0639,
    "tourism_amenity_density": 2.7056,
    "tri_facility_density": 0.0,
    "usgs_mean_q_cfs": 1.634,
    "velocity_feasibility": 0.7,
    "water_intake_score": 0.7082
   },
   "type": "Feature"
  },
  {
   "geometry": {
    "coordinates": [
     -80.494743,
     36.384322
    ],
    "type": "Point"
   },
   "properties": {
    "accumulation": 48735.0,
    "bank_slope_deg": 10.48,
    "bank_slope_score": 1.0,
    "bank_slope_source": "nc-dps-lidar-dem03-cross-section",
    "beach_dist_km": 344.51,
    "bridge_proximity_bonus": 0.0,
    "catchment_area_km2": 4.8587,
    "channel_width_m": 6.01,
    "channel_width_score": 1.0,
    "composite_score": 46.7249,
    "cso_density": 0.0,
    "ej_index": 0.3977,
    "elevation_m": 290.2474,
    "estuary_dist_km": 427.77,
    "feasibility_score": 14.2857,
    "flood_q10_cfs": 698.81,
    "flow_score": 70.4478,
    "flow_velocity_ms": 0.1397,
    "generation_score": 38.8239,
    "impact_score": 51.0765,
    "impervious_pct": 7.57,
    "land_ownership": 0.5,
    "lat": 36.3843,
    "litter_complaint_density": 0.0,
    "lon": -80.4947,
    "navigable_dist_m": null,
    "npdes_points": 0,
    "pixel_col": 68.0,
    "pixel_row": 250.0,
    "population_density": 61.5,
    "position_along": 0.75,
    "protected_area_score": 6.4912,
    "rank": 3,
    "road_access_m": 694.7,
    "road_access_score": 0.6,
    "road_density_km_km2": 2.658,
    "robustness_pct": 97.5,
    "runoff_coeff_C": 0.1181,
    "seasonal_cv": 0.4163,
    "segment_id": 3,
    "segment_length_m": 3353.6677,
    "stream_order": 1,
    "superfund_score": 0.046,
    "tourism_amenity_density": 1.9894,
    "tri_facility_density": 0.0,
    "usgs_mean_q_cfs": 3.607,
    "velocity_feasibility": 0.7,
    "water_intake_score": 0.7993
   },
   "type": "Feature"
  },
  {
   "geometry": {
    "coordinates": [
     -80.460198,
     36.405963
    ],
    "type": "Point"
   },
   "properties": {
    "accumulation": 21364.0,
    "bank_slope_deg": 14.72,
    "bank_slope_score": 1.0,
    "bank_slope_source": "nc-dps-lidar-dem03-cross-section",
    "beach_dist_km": 343.96,
    "bridge_proximity_bonus": 0.0,
    "catchment_area_km2": 2.1299,
    "channel_width_m": 4.27,
    "channel_width_score": 1.0,
    "composite_score": 36.3257,
    "cso_density": 0.0,
    "ej_index": 0.5211,
    "elevation_m": 301.7839,
    "estuary_dist_km": 425.64,
    "feasibility_score": 32.1429,
    "flood_q10_cfs": 341.1,
    "flow_score": 24.4748,
    "flow_velocity_ms": 0.1337,
    "generation_score": 45.4186,
    "impact_score": 39.1999,
    "impervious_pct": 2.1,
    "land_ownership": 0.5,
    "lat": 36.406,
    "litter_complaint_density": 0.0,
    "lon": -80.4602,
    "navigable_dist_m": null,
    "npdes_points": 0,
    "pixel_col": 378.0,
    "pixel_row": 6.0,
    "population_density": 109.8,
    "position_along": 0.5,
    "protected_area_score": 6.0574,
    "rank": 4,
    "road_access_m": 262.0,
    "road_access_score": 0.8,
    "road_density_km_km2": 0.679,
    "robustness_pct": 73.5,
    "runoff_coeff_C": 0.0689,
    "seasonal_cv": 0.4406,
    "segment_id": 0,
    "segment_length_m": 246.9034,
    "stream_order": 1,
    "superfund_score": 0.0447,
    "tourism_amenity_density": 1.2732,
    "tri_facility_density": 0.0,
    "usgs_mean_q_cfs": 2.66,
    "velocity_feasibility": 0.7,
    "water_intake_score": 0.6859
   },
   "type": "Feature"
  },
  {
   "geometry": {
    "coordinates": [
     -80.494529,
     36.396937
    ],
    "type": "Point"
   },
   "properties": {
    "accumulation": 39508.0,
    "bank_slope_deg": 37.0,
    "bank_slope_score": 0.2,
    "bank_slope_source": "nc-dps-lidar-dem03-cross-section",
    "beach_dist_km": 345.47,
    "bridge_proximity_bonus": 0.0,
    "catchment_area_km2": 3.9388,
    "channel_width_m": 5.51,
    "channel_width_score": 1.0,
    "composite_score": 36.1904,
    "cso_density": 0.0,
    "ej_index": 0.4064,
    "elevation_m": 281.6092,
    "estuary_dist_km": 428.21,
    "feasibility_score": 64.2857,
    "flood_q10_cfs": 522.55,
    "flow_score": 52.8027,
    "flow_velocity_ms": 0.5,
    "generation_score": 8.7595,
    "impact_score": 35.7302,
    "impervious_pct": null,
    "land_ownership": 0.5,
    "lat": 36.3969,
    "litter_complaint_density": 0.0,
    "lon": -80.4945,
    "navigable_dist_m": null,
    "npdes_points": 0,
    "pixel_col": 71.0,
    "pixel_row": 112.0,
    "population_density": 60.3,
    "position_along": 0.5,
    "protected_area_score": 6.2108,
    "rank": 5,
    "road_access_m": 109.1,
    "road_access_score": 1.0,
    "road_density_km_km2": 2.529,
    "robustness_pct": 67.5,
    "runoff_coeff_C": null,
    "seasonal_cv": null,
    "segment_id": 2,
    "segment_length_m": 2032.4196,
    "stream_order": 1,
    "superfund_score": 0.0378,
    "tourism_amenity_density": 2.069,
    "tri_facility_density": 0.0,
    "usgs_mean_q_cfs": null,
    "velocity_feasibility": 1.0,
    "water_intake_score": 0.7923
   },
   "type": "Feature"
  },
  {
   "geometry": {
    "coordinates": [
     -80.471611,
     36.361718
    ],
    "type": "Point"
   },
   "properties": {
    "accumulation": 20682.0,
    "bank_slope_deg": 4.98,
    "bank_slope_score": 1.0,
    "bank_slope_source": "nc-dps-lidar-dem03-cross-section",
    "beach_dist_km": 341.27,
    "bridge_proximity_bonus": 0.0,
    "catchment_area_km2": 2.0619,
    "channel_width_m": 4.21,
    "channel_width_score": 1.0,
    "composite_score": 34.9315,
    "cso_density": 0.0,
    "ej_index": 0.408,
    "elevation_m": 304.7365,
    "estuary_dist_km": 425.0,
    "feasibility_score": 53.5714,
    "flood_q10_cfs": 328.81,
    "flow_score": 15.5357,
    "flow_velocity_ms": 0.1197,
    "generation_score": 30.8898,
    "impact_score": 45.8164,
    "impervious_pct": 1.4,
    "land_ownership": 1.0,
    "lat": 36.3617,
    "litter_complaint_density": 0.0,
    "lon": -80.4716,
    "navigable_dist_m": null,
    "npdes_points": 0,
    "pixel_col": 278.0,
    "pixel_row": 502.0,
    "population_density": 93.4,
    "position_along": 0.5,
    "protected_area_score": 6.0495,
    "rank": 6,
    "road_access_m": 325.9,
    "road_access_score": 0.8,
    "road_density_km_km2": 0.792,
    "robustness_pct": 61.5,
    "runoff_coeff_C": 0.0626,
    "seasonal_cv": 0.4703,
    "segment_id": 4,
    "segment_length_m": 162.1796,
    "stream_order": 1,
    "superfund_score": 0.0318,
    "tourism_amenity_density": 0.2387,
    "tri_facility_density": 0.0,
    "usgs_mean_q_cfs": 1.757,
    "velocity_feasibility": 0.7,
    "water_intake_score": 0.7803
   },
   "type": "Feature"
  }
 ],
 "note": "GRIME region 'Pilot Mountain, NC' \u2014 real-data pipeline (DEM\u2192streams\u2192candidates\u2192stream mask (sites confined to \u00b1150 m of mapped OSM/NHD waterways)\u2192region-appropriate real parameters\u2192shipped scoring, math unchanged). Width curve: Bieger et al. 2015 JAWRA Table 3, Appalachian Highlands. Flood: SIR 2014-5030 HR1. NC Piedmont (DEQ physiography polygon)",
 "provenance": {
  "candidates_pre_gate": 6,
  "constant": [
   "bridge_proximity_bonus",
   "channel_width_score",
   "cso_density",
   "litter_complaint_density",
   "npdes_points",
   "stream_order",
   "tri_facility_density"
  ],
  "gated_navigable": 0,
  "hard_gate_removed": 0,
  "n_parameters": 27,
  "parameters": {
   "bank_slope_score": {
    "kind": "real",
    "n_3dep_10m_fallback": 0,
    "n_nc_lidar_3_125ft": 6,
    "n_real": 6,
    "n_sites": 6,
    "source": "NC OneMap / NC DPS DEM03 statewide lidar-derived 3.125-ft (0.953 m) elevations (perpendicular 50 m transect; robust 5 m bank-rise metric); unavailable profiles use the region 10 m 3DEP DEM-gradient fallback",
    "source_mosaics": [
     "Surry_Ground_3ft"
    ]
   },
   "beach_dist_km": {
    "kind": "real",
    "n_real": 6,
    "n_sites": 6,
    "source": "haversine to region ref: Wrightsville Beach (shipped NC reference)"
   },
   "bridge_proximity_bonus": {
    "kind": "real",
    "n_real": 6,
    "n_sites": 6,
    "source": "FHWA/BTS NBI (NTAD), 50 m proximity"
   },
   "catchment_area_km2": {
    "kind": "real",
    "n_real": 6,
    "n_sites": 6,
    "source": "DEM flow accumulation (pipeline)"
   },
   "channel_width_score": {
    "kind": "real",
    "n_real": 6,
    "n_sites": 6,
    "source": "Bieger 2015 AHI width curve on DEM drainage area \u2192 shipped width curve"
   },
   "cso_density": {
    "kind": "real",
    "n_real": 6,
    "n_sites": 6,
    "source": "EPA ECHO open CSO/TCS outfall PF coordinates states=NC, Cauchy proximity"
   },
   "ej_index": {
    "kind": "real",
    "n_real": 6,
    "n_sites": 6,
    "source": "Census ACS C17002+B03002 two-component demographic index, percentile-ranked within region"
   },
   "estuary_dist_km": {
    "kind": "real",
    "n_real": 6,
    "n_sites": 6,
    "source": "haversine to region ref: Pamlico Sound (shipped NC reference)"
   },
   "flood_q10_cfs": {
    "impervious_fallback_reason": "StreamCat imperviousness unavailable; the existing regression-input fallback of 0.0% impervious was used and is disclosed here",
    "kind": "real",
    "n_impervious_fallback": 1,
    "n_real": 6,
    "n_sites": 6,
    "source": "USGS SIR 2014-5030 Table 7 HR1 (NC Piedmont)"
   },
   "flow_velocity_ms": {
    "fallback_reason": "EROM/DEM continuity input unavailable; shipped 0.5 m/s default used",
    "kind": "real",
    "n_fallback": 1,
    "n_real": 5,
    "n_sites": 6,
    "source": "Manning (region DEM/D8) blended with EROM continuity (shipped M4 logic)"
   },
   "impervious_pct": {
    "fallback_reason": "NLDI/StreamCat did not return a snap-compatible catchment value; value remains null and is removed by constant-column handling",
    "kind": "real",
    "n_fallback": 1,
    "n_real": 5,
    "n_sites": 6,
    "source": "EPA StreamCat pctimp2019 (per NHDPlus watershed)"
   },
   "land_ownership": {
    "fallback_reason": "no containing parcel owner returned; shipped unknown ownership 0.5 used",
    "kind": "real",
    "n_fallback": 1,
    "n_real": 5,
    "n_sites": 6,
    "source": "NC OneMap statewide parcels (NC Parcels Transformer) ownname"
   },
   "litter_complaint_density": {
    "kind": "fallback",
    "n_real": 0,
    "n_sites": 6,
    "source": "no public machine-readable litter/illegal-dumping feed for this region"
   },
   "navigable_dist_m": {
    "kind": "real",
    "n_real": 6,
    "n_sites": 6,
    "source": "USACE/BTS NWN (NTAD): no navigable segment within this bbox (+2 km) \u2014 computed absence, gate passes all sites"
   },
   "npdes_points": {
    "kind": "real",
    "n_real": 6,
    "n_sites": 6,
    "source": "EPA ECHO active NPDES outfalls states=NC (types NPD/GPC/NGP; statuses ADC/EFF/EXP), per catchment"
   },
   "population_density": {
    "kind": "real",
    "n_real": 6,
    "n_sites": 6,
    "source": "Census ACS 2022 B01003 block groups (bbox, multi-county), area-weighted"
   },
   "protected_area_score": {
    "kind": "real",
    "n_real": 6,
    "n_sites": 6,
    "source": "USGS PAD-US 4.1 state GDB; states=NC; shipped designation-weighted proximity curve"
   },
   "road_access_score": {
    "kind": "real",
    "n_real": 6,
    "n_sites": 6,
    "source": "OSM drive network nearest-node distance"
   },
   "road_density_km_km2": {
    "kind": "real",
    "n_real": 6,
    "n_sites": 6,
    "source": "OSM drive network (osmnx, cached) clipped per catchment"
   },
   "runoff_coeff_C": {
    "fallback_reason": "source impervious_pct was unavailable; derived value remains null",
    "kind": "real",
    "n_fallback": 1,
    "n_real": 5,
    "n_sites": 6,
    "source": "derived from real impervious_pct (C=0.05+0.009*I)"
   },
   "seasonal_cv": {
    "fallback_reason": "NHDPlus monthly EROM was unavailable or failed the drainage-area snap guard; value remains null",
    "kind": "real",
    "n_fallback": 1,
    "n_real": 5,
    "n_sites": 6,
    "source": "CV of NHDPlus EROM monthly flows per COMID"
   },
   "stream_order": {
    "kind": "real",
    "n_real": 6,
    "n_sites": 6,
    "source": "DEM stream-network confluence heuristic (pipeline)"
   },
   "superfund_score": {
    "kind": "real",
    "n_real": 6,
    "n_sites": 6,
    "source": "EPA DataMap SEMS active sites states=NC (non-archived, georeferenced), shipped 500 m inverse-distance curve"
   },
   "tourism_amenity_density": {
    "kind": "real",
    "n_real": 6,
    "n_sites": 6,
    "source": "OSM leisure/tourism features per 2 km radius"
   },
   "tri_facility_density": {
    "kind": "real",
    "n_real": 6,
    "n_sites": 6,
    "source": "EPA DataMap TRI open facilities states=NC (preferred decimal or packed-DMS recovery), per catchment"
   },
   "usgs_mean_q_cfs": {
    "fallback_reason": "NHDPlus EROM was unavailable or failed the drainage-area snap guard; value remains null",
    "kind": "real",
    "n_fallback": 1,
    "n_real": 5,
    "n_sites": 6,
    "source": "NHDPlus EROM qe_ma per COMID (snap-guarded)"
   },
   "velocity_feasibility": {
    "fallback_reason": "derived from the shipped 0.5 m/s velocity fallback",
    "kind": "real",
    "n_fallback": 1,
    "n_real": 5,
    "n_sites": 6,
    "source": "shipped step curve on the computed velocity"
   },
   "velocity_transport_favorability": {
    "fallback_reason": "EROM/DEM continuity input unavailable; shipped 0.5 m/s default used",
    "kind": "derived",
    "n_fallback": 1,
    "n_real": 5,
    "n_sites": 6,
    "source": "scored form of flow_velocity_ms inside the Flow family \u2014 peaked Gaussian exp(-((v-0.9)/0.6)^2), model.json curves.velocity_transport_favorability; construct: transport/delivery favorability, deliberately distinct from velocity_feasibility (device operability)"
   },
   "water_intake_score": {
    "kind": "real",
    "n_real": 6,
    "n_sites": 6,
    "source": "NC OneMap / NC DEQ SWAP public water supply sources (source_typ='Surface Water'), shipped exp(-d/10km) curve"
   }
  },
  "stream_mask": {
   "buffer_m": 150.0,
   "pre_mask": 6,
   "removed": 0,
   "sources": [
    "osm-overpass (all waterway ways)",
    "usgs-nhdplus flowlines"
   ]
  },
  "varying": [
   "bank_slope_score",
   "beach_dist_km",
   "catchment_area_km2",
   "ej_index",
   "estuary_dist_km",
   "flood_q10_cfs",
   "flow_velocity_ms",
   "impervious_pct",
   "land_ownership",
   "population_density",
   "protected_area_score",
   "road_access_score",
   "road_density_km_km2",
   "runoff_coeff_C",
   "seasonal_cv",
   "superfund_score",
   "tourism_amenity_density",
   "usgs_mean_q_cfs",
   "velocity_feasibility",
   "water_intake_score"
  ]
 },
 "region": {
  "bbox": [
   -80.5025,
   36.3612,
   -80.446,
   36.4067
  ],
  "beach_ref": {
   "label": "Wrightsville Beach (shipped NC reference)",
   "lat": 34.21,
   "lon": -77.79
  },
  "center": [
   -80.47422,
   36.383939
  ],
  "estuary_ref": {
   "label": "Pamlico Sound (shipped NC reference)",
   "lat": 35.05,
   "lon": -76.05
  },
  "flood_method": "sir2014_hr1",
  "name": "Pilot Mountain, NC",
  "notes": "NC Piedmont (DEQ physiography polygon)",
  "slug": "pilot-mountain",
  "state": "NC",
  "utm_epsg": 32617,
  "width_curve": {
   "a": 3.12,
   "b": 0.415,
   "code": "AHI",
   "source": "Bieger et al. 2015 JAWRA Table 3, Appalachian Highlands"
  }
 },
 "type": "FeatureCollection"
}
