{
 "features": [
  {
   "geometry": {
    "coordinates": [
     -80.867627,
     35.119669
    ],
    "type": "Point"
   },
   "properties": {
    "accumulation": 29401.0,
    "bank_slope_deg": 29.4,
    "bank_slope_score": 0.5,
    "bank_slope_source": "nc-dps-lidar-dem03-cross-section",
    "beach_dist_km": 299.08,
    "bridge_proximity_bonus": 0.0,
    "catchment_area_km2": 2.9359,
    "channel_width_m": 4.88,
    "channel_width_score": 1.0,
    "composite_score": 53.7332,
    "cso_density": 0.0,
    "ej_index": 0.5163,
    "elevation_m": 166.7088,
    "estuary_dist_km": 438.39,
    "feasibility_score": 68.75,
    "flood_q10_cfs": 418.75,
    "flow_score": 40.5831,
    "flow_velocity_ms": 0.5,
    "generation_score": 46.9514,
    "impact_score": 63.9652,
    "impervious_pct": null,
    "land_ownership": 0.5,
    "lat": 35.1197,
    "litter_complaint_density": 0.0,
    "lon": -80.8676,
    "navigable_dist_m": null,
    "npdes_points": 0,
    "pixel_col": 693.0,
    "pixel_row": 170.0,
    "population_density": 2287.8,
    "position_along": 0.0625,
    "protected_area_score": 22.775,
    "rank": 1,
    "road_access_m": 152.3,
    "road_access_score": 1.0,
    "road_density_km_km2": 6.9,
    "robustness_pct": 98.5,
    "runoff_coeff_C": null,
    "seasonal_cv": null,
    "segment_id": 0,
    "segment_length_m": 12478.4104,
    "stream_order": 3,
    "superfund_score": 0.0496,
    "tourism_amenity_density": 10.2655,
    "tri_facility_density": 0.3406,
    "usgs_mean_q_cfs": null,
    "velocity_feasibility": 1.0,
    "water_intake_score": 0.5539
   },
   "type": "Feature"
  },
  {
   "geometry": {
    "coordinates": [
     -80.881579,
     35.08427
    ],
    "type": "Point"
   },
   "properties": {
    "accumulation": 115599.0,
    "bank_slope_deg": 33.41,
    "bank_slope_score": 0.2,
    "bank_slope_source": "nc-dps-lidar-dem03-cross-section",
    "beach_dist_km": 299.03,
    "bridge_proximity_bonus": 0.0,
    "catchment_area_km2": 11.5435,
    "channel_width_m": 8.61,
    "channel_width_score": 1.0,
    "composite_score": 47.3631,
    "cso_density": 0.0,
    "ej_index": 0.5958,
    "elevation_m": 163.4818,
    "estuary_dist_km": 439.7,
    "feasibility_score": 65.0,
    "flood_q10_cfs": 1107.51,
    "flow_score": 46.7657,
    "flow_velocity_ms": 0.5,
    "generation_score": 33.7173,
    "impact_score": 52.6883,
    "impervious_pct": null,
    "land_ownership": 0.5,
    "lat": 35.0843,
    "litter_complaint_density": 0.0,
    "lon": -80.8816,
    "navigable_dist_m": null,
    "npdes_points": 1,
    "pixel_col": 568.0,
    "pixel_row": 563.0,
    "population_density": 736.2,
    "position_along": 0.4375,
    "protected_area_score": 19.0173,
    "rank": 2,
    "road_access_m": 107.5,
    "road_access_score": 1.0,
    "road_density_km_km2": 8.013,
    "robustness_pct": 95.0,
    "runoff_coeff_C": null,
    "seasonal_cv": null,
    "segment_id": 0,
    "segment_length_m": 12478.4104,
    "stream_order": 3,
    "superfund_score": 0.9104,
    "tourism_amenity_density": 6.5254,
    "tri_facility_density": 0.3465,
    "usgs_mean_q_cfs": null,
    "velocity_feasibility": 1.0,
    "water_intake_score": 0.3967
   },
   "type": "Feature"
  },
  {
   "geometry": {
    "coordinates": [
     -80.915464,
     35.126357
    ],
    "type": "Point"
   },
   "properties": {
    "accumulation": 39484.0,
    "bank_slope_deg": 23.8,
    "bank_slope_score": 0.5,
    "bank_slope_source": "nc-dps-lidar-dem03-cross-section",
    "beach_dist_km": 303.44,
    "bridge_proximity_bonus": 0.2,
    "catchment_area_km2": 3.9428,
    "channel_width_m": 5.51,
    "channel_width_score": 1.0,
    "composite_score": 46.8692,
    "cso_density": 0.0,
    "ej_index": 0.723,
    "elevation_m": 169.1936,
    "estuary_dist_km": 442.73,
    "feasibility_score": 78.75,
    "flood_q10_cfs": 522.95,
    "flow_score": 41.3979,
    "flow_velocity_ms": 0.5,
    "generation_score": 31.3753,
    "impact_score": 50.9821,
    "impervious_pct": null,
    "land_ownership": 0.5,
    "lat": 35.1264,
    "litter_complaint_density": 0.0,
    "lon": -80.9155,
    "navigable_dist_m": null,
    "npdes_points": 0,
    "pixel_col": 259.0,
    "pixel_row": 95.0,
    "population_density": 283.9,
    "position_along": 0.1667,
    "protected_area_score": 21.4674,
    "rank": 3,
    "road_access_m": 110.4,
    "road_access_score": 1.0,
    "road_density_km_km2": 6.872,
    "robustness_pct": 74.0,
    "runoff_coeff_C": null,
    "seasonal_cv": null,
    "segment_id": 1,
    "segment_length_m": 5257.1207,
    "stream_order": 3,
    "superfund_score": 0.1296,
    "tourism_amenity_density": 2.3077,
    "tri_facility_density": 0.5073,
    "usgs_mean_q_cfs": null,
    "velocity_feasibility": 1.0,
    "water_intake_score": 0.6703
   },
   "type": "Feature"
  },
  {
   "geometry": {
    "coordinates": [
     -80.878164,
     35.095378
    ],
    "type": "Point"
   },
   "properties": {
    "accumulation": 98432.0,
    "bank_slope_deg": 28.15,
    "bank_slope_score": 0.5,
    "bank_slope_source": "nc-dps-lidar-dem03-cross-section",
    "beach_dist_km": 299.12,
    "bridge_proximity_bonus": 0.0,
    "catchment_area_km2": 9.8292,
    "channel_width_m": 8.05,
    "channel_width_score": 1.0,
    "composite_score": 45.8293,
    "cso_density": 0.0,
    "ej_index": 0.5257,
    "elevation_m": 164.4121,
    "estuary_dist_km": 439.37,
    "feasibility_score": 43.75,
    "flood_q10_cfs": 1013.16,
    "flow_score": 45.7004,
    "flow_velocity_ms": 0.5,
    "generation_score": 43.9147,
    "impact_score": 48.891,
    "impervious_pct": null,
    "land_ownership": 0.5,
    "lat": 35.0954,
    "litter_complaint_density": 0.0,
    "lon": -80.8782,
    "navigable_dist_m": null,
    "npdes_points": 2,
    "pixel_col": 598.0,
    "pixel_row": 439.0,
    "population_density": 646.1,
    "position_along": 0.3125,
    "protected_area_score": 19.9388,
    "rank": 4,
    "road_access_m": 202.8,
    "road_access_score": 0.8,
    "road_density_km_km2": 8.903,
    "robustness_pct": 69.5,
    "runoff_coeff_C": null,
    "seasonal_cv": null,
    "segment_id": 0,
    "segment_length_m": 12478.4104,
    "stream_order": 3,
    "superfund_score": 0.1996,
    "tourism_amenity_density": 7.162,
    "tri_facility_density": 0.5087,
    "usgs_mean_q_cfs": null,
    "velocity_feasibility": 1.0,
    "water_intake_score": 0.4415
   },
   "type": "Feature"
  },
  {
   "geometry": {
    "coordinates": [
     -80.873236,
     35.107692
    ],
    "type": "Point"
   },
   "properties": {
    "accumulation": 56917.0,
    "bank_slope_deg": 30.37,
    "bank_slope_score": 0.2,
    "bank_slope_source": "nc-dps-lidar-dem03-cross-section",
    "beach_dist_km": 299.13,
    "bridge_proximity_bonus": 0.0,
    "catchment_area_km2": 5.6836,
    "channel_width_m": 6.42,
    "channel_width_score": 1.0,
    "composite_score": 43.5077,
    "cso_density": 0.0,
    "ej_index": 0.4703,
    "elevation_m": 165.4158,
    "estuary_dist_km": 438.91,
    "feasibility_score": 65.0,
    "flood_q10_cfs": 688.89,
    "flow_score": 42.7516,
    "flow_velocity_ms": 0.5,
    "generation_score": 20.4396,
    "impact_score": 56.4596,
    "impervious_pct": null,
    "land_ownership": 0.5,
    "lat": 35.1077,
    "litter_complaint_density": 0.0,
    "lon": -80.8732,
    "navigable_dist_m": null,
    "npdes_points": 0,
    "pixel_col": 642.0,
    "pixel_row": 303.0,
    "population_density": 1163.4,
    "position_along": 0.1875,
    "protected_area_score": 21.3942,
    "rank": 5,
    "road_access_m": 190.6,
    "road_access_score": 1.0,
    "road_density_km_km2": 7.76,
    "robustness_pct": 36.0,
    "runoff_coeff_C": null,
    "seasonal_cv": null,
    "segment_id": 0,
    "segment_length_m": 12478.4104,
    "stream_order": 3,
    "superfund_score": 0.0738,
    "tourism_amenity_density": 10.2655,
    "tri_facility_density": 0.0,
    "usgs_mean_q_cfs": null,
    "velocity_feasibility": 1.0,
    "water_intake_score": 0.5069
   },
   "type": "Feature"
  },
  {
   "geometry": {
    "coordinates": [
     -80.884988,
     35.076872
    ],
    "type": "Point"
   },
   "properties": {
    "accumulation": 127218.0,
    "bank_slope_deg": 35.51,
    "bank_slope_score": 0.2,
    "bank_slope_source": "nc-dps-lidar-dem03-cross-section",
    "beach_dist_km": 299.07,
    "bridge_proximity_bonus": 0.0,
    "catchment_area_km2": 12.7038,
    "channel_width_m": 8.96,
    "channel_width_score": 1.0,
    "composite_score": 43.0735,
    "cso_density": 0.0,
    "ej_index": 0.6135,
    "elevation_m": 161.5455,
    "estuary_dist_km": 440.02,
    "feasibility_score": 65.0,
    "flood_q10_cfs": 1167.85,
    "flow_score": 47.4731,
    "flow_velocity_ms": 0.5,
    "generation_score": 26.689,
    "impact_score": 44.8283,
    "impervious_pct": null,
    "land_ownership": 0.5,
    "lat": 35.0769,
    "litter_complaint_density": 0.0,
    "lon": -80.885,
    "navigable_dist_m": null,
    "npdes_points": 1,
    "pixel_col": 537.0,
    "pixel_row": 645.0,
    "population_density": 826.9,
    "position_along": 0.5625,
    "protected_area_score": 17.6266,
    "rank": 6,
    "road_access_m": 111.6,
    "road_access_score": 1.0,
    "road_density_km_km2": 6.615,
    "robustness_pct": 17.0,
    "runoff_coeff_C": null,
    "seasonal_cv": null,
    "segment_id": 0,
    "segment_length_m": 12478.4104,
    "stream_order": 3,
    "superfund_score": 0.4388,
    "tourism_amenity_density": 6.5254,
    "tri_facility_density": 0.2362,
    "usgs_mean_q_cfs": null,
    "velocity_feasibility": 1.0,
    "water_intake_score": 0.3743
   },
   "type": "Feature"
  },
  {
   "geometry": {
    "coordinates": [
     -80.892484,
     35.072918
    ],
    "type": "Point"
   },
   "properties": {
    "accumulation": 138566.0,
    "bank_slope_deg": 18.62,
    "bank_slope_score": 0.5,
    "bank_slope_source": "nc-dps-lidar-dem03-cross-section",
    "beach_dist_km": 299.59,
    "bridge_proximity_bonus": 0.0,
    "catchment_area_km2": 13.8369,
    "channel_width_m": 9.28,
    "channel_width_score": 1.0,
    "composite_score": 42.1596,
    "cso_density": 0.0,
    "ej_index": 0.5624,
    "elevation_m": 159.6732,
    "estuary_dist_km": 440.71,
    "feasibility_score": 48.75,
    "flood_q10_cfs": 2025.17,
    "flow_score": 46.6451,
    "flow_velocity_ms": 0.0621,
    "generation_score": 40.5483,
    "impact_score": 36.7376,
    "impervious_pct": 36.42,
    "land_ownership": 0.5,
    "lat": 35.0729,
    "litter_complaint_density": 0.0,
    "lon": -80.8925,
    "navigable_dist_m": null,
    "npdes_points": 1,
    "pixel_col": 469.0,
    "pixel_row": 686.0,
    "population_density": 868.0,
    "position_along": 0.6875,
    "protected_area_score": 16.8325,
    "rank": 7,
    "road_access_m": 159.3,
    "road_access_score": 1.0,
    "road_density_km_km2": 5.757,
    "robustness_pct": 4.0,
    "runoff_coeff_C": 0.3778,
    "seasonal_cv": 0.2615,
    "segment_id": 0,
    "segment_length_m": 12478.4104,
    "stream_order": 3,
    "superfund_score": 0.2642,
    "tourism_amenity_density": 5.9683,
    "tri_facility_density": 0.0723,
    "usgs_mean_q_cfs": 92.987,
    "velocity_feasibility": 0.7,
    "water_intake_score": 0.3677
   },
   "type": "Feature"
  },
  {
   "geometry": {
    "coordinates": [
     -80.89422,
     35.11272
    ],
    "type": "Point"
   },
   "properties": {
    "accumulation": 26111.0,
    "bank_slope_deg": 3.36,
    "bank_slope_score": 1.0,
    "bank_slope_source": "nc-dps-lidar-dem03-cross-section",
    "beach_dist_km": 301.12,
    "bridge_proximity_bonus": 0.0,
    "catchment_area_km2": 2.6074,
    "channel_width_m": 4.64,
    "channel_width_score": 1.0,
    "composite_score": 42.117,
    "cso_density": 0.0,
    "ej_index": 0.7789,
    "elevation_m": 175.4753,
    "estuary_dist_km": 440.81,
    "feasibility_score": 55.0,
    "flood_q10_cfs": 786.51,
    "flow_score": 24.4211,
    "flow_velocity_ms": 0.1423,
    "generation_score": 39.2421,
    "impact_score": 53.2972,
    "impervious_pct": 41.13,
    "land_ownership": 0.5,
    "lat": 35.1127,
    "litter_complaint_density": 0.0,
    "lon": -80.8942,
    "navigable_dist_m": null,
    "npdes_points": 2,
    "pixel_col": 450.0,
    "pixel_row": 247.0,
    "population_density": 400.1,
    "position_along": 0.5,
    "protected_area_score": 20.5257,
    "rank": 8,
    "road_access_m": 162.0,
    "road_access_score": 1.0,
    "road_density_km_km2": 6.897,
    "robustness_pct": 16.0,
    "runoff_coeff_C": 0.4202,
    "seasonal_cv": 0.4926,
    "segment_id": 2,
    "segment_length_m": 1547.1352,
    "stream_order": 3,
    "superfund_score": 0.0695,
    "tourism_amenity_density": 3.1035,
    "tri_facility_density": 0.0,
    "usgs_mean_q_cfs": 4.931,
    "velocity_feasibility": 0.7,
    "water_intake_score": 0.5562
   },
   "type": "Feature"
  },
  {
   "geometry": {
    "coordinates": [
     -80.899739,
     35.102961
    ],
    "type": "Point"
   },
   "properties": {
    "accumulation": 131439.0,
    "bank_slope_deg": 24.83,
    "bank_slope_score": 0.5,
    "bank_slope_source": "nc-dps-lidar-dem03-cross-section",
    "beach_dist_km": 301.25,
    "bridge_proximity_bonus": 0.0,
    "catchment_area_km2": 13.1253,
    "channel_width_m": 9.08,
    "channel_width_score": 1.0,
    "composite_score": 41.2259,
    "cso_density": 0.0,
    "ej_index": 0.5177,
    "elevation_m": 161.7005,
    "estuary_dist_km": 441.32,
    "feasibility_score": 43.75,
    "flood_q10_cfs": 1189.16,
    "flow_score": 47.7277,
    "flow_velocity_ms": 0.5,
    "generation_score": 38.9021,
    "impact_score": 36.8694,
    "impervious_pct": null,
    "land_ownership": 0.5,
    "lat": 35.103,
    "litter_complaint_density": 0.0,
    "lon": -80.8997,
    "navigable_dist_m": null,
    "npdes_points": 8,
    "pixel_col": 399.0,
    "pixel_row": 353.0,
    "population_density": 312.8,
    "position_along": 0.25,
    "protected_area_score": 19.3667,
    "rank": 9,
    "road_access_m": 260.5,
    "road_access_score": 0.8,
    "road_density_km_km2": 5.753,
    "robustness_pct": 0.0,
    "runoff_coeff_C": null,
    "seasonal_cv": null,
    "segment_id": 3,
    "segment_length_m": 3967.7924,
    "stream_order": 3,
    "superfund_score": 0.0978,
    "tourism_amenity_density": 2.3077,
    "tri_facility_density": 0.3809,
    "usgs_mean_q_cfs": null,
    "velocity_feasibility": 1.0,
    "water_intake_score": 0.5034
   },
   "type": "Feature"
  },
  {
   "geometry": {
    "coordinates": [
     -80.905252,
     35.083957
    ],
    "type": "Point"
   },
   "properties": {
    "accumulation": 246457.0,
    "bank_slope_deg": 32.09,
    "bank_slope_score": 0.2,
    "bank_slope_source": "nc-dps-lidar-dem03-cross-section",
    "beach_dist_km": 301.07,
    "bridge_proximity_bonus": 0.0,
    "catchment_area_km2": 24.6107,
    "channel_width_m": 11.79,
    "channel_width_score": 1.0,
    "composite_score": 41.1873,
    "cso_density": 0.0,
    "ej_index": 0.478,
    "elevation_m": 159.3499,
    "estuary_dist_km": 441.85,
    "feasibility_score": 20.0,
    "flood_q10_cfs": 2831.02,
    "flow_score": 51.5391,
    "flow_velocity_ms": 0.098,
    "generation_score": 53.0462,
    "impact_score": 31.2956,
    "impervious_pct": 37.58,
    "land_ownership": 0.5,
    "lat": 35.084,
    "litter_complaint_density": 0.0,
    "lon": -80.9053,
    "navigable_dist_m": null,
    "npdes_points": 5,
    "pixel_col": 350.0,
    "pixel_row": 566.0,
    "population_density": 701.9,
    "position_along": 0.5,
    "protected_area_score": 17.6868,
    "rank": 10,
    "road_access_m": 258.7,
    "road_access_score": 0.8,
    "road_density_km_km2": 5.783,
    "robustness_pct": 35.0,
    "runoff_coeff_C": 0.3882,
    "seasonal_cv": 0.397,
    "segment_id": 5,
    "segment_length_m": 995.2731,
    "stream_order": 3,
    "superfund_score": 0.2234,
    "tourism_amenity_density": 4.4563,
    "tri_facility_density": 0.2032,
    "usgs_mean_q_cfs": 86.118,
    "velocity_feasibility": 0.7,
    "water_intake_score": 0.4274
   },
   "type": "Feature"
  },
  {
   "geometry": {
    "coordinates": [
     -80.898122,
     35.092493
    ],
    "type": "Point"
   },
   "properties": {
    "accumulation": 166586.0,
    "bank_slope_deg": 28.46,
    "bank_slope_score": 0.5,
    "bank_slope_source": "nc-dps-lidar-dem03-cross-section",
    "beach_dist_km": 300.75,
    "bridge_proximity_bonus": 0.0,
    "catchment_area_km2": 16.635,
    "channel_width_m": 10.02,
    "channel_width_score": 1.0,
    "composite_score": 41.0331,
    "cso_density": 0.0,
    "ej_index": 0.5113,
    "elevation_m": 159.6925,
    "estuary_dist_km": 441.19,
    "feasibility_score": 43.75,
    "flood_q10_cfs": 1355.95,
    "flow_score": 49.8064,
    "flow_velocity_ms": 0.5,
    "generation_score": 34.8294,
    "impact_score": 38.5672,
    "impervious_pct": null,
    "land_ownership": 0.5,
    "lat": 35.0925,
    "litter_complaint_density": 0.0,
    "lon": -80.8981,
    "navigable_dist_m": null,
    "npdes_points": 6,
    "pixel_col": 415.0,
    "pixel_row": 472.0,
    "population_density": 468.0,
    "position_along": 0.75,
    "protected_area_score": 19.0874,
    "rank": 11,
    "road_access_m": 201.1,
    "road_access_score": 0.8,
    "road_density_km_km2": 6.495,
    "robustness_pct": 1.5,
    "runoff_coeff_C": null,
    "seasonal_cv": null,
    "segment_id": 3,
    "segment_length_m": 3967.7924,
    "stream_order": 3,
    "superfund_score": 0.2254,
    "tourism_amenity_density": 4.7746,
    "tri_facility_density": 0.3006,
    "usgs_mean_q_cfs": null,
    "velocity_feasibility": 1.0,
    "water_intake_score": 0.4547
   },
   "type": "Feature"
  },
  {
   "geometry": {
    "coordinates": [
     -80.893438,
     35.069358
    ],
    "type": "Point"
   },
   "properties": {
    "accumulation": 147403.0,
    "bank_slope_deg": 36.77,
    "bank_slope_score": 0.2,
    "bank_slope_source": "nc-dps-lidar-dem03-cross-section",
    "beach_dist_km": 299.55,
    "bridge_proximity_bonus": 0.0,
    "catchment_area_km2": 14.7194,
    "channel_width_m": 9.52,
    "channel_width_score": 1.0,
    "composite_score": 40.9753,
    "cso_density": 0.0,
    "ej_index": 0.5477,
    "elevation_m": 158.2838,
    "estuary_dist_km": 440.81,
    "feasibility_score": 45.0,
    "flood_q10_cfs": 2095.72,
    "flow_score": 49.3972,
    "flow_velocity_ms": 0.1485,
    "generation_score": 40.0724,
    "impact_score": 32.8477,
    "impervious_pct": 36.42,
    "land_ownership": 0.5,
    "lat": 35.0694,
    "litter_complaint_density": 0.0,
    "lon": -80.8934,
    "navigable_dist_m": null,
    "npdes_points": 1,
    "pixel_col": 458.0,
    "pixel_row": 724.0,
    "population_density": 941.8,
    "position_along": 0.8125,
    "protected_area_score": 16.3528,
    "rank": 12,
    "road_access_m": 138.5,
    "road_access_score": 1.0,
    "road_density_km_km2": 5.244,
    "robustness_pct": 0.5,
    "runoff_coeff_C": 0.3778,
    "seasonal_cv": 0.2615,
    "segment_id": 0,
    "segment_length_m": 12478.4104,
    "stream_order": 3,
    "superfund_score": 0.1684,
    "tourism_amenity_density": 5.1725,
    "tri_facility_density": 0.0679,
    "usgs_mean_q_cfs": 92.987,
    "velocity_feasibility": 0.7,
    "water_intake_score": 0.3566
   },
   "type": "Feature"
  },
  {
   "geometry": {
    "coordinates": [
     -80.90082,
     35.11331
    ],
    "type": "Point"
   },
   "properties": {
    "accumulation": 85084.0,
    "bank_slope_deg": 23.6,
    "bank_slope_score": 0.5,
    "bank_slope_source": "nc-dps-lidar-dem03-cross-section",
    "beach_dist_km": 301.71,
    "bridge_proximity_bonus": 0.0,
    "catchment_area_km2": 8.4963,
    "channel_width_m": 7.58,
    "channel_width_score": 1.0,
    "composite_score": 40.1282,
    "cso_density": 0.0,
    "ej_index": 0.6446,
    "elevation_m": 164.506,
    "estuary_dist_km": 441.41,
    "feasibility_score": 68.75,
    "flood_q10_cfs": 934.59,
    "flow_score": 44.8519,
    "flow_velocity_ms": 0.5,
    "generation_score": 16.3291,
    "impact_score": 45.6801,
    "impervious_pct": null,
    "land_ownership": 0.5,
    "lat": 35.1133,
    "litter_complaint_density": 0.0,
    "lon": -80.9008,
    "navigable_dist_m": null,
    "npdes_points": 6,
    "pixel_col": 393.0,
    "pixel_row": 241.0,
    "population_density": 311.2,
    "position_along": 0.8333,
    "protected_area_score": 20.2016,
    "rank": 13,
    "road_access_m": 128.0,
    "road_access_score": 1.0,
    "road_density_km_km2": 5.102,
    "robustness_pct": 0.0,
    "runoff_coeff_C": null,
    "seasonal_cv": null,
    "segment_id": 1,
    "segment_length_m": 5257.1207,
    "stream_order": 3,
    "superfund_score": 0.071,
    "tourism_amenity_density": 2.4669,
    "tri_facility_density": 0.0,
    "usgs_mean_q_cfs": null,
    "velocity_feasibility": 1.0,
    "water_intake_score": 0.5697
   },
   "type": "Feature"
  },
  {
   "geometry": {
    "coordinates": [
     -80.900247,
     35.058115
    ],
    "type": "Point"
   },
   "properties": {
    "accumulation": 463630.0,
    "bank_slope_deg": 5.7,
    "bank_slope_score": 1.0,
    "bank_slope_source": "usgs-3dep-10m-gradient-fallback",
    "beach_dist_km": 299.76,
    "bridge_proximity_bonus": 0.0,
    "catchment_area_km2": 46.2972,
    "channel_width_m": 15.32,
    "channel_width_score": 0.5,
    "composite_score": 40.1281,
    "cso_density": 0.0,
    "ej_index": 0.4712,
    "elevation_m": 153.8415,
    "estuary_dist_km": 441.45,
    "feasibility_score": 35.0,
    "flood_q10_cfs": 3958.5,
    "flow_score": 78.093,
    "flow_velocity_ms": 0.1279,
    "generation_score": 33.244,
    "impact_score": 17.9388,
    "impervious_pct": 36.51,
    "land_ownership": 0.5,
    "lat": 35.0581,
    "litter_complaint_density": 0.0,
    "lon": -80.9002,
    "navigable_dist_m": null,
    "npdes_points": 1,
    "pixel_col": 396.0,
    "pixel_row": 853.0,
    "population_density": 775.9,
    "position_along": 0.5,
    "protected_area_score": 13.8524,
    "rank": 14,
    "road_access_m": 61.8,
    "road_access_score": 1.0,
    "road_density_km_km2": 3.935,
    "robustness_pct": 30.0,
    "runoff_coeff_C": 0.3786,
    "seasonal_cv": 0.3386,
    "segment_id": 9,
    "segment_length_m": 1881.0403,
    "stream_order": 3,
    "superfund_score": 0.0601,
    "tourism_amenity_density": 1.9099,
    "tri_facility_density": 0.0216,
    "usgs_mean_q_cfs": 181.038,
    "velocity_feasibility": 0.7,
    "water_intake_score": 0.3261
   },
   "type": "Feature"
  },
  {
   "geometry": {
    "coordinates": [
     -80.847174,
     35.101335
    ],
    "type": "Point"
   },
   "properties": {
    "accumulation": 33273.0,
    "bank_slope_deg": 1.2,
    "bank_slope_score": 1.0,
    "bank_slope_source": "nc-dps-lidar-dem03-cross-section",
    "beach_dist_km": 296.66,
    "bridge_proximity_bonus": 0.0,
    "catchment_area_km2": 3.3226,
    "channel_width_m": 5.14,
    "channel_width_score": 1.0,
    "composite_score": 40.0109,
    "cso_density": 0.0,
    "ej_index": 0.2878,
    "elevation_m": 165.2993,
    "estuary_dist_km": 436.54,
    "feasibility_score": 75.0,
    "flood_q10_cfs": 459.67,
    "flow_score": 26.8995,
    "flow_velocity_ms": 0.5,
    "generation_score": 15.868,
    "impact_score": 57.5854,
    "impervious_pct": null,
    "land_ownership": 0.5,
    "lat": 35.1013,
    "litter_complaint_density": 0.0,
    "lon": -80.8472,
    "navigable_dist_m": null,
    "npdes_points": 0,
    "pixel_col": 882.0,
    "pixel_row": 369.0,
    "population_density": 1436.1,
    "position_along": 0.5,
    "protected_area_score": 24.9074,
    "rank": 15,
    "road_access_m": 80.8,
    "road_access_score": 1.0,
    "road_density_km_km2": 4.247,
    "robustness_pct": 15.0,
    "runoff_coeff_C": null,
    "seasonal_cv": null,
    "segment_id": 6,
    "segment_length_m": 1854.1964,
    "stream_order": 1,
    "superfund_score": 0.049,
    "tourism_amenity_density": 7.9577,
    "tri_facility_density": 0.0,
    "usgs_mean_q_cfs": null,
    "velocity_feasibility": 1.0,
    "water_intake_score": 0.4459
   },
   "type": "Feature"
  },
  {
   "geometry": {
    "coordinates": [
     -80.86655,
     35.071237
    ],
    "type": "Point"
   },
   "properties": {
    "accumulation": 31379.0,
    "bank_slope_deg": 9.83,
    "bank_slope_score": 1.0,
    "bank_slope_source": "nc-dps-lidar-dem03-cross-section",
    "beach_dist_km": 297.28,
    "bridge_proximity_bonus": 0.0,
    "catchment_area_km2": 3.1334,
    "channel_width_m": 5.01,
    "channel_width_score": 1.0,
    "composite_score": 39.425,
    "cso_density": 0.0,
    "ej_index": 0.5493,
    "elevation_m": 159.2453,
    "estuary_dist_km": 438.36,
    "feasibility_score": 75.0,
    "flood_q10_cfs": 439.81,
    "flow_score": 40.7453,
    "flow_velocity_ms": 0.5,
    "generation_score": 18.5375,
    "impact_score": 41.4246,
    "impervious_pct": null,
    "land_ownership": 0.5,
    "lat": 35.0712,
    "litter_complaint_density": 0.0,
    "lon": -80.8666,
    "navigable_dist_m": null,
    "npdes_points": 0,
    "pixel_col": 703.0,
    "pixel_row": 707.0,
    "population_density": 952.1,
    "position_along": 0.5,
    "protected_area_score": 17.6844,
    "rank": 16,
    "road_access_m": 169.7,
    "road_access_score": 1.0,
    "road_density_km_km2": 8.002,
    "robustness_pct": 2.5,
    "runoff_coeff_C": null,
    "seasonal_cv": null,
    "segment_id": 10,
    "segment_length_m": 1339.2929,
    "stream_order": 3,
    "superfund_score": 0.1195,
    "tourism_amenity_density": 4.2176,
    "tri_facility_density": 0.0,
    "usgs_mean_q_cfs": null,
    "velocity_feasibility": 1.0,
    "water_intake_score": 0.3396
   },
   "type": "Feature"
  },
  {
   "geometry": {
    "coordinates": [
     -80.90066,
     35.06603
    ],
    "type": "Point"
   },
   "properties": {
    "accumulation": 154014.0,
    "bank_slope_deg": 38.19,
    "bank_slope_score": 0.2,
    "bank_slope_source": "nc-dps-lidar-dem03-cross-section",
    "beach_dist_km": 300.06,
    "bridge_proximity_bonus": 0.0,
    "catchment_area_km2": 15.3796,
    "channel_width_m": 9.7,
    "channel_width_score": 1.0,
    "composite_score": 37.5973,
    "cso_density": 0.0,
    "ej_index": 0.5175,
    "elevation_m": 155.8725,
    "estuary_dist_km": 441.47,
    "feasibility_score": 45.0,
    "flood_q10_cfs": 2147.28,
    "flow_score": 49.6214,
    "flow_velocity_ms": 0.1396,
    "generation_score": 35.8568,
    "impact_score": 25.6162,
    "impervious_pct": 36.42,
    "land_ownership": 0.5,
    "lat": 35.066,
    "litter_complaint_density": 0.0,
    "lon": -80.9007,
    "navigable_dist_m": null,
    "npdes_points": 0,
    "pixel_col": 391.0,
    "pixel_row": 764.0,
    "population_density": 1008.3,
    "position_along": 0.9375,
    "protected_area_score": 15.3399,
    "rank": 17,
    "road_access_m": 100.0,
    "road_access_score": 1.0,
    "road_density_km_km2": 5.254,
    "robustness_pct": 0.0,
    "runoff_coeff_C": 0.3778,
    "seasonal_cv": 0.2615,
    "segment_id": 0,
    "segment_length_m": 12478.4104,
    "stream_order": 3,
    "superfund_score": 0.1017,
    "tourism_amenity_density": 3.9789,
    "tri_facility_density": 0.0,
    "usgs_mean_q_cfs": 92.987,
    "velocity_feasibility": 0.7,
    "water_intake_score": 0.3515
   },
   "type": "Feature"
  },
  {
   "geometry": {
    "coordinates": [
     -80.90707,
     35.070312
    ],
    "type": "Point"
   },
   "properties": {
    "accumulation": 286055.0,
    "bank_slope_deg": 8.92,
    "bank_slope_score": 1.0,
    "bank_slope_source": "usgs-3dep-10m-gradient-fallback",
    "beach_dist_km": 300.76,
    "bridge_proximity_bonus": 0.0,
    "catchment_area_km2": 28.5649,
    "channel_width_m": 12.54,
    "channel_width_score": 1.0,
    "composite_score": 37.5543,
    "cso_density": 0.0,
    "ej_index": 0.4817,
    "elevation_m": 156.2578,
    "estuary_dist_km": 442.05,
    "feasibility_score": 30.0,
    "flood_q10_cfs": 3074.58,
    "flow_score": 55.6591,
    "flow_velocity_ms": 0.1575,
    "generation_score": 40.5288,
    "impact_score": 23.2697,
    "impervious_pct": 37.58,
    "land_ownership": 0.5,
    "lat": 35.0703,
    "litter_complaint_density": 0.0,
    "lon": -80.9071,
    "navigable_dist_m": null,
    "npdes_points": 1,
    "pixel_col": 334.0,
    "pixel_row": 718.0,
    "population_density": 820.2,
    "position_along": 0.5,
    "protected_area_score": 15.6032,
    "rank": 18,
    "road_access_m": 255.7,
    "road_access_score": 0.8,
    "road_density_km_km2": 5.717,
    "robustness_pct": 5.5,
    "runoff_coeff_C": 0.3882,
    "seasonal_cv": 0.397,
    "segment_id": 8,
    "segment_length_m": 2266.9185,
    "stream_order": 3,
    "superfund_score": 0.1056,
    "tourism_amenity_density": 3.8197,
    "tri_facility_density": 0.07,
    "usgs_mean_q_cfs": 86.118,
    "velocity_feasibility": 0.7,
    "water_intake_score": 0.3713
   },
   "type": "Feature"
  },
  {
   "geometry": {
    "coordinates": [
     -80.90302,
     35.122002
    ],
    "type": "Point"
   },
   "properties": {
    "accumulation": 60568.0,
    "bank_slope_deg": 28.26,
    "bank_slope_score": 0.5,
    "bank_slope_source": "nc-dps-lidar-dem03-cross-section",
    "beach_dist_km": 302.21,
    "bridge_proximity_bonus": 0.0,
    "catchment_area_km2": 6.0482,
    "channel_width_m": 6.58,
    "channel_width_score": 1.0,
    "composite_score": 36.3813,
    "cso_density": 0.0,
    "ej_index": 0.7809,
    "elevation_m": 166.4528,
    "estuary_dist_km": 441.6,
    "feasibility_score": 43.75,
    "flood_q10_cfs": 721.93,
    "flow_score": 43.0284,
    "flow_velocity_ms": 0.5,
    "generation_score": 9.8872,
    "impact_score": 53.6516,
    "impervious_pct": null,
    "land_ownership": 0.5,
    "lat": 35.122,
    "litter_complaint_density": 0.0,
    "lon": -80.903,
    "navigable_dist_m": null,
    "npdes_points": 2,
    "pixel_col": 371.0,
    "pixel_row": 144.0,
    "population_density": 364.5,
    "position_along": 0.5,
    "protected_area_score": 21.3354,
    "rank": 19,
    "road_access_m": 251.2,
    "road_access_score": 0.8,
    "road_density_km_km2": 5.392,
    "robustness_pct": 0.0,
    "runoff_coeff_C": null,
    "seasonal_cv": null,
    "segment_id": 1,
    "segment_length_m": 5257.1207,
    "stream_order": 3,
    "superfund_score": 0.0689,
    "tourism_amenity_density": 2.069,
    "tri_facility_density": 0.0,
    "usgs_mean_q_cfs": null,
    "velocity_feasibility": 1.0,
    "water_intake_score": 0.6213
   },
   "type": "Feature"
  },
  {
   "geometry": {
    "coordinates": [
     -80.870325,
     35.060909
    ],
    "type": "Point"
   },
   "properties": {
    "accumulation": 93954.0,
    "bank_slope_deg": 27.36,
    "bank_slope_score": 0.5,
    "bank_slope_source": "nc-dps-lidar-dem03-cross-section",
    "beach_dist_km": 297.26,
    "bridge_proximity_bonus": 0.0,
    "catchment_area_km2": 9.3821,
    "channel_width_m": 7.9,
    "channel_width_score": 1.0,
    "composite_score": 35.6787,
    "cso_density": 0.0,
    "ej_index": 0.5706,
    "elevation_m": 157.641,
    "estuary_dist_km": 438.72,
    "feasibility_score": 58.75,
    "flood_q10_cfs": 987.36,
    "flow_score": 45.4179,
    "flow_velocity_ms": 0.5,
    "generation_score": 15.5634,
    "impact_score": 36.1424,
    "impervious_pct": null,
    "land_ownership": 1.0,
    "lat": 35.0609,
    "litter_complaint_density": 0.0,
    "lon": -80.8703,
    "navigable_dist_m": null,
    "npdes_points": 1,
    "pixel_col": 669.0,
    "pixel_row": 822.0,
    "population_density": 1115.7,
    "position_along": 0.25,
    "protected_area_score": 16.1849,
    "rank": 20,
    "road_access_m": 497.1,
    "road_access_score": 0.8,
    "road_density_km_km2": 4.913,
    "robustness_pct": 0.0,
    "runoff_coeff_C": null,
    "seasonal_cv": null,
    "segment_id": 13,
    "segment_length_m": 3844.7426,
    "stream_order": 3,
    "superfund_score": 0.0676,
    "tourism_amenity_density": 3.3423,
    "tri_facility_density": 0.0,
    "usgs_mean_q_cfs": null,
    "velocity_feasibility": 1.0,
    "water_intake_score": 0.3128
   },
   "type": "Feature"
  },
  {
   "geometry": {
    "coordinates": [
     -80.905302,
     35.090844
    ],
    "type": "Point"
   },
   "properties": {
    "accumulation": 54512.0,
    "bank_slope_deg": 1.88,
    "bank_slope_score": 1.0,
    "bank_slope_source": "nc-dps-lidar-dem03-cross-section",
    "beach_dist_km": 301.31,
    "bridge_proximity_bonus": 0.0,
    "catchment_area_km2": 5.4435,
    "channel_width_m": 6.3,
    "channel_width_score": 1.0,
    "composite_score": 35.053,
    "cso_density": 0.0,
    "ej_index": 0.4111,
    "elevation_m": 164.9732,
    "estuary_dist_km": 441.85,
    "feasibility_score": 55.0,
    "flood_q10_cfs": 1166.99,
    "flow_score": 27.2137,
    "flow_velocity_ms": 0.1697,
    "generation_score": 37.6708,
    "impact_score": 28.9945,
    "impervious_pct": 31.98,
    "land_ownership": 0.5,
    "lat": 35.0908,
    "litter_complaint_density": 0.0,
    "lon": -80.9053,
    "navigable_dist_m": null,
    "npdes_points": 1,
    "pixel_col": 351.0,
    "pixel_row": 490.0,
    "population_density": 365.9,
    "position_along": 0.75,
    "protected_area_score": 18.434,
    "rank": 21,
    "road_access_m": 185.8,
    "road_access_score": 1.0,
    "road_density_km_km2": 6.039,
    "robustness_pct": 0.0,
    "runoff_coeff_C": 0.3378,
    "seasonal_cv": 0.4521,
    "segment_id": 4,
    "segment_length_m": 3230.7421,
    "stream_order": 3,
    "superfund_score": 0.1638,
    "tourism_amenity_density": 3.0239,
    "tri_facility_density": 0.1837,
    "usgs_mean_q_cfs": 2.744,
    "velocity_feasibility": 0.7,
    "water_intake_score": 0.4562
   },
   "type": "Feature"
  },
  {
   "geometry": {
    "coordinates": [
     -80.863538,
     35.061199
    ],
    "type": "Point"
   },
   "properties": {
    "accumulation": 41174.0,
    "bank_slope_deg": 6.35,
    "bank_slope_score": 1.0,
    "bank_slope_source": "nc-dps-lidar-dem03-cross-section",
    "beach_dist_km": 296.68,
    "bridge_proximity_bonus": 0.0,
    "catchment_area_km2": 4.1116,
    "channel_width_m": 5.61,
    "channel_width_score": 1.0,
    "composite_score": 34.1267,
    "cso_density": 0.0,
    "ej_index": 0.5177,
    "elevation_m": 158.9493,
    "estuary_dist_km": 438.11,
    "feasibility_score": 50.0,
    "flood_q10_cfs": 539.73,
    "flow_score": 41.5318,
    "flow_velocity_ms": 0.5,
    "generation_score": 14.0006,
    "impact_score": 40.1452,
    "impervious_pct": null,
    "land_ownership": 0.5,
    "lat": 35.0612,
    "litter_complaint_density": 0.0,
    "lon": -80.8635,
    "navigable_dist_m": null,
    "npdes_points": 0,
    "pixel_col": 731.0,
    "pixel_row": 815.0,
    "population_density": 1047.1,
    "position_along": 0.5,
    "protected_area_score": 16.1549,
    "rank": 22,
    "road_access_m": 258.4,
    "road_access_score": 0.8,
    "road_density_km_km2": 5.437,
    "robustness_pct": 0.0,
    "runoff_coeff_C": null,
    "seasonal_cv": null,
    "segment_id": 12,
    "segment_length_m": 2395.2336,
    "stream_order": 3,
    "superfund_score": 0.0573,
    "tourism_amenity_density": 6.6845,
    "tri_facility_density": 0.0,
    "usgs_mean_q_cfs": null,
    "velocity_feasibility": 1.0,
    "water_intake_score": 0.3087
   },
   "type": "Feature"
  },
  {
   "geometry": {
    "coordinates": [
     -80.883705,
     35.057978
    ],
    "type": "Point"
   },
   "properties": {
    "accumulation": 113600.0,
    "bank_slope_deg": 22.81,
    "bank_slope_score": 0.5,
    "bank_slope_source": "nc-dps-lidar-dem03-cross-section",
    "beach_dist_km": 298.32,
    "bridge_proximity_bonus": 0.0,
    "catchment_area_km2": 11.3439,
    "channel_width_m": 8.55,
    "channel_width_score": 1.0,
    "composite_score": 33.0982,
    "cso_density": 0.0,
    "ej_index": 0.5115,
    "elevation_m": 156.5833,
    "estuary_dist_km": 439.95,
    "feasibility_score": 68.75,
    "flood_q10_cfs": 1096.86,
    "flow_score": 46.6429,
    "flow_velocity_ms": 0.5,
    "generation_score": 9.876,
    "impact_score": 27.2073,
    "impervious_pct": null,
    "land_ownership": 0.5,
    "lat": 35.058,
    "litter_complaint_density": 0.0,
    "lon": -80.8837,
    "navigable_dist_m": null,
    "npdes_points": 1,
    "pixel_col": 546.0,
    "pixel_row": 855.0,
    "population_density": 974.5,
    "position_along": 0.75,
    "protected_area_score": 15.2109,
    "rank": 23,
    "road_access_m": 194.2,
    "road_access_score": 1.0,
    "road_density_km_km2": 3.063,
    "robustness_pct": 0.0,
    "runoff_coeff_C": null,
    "seasonal_cv": null,
    "segment_id": 13,
    "segment_length_m": 3844.7426,
    "stream_order": 3,
    "superfund_score": 0.067,
    "tourism_amenity_density": 2.5465,
    "tri_facility_density": 0.0,
    "usgs_mean_q_cfs": null,
    "velocity_feasibility": 1.0,
    "water_intake_score": 0.3141
   },
   "type": "Feature"
  },
  {
   "geometry": {
    "coordinates": [
     -80.909126,
     35.080892
    ],
    "type": "Point"
   },
   "properties": {
    "accumulation": 22947.0,
    "bank_slope_deg": 0.01,
    "bank_slope_score": 1.0,
    "bank_slope_source": "nc-dps-lidar-dem03-cross-section",
    "beach_dist_km": 301.3,
    "bridge_proximity_bonus": 0.0,
    "catchment_area_km2": 2.2914,
    "channel_width_m": 4.4,
    "channel_width_score": 1.0,
    "composite_score": 28.4348,
    "cso_density": 0.0,
    "ej_index": 0.4653,
    "elevation_m": 164.884,
    "estuary_dist_km": 442.21,
    "feasibility_score": 50.0,
    "flood_q10_cfs": 347.41,
    "flow_score": 40.0435,
    "flow_velocity_ms": 0.5,
    "generation_score": 10.6694,
    "impact_score": 25.7436,
    "impervious_pct": null,
    "land_ownership": 0.5,
    "lat": 35.0809,
    "litter_complaint_density": 0.0,
    "lon": -80.9091,
    "navigable_dist_m": null,
    "npdes_points": 0,
    "pixel_col": 317.0,
    "pixel_row": 599.0,
    "population_density": 618.1,
    "position_along": 0.5,
    "protected_area_score": 16.9416,
    "rank": 24,
    "road_access_m": 226.8,
    "road_access_score": 0.8,
    "road_density_km_km2": 6.17,
    "robustness_pct": 0.0,
    "runoff_coeff_C": null,
    "seasonal_cv": null,
    "segment_id": 7,
    "segment_length_m": 675.7943,
    "stream_order": 3,
    "superfund_score": 0.1494,
    "tourism_amenity_density": 3.4218,
    "tri_facility_density": 0.0,
    "usgs_mean_q_cfs": null,
    "velocity_feasibility": 1.0,
    "water_intake_score": 0.4124
   },
   "type": "Feature"
  },
  {
   "geometry": {
    "coordinates": [
     -80.91945,
     35.096166
    ],
    "type": "Point"
   },
   "properties": {
    "accumulation": 37186.0,
    "bank_slope_deg": 11.71,
    "bank_slope_score": 1.0,
    "bank_slope_source": "nc-dps-lidar-dem03-cross-section",
    "beach_dist_km": 302.72,
    "bridge_proximity_bonus": 0.0,
    "catchment_area_km2": 3.7133,
    "channel_width_m": 5.38,
    "channel_width_score": 1.0,
    "composite_score": 28.3941,
    "cso_density": 0.0,
    "ej_index": 0.4214,
    "elevation_m": 170.1559,
    "estuary_dist_km": 443.13,
    "feasibility_score": 30.0,
    "flood_q10_cfs": 874.75,
    "flow_score": 23.5298,
    "flow_velocity_ms": 0.101,
    "generation_score": 28.7425,
    "impact_score": 31.2965,
    "impervious_pct": 31.98,
    "land_ownership": 0.5,
    "lat": 35.0962,
    "litter_complaint_density": 0.0,
    "lon": -80.9195,
    "navigable_dist_m": null,
    "npdes_points": 3,
    "pixel_col": 223.0,
    "pixel_row": 429.0,
    "population_density": 325.3,
    "position_along": 0.25,
    "protected_area_score": 17.8704,
    "rank": 25,
    "road_access_m": 429.2,
    "road_access_score": 0.8,
    "road_density_km_km2": 4.229,
    "robustness_pct": 0.0,
    "runoff_coeff_C": 0.3378,
    "seasonal_cv": 0.4521,
    "segment_id": 4,
    "segment_length_m": 3230.7421,
    "stream_order": 3,
    "superfund_score": 0.0751,
    "tourism_amenity_density": 8.2761,
    "tri_facility_density": 0.0,
    "usgs_mean_q_cfs": 2.744,
    "velocity_feasibility": 0.7,
    "water_intake_score": 0.4972
   },
   "type": "Feature"
  },
  {
   "geometry": {
    "coordinates": [
     -80.915577,
     35.069513
    ],
    "type": "Point"
   },
   "properties": {
    "accumulation": 21879.0,
    "bank_slope_deg": 7.08,
    "bank_slope_score": 1.0,
    "bank_slope_source": "usgs-3dep-10m-gradient-fallback",
    "beach_dist_km": 301.48,
    "bridge_proximity_bonus": 0.0,
    "catchment_area_km2": 2.1848,
    "channel_width_m": 4.32,
    "channel_width_score": 1.0,
    "composite_score": 25.4097,
    "cso_density": 0.0,
    "ej_index": 0.4025,
    "elevation_m": 165.8843,
    "estuary_dist_km": 442.82,
    "feasibility_score": 55.0,
    "flood_q10_cfs": 529.74,
    "flow_score": 7.0284,
    "flow_velocity_ms": 0.1018,
    "generation_score": 36.9574,
    "impact_score": 14.3847,
    "impervious_pct": 26.16,
    "land_ownership": 0.5,
    "lat": 35.0695,
    "litter_complaint_density": 0.0,
    "lon": -80.9156,
    "navigable_dist_m": null,
    "npdes_points": 0,
    "pixel_col": 257.0,
    "pixel_row": 727.0,
    "population_density": 1120.0,
    "position_along": 0.5,
    "protected_area_score": 14.3988,
    "rank": 26,
    "road_access_m": 68.9,
    "road_access_score": 1.0,
    "road_density_km_km2": 8.083,
    "robustness_pct": 0.0,
    "runoff_coeff_C": 0.2854,
    "seasonal_cv": 0.44,
    "segment_id": 11,
    "segment_length_m": 974.9931,
    "stream_order": 1,
    "superfund_score": 0.0677,
    "tourism_amenity_density": 2.7852,
    "tri_facility_density": 0.0,
    "usgs_mean_q_cfs": 2.276,
    "velocity_feasibility": 0.7,
    "water_intake_score": 0.3754
   },
   "type": "Feature"
  }
 ],
 "note": "GRIME region 'Pineville, NC' \u2014 real-data pipeline (DEM\u2192streams\u2192candidates\u2192stream mask (sites confined to \u00b1150 m of mapped OSM/NHD waterways)\u2192region-appropriate real parameters\u2192shipped scoring, math unchanged). Width curve: Bieger et al. 2015 JAWRA Table 3, Appalachian Highlands. Flood: SIR 2014-5030 HR1. NC Piedmont (DEQ physiography polygon)",
 "provenance": {
  "candidates_pre_gate": 26,
  "constant": [
   "cso_density",
   "litter_complaint_density"
  ],
  "gated_navigable": 0,
  "hard_gate_removed": 0,
  "n_parameters": 27,
  "parameters": {
   "bank_slope_score": {
    "kind": "real",
    "n_3dep_10m_fallback": 3,
    "n_nc_lidar_3_125ft": 23,
    "n_real": 26,
    "n_sites": 26,
    "source": "NC OneMap / NC DPS DEM03 statewide lidar-derived 3.125-ft (0.953 m) elevations (perpendicular 50 m transect; robust 5 m bank-rise metric); unavailable profiles use the region 10 m 3DEP DEM-gradient fallback",
    "source_mosaics": [
     "Mecklenburg_Ground_3ft"
    ]
   },
   "beach_dist_km": {
    "kind": "real",
    "n_real": 26,
    "n_sites": 26,
    "source": "haversine to region ref: Wrightsville Beach (shipped NC reference)"
   },
   "bridge_proximity_bonus": {
    "kind": "real",
    "n_real": 26,
    "n_sites": 26,
    "source": "FHWA/BTS NBI (NTAD), 50 m proximity"
   },
   "catchment_area_km2": {
    "kind": "real",
    "n_real": 26,
    "n_sites": 26,
    "source": "DEM flow accumulation (pipeline)"
   },
   "channel_width_score": {
    "kind": "real",
    "n_real": 26,
    "n_sites": 26,
    "source": "Bieger 2015 AHI width curve on DEM drainage area \u2192 shipped width curve"
   },
   "cso_density": {
    "kind": "real",
    "n_real": 26,
    "n_sites": 26,
    "source": "EPA ECHO open CSO/TCS outfall PF coordinates states=NC, Cauchy proximity"
   },
   "ej_index": {
    "kind": "real",
    "n_real": 26,
    "n_sites": 26,
    "source": "Census ACS C17002+B03002 two-component demographic index, percentile-ranked within region"
   },
   "estuary_dist_km": {
    "kind": "real",
    "n_real": 26,
    "n_sites": 26,
    "source": "haversine to region ref: Pamlico Sound (shipped NC reference)"
   },
   "flood_q10_cfs": {
    "impervious_fallback_reason": "StreamCat imperviousness unavailable; the existing regression-input fallback of 0.0% impervious was used and is disclosed here",
    "kind": "real",
    "n_impervious_fallback": 16,
    "n_real": 26,
    "n_sites": 26,
    "source": "USGS SIR 2014-5030 Table 7 HR1 (NC Piedmont)"
   },
   "flow_velocity_ms": {
    "fallback_reason": "EROM/DEM continuity input unavailable; shipped 0.5 m/s default used",
    "kind": "real",
    "n_fallback": 16,
    "n_real": 10,
    "n_sites": 26,
    "source": "Manning (region DEM/D8) blended with EROM continuity (shipped M4 logic)"
   },
   "impervious_pct": {
    "fallback_reason": "NLDI/StreamCat did not return a snap-compatible catchment value; value remains null and is removed by constant-column handling",
    "kind": "real",
    "n_fallback": 16,
    "n_real": 10,
    "n_sites": 26,
    "source": "EPA StreamCat pctimp2019 (per NHDPlus watershed)"
   },
   "land_ownership": {
    "fallback_reason": "no containing parcel owner returned; shipped unknown ownership 0.5 used",
    "kind": "real",
    "n_fallback": 6,
    "n_real": 20,
    "n_sites": 26,
    "source": "NC OneMap statewide parcels (NC Parcels Transformer) ownname"
   },
   "litter_complaint_density": {
    "kind": "fallback",
    "n_real": 0,
    "n_sites": 26,
    "source": "no public machine-readable litter/illegal-dumping feed for this region"
   },
   "navigable_dist_m": {
    "kind": "real",
    "n_real": 26,
    "n_sites": 26,
    "source": "USACE/BTS NWN (NTAD): no navigable segment within this bbox (+2 km) \u2014 computed absence, gate passes all sites"
   },
   "npdes_points": {
    "kind": "real",
    "n_real": 26,
    "n_sites": 26,
    "source": "EPA ECHO active NPDES outfalls states=NC (types NPD/GPC/NGP; statuses ADC/EFF/EXP), per catchment"
   },
   "population_density": {
    "kind": "real",
    "n_real": 26,
    "n_sites": 26,
    "source": "Census ACS 2022 B01003 block groups (bbox, multi-county), area-weighted"
   },
   "protected_area_score": {
    "kind": "real",
    "n_real": 26,
    "n_sites": 26,
    "source": "USGS PAD-US 4.1 state GDB; states=NC; shipped designation-weighted proximity curve"
   },
   "road_access_score": {
    "kind": "real",
    "n_real": 26,
    "n_sites": 26,
    "source": "OSM drive network nearest-node distance"
   },
   "road_density_km_km2": {
    "kind": "real",
    "n_real": 26,
    "n_sites": 26,
    "source": "OSM drive network (osmnx, cached) clipped per catchment"
   },
   "runoff_coeff_C": {
    "fallback_reason": "source impervious_pct was unavailable; derived value remains null",
    "kind": "real",
    "n_fallback": 16,
    "n_real": 10,
    "n_sites": 26,
    "source": "derived from real impervious_pct (C=0.05+0.009*I)"
   },
   "seasonal_cv": {
    "fallback_reason": "NHDPlus monthly EROM was unavailable or failed the drainage-area snap guard; value remains null",
    "kind": "real",
    "n_fallback": 16,
    "n_real": 10,
    "n_sites": 26,
    "source": "CV of NHDPlus EROM monthly flows per COMID"
   },
   "stream_order": {
    "kind": "real",
    "n_real": 26,
    "n_sites": 26,
    "source": "DEM stream-network confluence heuristic (pipeline)"
   },
   "superfund_score": {
    "kind": "real",
    "n_real": 26,
    "n_sites": 26,
    "source": "EPA DataMap SEMS active sites states=NC (non-archived, georeferenced), shipped 500 m inverse-distance curve"
   },
   "tourism_amenity_density": {
    "kind": "real",
    "n_real": 26,
    "n_sites": 26,
    "source": "OSM leisure/tourism features per 2 km radius"
   },
   "tri_facility_density": {
    "kind": "real",
    "n_real": 26,
    "n_sites": 26,
    "source": "EPA DataMap TRI open facilities states=NC (preferred decimal or packed-DMS recovery), per catchment"
   },
   "usgs_mean_q_cfs": {
    "fallback_reason": "NHDPlus EROM was unavailable or failed the drainage-area snap guard; value remains null",
    "kind": "real",
    "n_fallback": 16,
    "n_real": 10,
    "n_sites": 26,
    "source": "NHDPlus EROM qe_ma per COMID (snap-guarded)"
   },
   "velocity_feasibility": {
    "fallback_reason": "derived from the shipped 0.5 m/s velocity fallback",
    "kind": "real",
    "n_fallback": 16,
    "n_real": 10,
    "n_sites": 26,
    "source": "shipped step curve on the computed velocity"
   },
   "velocity_transport_favorability": {
    "fallback_reason": "EROM/DEM continuity input unavailable; shipped 0.5 m/s default used",
    "kind": "derived",
    "n_fallback": 16,
    "n_real": 10,
    "n_sites": 26,
    "source": "scored form of flow_velocity_ms inside the Flow family \u2014 peaked Gaussian exp(-((v-0.9)/0.6)^2), model.json curves.velocity_transport_favorability; construct: transport/delivery favorability, deliberately distinct from velocity_feasibility (device operability)"
   },
   "water_intake_score": {
    "kind": "real",
    "n_real": 26,
    "n_sites": 26,
    "source": "NC OneMap / NC DEQ SWAP public water supply sources (source_typ='Surface Water'), shipped exp(-d/10km) curve"
   }
  },
  "stream_mask": {
   "buffer_m": 150.0,
   "pre_mask": 26,
   "removed": 0,
   "sources": [
    "osm-overpass (all waterway ways)",
    "usgs-nhdplus flowlines"
   ]
  },
  "varying": [
   "bank_slope_score",
   "beach_dist_km",
   "bridge_proximity_bonus",
   "catchment_area_km2",
   "channel_width_score",
   "ej_index",
   "estuary_dist_km",
   "flood_q10_cfs",
   "flow_velocity_ms",
   "impervious_pct",
   "land_ownership",
   "npdes_points",
   "population_density",
   "protected_area_score",
   "road_access_score",
   "road_density_km_km2",
   "runoff_coeff_C",
   "seasonal_cv",
   "stream_order",
   "superfund_score",
   "tourism_amenity_density",
   "tri_facility_density",
   "usgs_mean_q_cfs",
   "velocity_feasibility",
   "water_intake_score"
  ]
 },
 "region": {
  "bbox": [
   -80.9437,
   35.0526,
   -80.8433,
   35.1348
  ],
  "beach_ref": {
   "label": "Wrightsville Beach (shipped NC reference)",
   "lat": 34.21,
   "lon": -77.79
  },
  "center": [
   -80.893517,
   35.093703
  ],
  "estuary_ref": {
   "label": "Pamlico Sound (shipped NC reference)",
   "lat": 35.05,
   "lon": -76.05
  },
  "flood_method": "sir2014_hr1",
  "name": "Pineville, NC",
  "notes": "NC Piedmont (DEQ physiography polygon)",
  "slug": "pineville",
  "state": "NC",
  "utm_epsg": 32617,
  "width_curve": {
   "a": 3.12,
   "b": 0.415,
   "code": "AHI",
   "source": "Bieger et al. 2015 JAWRA Table 3, Appalachian Highlands"
  }
 },
 "type": "FeatureCollection"
}
