{
 "features": [
  {
   "geometry": {
    "coordinates": [
     -80.170247,
     35.010633
    ],
    "type": "Point"
   },
   "properties": {
    "accumulation": 70032.0,
    "bank_slope_deg": 12.34,
    "bank_slope_score": 1.0,
    "bank_slope_source": "nc-dps-lidar-dem03-cross-section",
    "beach_dist_km": 235.32,
    "bridge_proximity_bonus": 0.0,
    "catchment_area_km2": 6.9949,
    "channel_width_m": 6.99,
    "channel_width_score": 1.0,
    "composite_score": 48.8165,
    "cso_density": 0.0,
    "ej_index": 0.575,
    "elevation_m": 71.1588,
    "estuary_dist_km": 375.16,
    "feasibility_score": 54.5455,
    "flood_q10_cfs": 805.54,
    "flow_score": 55.9038,
    "flow_velocity_ms": 0.5,
    "generation_score": 17.626,
    "impact_score": 71.2363,
    "impervious_pct": null,
    "land_ownership": 0.5,
    "lat": 35.0106,
    "litter_complaint_density": 0.0,
    "lon": -80.1702,
    "navigable_dist_m": null,
    "npdes_points": 1,
    "pixel_col": 550.0,
    "pixel_row": 223.0,
    "population_density": 49.1,
    "position_along": 0.5,
    "protected_area_score": 2.7361,
    "rank": 1,
    "road_access_m": 713.9,
    "road_access_score": 0.6,
    "road_density_km_km2": 0.312,
    "robustness_pct": 100.0,
    "runoff_coeff_C": null,
    "seasonal_cv": null,
    "segment_id": 4,
    "segment_length_m": 2788.8255,
    "stream_order": 3,
    "superfund_score": 0.0059,
    "tourism_amenity_density": 0.0,
    "tri_facility_density": 0.0,
    "usgs_mean_q_cfs": null,
    "velocity_feasibility": 1.0,
    "water_intake_score": 0.5104
   },
   "type": "Feature"
  },
  {
   "geometry": {
    "coordinates": [
     -80.180272,
     35.006781
    ],
    "type": "Point"
   },
   "properties": {
    "accumulation": 27189.0,
    "bank_slope_deg": 2.04,
    "bank_slope_score": 1.0,
    "bank_slope_source": "nc-dps-lidar-dem03-cross-section",
    "beach_dist_km": 236.01,
    "bridge_proximity_bonus": 0.0,
    "catchment_area_km2": 2.7157,
    "channel_width_m": 4.72,
    "channel_width_score": 1.0,
    "composite_score": 44.7921,
    "cso_density": 0.0,
    "ej_index": 0.5749,
    "elevation_m": 72.3309,
    "estuary_dist_km": 376.08,
    "feasibility_score": 54.5455,
    "flood_q10_cfs": 394.85,
    "flow_score": 41.8184,
    "flow_velocity_ms": 0.5,
    "generation_score": 25.1786,
    "impact_score": 62.0072,
    "impervious_pct": null,
    "land_ownership": 0.5,
    "lat": 35.0068,
    "litter_complaint_density": 0.0,
    "lon": -80.1803,
    "navigable_dist_m": null,
    "npdes_points": 0,
    "pixel_col": 460.0,
    "pixel_row": 268.0,
    "population_density": 49.1,
    "position_along": 0.5,
    "protected_area_score": 2.675,
    "rank": 2,
    "road_access_m": 875.4,
    "road_access_score": 0.6,
    "road_density_km_km2": 0.249,
    "robustness_pct": 99.0,
    "runoff_coeff_C": null,
    "seasonal_cv": null,
    "segment_id": 2,
    "segment_length_m": 193.022,
    "stream_order": 3,
    "superfund_score": 0.0044,
    "tourism_amenity_density": 0.3979,
    "tri_facility_density": 0.3682,
    "usgs_mean_q_cfs": null,
    "velocity_feasibility": 1.0,
    "water_intake_score": 0.482
   },
   "type": "Feature"
  },
  {
   "geometry": {
    "coordinates": [
     -80.183074,
     35.003376
    ],
    "type": "Point"
   },
   "properties": {
    "accumulation": 32401.0,
    "bank_slope_deg": 16.29,
    "bank_slope_score": 0.5,
    "bank_slope_source": "nc-dps-lidar-dem03-cross-section",
    "beach_dist_km": 236.11,
    "bridge_proximity_bonus": 0.0,
    "catchment_area_km2": 3.2362,
    "channel_width_m": 5.08,
    "channel_width_score": 1.0,
    "composite_score": 42.7946,
    "cso_density": 0.0,
    "ej_index": 0.5307,
    "elevation_m": 73.1685,
    "estuary_dist_km": 376.35,
    "feasibility_score": 36.3636,
    "flood_q10_cfs": 450.64,
    "flow_score": 43.6291,
    "flow_velocity_ms": 0.5,
    "generation_score": 27.6836,
    "impact_score": 60.4255,
    "impervious_pct": null,
    "land_ownership": 0.5,
    "lat": 35.0034,
    "litter_complaint_density": 0.0,
    "lon": -80.1831,
    "navigable_dist_m": null,
    "npdes_points": 0,
    "pixel_col": 435.0,
    "pixel_row": 307.0,
    "population_density": 115.6,
    "position_along": 0.5,
    "protected_area_score": 2.6516,
    "rank": 3,
    "road_access_m": 565.5,
    "road_access_score": 0.6,
    "road_density_km_km2": 1.869,
    "robustness_pct": 83.5,
    "runoff_coeff_C": null,
    "seasonal_cv": null,
    "segment_id": 3,
    "segment_length_m": 1595.151,
    "stream_order": 3,
    "superfund_score": 0.004,
    "tourism_amenity_density": 0.8754,
    "tri_facility_density": 0.309,
    "usgs_mean_q_cfs": null,
    "velocity_feasibility": 1.0,
    "water_intake_score": 0.4694
   },
   "type": "Feature"
  },
  {
   "geometry": {
    "coordinates": [
     -80.210252,
     35.008005
    ],
    "type": "Point"
   },
   "properties": {
    "accumulation": 26735.0,
    "bank_slope_deg": 7.52,
    "bank_slope_score": 1.0,
    "bank_slope_source": "nc-dps-lidar-dem03-cross-section",
    "beach_dist_km": 238.6,
    "bridge_proximity_bonus": 0.0,
    "catchment_area_km2": 2.6703,
    "channel_width_m": 4.69,
    "channel_width_score": 1.0,
    "composite_score": 42.2618,
    "cso_density": 0.0,
    "ej_index": 0.5677,
    "elevation_m": 87.0731,
    "estuary_dist_km": 378.81,
    "feasibility_score": 63.6364,
    "flood_q10_cfs": 433.11,
    "flow_score": 30.2149,
    "flow_velocity_ms": 0.1082,
    "generation_score": 53.8847,
    "impact_score": 29.9905,
    "impervious_pct": 6.01,
    "land_ownership": 0.5,
    "lat": 35.008,
    "litter_complaint_density": 0.0,
    "lon": -80.2103,
    "navigable_dist_m": null,
    "npdes_points": 1,
    "pixel_col": 186.0,
    "pixel_row": 259.0,
    "population_density": 48.5,
    "position_along": 0.25,
    "protected_area_score": 2.6052,
    "rank": 4,
    "road_access_m": 132.3,
    "road_access_score": 1.0,
    "road_density_km_km2": 5.779,
    "robustness_pct": 66.5,
    "runoff_coeff_C": 0.1041,
    "seasonal_cv": 0.4599,
    "segment_id": 1,
    "segment_length_m": 3234.4178,
    "stream_order": 3,
    "superfund_score": 0.0026,
    "tourism_amenity_density": 0.3183,
    "tri_facility_density": 0.0,
    "usgs_mean_q_cfs": 1.752,
    "velocity_feasibility": 0.7,
    "water_intake_score": 0.4305
   },
   "type": "Feature"
  },
  {
   "geometry": {
    "coordinates": [
     -80.199246,
     34.99355
    ],
    "type": "Point"
   },
   "properties": {
    "accumulation": 128783.0,
    "bank_slope_deg": 2.32,
    "bank_slope_score": 1.0,
    "bank_slope_source": "nc-dps-lidar-dem03-cross-section",
    "beach_dist_km": 237.09,
    "bridge_proximity_bonus": 0.0,
    "catchment_area_km2": 12.863,
    "channel_width_m": 9.01,
    "channel_width_score": 1.0,
    "composite_score": 42.2435,
    "cso_density": 0.0,
    "ej_index": 0.4284,
    "elevation_m": 75.1808,
    "estuary_dist_km": 377.86,
    "feasibility_score": 54.5455,
    "flood_q10_cfs": 1175.94,
    "flow_score": 72.0,
    "flow_velocity_ms": 0.5,
    "generation_score": 15.6237,
    "impact_score": 37.9153,
    "impervious_pct": null,
    "land_ownership": 0.5,
    "lat": 34.9935,
    "litter_complaint_density": 0.0,
    "lon": -80.1992,
    "navigable_dist_m": null,
    "npdes_points": 0,
    "pixel_col": 288.0,
    "pixel_row": 415.0,
    "population_density": 142.3,
    "position_along": 0.5,
    "protected_area_score": 2.656,
    "rank": 5,
    "road_access_m": 633.3,
    "road_access_score": 0.6,
    "road_density_km_km2": 2.493,
    "robustness_pct": 72.5,
    "runoff_coeff_C": null,
    "seasonal_cv": null,
    "segment_id": 9,
    "segment_length_m": 966.8249,
    "stream_order": 3,
    "superfund_score": 0.0026,
    "tourism_amenity_density": 0.8754,
    "tri_facility_density": 0.0777,
    "usgs_mean_q_cfs": null,
    "velocity_feasibility": 1.0,
    "water_intake_score": 0.4229
   },
   "type": "Feature"
  },
  {
   "geometry": {
    "coordinates": [
     -80.203782,
     34.997475
    ],
    "type": "Point"
   },
   "properties": {
    "accumulation": 39738.0,
    "bank_slope_deg": 1.85,
    "bank_slope_score": 1.0,
    "bank_slope_source": "nc-dps-lidar-dem03-cross-section",
    "beach_dist_km": 237.63,
    "bridge_proximity_bonus": 0.0,
    "catchment_area_km2": 3.9691,
    "channel_width_m": 5.53,
    "channel_width_score": 1.0,
    "composite_score": 40.049,
    "cso_density": 0.0,
    "ej_index": 0.5128,
    "elevation_m": 77.3939,
    "estuary_dist_km": 378.26,
    "feasibility_score": 63.6364,
    "flood_q10_cfs": 587.66,
    "flow_score": 35.6789,
    "flow_velocity_ms": 0.0891,
    "generation_score": 35.7649,
    "impact_score": 36.1811,
    "impervious_pct": 6.38,
    "land_ownership": 0.5,
    "lat": 34.9975,
    "litter_complaint_density": 0.0,
    "lon": -80.2038,
    "navigable_dist_m": null,
    "npdes_points": 0,
    "pixel_col": 247.0,
    "pixel_row": 375.0,
    "population_density": 36.5,
    "position_along": 0.75,
    "protected_area_score": 2.723,
    "rank": 6,
    "road_access_m": 157.3,
    "road_access_score": 1.0,
    "road_density_km_km2": 4.089,
    "robustness_pct": 38.0,
    "runoff_coeff_C": 0.1074,
    "seasonal_cv": 0.4629,
    "segment_id": 1,
    "segment_length_m": 3234.4178,
    "stream_order": 3,
    "superfund_score": 0.0026,
    "tourism_amenity_density": 0.3183,
    "tri_facility_density": 0.0,
    "usgs_mean_q_cfs": 2.017,
    "velocity_feasibility": 0.7,
    "water_intake_score": 0.4243
   },
   "type": "Feature"
  },
  {
   "geometry": {
    "coordinates": [
     -80.16864,
     35.026509
    ],
    "type": "Point"
   },
   "properties": {
    "accumulation": 24363.0,
    "bank_slope_deg": 12.5,
    "bank_slope_score": 1.0,
    "bank_slope_source": "nc-dps-lidar-dem03-cross-section",
    "beach_dist_km": 235.83,
    "bridge_proximity_bonus": 0.0,
    "catchment_area_km2": 2.4334,
    "channel_width_m": 4.51,
    "channel_width_score": 1.0,
    "composite_score": 35.6181,
    "cso_density": 0.0,
    "ej_index": 0.575,
    "elevation_m": 82.9667,
    "estuary_dist_km": 374.96,
    "feasibility_score": 18.1818,
    "flood_q10_cfs": 371.29,
    "flow_score": 17.1838,
    "flow_velocity_ms": 0.1057,
    "generation_score": 7.182,
    "impact_score": 88.1341,
    "impervious_pct": 1.21,
    "land_ownership": 0.5,
    "lat": 35.0265,
    "litter_complaint_density": 0.0,
    "lon": -80.1686,
    "navigable_dist_m": null,
    "npdes_points": 0,
    "pixel_col": 565.0,
    "pixel_row": 51.0,
    "population_density": 49.1,
    "position_along": 0.5,
    "protected_area_score": 2.9422,
    "rank": 7,
    "road_access_m": 617.4,
    "road_access_score": 0.6,
    "road_density_km_km2": 0.347,
    "robustness_pct": 28.5,
    "runoff_coeff_C": 0.0609,
    "seasonal_cv": 0.4747,
    "segment_id": 0,
    "segment_length_m": 1590.0069,
    "stream_order": 1,
    "superfund_score": 0.0084,
    "tourism_amenity_density": 0.0,
    "tri_facility_density": 0.0,
    "usgs_mean_q_cfs": 3.069,
    "velocity_feasibility": 0.7,
    "water_intake_score": 0.5604
   },
   "type": "Feature"
  },
  {
   "geometry": {
    "coordinates": [
     -80.204125,
     34.991029
    ],
    "type": "Point"
   },
   "properties": {
    "accumulation": 84643.0,
    "bank_slope_deg": 2.67,
    "bank_slope_score": 1.0,
    "bank_slope_source": "nc-dps-lidar-dem03-cross-section",
    "beach_dist_km": 237.41,
    "bridge_proximity_bonus": 0.0,
    "catchment_area_km2": 8.4542,
    "channel_width_m": 7.57,
    "channel_width_score": 1.0,
    "composite_score": 34.0618,
    "cso_density": 0.0,
    "ej_index": 0.425,
    "elevation_m": 75.6131,
    "estuary_dist_km": 378.32,
    "feasibility_score": 54.5455,
    "flood_q10_cfs": 932.02,
    "flow_score": 60.4805,
    "flow_velocity_ms": 0.5,
    "generation_score": 5.2044,
    "impact_score": 30.6618,
    "impervious_pct": null,
    "land_ownership": 0.5,
    "lat": 34.991,
    "litter_complaint_density": 0.0,
    "lon": -80.2041,
    "navigable_dist_m": null,
    "npdes_points": 0,
    "pixel_col": 244.0,
    "pixel_row": 443.0,
    "population_density": 40.3,
    "position_along": 0.5,
    "protected_area_score": 2.7051,
    "rank": 8,
    "road_access_m": 720.6,
    "road_access_score": 0.6,
    "road_density_km_km2": 1.804,
    "robustness_pct": 12.0,
    "runoff_coeff_C": null,
    "seasonal_cv": null,
    "segment_id": 8,
    "segment_length_m": 591.4851,
    "stream_order": 3,
    "superfund_score": 0.0024,
    "tourism_amenity_density": 0.4775,
    "tri_facility_density": 0.0,
    "usgs_mean_q_cfs": null,
    "velocity_feasibility": 1.0,
    "water_intake_score": 0.4112
   },
   "type": "Feature"
  },
  {
   "geometry": {
    "coordinates": [
     -80.187216,
     34.989364
    ],
    "type": "Point"
   },
   "properties": {
    "accumulation": 22082.0,
    "bank_slope_deg": 29.67,
    "bank_slope_score": 0.5,
    "bank_slope_source": "nc-dps-lidar-dem03-cross-section",
    "beach_dist_km": 235.9,
    "bridge_proximity_bonus": 0.0,
    "catchment_area_km2": 2.2056,
    "channel_width_m": 4.33,
    "channel_width_score": 1.0,
    "composite_score": 30.6138,
    "cso_density": 0.0,
    "ej_index": 0.2745,
    "elevation_m": 77.8402,
    "estuary_dist_km": 376.78,
    "feasibility_score": 36.3636,
    "flood_q10_cfs": 337.55,
    "flow_score": 26.0,
    "flow_velocity_ms": 0.5,
    "generation_score": 23.0769,
    "impact_score": 39.1205,
    "impervious_pct": null,
    "land_ownership": 0.5,
    "lat": 34.9894,
    "litter_complaint_density": 0.0,
    "lon": -80.1872,
    "navigable_dist_m": null,
    "npdes_points": 0,
    "pixel_col": 398.0,
    "pixel_row": 460.0,
    "population_density": 595.2,
    "position_along": 0.5,
    "protected_area_score": 2.6728,
    "rank": 9,
    "road_access_m": 974.0,
    "road_access_score": 0.6,
    "road_density_km_km2": 0.0,
    "robustness_pct": 0.0,
    "runoff_coeff_C": null,
    "seasonal_cv": null,
    "segment_id": 6,
    "segment_length_m": 1735.0676,
    "stream_order": 1,
    "superfund_score": 0.0029,
    "tourism_amenity_density": 0.8754,
    "tri_facility_density": 0.0,
    "usgs_mean_q_cfs": null,
    "velocity_feasibility": 1.0,
    "water_intake_score": 0.4328
   },
   "type": "Feature"
  },
  {
   "geometry": {
    "coordinates": [
     -80.212079,
     34.994868
    ],
    "type": "Point"
   },
   "properties": {
    "accumulation": 37496.0,
    "bank_slope_deg": 9.89,
    "bank_slope_score": 1.0,
    "bank_slope_source": "nc-dps-lidar-dem03-cross-section",
    "beach_dist_km": 238.23,
    "bridge_proximity_bonus": 0.0,
    "catchment_area_km2": 3.7451,
    "channel_width_m": 5.4,
    "channel_width_score": 1.0,
    "composite_score": 28.7482,
    "cso_density": 0.0,
    "ej_index": 0.4286,
    "elevation_m": 77.542,
    "estuary_dist_km": 379.02,
    "feasibility_score": 40.9091,
    "flood_q10_cfs": 526.21,
    "flow_score": 46.0029,
    "flow_velocity_ms": 0.096,
    "generation_score": 16.4208,
    "impact_score": 20.6162,
    "impervious_pct": 2.57,
    "land_ownership": 0.5,
    "lat": 34.9949,
    "litter_complaint_density": 0.0,
    "lon": -80.2121,
    "navigable_dist_m": null,
    "npdes_points": 0,
    "pixel_col": 171.0,
    "pixel_row": 403.0,
    "population_density": 26.8,
    "position_along": 0.5,
    "protected_area_score": 2.6442,
    "rank": 10,
    "road_access_m": 350.1,
    "road_access_score": 0.8,
    "road_density_km_km2": 2.444,
    "robustness_pct": 0.0,
    "runoff_coeff_C": 0.0731,
    "seasonal_cv": 0.492,
    "segment_id": 5,
    "segment_length_m": 1534.4765,
    "stream_order": 3,
    "superfund_score": 0.0022,
    "tourism_amenity_density": 0.3979,
    "tri_facility_density": 0.0,
    "usgs_mean_q_cfs": 5.594,
    "velocity_feasibility": 0.7,
    "water_intake_score": 0.402
   },
   "type": "Feature"
  },
  {
   "geometry": {
    "coordinates": [
     -80.209796,
     34.987049
    ],
    "type": "Point"
   },
   "properties": {
    "accumulation": 24589.0,
    "bank_slope_deg": 3.0,
    "bank_slope_score": 1.0,
    "bank_slope_source": "nc-dps-lidar-dem03-cross-section",
    "beach_dist_km": 237.73,
    "bridge_proximity_bonus": 0.0,
    "catchment_area_km2": 2.456,
    "channel_width_m": 4.53,
    "channel_width_score": 1.0,
    "composite_score": 23.197,
    "cso_density": 0.0,
    "ej_index": 0.3882,
    "elevation_m": 76.0582,
    "estuary_dist_km": 378.85,
    "feasibility_score": 54.5455,
    "flood_q10_cfs": 366.05,
    "flow_score": 40.8988,
    "flow_velocity_ms": 0.5,
    "generation_score": 0.843,
    "impact_score": 15.1251,
    "impervious_pct": null,
    "land_ownership": 0.5,
    "lat": 34.987,
    "litter_complaint_density": 0.0,
    "lon": -80.2098,
    "navigable_dist_m": null,
    "npdes_points": 0,
    "pixel_col": 190.0,
    "pixel_row": 488.0,
    "population_density": 9.8,
    "position_along": 0.5,
    "protected_area_score": 2.5522,
    "rank": 11,
    "road_access_m": 930.0,
    "road_access_score": 0.6,
    "road_density_km_km2": 0.38,
    "robustness_pct": 0.0,
    "runoff_coeff_C": null,
    "seasonal_cv": null,
    "segment_id": 7,
    "segment_length_m": 1623.4184,
    "stream_order": 3,
    "superfund_score": 0.0021,
    "tourism_amenity_density": 0.3979,
    "tri_facility_density": 0.0,
    "usgs_mean_q_cfs": null,
    "velocity_feasibility": 1.0,
    "water_intake_score": 0.3897
   },
   "type": "Feature"
  }
 ],
 "note": "GRIME region 'Polkton, NC' \u2014 real-data pipeline (DEM\u2192streams\u2192candidates\u2192stream mask (sites confined to \u00b1150 m of mapped OSM/NHD waterways)\u2192region-appropriate real parameters\u2192shipped scoring, math unchanged). Width curve: Bieger et al. 2015 JAWRA Table 3, Appalachian Highlands. Flood: SIR 2014-5030 HR1. NC Piedmont (DEQ physiography polygon)",
 "provenance": {
  "candidates_pre_gate": 11,
  "constant": [
   "bridge_proximity_bonus",
   "channel_width_score",
   "cso_density",
   "land_ownership",
   "litter_complaint_density"
  ],
  "gated_navigable": 0,
  "hard_gate_removed": 0,
  "n_parameters": 27,
  "parameters": {
   "bank_slope_score": {
    "kind": "real",
    "n_3dep_10m_fallback": 0,
    "n_nc_lidar_3_125ft": 11,
    "n_real": 11,
    "n_sites": 11,
    "source": "NC OneMap / NC DPS DEM03 statewide lidar-derived 3.125-ft (0.953 m) elevations (perpendicular 50 m transect; robust 5 m bank-rise metric); unavailable profiles use the region 10 m 3DEP DEM-gradient fallback",
    "source_mosaics": [
     "Anson_Ground_3ft"
    ]
   },
   "beach_dist_km": {
    "kind": "real",
    "n_real": 11,
    "n_sites": 11,
    "source": "haversine to region ref: Wrightsville Beach (shipped NC reference)"
   },
   "bridge_proximity_bonus": {
    "kind": "real",
    "n_real": 11,
    "n_sites": 11,
    "source": "FHWA/BTS NBI (NTAD), 50 m proximity"
   },
   "catchment_area_km2": {
    "kind": "real",
    "n_real": 11,
    "n_sites": 11,
    "source": "DEM flow accumulation (pipeline)"
   },
   "channel_width_score": {
    "kind": "real",
    "n_real": 11,
    "n_sites": 11,
    "source": "Bieger 2015 AHI width curve on DEM drainage area \u2192 shipped width curve"
   },
   "cso_density": {
    "kind": "real",
    "n_real": 11,
    "n_sites": 11,
    "source": "EPA ECHO open CSO/TCS outfall PF coordinates states=NC, Cauchy proximity"
   },
   "ej_index": {
    "kind": "real",
    "n_real": 11,
    "n_sites": 11,
    "source": "Census ACS C17002+B03002 two-component demographic index, percentile-ranked within region"
   },
   "estuary_dist_km": {
    "kind": "real",
    "n_real": 11,
    "n_sites": 11,
    "source": "haversine to region ref: Pamlico Sound (shipped NC reference)"
   },
   "flood_q10_cfs": {
    "impervious_fallback_reason": "StreamCat imperviousness unavailable; the existing regression-input fallback of 0.0% impervious was used and is disclosed here",
    "kind": "real",
    "n_impervious_fallback": 7,
    "n_real": 11,
    "n_sites": 11,
    "source": "USGS SIR 2014-5030 Table 7 HR1 (NC Piedmont)"
   },
   "flow_velocity_ms": {
    "fallback_reason": "EROM/DEM continuity input unavailable; shipped 0.5 m/s default used",
    "kind": "real",
    "n_fallback": 7,
    "n_real": 4,
    "n_sites": 11,
    "source": "Manning (region DEM/D8) blended with EROM continuity (shipped M4 logic)"
   },
   "impervious_pct": {
    "fallback_reason": "NLDI/StreamCat did not return a snap-compatible catchment value; value remains null and is removed by constant-column handling",
    "kind": "real",
    "n_fallback": 7,
    "n_real": 4,
    "n_sites": 11,
    "source": "EPA StreamCat pctimp2019 (per NHDPlus watershed)"
   },
   "land_ownership": {
    "kind": "real",
    "n_fallback": 0,
    "n_real": 11,
    "n_sites": 11,
    "source": "NC OneMap statewide parcels (NC Parcels Transformer) ownname"
   },
   "litter_complaint_density": {
    "kind": "fallback",
    "n_real": 0,
    "n_sites": 11,
    "source": "no public machine-readable litter/illegal-dumping feed for this region"
   },
   "navigable_dist_m": {
    "kind": "real",
    "n_real": 11,
    "n_sites": 11,
    "source": "USACE/BTS NWN (NTAD): no navigable segment within this bbox (+2 km) \u2014 computed absence, gate passes all sites"
   },
   "npdes_points": {
    "kind": "real",
    "n_real": 11,
    "n_sites": 11,
    "source": "EPA ECHO active NPDES outfalls states=NC (types NPD/GPC/NGP; statuses ADC/EFF/EXP), per catchment"
   },
   "population_density": {
    "kind": "real",
    "n_real": 11,
    "n_sites": 11,
    "source": "Census ACS 2022 B01003 block groups (bbox, multi-county), area-weighted"
   },
   "protected_area_score": {
    "kind": "real",
    "n_real": 11,
    "n_sites": 11,
    "source": "USGS PAD-US 4.1 state GDB; states=NC; shipped designation-weighted proximity curve"
   },
   "road_access_score": {
    "kind": "real",
    "n_real": 11,
    "n_sites": 11,
    "source": "OSM drive network nearest-node distance"
   },
   "road_density_km_km2": {
    "kind": "real",
    "n_real": 11,
    "n_sites": 11,
    "source": "OSM drive network (osmnx, cached) clipped per catchment"
   },
   "runoff_coeff_C": {
    "fallback_reason": "source impervious_pct was unavailable; derived value remains null",
    "kind": "real",
    "n_fallback": 7,
    "n_real": 4,
    "n_sites": 11,
    "source": "derived from real impervious_pct (C=0.05+0.009*I)"
   },
   "seasonal_cv": {
    "fallback_reason": "NHDPlus monthly EROM was unavailable or failed the drainage-area snap guard; value remains null",
    "kind": "real",
    "n_fallback": 7,
    "n_real": 4,
    "n_sites": 11,
    "source": "CV of NHDPlus EROM monthly flows per COMID"
   },
   "stream_order": {
    "kind": "real",
    "n_real": 11,
    "n_sites": 11,
    "source": "DEM stream-network confluence heuristic (pipeline)"
   },
   "superfund_score": {
    "kind": "real",
    "n_real": 11,
    "n_sites": 11,
    "source": "EPA DataMap SEMS active sites states=NC (non-archived, georeferenced), shipped 500 m inverse-distance curve"
   },
   "tourism_amenity_density": {
    "kind": "real",
    "n_real": 11,
    "n_sites": 11,
    "source": "OSM leisure/tourism features per 2 km radius"
   },
   "tri_facility_density": {
    "kind": "real",
    "n_real": 11,
    "n_sites": 11,
    "source": "EPA DataMap TRI open facilities states=NC (preferred decimal or packed-DMS recovery), per catchment"
   },
   "usgs_mean_q_cfs": {
    "fallback_reason": "NHDPlus EROM was unavailable or failed the drainage-area snap guard; value remains null",
    "kind": "real",
    "n_fallback": 7,
    "n_real": 4,
    "n_sites": 11,
    "source": "NHDPlus EROM qe_ma per COMID (snap-guarded)"
   },
   "velocity_feasibility": {
    "fallback_reason": "derived from the shipped 0.5 m/s velocity fallback",
    "kind": "real",
    "n_fallback": 7,
    "n_real": 4,
    "n_sites": 11,
    "source": "shipped step curve on the computed velocity"
   },
   "velocity_transport_favorability": {
    "fallback_reason": "EROM/DEM continuity input unavailable; shipped 0.5 m/s default used",
    "kind": "derived",
    "n_fallback": 7,
    "n_real": 4,
    "n_sites": 11,
    "source": "scored form of flow_velocity_ms inside the Flow family \u2014 peaked Gaussian exp(-((v-0.9)/0.6)^2), model.json curves.velocity_transport_favorability; construct: transport/delivery favorability, deliberately distinct from velocity_feasibility (device operability)"
   },
   "water_intake_score": {
    "kind": "real",
    "n_real": 11,
    "n_sites": 11,
    "source": "NC OneMap / NC DEQ SWAP public water supply sources (source_typ='Surface Water'), shipped exp(-d/10km) curve"
   }
  },
  "stream_mask": {
   "buffer_m": 150.0,
   "pre_mask": 11,
   "removed": 0,
   "sources": [
    "osm-overpass (all waterway ways)",
    "usgs-nhdplus flowlines"
   ]
  },
  "varying": [
   "bank_slope_score",
   "beach_dist_km",
   "catchment_area_km2",
   "ej_index",
   "estuary_dist_km",
   "flood_q10_cfs",
   "flow_velocity_ms",
   "impervious_pct",
   "npdes_points",
   "population_density",
   "protected_area_score",
   "road_access_score",
   "road_density_km_km2",
   "runoff_coeff_C",
   "seasonal_cv",
   "stream_order",
   "superfund_score",
   "tourism_amenity_density",
   "tri_facility_density",
   "usgs_mean_q_cfs",
   "velocity_feasibility",
   "water_intake_score"
  ]
 },
 "region": {
  "bbox": [
   -80.2303,
   34.9752,
   -80.1623,
   35.0309
  ],
  "beach_ref": {
   "label": "Wrightsville Beach (shipped NC reference)",
   "lat": 34.21,
   "lon": -77.79
  },
  "center": [
   -80.196307,
   35.003049
  ],
  "estuary_ref": {
   "label": "Pamlico Sound (shipped NC reference)",
   "lat": 35.05,
   "lon": -76.05
  },
  "flood_method": "sir2014_hr1",
  "name": "Polkton, NC",
  "notes": "NC Piedmont (DEQ physiography polygon)",
  "slug": "polkton",
  "state": "NC",
  "utm_epsg": 32617,
  "width_curve": {
   "a": 3.12,
   "b": 0.415,
   "code": "AHI",
   "source": "Bieger et al. 2015 JAWRA Table 3, Appalachian Highlands"
  }
 },
 "type": "FeatureCollection"
}
