{
 "features": [
  {
   "geometry": {
    "coordinates": [
     -81.627733,
     35.42248
    ],
    "type": "Point"
   },
   "properties": {
    "accumulation": 38309.0,
    "bank_slope_deg": 15.43,
    "bank_slope_score": 0.5,
    "bank_slope_source": "nc-dps-lidar-dem03-cross-section",
    "beach_dist_km": 375.36,
    "bridge_proximity_bonus": 0.0,
    "catchment_area_km2": 3.8173,
    "channel_width_m": 5.44,
    "channel_width_score": 1.0,
    "composite_score": 87.8033,
    "cso_density": 0.0,
    "ej_index": 0.4675,
    "elevation_m": 290.4302,
    "estuary_dist_km": 508.2,
    "feasibility_score": 71.4286,
    "flood_q10_cfs": 536.36,
    "flow_score": 91.8342,
    "flow_velocity_ms": 0.148,
    "generation_score": 100.0,
    "impact_score": 80.4348,
    "impervious_pct": 2.84,
    "land_ownership": 0.5,
    "lat": 35.4225,
    "litter_complaint_density": 0.0,
    "lon": -81.6277,
    "navigable_dist_m": null,
    "npdes_points": 0,
    "pixel_col": 394.0,
    "pixel_row": 175.0,
    "population_density": 40.7,
    "position_along": 0.5,
    "protected_area_score": 6.6102,
    "rank": 1,
    "road_access_m": 82.7,
    "road_access_score": 1.0,
    "road_density_km_km2": 1.87,
    "robustness_pct": 100.0,
    "runoff_coeff_C": 0.0756,
    "seasonal_cv": 0.4136,
    "segment_id": 1,
    "segment_length_m": 2949.661,
    "stream_order": 1,
    "superfund_score": 0.0,
    "tourism_amenity_density": 0.4775,
    "tri_facility_density": 0.0,
    "usgs_mean_q_cfs": 7.317,
    "velocity_feasibility": 0.7,
    "water_intake_score": 1.928
   },
   "type": "Feature"
  },
  {
   "geometry": {
    "coordinates": [
     -81.656884,
     35.435712
    ],
    "type": "Point"
   },
   "properties": {
    "accumulation": 41967.0,
    "bank_slope_deg": 13.9,
    "bank_slope_score": 1.0,
    "bank_slope_source": "nc-dps-lidar-dem03-cross-section",
    "beach_dist_km": 378.34,
    "bridge_proximity_bonus": 0.0,
    "catchment_area_km2": 4.1818,
    "channel_width_m": 5.65,
    "channel_width_score": 1.0,
    "composite_score": 27.4393,
    "cso_density": 0.0,
    "ej_index": 0.4805,
    "elevation_m": 264.6203,
    "estuary_dist_km": 510.92,
    "feasibility_score": 28.5714,
    "flood_q10_cfs": 560.12,
    "flow_score": 44.5159,
    "flow_velocity_ms": 0.1217,
    "generation_score": 16.3946,
    "impact_score": 23.6873,
    "impervious_pct": 1.39,
    "land_ownership": 0.5,
    "lat": 35.4357,
    "litter_complaint_density": 0.0,
    "lon": -81.6569,
    "navigable_dist_m": null,
    "npdes_points": 0,
    "pixel_col": 130.0,
    "pixel_row": 25.0,
    "population_density": 13.9,
    "position_along": 0.75,
    "protected_area_score": 5.4331,
    "rank": 2,
    "road_access_m": 712.3,
    "road_access_score": 0.6,
    "road_density_km_km2": 0.692,
    "robustness_pct": 100.0,
    "runoff_coeff_C": 0.0625,
    "seasonal_cv": 0.4433,
    "segment_id": 0,
    "segment_length_m": 3049.8985,
    "stream_order": 1,
    "superfund_score": 0.0,
    "tourism_amenity_density": 0.0,
    "tri_facility_density": 0.0,
    "usgs_mean_q_cfs": 2.668,
    "velocity_feasibility": 0.7,
    "water_intake_score": 1.5812
   },
   "type": "Feature"
  },
  {
   "geometry": {
    "coordinates": [
     -81.658637,
     35.39795
    ],
    "type": "Point"
   },
   "properties": {
    "accumulation": 31805.0,
    "bank_slope_deg": 18.43,
    "bank_slope_score": 0.5,
    "bank_slope_source": "nc-dps-lidar-dem03-cross-section",
    "beach_dist_km": 377.08,
    "bridge_proximity_bonus": 0.0,
    "catchment_area_km2": 3.1692,
    "channel_width_m": 5.04,
    "channel_width_score": 1.0,
    "composite_score": 22.3989,
    "cso_density": 0.0,
    "ej_index": 0.4805,
    "elevation_m": 274.4545,
    "estuary_dist_km": 510.86,
    "feasibility_score": 35.7143,
    "flood_q10_cfs": 450.31,
    "flow_score": 24.0929,
    "flow_velocity_ms": 0.109,
    "generation_score": 0.0,
    "impact_score": 36.7284,
    "impervious_pct": 0.86,
    "land_ownership": 0.5,
    "lat": 35.398,
    "litter_complaint_density": 0.0,
    "lon": -81.6586,
    "navigable_dist_m": null,
    "npdes_points": 0,
    "pixel_col": 110.0,
    "pixel_row": 447.0,
    "population_density": 13.9,
    "position_along": 0.5,
    "protected_area_score": 5.8352,
    "rank": 3,
    "road_access_m": 467.3,
    "road_access_score": 0.8,
    "road_density_km_km2": 0.296,
    "robustness_pct": 100.0,
    "runoff_coeff_C": 0.0577,
    "seasonal_cv": 0.4365,
    "segment_id": 2,
    "segment_length_m": 860.3026,
    "stream_order": 1,
    "superfund_score": 0.0,
    "tourism_amenity_density": 0.0,
    "tri_facility_density": 0.0,
    "usgs_mean_q_cfs": 4.05,
    "velocity_feasibility": 0.7,
    "water_intake_score": 1.6049
   },
   "type": "Feature"
  },
  {
   "geometry": {
    "coordinates": [
     -81.661849,
     35.427868
    ],
    "type": "Point"
   },
   "properties": {
    "accumulation": 25685.0,
    "bank_slope_deg": 26.5,
    "bank_slope_score": 0.5,
    "bank_slope_source": "nc-dps-lidar-dem03-cross-section",
    "beach_dist_km": 378.47,
    "bridge_proximity_bonus": 0.0,
    "catchment_area_km2": 2.5594,
    "channel_width_m": 4.61,
    "channel_width_score": 1.0,
    "composite_score": 18.2862,
    "cso_density": 0.0,
    "ej_index": 0.4805,
    "elevation_m": 278.4469,
    "estuary_dist_km": 511.32,
    "feasibility_score": 0.0,
    "flood_q10_cfs": 386.9,
    "flow_score": 20.4755,
    "flow_velocity_ms": 0.1506,
    "generation_score": 21.5831,
    "impact_score": 22.308,
    "impervious_pct": 1.39,
    "land_ownership": 0.5,
    "lat": 35.4279,
    "litter_complaint_density": 0.0,
    "lon": -81.6618,
    "navigable_dist_m": null,
    "npdes_points": 0,
    "pixel_col": 84.0,
    "pixel_row": 111.0,
    "population_density": 13.9,
    "position_along": 0.25,
    "protected_area_score": 5.4961,
    "rank": 4,
    "road_access_m": 523.1,
    "road_access_score": 0.6,
    "road_density_km_km2": 1.084,
    "robustness_pct": 100.0,
    "runoff_coeff_C": 0.0625,
    "seasonal_cv": 0.4433,
    "segment_id": 0,
    "segment_length_m": 3049.8985,
    "stream_order": 1,
    "superfund_score": 0.0,
    "tourism_amenity_density": 0.0796,
    "tri_facility_density": 0.0,
    "usgs_mean_q_cfs": 2.668,
    "velocity_feasibility": 0.7,
    "water_intake_score": 1.5559
   },
   "type": "Feature"
  }
 ],
 "note": "GRIME region 'Polkville, NC' \u2014 real-data pipeline (DEM\u2192streams\u2192candidates\u2192stream mask (sites confined to \u00b1150 m of mapped OSM/NHD waterways)\u2192region-appropriate real parameters\u2192shipped scoring, math unchanged). Width curve: Bieger et al. 2015 JAWRA Table 3, Appalachian Highlands. Flood: SIR 2014-5030 HR1. NC Piedmont (DEQ physiography polygon)",
 "provenance": {
  "candidates_pre_gate": 4,
  "constant": [
   "bridge_proximity_bonus",
   "channel_width_score",
   "cso_density",
   "land_ownership",
   "litter_complaint_density",
   "npdes_points",
   "stream_order",
   "superfund_score",
   "tri_facility_density",
   "velocity_feasibility"
  ],
  "gated_navigable": 0,
  "hard_gate_removed": 0,
  "n_parameters": 27,
  "parameters": {
   "bank_slope_score": {
    "kind": "real",
    "n_3dep_10m_fallback": 0,
    "n_nc_lidar_3_125ft": 4,
    "n_real": 4,
    "n_sites": 4,
    "source": "NC OneMap / NC DPS DEM03 statewide lidar-derived 3.125-ft (0.953 m) elevations (perpendicular 50 m transect; robust 5 m bank-rise metric); unavailable profiles use the region 10 m 3DEP DEM-gradient fallback",
    "source_mosaics": [
     "Cleveland_Ground_3ft"
    ]
   },
   "beach_dist_km": {
    "kind": "real",
    "n_real": 4,
    "n_sites": 4,
    "source": "haversine to region ref: Wrightsville Beach (shipped NC reference)"
   },
   "bridge_proximity_bonus": {
    "kind": "real",
    "n_real": 4,
    "n_sites": 4,
    "source": "FHWA/BTS NBI (NTAD), 50 m proximity"
   },
   "catchment_area_km2": {
    "kind": "real",
    "n_real": 4,
    "n_sites": 4,
    "source": "DEM flow accumulation (pipeline)"
   },
   "channel_width_score": {
    "kind": "real",
    "n_real": 4,
    "n_sites": 4,
    "source": "Bieger 2015 AHI width curve on DEM drainage area \u2192 shipped width curve"
   },
   "cso_density": {
    "kind": "real",
    "n_real": 4,
    "n_sites": 4,
    "source": "EPA ECHO open CSO/TCS outfall PF coordinates states=NC, Cauchy proximity"
   },
   "ej_index": {
    "kind": "real",
    "n_real": 4,
    "n_sites": 4,
    "source": "Census ACS C17002+B03002 two-component demographic index, percentile-ranked within region"
   },
   "estuary_dist_km": {
    "kind": "real",
    "n_real": 4,
    "n_sites": 4,
    "source": "haversine to region ref: Pamlico Sound (shipped NC reference)"
   },
   "flood_q10_cfs": {
    "kind": "real",
    "n_real": 4,
    "n_sites": 4,
    "source": "USGS SIR 2014-5030 Table 7 HR1 (NC Piedmont)"
   },
   "flow_velocity_ms": {
    "kind": "real",
    "n_fallback": 0,
    "n_real": 4,
    "n_sites": 4,
    "source": "Manning (region DEM/D8) blended with EROM continuity (shipped M4 logic)"
   },
   "impervious_pct": {
    "kind": "real",
    "n_real": 4,
    "n_sites": 4,
    "source": "EPA StreamCat pctimp2019 (per NHDPlus watershed)"
   },
   "land_ownership": {
    "kind": "real",
    "n_fallback": 0,
    "n_real": 4,
    "n_sites": 4,
    "source": "NC OneMap statewide parcels (NC Parcels Transformer) ownname"
   },
   "litter_complaint_density": {
    "kind": "fallback",
    "n_real": 0,
    "n_sites": 4,
    "source": "no public machine-readable litter/illegal-dumping feed for this region"
   },
   "navigable_dist_m": {
    "kind": "real",
    "n_real": 4,
    "n_sites": 4,
    "source": "USACE/BTS NWN (NTAD): no navigable segment within this bbox (+2 km) \u2014 computed absence, gate passes all sites"
   },
   "npdes_points": {
    "kind": "real",
    "n_real": 4,
    "n_sites": 4,
    "source": "EPA ECHO active NPDES outfalls states=NC (types NPD/GPC/NGP; statuses ADC/EFF/EXP), per catchment"
   },
   "population_density": {
    "kind": "real",
    "n_real": 4,
    "n_sites": 4,
    "source": "Census ACS 2022 B01003 block groups (bbox, multi-county), area-weighted"
   },
   "protected_area_score": {
    "kind": "real",
    "n_real": 4,
    "n_sites": 4,
    "source": "USGS PAD-US 4.1 state GDB; states=NC; shipped designation-weighted proximity curve"
   },
   "road_access_score": {
    "kind": "real",
    "n_real": 4,
    "n_sites": 4,
    "source": "OSM drive network nearest-node distance"
   },
   "road_density_km_km2": {
    "kind": "real",
    "n_real": 4,
    "n_sites": 4,
    "source": "OSM drive network (osmnx, cached) clipped per catchment"
   },
   "runoff_coeff_C": {
    "kind": "real",
    "n_real": 4,
    "n_sites": 4,
    "source": "derived from real impervious_pct (C=0.05+0.009*I)"
   },
   "seasonal_cv": {
    "kind": "real",
    "n_real": 4,
    "n_sites": 4,
    "source": "CV of NHDPlus EROM monthly flows per COMID"
   },
   "stream_order": {
    "kind": "real",
    "n_real": 4,
    "n_sites": 4,
    "source": "DEM stream-network confluence heuristic (pipeline)"
   },
   "superfund_score": {
    "kind": "real",
    "n_real": 4,
    "n_sites": 4,
    "source": "EPA DataMap SEMS active sites states=NC (non-archived, georeferenced), shipped 500 m inverse-distance curve"
   },
   "tourism_amenity_density": {
    "kind": "real",
    "n_real": 4,
    "n_sites": 4,
    "source": "OSM leisure/tourism features per 2 km radius"
   },
   "tri_facility_density": {
    "kind": "real",
    "n_real": 4,
    "n_sites": 4,
    "source": "EPA DataMap TRI open facilities states=NC (preferred decimal or packed-DMS recovery), per catchment"
   },
   "usgs_mean_q_cfs": {
    "kind": "real",
    "n_real": 4,
    "n_sites": 4,
    "source": "NHDPlus EROM qe_ma per COMID (snap-guarded)"
   },
   "velocity_feasibility": {
    "kind": "real",
    "n_fallback": 0,
    "n_real": 4,
    "n_sites": 4,
    "source": "shipped step curve on the computed velocity"
   },
   "velocity_transport_favorability": {
    "kind": "derived",
    "n_real": 4,
    "n_sites": 4,
    "source": "scored form of flow_velocity_ms inside the Flow family \u2014 peaked Gaussian exp(-((v-0.9)/0.6)^2), model.json curves.velocity_transport_favorability; construct: transport/delivery favorability, deliberately distinct from velocity_feasibility (device operability)"
   },
   "water_intake_score": {
    "kind": "real",
    "n_real": 4,
    "n_sites": 4,
    "source": "NC OneMap / NC DEQ SWAP public water supply sources (source_typ='Surface Water'), shipped exp(-d/10km) curve"
   }
  },
  "stream_mask": {
   "buffer_m": 150.0,
   "pre_mask": 4,
   "removed": 0,
   "sources": [
    "osm-overpass (all waterway ways)",
    "usgs-nhdplus flowlines"
   ]
  },
  "varying": [
   "bank_slope_score",
   "beach_dist_km",
   "catchment_area_km2",
   "ej_index",
   "estuary_dist_km",
   "flood_q10_cfs",
   "flow_velocity_ms",
   "impervious_pct",
   "population_density",
   "protected_area_score",
   "road_access_score",
   "road_density_km_km2",
   "runoff_coeff_C",
   "seasonal_cv",
   "tourism_amenity_density",
   "usgs_mean_q_cfs",
   "water_intake_score"
  ]
 },
 "region": {
  "bbox": [
   -81.6707,
   35.3945,
   -81.6173,
   35.438
  ],
  "beach_ref": {
   "label": "Wrightsville Beach (shipped NC reference)",
   "lat": 34.21,
   "lon": -77.79
  },
  "center": [
   -81.643987,
   35.416275
  ],
  "estuary_ref": {
   "label": "Pamlico Sound (shipped NC reference)",
   "lat": 35.05,
   "lon": -76.05
  },
  "flood_method": "sir2014_hr1",
  "name": "Polkville, NC",
  "notes": "NC Piedmont (DEQ physiography polygon)",
  "slug": "polkville",
  "state": "NC",
  "utm_epsg": 32617,
  "width_curve": {
   "a": 3.12,
   "b": 0.415,
   "code": "AHI",
   "source": "Bieger et al. 2015 JAWRA Table 3, Appalachian Highlands"
  }
 },
 "type": "FeatureCollection"
}
