{
 "features": [
  {
   "geometry": {
    "coordinates": [
     -79.656153,
     35.730357
    ],
    "type": "Point"
   },
   "properties": {
    "accumulation": 121613.0,
    "bank_slope_deg": 11.32,
    "bank_slope_score": 1.0,
    "bank_slope_source": "nc-dps-lidar-dem03-cross-section",
    "beach_dist_km": 239.77,
    "bridge_proximity_bonus": 0.2,
    "catchment_area_km2": 12.1166,
    "channel_width_m": 8.79,
    "channel_width_score": 1.0,
    "composite_score": 58.0412,
    "cso_density": 0.0,
    "ej_index": 0.6837,
    "elevation_m": 130.098,
    "estuary_dist_km": 335.51,
    "feasibility_score": 100.0,
    "flood_q10_cfs": 1137.64,
    "flow_score": 65.7046,
    "flow_velocity_ms": 0.5,
    "generation_score": 31.2954,
    "impact_score": 57.4215,
    "impervious_pct": null,
    "land_ownership": 0.5,
    "lat": 35.7304,
    "litter_complaint_density": 0.0,
    "lon": -79.6562,
    "navigable_dist_m": null,
    "npdes_points": 0,
    "pixel_col": 245.0,
    "pixel_row": 330.0,
    "population_density": 95.7,
    "position_along": 0.25,
    "protected_area_score": 8.1512,
    "rank": 1,
    "road_access_m": 60.9,
    "road_access_score": 1.0,
    "road_density_km_km2": 3.05,
    "robustness_pct": 100.0,
    "runoff_coeff_C": null,
    "seasonal_cv": null,
    "segment_id": 4,
    "segment_length_m": 3002.9473,
    "stream_order": 3,
    "superfund_score": 0.0,
    "tourism_amenity_density": 1.0345,
    "tri_facility_density": 0.0825,
    "usgs_mean_q_cfs": null,
    "velocity_feasibility": 1.0,
    "water_intake_score": 1.511
   },
   "type": "Feature"
  },
  {
   "geometry": {
    "coordinates": [
     -79.662592,
     35.734699
    ],
    "type": "Point"
   },
   "properties": {
    "accumulation": 64211.0,
    "bank_slope_deg": 17.1,
    "bank_slope_score": 0.5,
    "bank_slope_source": "nc-dps-lidar-dem03-cross-section",
    "beach_dist_km": 240.52,
    "bridge_proximity_bonus": 0.0,
    "catchment_area_km2": 6.3975,
    "channel_width_m": 6.74,
    "channel_width_score": 1.0,
    "composite_score": 56.1351,
    "cso_density": 0.0,
    "ej_index": 0.7108,
    "elevation_m": 134.8115,
    "estuary_dist_km": 336.18,
    "feasibility_score": 38.4615,
    "flood_q10_cfs": 789.02,
    "flow_score": 43.3294,
    "flow_velocity_ms": 0.1476,
    "generation_score": 64.7451,
    "impact_score": 67.0334,
    "impervious_pct": 2.66,
    "land_ownership": 0.5,
    "lat": 35.7347,
    "litter_complaint_density": 0.0,
    "lon": -79.6626,
    "navigable_dist_m": null,
    "npdes_points": 0,
    "pixel_col": 186.0,
    "pixel_row": 283.0,
    "population_density": 96.0,
    "position_along": 0.5,
    "protected_area_score": 8.6069,
    "rank": 2,
    "road_access_m": 132.5,
    "road_access_score": 1.0,
    "road_density_km_km2": 3.636,
    "robustness_pct": 100.0,
    "runoff_coeff_C": 0.0739,
    "seasonal_cv": 0.4088,
    "segment_id": 2,
    "segment_length_m": 850.9811,
    "stream_order": 3,
    "superfund_score": 0.0,
    "tourism_amenity_density": 1.0345,
    "tri_facility_density": 0.1563,
    "usgs_mean_q_cfs": 5.873,
    "velocity_feasibility": 0.7,
    "water_intake_score": 1.6024
   },
   "type": "Feature"
  },
  {
   "geometry": {
    "coordinates": [
     -79.656922,
     35.74122
    ],
    "type": "Point"
   },
   "properties": {
    "accumulation": 23614.0,
    "bank_slope_deg": 12.0,
    "bank_slope_score": 1.0,
    "bank_slope_source": "nc-dps-lidar-dem03-cross-section",
    "beach_dist_km": 240.66,
    "bridge_proximity_bonus": 0.0,
    "catchment_area_km2": 2.3527,
    "channel_width_m": 4.45,
    "channel_width_score": 1.0,
    "composite_score": 54.197,
    "cso_density": 0.0,
    "ej_index": 0.6963,
    "elevation_m": 146.2192,
    "estuary_dist_km": 335.83,
    "feasibility_score": 53.8462,
    "flood_q10_cfs": 371.67,
    "flow_score": 26.3475,
    "flow_velocity_ms": 0.1317,
    "generation_score": 66.5781,
    "impact_score": 65.1992,
    "impervious_pct": 2.72,
    "land_ownership": 0.5,
    "lat": 35.7412,
    "litter_complaint_density": 0.0,
    "lon": -79.6569,
    "navigable_dist_m": null,
    "npdes_points": 0,
    "pixel_col": 233.0,
    "pixel_row": 208.0,
    "population_density": 65.4,
    "position_along": 0.5,
    "protected_area_score": 8.5708,
    "rank": 3,
    "road_access_m": 77.3,
    "road_access_score": 1.0,
    "road_density_km_km2": 3.544,
    "robustness_pct": 100.0,
    "runoff_coeff_C": 0.0745,
    "seasonal_cv": 0.4048,
    "segment_id": 0,
    "segment_length_m": 1702.6717,
    "stream_order": 3,
    "superfund_score": 0.0,
    "tourism_amenity_density": 1.0345,
    "tri_facility_density": 0.425,
    "usgs_mean_q_cfs": 3.352,
    "velocity_feasibility": 0.7,
    "water_intake_score": 1.5835
   },
   "type": "Feature"
  },
  {
   "geometry": {
    "coordinates": [
     -79.664945,
     35.729701
    ],
    "type": "Point"
   },
   "properties": {
    "accumulation": 48872.0,
    "bank_slope_deg": 11.39,
    "bank_slope_score": 1.0,
    "bank_slope_source": "nc-dps-lidar-dem03-cross-section",
    "beach_dist_km": 240.29,
    "bridge_proximity_bonus": 0.0,
    "catchment_area_km2": 4.8692,
    "channel_width_m": 6.02,
    "channel_width_score": 1.0,
    "composite_score": 52.5503,
    "cso_density": 0.0,
    "ej_index": 0.7307,
    "elevation_m": 133.1094,
    "estuary_dist_km": 336.27,
    "feasibility_score": 65.3846,
    "flood_q10_cfs": 613.11,
    "flow_score": 47.3033,
    "flow_velocity_ms": 0.5,
    "generation_score": 37.3932,
    "impact_score": 65.6626,
    "impervious_pct": null,
    "land_ownership": 0.5,
    "lat": 35.7297,
    "litter_complaint_density": 0.0,
    "lon": -79.6649,
    "navigable_dist_m": null,
    "npdes_points": 0,
    "pixel_col": 166.0,
    "pixel_row": 337.0,
    "population_density": 120.0,
    "position_along": 0.5,
    "protected_area_score": 8.4853,
    "rank": 4,
    "road_access_m": 217.2,
    "road_access_score": 0.8,
    "road_density_km_km2": 2.948,
    "robustness_pct": 100.0,
    "runoff_coeff_C": null,
    "seasonal_cv": null,
    "segment_id": 3,
    "segment_length_m": 1378.0005,
    "stream_order": 3,
    "superfund_score": 0.0,
    "tourism_amenity_density": 1.0345,
    "tri_facility_density": 0.0,
    "usgs_mean_q_cfs": null,
    "velocity_feasibility": 1.0,
    "water_intake_score": 1.5781
   },
   "type": "Feature"
  },
  {
   "geometry": {
    "coordinates": [
     -79.649929,
     35.719857
    ],
    "type": "Point"
   },
   "properties": {
    "accumulation": 150505.0,
    "bank_slope_deg": 18.78,
    "bank_slope_score": 0.5,
    "bank_slope_source": "nc-dps-lidar-dem03-cross-section",
    "beach_dist_km": 238.55,
    "bridge_proximity_bonus": 0.0,
    "catchment_area_km2": 14.9952,
    "channel_width_m": 9.6,
    "channel_width_score": 1.0,
    "composite_score": 41.353,
    "cso_density": 0.0,
    "ej_index": 0.6155,
    "elevation_m": 126.9552,
    "estuary_dist_km": 334.72,
    "feasibility_score": 30.7692,
    "flood_q10_cfs": 1280.21,
    "flow_score": 72.0,
    "flow_velocity_ms": 0.5,
    "generation_score": 21.704,
    "impact_score": 40.7548,
    "impervious_pct": null,
    "land_ownership": 0.5,
    "lat": 35.7199,
    "litter_complaint_density": 0.0,
    "lon": -79.6499,
    "navigable_dist_m": null,
    "npdes_points": 0,
    "pixel_col": 301.0,
    "pixel_row": 446.0,
    "population_density": 95.1,
    "position_along": 0.75,
    "protected_area_score": 7.8504,
    "rank": 5,
    "road_access_m": 502.6,
    "road_access_score": 0.6,
    "road_density_km_km2": 1.918,
    "robustness_pct": 63.5,
    "runoff_coeff_C": null,
    "seasonal_cv": null,
    "segment_id": 4,
    "segment_length_m": 3002.9473,
    "stream_order": 3,
    "superfund_score": 0.0,
    "tourism_amenity_density": 0.7162,
    "tri_facility_density": 0.0667,
    "usgs_mean_q_cfs": null,
    "velocity_feasibility": 1.0,
    "water_intake_score": 1.3825
   },
   "type": "Feature"
  },
  {
   "geometry": {
    "coordinates": [
     -79.662858,
     35.740685
    ],
    "type": "Point"
   },
   "properties": {
    "accumulation": 26464.0,
    "bank_slope_deg": 6.28,
    "bank_slope_score": 1.0,
    "bank_slope_source": "nc-dps-lidar-dem03-cross-section",
    "beach_dist_km": 241.0,
    "bridge_proximity_bonus": 0.0,
    "catchment_area_km2": 2.6367,
    "channel_width_m": 4.67,
    "channel_width_score": 1.0,
    "composite_score": 39.052,
    "cso_density": 0.0,
    "ej_index": 0.7169,
    "elevation_m": 141.0235,
    "estuary_dist_km": 336.34,
    "feasibility_score": 34.6154,
    "flood_q10_cfs": 394.7,
    "flow_score": 23.9757,
    "flow_velocity_ms": 0.1344,
    "generation_score": 22.5707,
    "impact_score": 70.3151,
    "impervious_pct": 1.25,
    "land_ownership": 0.5,
    "lat": 35.7407,
    "litter_complaint_density": 0.0,
    "lon": -79.6629,
    "navigable_dist_m": null,
    "npdes_points": 0,
    "pixel_col": 183.0,
    "pixel_row": 216.0,
    "population_density": 71.1,
    "position_along": 0.5,
    "protected_area_score": 8.7493,
    "rank": 6,
    "road_access_m": 298.6,
    "road_access_score": 0.8,
    "road_density_km_km2": 2.701,
    "robustness_pct": 32.5,
    "runoff_coeff_C": 0.0612,
    "seasonal_cv": 0.4049,
    "segment_id": 1,
    "segment_length_m": 718.7982,
    "stream_order": 3,
    "superfund_score": 0.0,
    "tourism_amenity_density": 1.0345,
    "tri_facility_density": 0.0,
    "usgs_mean_q_cfs": 2.105,
    "velocity_feasibility": 0.7,
    "water_intake_score": 1.6479
   },
   "type": "Feature"
  },
  {
   "geometry": {
    "coordinates": [
     -79.64189,
     35.718869
    ],
    "type": "Point"
   },
   "properties": {
    "accumulation": 33790.0,
    "bank_slope_deg": 11.89,
    "bank_slope_score": 1.0,
    "bank_slope_source": "nc-dps-lidar-dem03-cross-section",
    "beach_dist_km": 237.96,
    "bridge_proximity_bonus": 0.0,
    "catchment_area_km2": 3.3666,
    "channel_width_m": 5.16,
    "channel_width_score": 1.0,
    "composite_score": 32.4891,
    "cso_density": 0.0,
    "ej_index": 0.5411,
    "elevation_m": 134.1073,
    "estuary_dist_km": 333.99,
    "feasibility_score": 34.6154,
    "flood_q10_cfs": 492.02,
    "flow_score": 31.2981,
    "flow_velocity_ms": 0.1153,
    "generation_score": 36.6467,
    "impact_score": 28.2609,
    "impervious_pct": 3.32,
    "land_ownership": 0.5,
    "lat": 35.7189,
    "litter_complaint_density": 0.0,
    "lon": -79.6419,
    "navigable_dist_m": null,
    "npdes_points": 0,
    "pixel_col": 375.0,
    "pixel_row": 456.0,
    "population_density": 78.1,
    "position_along": 0.5,
    "protected_area_score": 7.7052,
    "rank": 7,
    "road_access_m": 254.0,
    "road_access_score": 0.8,
    "road_density_km_km2": 1.564,
    "robustness_pct": 4.0,
    "runoff_coeff_C": 0.0799,
    "seasonal_cv": 0.4198,
    "segment_id": 5,
    "segment_length_m": 1634.0974,
    "stream_order": 1,
    "superfund_score": 0.0,
    "tourism_amenity_density": 0.3979,
    "tri_facility_density": 0.0,
    "usgs_mean_q_cfs": 12.425,
    "velocity_feasibility": 0.7,
    "water_intake_score": 1.3256
   },
   "type": "Feature"
  }
 ],
 "note": "GRIME region 'Ramseur, NC' \u2014 real-data pipeline (DEM\u2192streams\u2192candidates\u2192stream mask (sites confined to \u00b1150 m of mapped OSM/NHD waterways)\u2192region-appropriate real parameters\u2192shipped scoring, math unchanged). Width curve: Bieger et al. 2015 JAWRA Table 3, Appalachian Highlands. Flood: SIR 2014-5030 HR1. NC Piedmont (DEQ physiography polygon)",
 "provenance": {
  "candidates_pre_gate": 7,
  "constant": [
   "channel_width_score",
   "cso_density",
   "land_ownership",
   "litter_complaint_density",
   "npdes_points",
   "superfund_score"
  ],
  "gated_navigable": 0,
  "hard_gate_removed": 0,
  "n_parameters": 27,
  "parameters": {
   "bank_slope_score": {
    "kind": "real",
    "n_3dep_10m_fallback": 0,
    "n_nc_lidar_3_125ft": 7,
    "n_real": 7,
    "n_sites": 7,
    "source": "NC OneMap / NC DPS DEM03 statewide lidar-derived 3.125-ft (0.953 m) elevations (perpendicular 50 m transect; robust 5 m bank-rise metric); unavailable profiles use the region 10 m 3DEP DEM-gradient fallback",
    "source_mosaics": [
     "Randolph_Countywide_DEM03"
    ]
   },
   "beach_dist_km": {
    "kind": "real",
    "n_real": 7,
    "n_sites": 7,
    "source": "haversine to region ref: Wrightsville Beach (shipped NC reference)"
   },
   "bridge_proximity_bonus": {
    "kind": "real",
    "n_real": 7,
    "n_sites": 7,
    "source": "FHWA/BTS NBI (NTAD), 50 m proximity"
   },
   "catchment_area_km2": {
    "kind": "real",
    "n_real": 7,
    "n_sites": 7,
    "source": "DEM flow accumulation (pipeline)"
   },
   "channel_width_score": {
    "kind": "real",
    "n_real": 7,
    "n_sites": 7,
    "source": "Bieger 2015 AHI width curve on DEM drainage area \u2192 shipped width curve"
   },
   "cso_density": {
    "kind": "real",
    "n_real": 7,
    "n_sites": 7,
    "source": "EPA ECHO open CSO/TCS outfall PF coordinates states=NC, Cauchy proximity"
   },
   "ej_index": {
    "kind": "real",
    "n_real": 7,
    "n_sites": 7,
    "source": "Census ACS C17002+B03002 two-component demographic index, percentile-ranked within region"
   },
   "estuary_dist_km": {
    "kind": "real",
    "n_real": 7,
    "n_sites": 7,
    "source": "haversine to region ref: Pamlico Sound (shipped NC reference)"
   },
   "flood_q10_cfs": {
    "impervious_fallback_reason": "StreamCat imperviousness unavailable; the existing regression-input fallback of 0.0% impervious was used and is disclosed here",
    "kind": "real",
    "n_impervious_fallback": 3,
    "n_real": 7,
    "n_sites": 7,
    "source": "USGS SIR 2014-5030 Table 7 HR1 (NC Piedmont)"
   },
   "flow_velocity_ms": {
    "fallback_reason": "EROM/DEM continuity input unavailable; shipped 0.5 m/s default used",
    "kind": "real",
    "n_fallback": 3,
    "n_real": 4,
    "n_sites": 7,
    "source": "Manning (region DEM/D8) blended with EROM continuity (shipped M4 logic)"
   },
   "impervious_pct": {
    "fallback_reason": "NLDI/StreamCat did not return a snap-compatible catchment value; value remains null and is removed by constant-column handling",
    "kind": "real",
    "n_fallback": 3,
    "n_real": 4,
    "n_sites": 7,
    "source": "EPA StreamCat pctimp2019 (per NHDPlus watershed)"
   },
   "land_ownership": {
    "fallback_reason": "no containing parcel owner returned; shipped unknown ownership 0.5 used",
    "kind": "real",
    "n_fallback": 2,
    "n_real": 5,
    "n_sites": 7,
    "source": "NC OneMap statewide parcels (NC Parcels Transformer) ownname"
   },
   "litter_complaint_density": {
    "kind": "fallback",
    "n_real": 0,
    "n_sites": 7,
    "source": "no public machine-readable litter/illegal-dumping feed for this region"
   },
   "navigable_dist_m": {
    "kind": "real",
    "n_real": 7,
    "n_sites": 7,
    "source": "USACE/BTS NWN (NTAD): no navigable segment within this bbox (+2 km) \u2014 computed absence, gate passes all sites"
   },
   "npdes_points": {
    "kind": "real",
    "n_real": 7,
    "n_sites": 7,
    "source": "EPA ECHO active NPDES outfalls states=NC (types NPD/GPC/NGP; statuses ADC/EFF/EXP), per catchment"
   },
   "population_density": {
    "kind": "real",
    "n_real": 7,
    "n_sites": 7,
    "source": "Census ACS 2022 B01003 block groups (bbox, multi-county), area-weighted"
   },
   "protected_area_score": {
    "kind": "real",
    "n_real": 7,
    "n_sites": 7,
    "source": "USGS PAD-US 4.1 state GDB; states=NC; shipped designation-weighted proximity curve"
   },
   "road_access_score": {
    "kind": "real",
    "n_real": 7,
    "n_sites": 7,
    "source": "OSM drive network nearest-node distance"
   },
   "road_density_km_km2": {
    "kind": "real",
    "n_real": 7,
    "n_sites": 7,
    "source": "OSM drive network (osmnx, cached) clipped per catchment"
   },
   "runoff_coeff_C": {
    "fallback_reason": "source impervious_pct was unavailable; derived value remains null",
    "kind": "real",
    "n_fallback": 3,
    "n_real": 4,
    "n_sites": 7,
    "source": "derived from real impervious_pct (C=0.05+0.009*I)"
   },
   "seasonal_cv": {
    "fallback_reason": "NHDPlus monthly EROM was unavailable or failed the drainage-area snap guard; value remains null",
    "kind": "real",
    "n_fallback": 3,
    "n_real": 4,
    "n_sites": 7,
    "source": "CV of NHDPlus EROM monthly flows per COMID"
   },
   "stream_order": {
    "kind": "real",
    "n_real": 7,
    "n_sites": 7,
    "source": "DEM stream-network confluence heuristic (pipeline)"
   },
   "superfund_score": {
    "kind": "real",
    "n_real": 7,
    "n_sites": 7,
    "source": "EPA DataMap SEMS active sites states=NC (non-archived, georeferenced), shipped 500 m inverse-distance curve"
   },
   "tourism_amenity_density": {
    "kind": "real",
    "n_real": 7,
    "n_sites": 7,
    "source": "OSM leisure/tourism features per 2 km radius"
   },
   "tri_facility_density": {
    "kind": "real",
    "n_real": 7,
    "n_sites": 7,
    "source": "EPA DataMap TRI open facilities states=NC (preferred decimal or packed-DMS recovery), per catchment"
   },
   "usgs_mean_q_cfs": {
    "fallback_reason": "NHDPlus EROM was unavailable or failed the drainage-area snap guard; value remains null",
    "kind": "real",
    "n_fallback": 3,
    "n_real": 4,
    "n_sites": 7,
    "source": "NHDPlus EROM qe_ma per COMID (snap-guarded)"
   },
   "velocity_feasibility": {
    "fallback_reason": "derived from the shipped 0.5 m/s velocity fallback",
    "kind": "real",
    "n_fallback": 3,
    "n_real": 4,
    "n_sites": 7,
    "source": "shipped step curve on the computed velocity"
   },
   "velocity_transport_favorability": {
    "fallback_reason": "EROM/DEM continuity input unavailable; shipped 0.5 m/s default used",
    "kind": "derived",
    "n_fallback": 3,
    "n_real": 4,
    "n_sites": 7,
    "source": "scored form of flow_velocity_ms inside the Flow family \u2014 peaked Gaussian exp(-((v-0.9)/0.6)^2), model.json curves.velocity_transport_favorability; construct: transport/delivery favorability, deliberately distinct from velocity_feasibility (device operability)"
   },
   "water_intake_score": {
    "kind": "real",
    "n_real": 7,
    "n_sites": 7,
    "source": "NC OneMap / NC DEQ SWAP public water supply sources (source_typ='Surface Water'), shipped exp(-d/10km) curve"
   }
  },
  "stream_mask": {
   "buffer_m": 150.0,
   "pre_mask": 7,
   "removed": 0,
   "sources": [
    "osm-overpass (all waterway ways)",
    "usgs-nhdplus flowlines"
   ]
  },
  "varying": [
   "bank_slope_score",
   "beach_dist_km",
   "bridge_proximity_bonus",
   "catchment_area_km2",
   "ej_index",
   "estuary_dist_km",
   "flood_q10_cfs",
   "flow_velocity_ms",
   "impervious_pct",
   "population_density",
   "protected_area_score",
   "road_access_score",
   "road_density_km_km2",
   "runoff_coeff_C",
   "seasonal_cv",
   "stream_order",
   "tourism_amenity_density",
   "tri_facility_density",
   "usgs_mean_q_cfs",
   "velocity_feasibility",
   "water_intake_score"
  ]
 },
 "region": {
  "bbox": [
   -79.6826,
   35.7145,
   -79.627,
   35.7596
  ],
  "beach_ref": {
   "label": "Wrightsville Beach (shipped NC reference)",
   "lat": 34.21,
   "lon": -77.79
  },
  "center": [
   -79.65477,
   35.737063
  ],
  "estuary_ref": {
   "label": "Pamlico Sound (shipped NC reference)",
   "lat": 35.05,
   "lon": -76.05
  },
  "flood_method": "sir2014_hr1",
  "name": "Ramseur, NC",
  "notes": "NC Piedmont (DEQ physiography polygon)",
  "slug": "ramseur",
  "state": "NC",
  "utm_epsg": 32617,
  "width_curve": {
   "a": 3.12,
   "b": 0.415,
   "code": "AHI",
   "source": "Bieger et al. 2015 JAWRA Table 3, Appalachian Highlands"
  }
 },
 "type": "FeatureCollection"
}
