{
 "features": [
  {
   "geometry": {
    "coordinates": [
     -79.809503,
     35.821275
    ],
    "type": "Point"
   },
   "properties": {
    "accumulation": 34780.0,
    "bank_slope_deg": 24.34,
    "bank_slope_score": 0.5,
    "bank_slope_source": "nc-dps-lidar-dem03-cross-section",
    "beach_dist_km": 256.74,
    "bridge_proximity_bonus": 0.0,
    "catchment_area_km2": 3.4717,
    "channel_width_m": 5.23,
    "channel_width_score": 1.0,
    "composite_score": 58.6546,
    "cso_density": 0.0,
    "ej_index": 0.6892,
    "elevation_m": 194.7003,
    "estuary_dist_km": 351.21,
    "feasibility_score": 52.0408,
    "flood_q10_cfs": 614.63,
    "flow_score": 42.3088,
    "flow_velocity_ms": 0.14,
    "generation_score": 80.0,
    "impact_score": 54.2376,
    "impervious_pct": 14.71,
    "land_ownership": 0.5,
    "lat": 35.8213,
    "litter_complaint_density": 0.0,
    "lon": -79.8095,
    "navigable_dist_m": null,
    "npdes_points": 0,
    "pixel_col": 348.0,
    "pixel_row": 306.0,
    "population_density": 438.8,
    "position_along": 0.5,
    "protected_area_score": 11.0127,
    "rank": 1,
    "road_access_m": 22.5,
    "road_access_score": 1.0,
    "road_density_km_km2": 6.377,
    "robustness_pct": 100.0,
    "runoff_coeff_C": 0.1824,
    "seasonal_cv": 0.3893,
    "segment_id": 5,
    "segment_length_m": 2047.0946,
    "stream_order": 3,
    "superfund_score": 0.0194,
    "tourism_amenity_density": 1.6711,
    "tri_facility_density": 0.0,
    "usgs_mean_q_cfs": 1.844,
    "velocity_feasibility": 0.7,
    "water_intake_score": 1.958
   },
   "type": "Feature"
  },
  {
   "geometry": {
    "coordinates": [
     -79.7965,
     35.820701
    ],
    "type": "Point"
   },
   "properties": {
    "accumulation": 178025.0,
    "bank_slope_deg": 10.23,
    "bank_slope_score": 1.0,
    "bank_slope_source": "nc-dps-lidar-dem03-cross-section",
    "beach_dist_km": 255.85,
    "bridge_proximity_bonus": 0.0,
    "catchment_area_km2": 17.7704,
    "channel_width_m": 10.3,
    "channel_width_score": 1.0,
    "composite_score": 56.0727,
    "cso_density": 0.0,
    "ej_index": 0.531,
    "elevation_m": 179.9962,
    "estuary_dist_km": 350.05,
    "feasibility_score": 78.5714,
    "flood_q10_cfs": 1406.46,
    "flow_score": 67.3576,
    "flow_velocity_ms": 0.5,
    "generation_score": 47.2716,
    "impact_score": 44.2202,
    "impervious_pct": null,
    "land_ownership": 0.5,
    "lat": 35.8207,
    "litter_complaint_density": 0.0,
    "lon": -79.7965,
    "navigable_dist_m": null,
    "npdes_points": 3,
    "pixel_col": 467.0,
    "pixel_row": 311.0,
    "population_density": 262.7,
    "position_along": 0.25,
    "protected_area_score": 10.9834,
    "rank": 2,
    "road_access_m": 92.3,
    "road_access_score": 1.0,
    "road_density_km_km2": 4.093,
    "robustness_pct": 100.0,
    "runoff_coeff_C": null,
    "seasonal_cv": null,
    "segment_id": 6,
    "segment_length_m": 3463.0437,
    "stream_order": 3,
    "superfund_score": 0.0177,
    "tourism_amenity_density": 1.1937,
    "tri_facility_density": 0.0,
    "usgs_mean_q_cfs": null,
    "velocity_feasibility": 1.0,
    "water_intake_score": 1.886
   },
   "type": "Feature"
  },
  {
   "geometry": {
    "coordinates": [
     -79.786552,
     35.810535
    ],
    "type": "Point"
   },
   "properties": {
    "accumulation": 210582.0,
    "bank_slope_deg": 11.66,
    "bank_slope_score": 1.0,
    "bank_slope_source": "nc-dps-lidar-dem03-cross-section",
    "beach_dist_km": 254.42,
    "bridge_proximity_bonus": 0.0,
    "catchment_area_km2": 21.0202,
    "channel_width_m": 11.04,
    "channel_width_score": 1.0,
    "composite_score": 51.5722,
    "cso_density": 0.0,
    "ej_index": 0.4316,
    "elevation_m": 177.3538,
    "estuary_dist_km": 348.92,
    "feasibility_score": 60.7143,
    "flood_q10_cfs": 1543.58,
    "flow_score": 72.0,
    "flow_velocity_ms": 0.5,
    "generation_score": 42.1275,
    "impact_score": 39.4228,
    "impervious_pct": null,
    "land_ownership": 0.5,
    "lat": 35.8105,
    "litter_complaint_density": 0.0,
    "lon": -79.7866,
    "navigable_dist_m": null,
    "npdes_points": 3,
    "pixel_col": 558.0,
    "pixel_row": 423.0,
    "population_density": 220.8,
    "position_along": 0.75,
    "protected_area_score": 10.9305,
    "rank": 3,
    "road_access_m": 351.1,
    "road_access_score": 0.8,
    "road_density_km_km2": 3.347,
    "robustness_pct": 100.0,
    "runoff_coeff_C": null,
    "seasonal_cv": null,
    "segment_id": 6,
    "segment_length_m": 3463.0437,
    "stream_order": 3,
    "superfund_score": 0.0223,
    "tourism_amenity_density": 0.7958,
    "tri_facility_density": 0.0,
    "usgs_mean_q_cfs": null,
    "velocity_feasibility": 1.0,
    "water_intake_score": 1.843
   },
   "type": "Feature"
  },
  {
   "geometry": {
    "coordinates": [
     -79.810061,
     35.828344
    ],
    "type": "Point"
   },
   "properties": {
    "accumulation": 91373.0,
    "bank_slope_deg": 10.69,
    "bank_slope_score": 1.0,
    "bank_slope_source": "nc-dps-lidar-dem03-cross-section",
    "beach_dist_km": 257.32,
    "bridge_proximity_bonus": 0.0,
    "catchment_area_km2": 9.1208,
    "channel_width_m": 7.81,
    "channel_width_score": 1.0,
    "composite_score": 51.0769,
    "cso_density": 0.0,
    "ej_index": 0.6698,
    "elevation_m": 184.2749,
    "estuary_dist_km": 351.44,
    "feasibility_score": 78.5714,
    "flood_q10_cfs": 972.04,
    "flow_score": 54.2092,
    "flow_velocity_ms": 0.5,
    "generation_score": 36.4993,
    "impact_score": 49.2971,
    "impervious_pct": null,
    "land_ownership": 0.5,
    "lat": 35.8283,
    "litter_complaint_density": 0.0,
    "lon": -79.8101,
    "navigable_dist_m": null,
    "npdes_points": 1,
    "pixel_col": 343.0,
    "pixel_row": 228.0,
    "population_density": 280.9,
    "position_along": 0.875,
    "protected_area_score": 11.0732,
    "rank": 4,
    "road_access_m": 165.1,
    "road_access_score": 1.0,
    "road_density_km_km2": 4.542,
    "robustness_pct": 100.0,
    "runoff_coeff_C": null,
    "seasonal_cv": null,
    "segment_id": 3,
    "segment_length_m": 7449.7564,
    "stream_order": 3,
    "superfund_score": 0.0145,
    "tourism_amenity_density": 1.1141,
    "tri_facility_density": 0.0,
    "usgs_mean_q_cfs": null,
    "velocity_feasibility": 1.0,
    "water_intake_score": 1.957
   },
   "type": "Feature"
  },
  {
   "geometry": {
    "coordinates": [
     -79.81255,
     35.83425
    ],
    "type": "Point"
   },
   "properties": {
    "accumulation": 80296.0,
    "bank_slope_deg": 9.85,
    "bank_slope_score": 1.0,
    "bank_slope_source": "nc-dps-lidar-dem03-cross-section",
    "beach_dist_km": 257.94,
    "bridge_proximity_bonus": 0.0,
    "catchment_area_km2": 8.0151,
    "channel_width_m": 7.4,
    "channel_width_score": 1.0,
    "composite_score": 44.5924,
    "cso_density": 0.0,
    "ej_index": 0.6691,
    "elevation_m": 185.2441,
    "estuary_dist_km": 351.8,
    "feasibility_score": 64.2857,
    "flood_q10_cfs": 904.89,
    "flow_score": 52.3958,
    "flow_velocity_ms": 0.5,
    "generation_score": 23.2725,
    "impact_score": 49.5629,
    "impervious_pct": null,
    "land_ownership": 1.0,
    "lat": 35.8342,
    "litter_complaint_density": 0.0,
    "lon": -79.8125,
    "navigable_dist_m": null,
    "npdes_points": 1,
    "pixel_col": 320.0,
    "pixel_row": 160.0,
    "population_density": 169.8,
    "position_along": 0.625,
    "protected_area_score": 11.237,
    "rank": 5,
    "road_access_m": 723.7,
    "road_access_score": 0.6,
    "road_density_km_km2": 2.722,
    "robustness_pct": 97.0,
    "runoff_coeff_C": null,
    "seasonal_cv": null,
    "segment_id": 3,
    "segment_length_m": 7449.7564,
    "stream_order": 3,
    "superfund_score": 0.0117,
    "tourism_amenity_density": 0.9549,
    "tri_facility_density": 0.0,
    "usgs_mean_q_cfs": null,
    "velocity_feasibility": 1.0,
    "water_intake_score": 1.9699
   },
   "type": "Feature"
  },
  {
   "geometry": {
    "coordinates": [
     -79.792041,
     35.791251
    ],
    "type": "Point"
   },
   "properties": {
    "accumulation": 29647.0,
    "bank_slope_deg": 3.96,
    "bank_slope_score": 1.0,
    "bank_slope_source": "nc-dps-lidar-dem03-cross-section",
    "beach_dist_km": 253.3,
    "bridge_proximity_bonus": 0.0,
    "catchment_area_km2": 2.9593,
    "channel_width_m": 4.89,
    "channel_width_score": 1.0,
    "composite_score": 40.4518,
    "cso_density": 0.0,
    "ej_index": 0.3734,
    "elevation_m": 194.7462,
    "estuary_dist_km": 348.93,
    "feasibility_score": 48.4694,
    "flood_q10_cfs": 460.35,
    "flow_score": 43.0068,
    "flow_velocity_ms": 0.098,
    "generation_score": 29.985,
    "impact_score": 44.7807,
    "impervious_pct": 5.07,
    "land_ownership": 0.5,
    "lat": 35.7913,
    "litter_complaint_density": 0.0,
    "lon": -79.792,
    "navigable_dist_m": null,
    "npdes_points": 0,
    "pixel_col": 511.0,
    "pixel_row": 634.0,
    "population_density": 199.6,
    "position_along": 0.25,
    "protected_area_score": 11.255,
    "rank": 6,
    "road_access_m": 306.0,
    "road_access_score": 0.8,
    "road_density_km_km2": 2.576,
    "robustness_pct": 2.0,
    "runoff_coeff_C": 0.0956,
    "seasonal_cv": 0.3959,
    "segment_id": 8,
    "segment_length_m": 3828.8654,
    "stream_order": 3,
    "superfund_score": 0.0611,
    "tourism_amenity_density": 0.0,
    "tri_facility_density": 0.0,
    "usgs_mean_q_cfs": 2.705,
    "velocity_feasibility": 0.7,
    "water_intake_score": 1.9083
   },
   "type": "Feature"
  },
  {
   "geometry": {
    "coordinates": [
     -79.778897,
     35.793781
    ],
    "type": "Point"
   },
   "properties": {
    "accumulation": 50940.0,
    "bank_slope_deg": 7.17,
    "bank_slope_score": 1.0,
    "bank_slope_source": "nc-dps-lidar-dem03-cross-section",
    "beach_dist_km": 252.64,
    "bridge_proximity_bonus": 0.0,
    "catchment_area_km2": 5.0848,
    "channel_width_m": 6.13,
    "channel_width_score": 1.0,
    "composite_score": 36.5792,
    "cso_density": 0.0,
    "ej_index": 0.3708,
    "elevation_m": 178.9773,
    "estuary_dist_km": 347.84,
    "feasibility_score": 48.4694,
    "flood_q10_cfs": 692.22,
    "flow_score": 48.0349,
    "flow_velocity_ms": 0.1136,
    "generation_score": 20.0722,
    "impact_score": 37.5946,
    "impervious_pct": 5.07,
    "land_ownership": 0.5,
    "lat": 35.7938,
    "litter_complaint_density": 0.0,
    "lon": -79.7789,
    "navigable_dist_m": null,
    "npdes_points": 0,
    "pixel_col": 630.0,
    "pixel_row": 607.0,
    "population_density": 95.7,
    "position_along": 0.75,
    "protected_area_score": 10.9933,
    "rank": 7,
    "road_access_m": 278.1,
    "road_access_score": 0.8,
    "road_density_km_km2": 1.814,
    "robustness_pct": 0.0,
    "runoff_coeff_C": 0.0956,
    "seasonal_cv": 0.3959,
    "segment_id": 8,
    "segment_length_m": 3828.8654,
    "stream_order": 3,
    "superfund_score": 0.0305,
    "tourism_amenity_density": 0.0,
    "tri_facility_density": 0.0,
    "usgs_mean_q_cfs": 2.705,
    "velocity_feasibility": 0.7,
    "water_intake_score": 1.8272
   },
   "type": "Feature"
  },
  {
   "geometry": {
    "coordinates": [
     -79.82907,
     35.837913
    ],
    "type": "Point"
   },
   "properties": {
    "accumulation": 23707.0,
    "bank_slope_deg": 0.0,
    "bank_slope_score": 1.0,
    "bank_slope_source": "nc-dps-lidar-dem03-cross-section",
    "beach_dist_km": 259.3,
    "bridge_proximity_bonus": 0.0,
    "catchment_area_km2": 2.3664,
    "channel_width_m": 4.46,
    "channel_width_score": 1.0,
    "composite_score": 36.3293,
    "cso_density": 0.0,
    "ej_index": 0.3729,
    "elevation_m": 201.6467,
    "estuary_dist_km": 353.35,
    "feasibility_score": 69.898,
    "flood_q10_cfs": 390.06,
    "flow_score": 38.9265,
    "flow_velocity_ms": 0.0992,
    "generation_score": 14.8735,
    "impact_score": 38.8364,
    "impervious_pct": 5.23,
    "land_ownership": 1.0,
    "lat": 35.8379,
    "litter_complaint_density": 0.0,
    "lon": -79.8291,
    "navigable_dist_m": null,
    "npdes_points": 0,
    "pixel_col": 170.0,
    "pixel_row": 121.0,
    "population_density": 67.8,
    "position_along": 0.125,
    "protected_area_score": 11.5882,
    "rank": 8,
    "road_access_m": 391.4,
    "road_access_score": 0.8,
    "road_density_km_km2": 0.5,
    "robustness_pct": 0.0,
    "runoff_coeff_C": 0.0971,
    "seasonal_cv": 0.3906,
    "segment_id": 3,
    "segment_length_m": 7449.7564,
    "stream_order": 3,
    "superfund_score": 0.0101,
    "tourism_amenity_density": 0.4775,
    "tri_facility_density": 0.0,
    "usgs_mean_q_cfs": 2.345,
    "velocity_feasibility": 0.7,
    "water_intake_score": 2.0516
   },
   "type": "Feature"
  },
  {
   "geometry": {
    "coordinates": [
     -79.776801,
     35.805894
    ],
    "type": "Point"
   },
   "properties": {
    "accumulation": 41874.0,
    "bank_slope_deg": 6.45,
    "bank_slope_score": 1.0,
    "bank_slope_source": "nc-dps-lidar-dem03-cross-section",
    "beach_dist_km": 253.43,
    "bridge_proximity_bonus": 0.0,
    "catchment_area_km2": 4.1798,
    "channel_width_m": 5.65,
    "channel_width_score": 1.0,
    "composite_score": 35.9443,
    "cso_density": 0.0,
    "ej_index": 0.373,
    "elevation_m": 177.5896,
    "estuary_dist_km": 347.95,
    "feasibility_score": 78.5714,
    "flood_q10_cfs": 546.47,
    "flow_score": 44.6744,
    "flow_velocity_ms": 0.5,
    "generation_score": 10.1114,
    "impact_score": 33.1886,
    "impervious_pct": null,
    "land_ownership": 0.5,
    "lat": 35.8059,
    "litter_complaint_density": 0.0,
    "lon": -79.7768,
    "navigable_dist_m": null,
    "npdes_points": 0,
    "pixel_col": 647.0,
    "pixel_row": 473.0,
    "population_density": 109.4,
    "position_along": 0.5,
    "protected_area_score": 10.9292,
    "rank": 9,
    "road_access_m": 139.0,
    "road_access_score": 1.0,
    "road_density_km_km2": 1.999,
    "robustness_pct": 0.0,
    "runoff_coeff_C": null,
    "seasonal_cv": null,
    "segment_id": 4,
    "segment_length_m": 5188.8853,
    "stream_order": 3,
    "superfund_score": 0.0202,
    "tourism_amenity_density": 0.0,
    "tri_facility_density": 0.0,
    "usgs_mean_q_cfs": null,
    "velocity_feasibility": 1.0,
    "water_intake_score": 1.7992
   },
   "type": "Feature"
  },
  {
   "geometry": {
    "coordinates": [
     -79.778488,
     35.819343
    ],
    "type": "Point"
   },
   "properties": {
    "accumulation": 24010.0,
    "bank_slope_deg": 1.05,
    "bank_slope_score": 1.0,
    "bank_slope_source": "nc-dps-lidar-dem03-cross-section",
    "beach_dist_km": 254.58,
    "bridge_proximity_bonus": 0.0,
    "catchment_area_km2": 2.3967,
    "channel_width_m": 4.48,
    "channel_width_score": 1.0,
    "composite_score": 35.5731,
    "cso_density": 0.0,
    "ej_index": 0.3756,
    "elevation_m": 187.1259,
    "estuary_dist_km": 348.44,
    "feasibility_score": 82.1429,
    "flood_q10_cfs": 359.37,
    "flow_score": 40.8511,
    "flow_velocity_ms": 0.5,
    "generation_score": 13.9381,
    "impact_score": 29.5249,
    "impervious_pct": null,
    "land_ownership": 1.0,
    "lat": 35.8193,
    "litter_complaint_density": 0.0,
    "lon": -79.7785,
    "navigable_dist_m": null,
    "npdes_points": 0,
    "pixel_col": 630.0,
    "pixel_row": 324.0,
    "population_density": 147.8,
    "position_along": 0.1667,
    "protected_area_score": 10.9193,
    "rank": 10,
    "road_access_m": 393.0,
    "road_access_score": 0.8,
    "road_density_km_km2": 2.343,
    "robustness_pct": 1.0,
    "runoff_coeff_C": null,
    "seasonal_cv": null,
    "segment_id": 4,
    "segment_length_m": 5188.8853,
    "stream_order": 3,
    "superfund_score": 0.014,
    "tourism_amenity_density": 0.0796,
    "tri_facility_density": 0.0,
    "usgs_mean_q_cfs": null,
    "velocity_feasibility": 1.0,
    "water_intake_score": 1.7801
   },
   "type": "Feature"
  },
  {
   "geometry": {
    "coordinates": [
     -79.832407,
     35.787192
    ],
    "type": "Point"
   },
   "properties": {
    "accumulation": 33285.0,
    "bank_slope_deg": 19.62,
    "bank_slope_score": 0.5,
    "bank_slope_source": "nc-dps-lidar-dem03-cross-section",
    "beach_dist_km": 255.66,
    "bridge_proximity_bonus": 0.0,
    "catchment_area_km2": 3.3225,
    "channel_width_m": 5.14,
    "channel_width_score": 1.0,
    "composite_score": 34.4902,
    "cso_density": 0.0,
    "ej_index": 0.2801,
    "elevation_m": 186.6075,
    "estuary_dist_km": 352.39,
    "feasibility_score": 34.1837,
    "flood_q10_cfs": 527.53,
    "flow_score": 30.9647,
    "flow_velocity_ms": 0.1264,
    "generation_score": 25.6399,
    "impact_score": 46.4315,
    "impervious_pct": 7.87,
    "land_ownership": 0.5,
    "lat": 35.7872,
    "litter_complaint_density": 0.0,
    "lon": -79.8324,
    "navigable_dist_m": null,
    "npdes_points": 0,
    "pixel_col": 145.0,
    "pixel_row": 687.0,
    "population_density": 87.7,
    "position_along": 0.5,
    "protected_area_score": 11.2841,
    "rank": 11,
    "road_access_m": 337.3,
    "road_access_score": 0.8,
    "road_density_km_km2": 1.75,
    "robustness_pct": 0.0,
    "runoff_coeff_C": 0.1208,
    "seasonal_cv": 0.3937,
    "segment_id": 10,
    "segment_length_m": 1124.6691,
    "stream_order": 1,
    "superfund_score": 0.1214,
    "tourism_amenity_density": 0.0,
    "tri_facility_density": 0.0,
    "usgs_mean_q_cfs": 2.616,
    "velocity_feasibility": 0.7,
    "water_intake_score": 2.1207
   },
   "type": "Feature"
  },
  {
   "geometry": {
    "coordinates": [
     -79.771441,
     35.78645
    ],
    "type": "Point"
   },
   "properties": {
    "accumulation": 118244.0,
    "bank_slope_deg": 11.55,
    "bank_slope_score": 1.0,
    "bank_slope_source": "nc-dps-lidar-dem03-cross-section",
    "beach_dist_km": 251.59,
    "bridge_proximity_bonus": 0.0,
    "catchment_area_km2": 11.8031,
    "channel_width_m": 8.69,
    "channel_width_score": 1.0,
    "composite_score": 32.8308,
    "cso_density": 0.0,
    "ej_index": 0.3694,
    "elevation_m": 172.4393,
    "estuary_dist_km": 347.0,
    "feasibility_score": 42.8571,
    "flood_q10_cfs": 1121.24,
    "flow_score": 58.4518,
    "flow_velocity_ms": 0.5,
    "generation_score": 2.7348,
    "impact_score": 36.5626,
    "impervious_pct": null,
    "land_ownership": 0.5,
    "lat": 35.7864,
    "litter_complaint_density": 0.0,
    "lon": -79.7714,
    "navigable_dist_m": null,
    "npdes_points": 0,
    "pixel_col": 697.0,
    "pixel_row": 689.0,
    "population_density": 61.7,
    "position_along": 0.5,
    "protected_area_score": 10.8034,
    "rank": 12,
    "road_access_m": 907.3,
    "road_access_score": 0.6,
    "road_density_km_km2": 0.568,
    "robustness_pct": 0.0,
    "runoff_coeff_C": null,
    "seasonal_cv": null,
    "segment_id": 9,
    "segment_length_m": 679.092,
    "stream_order": 3,
    "superfund_score": 0.0259,
    "tourism_amenity_density": 0.0,
    "tri_facility_density": 0.0,
    "usgs_mean_q_cfs": null,
    "velocity_feasibility": 1.0,
    "water_intake_score": 1.8061
   },
   "type": "Feature"
  },
  {
   "geometry": {
    "coordinates": [
     -79.804668,
     35.833946
    ],
    "type": "Point"
   },
   "properties": {
    "accumulation": 20203.0,
    "bank_slope_deg": 2.29,
    "bank_slope_score": 1.0,
    "bank_slope_source": "nc-dps-lidar-dem03-cross-section",
    "beach_dist_km": 257.41,
    "bridge_proximity_bonus": 0.0,
    "catchment_area_km2": 2.0167,
    "channel_width_m": 4.17,
    "channel_width_score": 1.0,
    "composite_score": 31.6558,
    "cso_density": 0.0,
    "ej_index": 0.6836,
    "elevation_m": 186.0311,
    "estuary_dist_km": 351.11,
    "feasibility_score": 32.1429,
    "flood_q10_cfs": 343.35,
    "flow_score": 14.4096,
    "flow_velocity_ms": 0.0343,
    "generation_score": 30.5547,
    "impact_score": 46.8852,
    "impervious_pct": 4.83,
    "land_ownership": 0.5,
    "lat": 35.8339,
    "litter_complaint_density": 0.0,
    "lon": -79.8047,
    "navigable_dist_m": null,
    "npdes_points": 1,
    "pixel_col": 388.0,
    "pixel_row": 165.0,
    "population_density": 146.2,
    "position_along": 0.5,
    "protected_area_score": 11.1165,
    "rank": 13,
    "road_access_m": 242.6,
    "road_access_score": 0.8,
    "road_density_km_km2": 2.009,
    "robustness_pct": 0.0,
    "runoff_coeff_C": 0.0935,
    "seasonal_cv": 0.3899,
    "segment_id": 2,
    "segment_length_m": 58.2316,
    "stream_order": 1,
    "superfund_score": 0.0116,
    "tourism_amenity_density": 0.7162,
    "tri_facility_density": 0.0,
    "usgs_mean_q_cfs": 1.337,
    "velocity_feasibility": 0.3,
    "water_intake_score": 1.9274
   },
   "type": "Feature"
  },
  {
   "geometry": {
    "coordinates": [
     -79.824102,
     35.844187
    ],
    "type": "Point"
   },
   "properties": {
    "accumulation": 29444.0,
    "bank_slope_deg": 0.0,
    "bank_slope_score": 1.0,
    "bank_slope_source": "nc-dps-lidar-dem03-cross-section",
    "beach_dist_km": 259.46,
    "bridge_proximity_bonus": 0.0,
    "catchment_area_km2": 2.9391,
    "channel_width_m": 4.88,
    "channel_width_score": 1.0,
    "composite_score": 31.3047,
    "cso_density": 0.0,
    "ej_index": 0.5289,
    "elevation_m": 188.5987,
    "estuary_dist_km": 353.07,
    "feasibility_score": 42.8571,
    "flood_q10_cfs": 419.09,
    "flow_score": 42.0461,
    "flow_velocity_ms": 0.5,
    "generation_score": 3.8196,
    "impact_score": 44.0625,
    "impervious_pct": null,
    "land_ownership": 0.5,
    "lat": 35.8442,
    "litter_complaint_density": 0.0,
    "lon": -79.8241,
    "navigable_dist_m": null,
    "npdes_points": 0,
    "pixel_col": 214.0,
    "pixel_row": 53.0,
    "population_density": 95.4,
    "position_along": 0.375,
    "protected_area_score": 11.6398,
    "rank": 14,
    "road_access_m": 965.9,
    "road_access_score": 0.6,
    "road_density_km_km2": 0.0,
    "robustness_pct": 0.0,
    "runoff_coeff_C": null,
    "seasonal_cv": null,
    "segment_id": 3,
    "segment_length_m": 7449.7564,
    "stream_order": 3,
    "superfund_score": 0.0085,
    "tourism_amenity_density": 0.1592,
    "tri_facility_density": 0.0,
    "usgs_mean_q_cfs": null,
    "velocity_feasibility": 1.0,
    "water_intake_score": 2.0474
   },
   "type": "Feature"
  },
  {
   "geometry": {
    "coordinates": [
     -79.830106,
     35.847644
    ],
    "type": "Point"
   },
   "properties": {
    "accumulation": 20270.0,
    "bank_slope_deg": 0.0,
    "bank_slope_score": 1.0,
    "bank_slope_source": "nc-dps-lidar-dem03-cross-section",
    "beach_dist_km": 260.11,
    "bridge_proximity_bonus": 0.0,
    "catchment_area_km2": 2.0233,
    "channel_width_m": 4.18,
    "channel_width_score": 1.0,
    "composite_score": 28.5774,
    "cso_density": 0.0,
    "ej_index": 0.3844,
    "elevation_m": 188.7571,
    "estuary_dist_km": 353.69,
    "feasibility_score": 64.2857,
    "flood_q10_cfs": 316.31,
    "flow_score": 26.0063,
    "flow_velocity_ms": 0.5,
    "generation_score": 1.7459,
    "impact_score": 39.6975,
    "impervious_pct": null,
    "land_ownership": 1.0,
    "lat": 35.8476,
    "litter_complaint_density": 0.0,
    "lon": -79.8301,
    "navigable_dist_m": null,
    "npdes_points": 0,
    "pixel_col": 156.0,
    "pixel_row": 12.0,
    "population_density": 68.2,
    "position_along": 0.5,
    "protected_area_score": 11.8601,
    "rank": 15,
    "road_access_m": 817.0,
    "road_access_score": 0.6,
    "road_density_km_km2": 0.0,
    "robustness_pct": 0.0,
    "runoff_coeff_C": null,
    "seasonal_cv": null,
    "segment_id": 0,
    "segment_length_m": 195.3869,
    "stream_order": 1,
    "superfund_score": 0.0076,
    "tourism_amenity_density": 0.0,
    "tri_facility_density": 0.0,
    "usgs_mean_q_cfs": null,
    "velocity_feasibility": 1.0,
    "water_intake_score": 2.0764
   },
   "type": "Feature"
  },
  {
   "geometry": {
    "coordinates": [
     -79.771185,
     35.795734
    ],
    "type": "Point"
   },
   "properties": {
    "accumulation": 57176.0,
    "bank_slope_deg": 16.44,
    "bank_slope_score": 0.5,
    "bank_slope_source": "nc-dps-lidar-dem03-cross-section",
    "beach_dist_km": 252.28,
    "bridge_proximity_bonus": 0.0,
    "catchment_area_km2": 5.7073,
    "channel_width_m": 6.43,
    "channel_width_score": 1.0,
    "composite_score": 27.786,
    "cso_density": 0.0,
    "ej_index": 0.3694,
    "elevation_m": 172.5273,
    "estuary_dist_km": 347.21,
    "feasibility_score": 28.5714,
    "flood_q10_cfs": 691.05,
    "flow_score": 47.7705,
    "flow_velocity_ms": 0.5,
    "generation_score": 3.6682,
    "impact_score": 34.8573,
    "impervious_pct": null,
    "land_ownership": 0.5,
    "lat": 35.7957,
    "litter_complaint_density": 0.0,
    "lon": -79.7712,
    "navigable_dist_m": null,
    "npdes_points": 0,
    "pixel_col": 696.0,
    "pixel_row": 585.0,
    "population_density": 53.1,
    "position_along": 0.8333,
    "protected_area_score": 10.8816,
    "rank": 16,
    "road_access_m": 661.2,
    "road_access_score": 0.6,
    "road_density_km_km2": 1.176,
    "robustness_pct": 0.0,
    "runoff_coeff_C": null,
    "seasonal_cv": null,
    "segment_id": 4,
    "segment_length_m": 5188.8853,
    "stream_order": 3,
    "superfund_score": 0.0219,
    "tourism_amenity_density": 0.0,
    "tri_facility_density": 0.0,
    "usgs_mean_q_cfs": null,
    "velocity_feasibility": 1.0,
    "water_intake_score": 1.7846
   },
   "type": "Feature"
  },
  {
   "geometry": {
    "coordinates": [
     -79.774397,
     35.837218
    ],
    "type": "Point"
   },
   "properties": {
    "accumulation": 21535.0,
    "bank_slope_deg": 10.07,
    "bank_slope_score": 1.0,
    "bank_slope_source": "nc-dps-lidar-dem03-cross-section",
    "beach_dist_km": 255.7,
    "bridge_proximity_bonus": 0.0,
    "catchment_area_km2": 2.1496,
    "channel_width_m": 4.29,
    "channel_width_score": 1.0,
    "composite_score": 26.4468,
    "cso_density": 0.0,
    "ej_index": 0.4,
    "elevation_m": 194.4816,
    "estuary_dist_km": 348.53,
    "feasibility_score": 60.7143,
    "flood_q10_cfs": 331.08,
    "flow_score": 26.2944,
    "flow_velocity_ms": 0.5,
    "generation_score": 12.6347,
    "impact_score": 23.2522,
    "impervious_pct": null,
    "land_ownership": 0.5,
    "lat": 35.8372,
    "litter_complaint_density": 0.0,
    "lon": -79.7744,
    "navigable_dist_m": null,
    "npdes_points": 0,
    "pixel_col": 662.0,
    "pixel_row": 125.0,
    "population_density": 186.0,
    "position_along": 0.5,
    "protected_area_score": 10.7593,
    "rank": 17,
    "road_access_m": 384.6,
    "road_access_score": 0.8,
    "road_density_km_km2": 0.73,
    "robustness_pct": 0.0,
    "runoff_coeff_C": null,
    "seasonal_cv": null,
    "segment_id": 1,
    "segment_length_m": 593.0175,
    "stream_order": 1,
    "superfund_score": 0.008,
    "tourism_amenity_density": 0.0,
    "tri_facility_density": 0.0,
    "usgs_mean_q_cfs": null,
    "velocity_feasibility": 1.0,
    "water_intake_score": 1.7375
   },
   "type": "Feature"
  },
  {
   "geometry": {
    "coordinates": [
     -79.845065,
     35.78994
    ],
    "type": "Point"
   },
   "properties": {
    "accumulation": 24236.0,
    "bank_slope_deg": 19.29,
    "bank_slope_score": 0.5,
    "bank_slope_source": "nc-dps-lidar-dem03-cross-section",
    "beach_dist_km": 256.7,
    "bridge_proximity_bonus": 0.0,
    "catchment_area_km2": 2.4192,
    "channel_width_m": 4.5,
    "channel_width_score": 1.0,
    "composite_score": 22.9106,
    "cso_density": 0.0,
    "ej_index": 0.2475,
    "elevation_m": 188.2333,
    "estuary_dist_km": 353.57,
    "feasibility_score": 16.3265,
    "flood_q10_cfs": 403.03,
    "flow_score": 19.1188,
    "flow_velocity_ms": 0.1092,
    "generation_score": 14.2889,
    "impact_score": 37.9842,
    "impervious_pct": 6.15,
    "land_ownership": 0.5,
    "lat": 35.7899,
    "litter_complaint_density": 0.0,
    "lon": -79.8451,
    "navigable_dist_m": null,
    "npdes_points": 0,
    "pixel_col": 30.0,
    "pixel_row": 658.0,
    "population_density": 45.3,
    "position_along": 0.5,
    "protected_area_score": 11.3072,
    "rank": 18,
    "road_access_m": 672.0,
    "road_access_score": 0.6,
    "road_density_km_km2": 0.135,
    "robustness_pct": 0.0,
    "runoff_coeff_C": 0.1053,
    "seasonal_cv": 0.3895,
    "segment_id": 7,
    "segment_length_m": 1716.5606,
    "stream_order": 1,
    "superfund_score": 0.0498,
    "tourism_amenity_density": 0.0,
    "tri_facility_density": 0.0,
    "usgs_mean_q_cfs": 1.541,
    "velocity_feasibility": 0.7,
    "water_intake_score": 2.149
   },
   "type": "Feature"
  }
 ],
 "note": "GRIME region 'Randleman, NC' \u2014 real-data pipeline (DEM\u2192streams\u2192candidates\u2192stream mask (sites confined to \u00b1150 m of mapped OSM/NHD waterways)\u2192region-appropriate real parameters\u2192shipped scoring, math unchanged). Width curve: Bieger et al. 2015 JAWRA Table 3, Appalachian Highlands. Flood: SIR 2014-5030 HR1. NC Piedmont (DEQ physiography polygon)",
 "provenance": {
  "candidates_pre_gate": 18,
  "constant": [
   "bridge_proximity_bonus",
   "channel_width_score",
   "cso_density",
   "litter_complaint_density",
   "tri_facility_density"
  ],
  "gated_navigable": 0,
  "hard_gate_removed": 0,
  "n_parameters": 27,
  "parameters": {
   "bank_slope_score": {
    "kind": "real",
    "n_3dep_10m_fallback": 0,
    "n_nc_lidar_3_125ft": 18,
    "n_real": 18,
    "n_sites": 18,
    "source": "NC OneMap / NC DPS DEM03 statewide lidar-derived 3.125-ft (0.953 m) elevations (perpendicular 50 m transect; robust 5 m bank-rise metric); unavailable profiles use the region 10 m 3DEP DEM-gradient fallback",
    "source_mosaics": [
     "Randolph_Countywide_DEM03"
    ]
   },
   "beach_dist_km": {
    "kind": "real",
    "n_real": 18,
    "n_sites": 18,
    "source": "haversine to region ref: Wrightsville Beach (shipped NC reference)"
   },
   "bridge_proximity_bonus": {
    "kind": "real",
    "n_real": 18,
    "n_sites": 18,
    "source": "FHWA/BTS NBI (NTAD), 50 m proximity"
   },
   "catchment_area_km2": {
    "kind": "real",
    "n_real": 18,
    "n_sites": 18,
    "source": "DEM flow accumulation (pipeline)"
   },
   "channel_width_score": {
    "kind": "real",
    "n_real": 18,
    "n_sites": 18,
    "source": "Bieger 2015 AHI width curve on DEM drainage area \u2192 shipped width curve"
   },
   "cso_density": {
    "kind": "real",
    "n_real": 18,
    "n_sites": 18,
    "source": "EPA ECHO open CSO/TCS outfall PF coordinates states=NC, Cauchy proximity"
   },
   "ej_index": {
    "kind": "real",
    "n_real": 18,
    "n_sites": 18,
    "source": "Census ACS C17002+B03002 two-component demographic index, percentile-ranked within region"
   },
   "estuary_dist_km": {
    "kind": "real",
    "n_real": 18,
    "n_sites": 18,
    "source": "haversine to region ref: Pamlico Sound (shipped NC reference)"
   },
   "flood_q10_cfs": {
    "impervious_fallback_reason": "StreamCat imperviousness unavailable; the existing regression-input fallback of 0.0% impervious was used and is disclosed here",
    "kind": "real",
    "n_impervious_fallback": 11,
    "n_real": 18,
    "n_sites": 18,
    "source": "USGS SIR 2014-5030 Table 7 HR1 (NC Piedmont)"
   },
   "flow_velocity_ms": {
    "fallback_reason": "EROM/DEM continuity input unavailable; shipped 0.5 m/s default used",
    "kind": "real",
    "n_fallback": 11,
    "n_real": 7,
    "n_sites": 18,
    "source": "Manning (region DEM/D8) blended with EROM continuity (shipped M4 logic)"
   },
   "impervious_pct": {
    "fallback_reason": "NLDI/StreamCat did not return a snap-compatible catchment value; value remains null and is removed by constant-column handling",
    "kind": "real",
    "n_fallback": 11,
    "n_real": 7,
    "n_sites": 18,
    "source": "EPA StreamCat pctimp2019 (per NHDPlus watershed)"
   },
   "land_ownership": {
    "fallback_reason": "no containing parcel owner returned; shipped unknown ownership 0.5 used",
    "kind": "real",
    "n_fallback": 5,
    "n_real": 13,
    "n_sites": 18,
    "source": "NC OneMap statewide parcels (NC Parcels Transformer) ownname"
   },
   "litter_complaint_density": {
    "kind": "fallback",
    "n_real": 0,
    "n_sites": 18,
    "source": "no public machine-readable litter/illegal-dumping feed for this region"
   },
   "navigable_dist_m": {
    "kind": "real",
    "n_real": 18,
    "n_sites": 18,
    "source": "USACE/BTS NWN (NTAD): no navigable segment within this bbox (+2 km) \u2014 computed absence, gate passes all sites"
   },
   "npdes_points": {
    "kind": "real",
    "n_real": 18,
    "n_sites": 18,
    "source": "EPA ECHO active NPDES outfalls states=NC (types NPD/GPC/NGP; statuses ADC/EFF/EXP), per catchment"
   },
   "population_density": {
    "kind": "real",
    "n_real": 18,
    "n_sites": 18,
    "source": "Census ACS 2022 B01003 block groups (bbox, multi-county), area-weighted"
   },
   "protected_area_score": {
    "kind": "real",
    "n_real": 18,
    "n_sites": 18,
    "source": "USGS PAD-US 4.1 state GDB; states=NC; shipped designation-weighted proximity curve"
   },
   "road_access_score": {
    "kind": "real",
    "n_real": 18,
    "n_sites": 18,
    "source": "OSM drive network nearest-node distance"
   },
   "road_density_km_km2": {
    "kind": "real",
    "n_real": 18,
    "n_sites": 18,
    "source": "OSM drive network (osmnx, cached) clipped per catchment"
   },
   "runoff_coeff_C": {
    "fallback_reason": "source impervious_pct was unavailable; derived value remains null",
    "kind": "real",
    "n_fallback": 11,
    "n_real": 7,
    "n_sites": 18,
    "source": "derived from real impervious_pct (C=0.05+0.009*I)"
   },
   "seasonal_cv": {
    "fallback_reason": "NHDPlus monthly EROM was unavailable or failed the drainage-area snap guard; value remains null",
    "kind": "real",
    "n_fallback": 11,
    "n_real": 7,
    "n_sites": 18,
    "source": "CV of NHDPlus EROM monthly flows per COMID"
   },
   "stream_order": {
    "kind": "real",
    "n_real": 18,
    "n_sites": 18,
    "source": "DEM stream-network confluence heuristic (pipeline)"
   },
   "superfund_score": {
    "kind": "real",
    "n_real": 18,
    "n_sites": 18,
    "source": "EPA DataMap SEMS active sites states=NC (non-archived, georeferenced), shipped 500 m inverse-distance curve"
   },
   "tourism_amenity_density": {
    "kind": "real",
    "n_real": 18,
    "n_sites": 18,
    "source": "OSM leisure/tourism features per 2 km radius"
   },
   "tri_facility_density": {
    "kind": "real",
    "n_real": 18,
    "n_sites": 18,
    "source": "EPA DataMap TRI open facilities states=NC (preferred decimal or packed-DMS recovery), per catchment"
   },
   "usgs_mean_q_cfs": {
    "fallback_reason": "NHDPlus EROM was unavailable or failed the drainage-area snap guard; value remains null",
    "kind": "real",
    "n_fallback": 11,
    "n_real": 7,
    "n_sites": 18,
    "source": "NHDPlus EROM qe_ma per COMID (snap-guarded)"
   },
   "velocity_feasibility": {
    "fallback_reason": "derived from the shipped 0.5 m/s velocity fallback",
    "kind": "real",
    "n_fallback": 11,
    "n_real": 7,
    "n_sites": 18,
    "source": "shipped step curve on the computed velocity"
   },
   "velocity_transport_favorability": {
    "fallback_reason": "EROM/DEM continuity input unavailable; shipped 0.5 m/s default used",
    "kind": "derived",
    "n_fallback": 11,
    "n_real": 7,
    "n_sites": 18,
    "source": "scored form of flow_velocity_ms inside the Flow family \u2014 peaked Gaussian exp(-((v-0.9)/0.6)^2), model.json curves.velocity_transport_favorability; construct: transport/delivery favorability, deliberately distinct from velocity_feasibility (device operability)"
   },
   "water_intake_score": {
    "kind": "real",
    "n_real": 18,
    "n_sites": 18,
    "source": "NC OneMap / NC DEQ SWAP public water supply sources (source_typ='Surface Water'), shipped exp(-d/10km) curve"
   }
  },
  "stream_mask": {
   "buffer_m": 150.0,
   "pre_mask": 18,
   "removed": 0,
   "sources": [
    "osm-overpass (all waterway ways)",
    "usgs-nhdplus flowlines"
   ]
  },
  "varying": [
   "bank_slope_score",
   "beach_dist_km",
   "catchment_area_km2",
   "ej_index",
   "estuary_dist_km",
   "flood_q10_cfs",
   "flow_velocity_ms",
   "impervious_pct",
   "land_ownership",
   "npdes_points",
   "population_density",
   "protected_area_score",
   "road_access_score",
   "road_density_km_km2",
   "runoff_coeff_C",
   "seasonal_cv",
   "stream_order",
   "superfund_score",
   "tourism_amenity_density",
   "usgs_mean_q_cfs",
   "velocity_feasibility",
   "water_intake_score"
  ]
 },
 "region": {
  "bbox": [
   -79.8476,
   35.7835,
   -79.7677,
   35.8483
  ],
  "beach_ref": {
   "label": "Wrightsville Beach (shipped NC reference)",
   "lat": 34.21,
   "lon": -77.79
  },
  "center": [
   -79.807662,
   35.815921
  ],
  "estuary_ref": {
   "label": "Pamlico Sound (shipped NC reference)",
   "lat": 35.05,
   "lon": -76.05
  },
  "flood_method": "sir2014_hr1",
  "name": "Randleman, NC",
  "notes": "NC Piedmont (DEQ physiography polygon)",
  "slug": "randleman",
  "state": "NC",
  "utm_epsg": 32617,
  "width_curve": {
   "a": 3.12,
   "b": 0.415,
   "code": "AHI",
   "source": "Bieger et al. 2015 JAWRA Table 3, Appalachian Highlands"
  }
 },
 "type": "FeatureCollection"
}
