{
 "features": [
  {
   "geometry": {
    "coordinates": [
     -79.2053,
     34.570557
    ],
    "type": "Point"
   },
   "properties": {
    "accumulation": 45956.0,
    "bank_slope_deg": 0.2,
    "bank_slope_score": 1.0,
    "beach_dist_km": 135.91,
    "bridge_proximity_bonus": 0.0,
    "catchment_area_km2": 4.576,
    "channel_width_m": 3.86,
    "channel_width_score": 1.0,
    "composite_score": 62.5,
    "cso_density": 0.0,
    "ej_index": 0.4949,
    "elevation_m": 37.357,
    "estuary_dist_km": 292.95,
    "feasibility_score": 50.0,
    "flood_q10_cfs": null,
    "flow_score": 100.0,
    "flow_velocity_ms": 0.5,
    "generation_score": 100.0,
    "impact_score": 0.0,
    "impervious_pct": null,
    "land_ownership": 0.5,
    "lat": 34.5706,
    "litter_complaint_density": 0.0,
    "lon": -79.2053,
    "npdes_points": null,
    "pixel_col": 73.0,
    "pixel_row": 269.0,
    "population_density": 32.8,
    "position_along": 0.5,
    "protected_area_score": 0.0,
    "rank": 1,
    "river_name": null,
    "road_access_m": 732.5,
    "road_access_score": 0.6,
    "road_density_km_km2": 0.584,
    "robustness_pct": 100.0,
    "runoff_coeff_C": null,
    "seasonal_cv": null,
    "segment_id": 0,
    "segment_length_m": 1435.3295,
    "stream_order": 1,
    "superfund_score": 0.0,
    "tourism_amenity_density": 0.1592,
    "tri_facility_density": null,
    "usgs_mean_q_cfs": null,
    "velocity_feasibility": 1.0,
    "water_intake_score": 0.0
   },
   "type": "Feature"
  },
  {
   "geometry": {
    "coordinates": [
     -79.203148,
     34.564525
    ],
    "type": "Point"
   },
   "properties": {
    "accumulation": 26817.0,
    "bank_slope_deg": 0.56,
    "bank_slope_score": 1.0,
    "beach_dist_km": 135.53,
    "bridge_proximity_bonus": 0.0,
    "catchment_area_km2": 2.6702,
    "channel_width_m": 3.17,
    "channel_width_score": 1.0,
    "composite_score": 37.5,
    "cso_density": 0.0,
    "ej_index": 0.4949,
    "elevation_m": 37.0483,
    "estuary_dist_km": 292.89,
    "feasibility_score": 50.0,
    "flood_q10_cfs": null,
    "flow_score": 0.0,
    "flow_velocity_ms": 0.5,
    "generation_score": 0.0,
    "impact_score": 100.0,
    "impervious_pct": null,
    "land_ownership": 0.5,
    "lat": 34.5645,
    "litter_complaint_density": 0.0,
    "lon": -79.2031,
    "npdes_points": null,
    "pixel_col": 91.0,
    "pixel_row": 335.0,
    "population_density": 32.8,
    "position_along": 0.5,
    "protected_area_score": 0.0,
    "rank": 2,
    "river_name": null,
    "road_access_m": 907.7,
    "road_access_score": 0.6,
    "road_density_km_km2": 0.014,
    "robustness_pct": 100.0,
    "runoff_coeff_C": null,
    "seasonal_cv": null,
    "segment_id": 1,
    "segment_length_m": 1425.7663,
    "stream_order": 1,
    "superfund_score": 0.0,
    "tourism_amenity_density": 0.1592,
    "tri_facility_density": null,
    "usgs_mean_q_cfs": null,
    "velocity_feasibility": 1.0,
    "water_intake_score": 0.0
   },
   "type": "Feature"
  }
 ],
 "note": "GRIME region 'Raynham, NC' \u2014 real-data pipeline (DEM\u2192streams\u2192candidates\u2192region-appropriate real parameters\u2192shipped scoring, math unchanged). Width curve: Bieger et al. 2015 JAWRA Table 3, Atlantic Plain. Flood: not applicable here (documented fallback). NC Coastal Plain (SIR HR4 needs 24h-50y precip \u2014 not wired; flood fallback)",
 "provenance": {
  "candidates_pre_gate": 2,
  "constant": [
   "bank_slope_score",
   "bridge_proximity_bonus",
   "channel_width_score",
   "cso_density",
   "ej_index",
   "flood_q10_cfs",
   "flow_velocity_ms",
   "impervious_pct",
   "land_ownership",
   "litter_complaint_density",
   "npdes_points",
   "population_density",
   "protected_area_score",
   "road_access_score",
   "runoff_coeff_C",
   "seasonal_cv",
   "stream_order",
   "superfund_score",
   "tourism_amenity_density",
   "tri_facility_density",
   "usgs_mean_q_cfs",
   "velocity_feasibility",
   "water_intake_score"
  ],
  "hard_gate_removed": 0,
  "n_parameters": 27,
  "parameters": {
   "bank_slope_score": {
    "kind": "real",
    "n_real": 2,
    "n_sites": 2,
    "source": "region DEM gradient (3x3)"
   },
   "beach_dist_km": {
    "kind": "real",
    "n_real": 2,
    "n_sites": 2,
    "source": "haversine to region ref: Wrightsville Beach (shipped NC reference)"
   },
   "bridge_proximity_bonus": {
    "kind": "real",
    "n_real": 2,
    "n_sites": 2,
    "source": "FHWA/BTS NBI (NTAD), 50 m proximity"
   },
   "catchment_area_km2": {
    "kind": "real",
    "n_real": 2,
    "n_sites": 2,
    "source": "DEM flow accumulation (pipeline)"
   },
   "channel_width_score": {
    "kind": "real",
    "n_real": 2,
    "n_sites": 2,
    "source": "Bieger 2015 APL width curve on DEM drainage area \u2192 shipped width curve"
   },
   "cso_density": {
    "kind": "real",
    "n_real": 2,
    "n_sites": 2,
    "source": "EPA ECHO CSO inventory (national bulk), Cauchy proximity"
   },
   "ej_index": {
    "kind": "real",
    "n_real": 2,
    "n_sites": 2,
    "source": "Census ACS C17002+B03002 two-component demographic index, percentile-ranked within region"
   },
   "estuary_dist_km": {
    "kind": "real",
    "n_real": 2,
    "n_sites": 2,
    "source": "haversine to region ref: Pamlico Sound (shipped NC reference)"
   },
   "flood_q10_cfs": {
    "kind": "fallback",
    "n_real": 0,
    "n_sites": 2,
    "source": "flood regression not valid here (NC Coastal Plain (SIR HR4 needs 24h-50y precip \u2014 not wired; ...) \u2014 NaN, dropped by constant-column handling"
   },
   "flow_velocity_ms": {
    "kind": "real",
    "n_real": 0,
    "n_sites": 2,
    "source": "Manning (region DEM/D8) blended with EROM continuity (shipped M4 logic)"
   },
   "impervious_pct": {
    "kind": "real",
    "n_real": 0,
    "n_sites": 2,
    "source": "EPA StreamCat pctimp2019 (per NHDPlus watershed)"
   },
   "land_ownership": {
    "kind": "fallback",
    "n_real": 0,
    "n_sites": 2,
    "source": "no parcel integration for this region (Durham only) \u2014 unknown 0.5"
   },
   "litter_complaint_density": {
    "kind": "fallback",
    "n_real": 0,
    "n_sites": 2,
    "source": "no machine-readable 311/litter source for this region"
   },
   "npdes_points": {
    "kind": "real",
    "n_real": 0,
    "n_sites": 2,
    "source": "EPA ECHO NPDES outfalls (national bulk), per catchment"
   },
   "population_density": {
    "kind": "real",
    "n_real": 2,
    "n_sites": 2,
    "source": "Census ACS 2022 B01003 block groups (bbox, multi-county), area-weighted"
   },
   "protected_area_score": {
    "kind": "fallback",
    "n_real": 0,
    "n_sites": 2,
    "source": "PAD-US services unreachable; OSM proxy saturates \u2014 documented fallback"
   },
   "road_access_score": {
    "kind": "real",
    "n_real": 2,
    "n_sites": 2,
    "source": "OSM drive network nearest-node distance"
   },
   "road_density_km_km2": {
    "kind": "real",
    "n_real": 2,
    "n_sites": 2,
    "source": "OSM drive network (osmnx, cached) clipped per catchment"
   },
   "runoff_coeff_C": {
    "kind": "real",
    "n_real": 0,
    "n_sites": 2,
    "source": "derived from real impervious_pct (C=0.05+0.009*I)"
   },
   "seasonal_cv": {
    "kind": "real",
    "n_real": 0,
    "n_sites": 2,
    "source": "CV of NHDPlus EROM monthly flows per COMID"
   },
   "stream_order": {
    "kind": "real",
    "n_real": 2,
    "n_sites": 2,
    "source": "DEM stream-network confluence heuristic (pipeline)"
   },
   "superfund_score": {
    "kind": "fallback",
    "n_real": 0,
    "n_sites": 2,
    "source": "not wired (low weight; roadmap)"
   },
   "tourism_amenity_density": {
    "kind": "real",
    "n_real": 2,
    "n_sites": 2,
    "source": "OSM leisure/tourism features per 2 km radius"
   },
   "tri_facility_density": {
    "kind": "real",
    "n_real": 0,
    "n_sites": 2,
    "source": "EPA Envirofacts TRI state=NC (sign-fixed), per catchment"
   },
   "usgs_mean_q_cfs": {
    "kind": "real",
    "n_real": 0,
    "n_sites": 2,
    "source": "NHDPlus EROM qe_ma per COMID (snap-guarded)"
   },
   "velocity_feasibility": {
    "kind": "real",
    "n_real": 0,
    "n_sites": 2,
    "source": "shipped step curve on the computed velocity"
   },
   "water_intake_score": {
    "kind": "fallback",
    "n_real": 0,
    "n_sites": 2,
    "source": "no public surface-intake point layer (NC OneMap is wells-only and NC-only)"
   }
  },
  "varying": [
   "beach_dist_km",
   "catchment_area_km2",
   "estuary_dist_km",
   "road_density_km_km2"
  ]
 },
 "region": {
  "bbox": [
   -79.2127,
   34.5581,
   -79.169,
   34.5941
  ],
  "beach_ref": {
   "label": "Wrightsville Beach (shipped NC reference)",
   "lat": 34.21,
   "lon": -77.79
  },
  "center": [
   -79.190856,
   34.576089
  ],
  "estuary_ref": {
   "label": "Pamlico Sound (shipped NC reference)",
   "lat": 35.05,
   "lon": -76.05
  },
  "flood_method": "none",
  "name": "Raynham, NC",
  "notes": "NC Coastal Plain (SIR HR4 needs 24h-50y precip \u2014 not wired; flood fallback)",
  "slug": "raynham",
  "state": "NC",
  "utm_epsg": 32617,
  "width_curve": {
   "a": 2.22,
   "b": 0.363,
   "code": "APL",
   "source": "Bieger et al. 2015 JAWRA Table 3, Atlantic Plain"
  }
 },
 "streams": {
  "features": [
   {
    "geometry": {
     "coordinates": [
      [
       -79.247301,
       34.544247
      ],
      [
       -79.246718,
       34.542942
      ],
      [
       -79.246634,
       34.542324
      ],
      [
       -79.2463,
       34.541316
      ],
      [
       -79.246022,
       34.540103
      ],
      [
       -79.245854,
       34.538455
      ],
      [
       -79.245493,
       34.537539
      ],
      [
       -79.245353,
       34.536921
      ],
      [
       -79.245215,
       34.536738
      ],
      [
       -79.245131,
       34.536119
      ],
      [
       -79.244826,
       34.53541
      ],
      [
       -79.244687,
       34.535273
      ],
      [
       -79.244687,
       34.535021
      ],
      [
       -79.245156,
       34.534471
      ],
      [
       -79.245682,
       34.534287
      ],
      [
       -79.24712,
       34.534171
      ],
      [
       -79.247203,
       34.534102
      ],
      [
       -79.247674,
       34.534079
      ],
      [
       -79.24831,
       34.533804
      ],
      [
       -79.24878,
       34.53378
      ],
      [
       -79.249001,
       34.533665
      ],
      [
       -79.249056,
       34.533276
      ],
      [
       -79.247977,
       34.533163
      ],
      [
       -79.246981,
       34.533278
      ],
      [
       -79.244879,
       34.533944
      ],
      [
       -79.243689,
       34.534106
      ],
      [
       -79.243219,
       34.533946
      ],
      [
       -79.242692,
       34.533099
      ],
      [
       -79.24258,
       34.532573
      ],
      [
       -79.242275,
       34.531932
      ],
      [
       -79.241637,
       34.531108
      ],
      [
       -79.239643,
       34.529369
      ],
      [
       -79.238784,
       34.528844
      ],
      [
       -79.237677,
       34.528455
      ],
      [
       -79.235878,
       34.528113
      ],
      [
       -79.234688,
       34.527771
      ],
      [
       -79.234494,
       34.527634
      ],
      [
       -79.232139,
       34.525117
      ],
      [
       -79.230365,
       34.522302
      ],
      [
       -79.2292,
       34.520219
      ],
      [
       -79.227788,
       34.518778
      ],
      [
       -79.227372,
       34.517816
      ],
      [
       -79.226706,
       34.516924
      ],
      [
       -79.226152,
       34.515985
      ],
      [
       -79.226041,
       34.515596
      ],
      [
       -79.22593,
       34.515482
      ],
      [
       -79.225985,
       34.515298
      ],
      [
       -79.225653,
       34.514864
      ],
      [
       -79.22543,
       34.513833
      ],
      [
       -79.225292,
       34.513765
      ],
      [
       -79.225292,
       34.513627
      ],
      [
       -79.224876,
       34.512895
      ],
      [
       -79.223629,
       34.511339
      ],
      [
       -79.222936,
       34.510286
      ],
      [
       -79.222908,
       34.510057
      ],
      [
       -79.222548,
       34.509554
      ],
      [
       -79.222326,
       34.50889
      ],
      [
       -79.221994,
       34.508524
      ],
      [
       -79.221938,
       34.508272
      ],
      [
       -79.221744,
       34.508043
      ],
      [
       -79.221633,
       34.507608
      ],
      [
       -79.221522,
       34.507494
      ],
      [
       -79.221494,
       34.506967
      ],
      [
       -79.221632,
       34.506417
      ],
      [
       -79.221797,
       34.506188
      ],
      [
       -79.22177,
       34.506005
      ],
      [
       -79.222737,
       34.505592
      ],
      [
       -79.223456,
       34.505568
      ],
      [
       -79.224176,
       34.505659
      ],
      [
       -79.224646,
       34.505865
      ],
      [
       -79.225615,
       34.506551
      ],
      [
       -79.226557,
       34.507466
      ],
      [
       -79.22783,
       34.50829
      ],
      [
       -79.229852,
       34.510074
      ],
      [
       -79.230904,
       34.510875
      ],
      [
       -79.232177,
       34.511698
      ],
      [
       -79.232925,
       34.512087
      ],
      [
       -79.233921,
       34.512406
      ],
      [
       -79.235388,
       34.512634
      ],
      [
       -79.236826,
       34.512701
      ],
      [
       -79.237186,
       34.512793
      ],
      [
       -79.240452,
       34.514209
      ],
      [
       -79.241614,
       34.514506
      ],
      [
       -79.243747,
       34.516221
      ],
      [
       -79.244854,
       34.516816
      ],
      [
       -79.245712,
       34.517067
      ],
      [
       -79.24574,
       34.517181
      ],
      [
       -79.246737,
       34.517478
      ],
      [
       -79.248037,
       34.517728
      ],
      [
       -79.248397,
       34.517682
      ],
      [
       -79.248507,
       34.517522
      ]
     ],
     "type": "LineString"
    },
    "properties": {
     "length_km": 8.91,
     "n_sites": 0,
     "name": "Ashpole Swamp",
     "order": 2,
     "riverKey": "ashpole swamp",
     "source": "nhd",
     "waterway": "stream"
    },
    "type": "Feature"
   },
   {
    "geometry": {
     "coordinates": [
      [
       -79.23906,
       34.645349
      ],
      [
       -79.238383,
       34.645296
      ],
      [
       -79.237647,
       34.645001
      ],
      [
       -79.235841,
       34.644618
      ],
      [
       -79.233694,
       34.644311
      ],
      [
       -79.233298,
       34.644181
      ],
      [
       -79.233124,
       34.644032
      ],
      [
       -79.231108,
       34.640963
      ],
      [
       -79.222047,
       34.634474
      ],
      [
       -79.221695,
       34.633958
      ],
      [
       -79.220139,
       34.629666
      ],
      [
       -79.219787,
       34.629082
      ],
      [
       -79.214272,
       34.624737
      ],
      [
       -79.209354,
       34.623023
      ],
      [
       -79.209011,
       34.622987
      ],
      [
       -79.208705,
       34.623118
      ],
      [
       -79.205247,
       34.625631
      ],
      [
       -79.204449,
       34.625307
      ],
      [
       -79.194224,
       34.620414
      ],
      [
       -79.193229,
       34.620306
      ],
      [
       -79.188635,
       34.620571
      ],
      [
       -79.188471,
       34.62046
      ],
      [
       -79.186093,
       34.617481
      ],
      [
       -79.185889,
       34.617317
      ],
      [
       -79.185291,
       34.617267
      ],
      [
       -79.181829,
       34.617367
      ],
      [
       -79.173781,
       34.616794
      ],
      [
       -79.173457,
       34.616697
      ],
      [
       -79.166314,
       34.613673
      ],
      [
       -79.165925,
       34.613294
      ],
      [
       -79.162949,
       34.608598
      ],
      [
       -79.162618,
       34.608235
      ],
      [
       -79.151325,
       34.605075
      ],
      [
       -79.136831,
       34.603111
      ],
      [
       -79.131752,
       34.600567
      ],
      [
       -79.130975,
       34.600358
      ],
      [
       -79.127456,
       34.599914
      ],
      [
       -79.126217,
       34.599852
      ],
      [
       -79.118554,
       34.600569
      ],
      [
       -79.118255,
       34.600518
      ],
      [
       -79.117941,
       34.600328
      ],
      [
       -79.117111,
       34.599501
      ],
      [
       -79.116727,
       34.599229
      ],
      [
       -79.114999,
       34.599068
      ],
      [
       -79.10554,
       34.600632
      ],
      [
       -79.104689,
       34.602072
      ],
      [
       -79.104513,
       34.602942
      ],
      [
       -79.102766,
       34.605602
      ],
      [
       -79.102627,
       34.606193
      ],
      [
       -79.102369,
       34.608707
      ],
      [
       -79.102311,
       34.608841
      ],
      [
       -79.101613,
       34.60938
      ]
     ],
     "type": "LineString"
    },
    "properties": {
     "length_km": 15.6,
     "n_sites": 0,
     "name": "Back Swamp",
     "order": 2,
     "riverKey": "back swamp",
     "source": "osm",
     "waterway": "stream"
    },
    "type": "Feature"
   },
   {
    "geometry": {
     "coordinates": [
      [
       [
        -79.21684,
        34.622432
       ],
       [
        -79.212877,
        34.62102
       ],
       [
        -79.210936,
        34.619251
       ],
       [
        -79.208017,
        34.616844
       ],
       [
        -79.206887,
        34.616317
       ],
       [
        -79.201768,
        34.611739
       ],
       [
        -79.199654,
        34.609953
       ],
       [
        -79.199368,
        34.609887
       ],
       [
        -79.191724,
        34.609643
       ]
      ],
      [
       [
        -79.191504,
        34.609674
       ],
       [
        -79.189571,
        34.609613
       ],
       [
        -79.188535,
        34.608783
       ],
       [
        -79.188137,
        34.608651
       ],
       [
        -79.187773,
        34.608669
       ],
       [
        -79.18323,
        34.610283
       ],
       [
        -79.179355,
        34.608211
       ],
       [
        -79.174477,
        34.60544
       ],
       [
        -79.174165,
        34.605352
       ],
       [
        -79.162826,
        34.604839
       ],
       [
        -79.159655,
        34.606965
       ],
       [
        -79.159358,
        34.607295
       ]
      ]
     ],
     "type": "MultiLineString"
    },
    "properties": {
     "length_km": 6.15,
     "n_sites": 0,
     "name": "Little Back Swamp",
     "order": 2,
     "riverKey": "little back swamp",
     "source": "osm",
     "waterway": "ditch"
    },
    "type": "Feature"
   },
   {
    "geometry": {
     "coordinates": [
      [
       -79.164151,
       34.631498
      ],
      [
       -79.162959,
       34.631224
      ],
      [
       -79.162378,
       34.631315
      ],
      [
       -79.162322,
       34.631911
      ],
      [
       -79.162683,
       34.632071
      ],
      [
       -79.162766,
       34.632208
      ],
      [
       -79.162738,
       34.632414
      ],
      [
       -79.162239,
       34.632437
      ],
      [
       -79.161575,
       34.632163
      ],
      [
       -79.161491,
       34.631934
      ],
      [
       -79.161159,
       34.631797
      ],
      [
       -79.161214,
       34.631247
      ],
      [
       -79.160909,
       34.631064
      ],
      [
       -79.160909,
       34.630858
      ],
      [
       -79.161103,
       34.630652
      ],
      [
       -79.161075,
       34.629484
      ],
      [
       -79.160659,
       34.629301
      ],
      [
       -79.160549,
       34.629461
      ],
      [
       -79.16041,
       34.630079
      ],
      [
       -79.160078,
       34.630194
      ],
      [
       -79.159828,
       34.630057
      ],
      [
       -79.159745,
       34.62969
      ],
      [
       -79.159828,
       34.62937
      ],
      [
       -79.160161,
       34.629141
      ],
      [
       -79.160188,
       34.629026
      ],
      [
       -79.159939,
       34.628706
      ],
      [
       -79.160077,
       34.628454
      ],
      [
       -79.160105,
       34.62811
      ],
      [
       -79.160742,
       34.627858
      ],
      [
       -79.16077,
       34.627652
      ],
      [
       -79.160492,
       34.627377
      ],
      [
       -79.158997,
       34.627286
      ],
      [
       -79.158692,
       34.627446
      ],
      [
       -79.158415,
       34.627882
      ],
      [
       -79.157833,
       34.628019
      ],
      [
       -79.157528,
       34.627378
      ],
      [
       -79.157196,
       34.627355
      ],
      [
       -79.15678,
       34.627516
      ],
      [
       -79.156697,
       34.627241
      ],
      [
       -79.157639,
       34.626691
      ],
      [
       -79.157805,
       34.626531
      ],
      [
       -79.157833,
       34.626348
      ],
      [
       -79.1575,
       34.626142
      ],
      [
       -79.157029,
       34.626531
      ],
      [
       -79.15678,
       34.626623
      ],
      [
       -79.156669,
       34.626531
      ],
      [
       -79.156946,
       34.625981
      ],
      [
       -79.156918,
       34.625569
      ],
      [
       -79.15678,
       34.625478
      ],
      [
       -79.156032,
       34.625409
      ],
      [
       -79.155921,
       34.62534
      ],
      [
       -79.156004,
       34.625134
      ],
      [
       -79.156309,
       34.624814
      ],
      [
       -79.156309,
       34.624562
      ],
      [
       -79.155893,
       34.624447
      ],
      [
       -79.155589,
       34.624699
      ],
      [
       -79.155478,
       34.625157
      ],
      [
       -79.155146,
       34.625592
      ],
      [
       -79.155838,
       34.625867
      ],
      [
       -79.155783,
       34.626096
      ],
      [
       -79.155506,
       34.626142
      ],
      [
       -79.154924,
       34.625913
      ],
      [
       -79.154259,
       34.625845
      ],
      [
       -79.154176,
       34.625547
      ],
      [
       -79.153844,
       34.625616
      ],
      [
       -79.153595,
       34.625982
      ],
      [
       -79.153318,
       34.626097
      ],
      [
       -79.152514,
       34.625822
      ],
      [
       -79.150741,
       34.62612
      ],
      [
       -79.150575,
       34.62628
      ],
      [
       -79.150492,
       34.626647
      ],
      [
       -79.150298,
       34.626715
      ],
      [
       -79.150105,
       34.626624
      ],
      [
       -79.149772,
       34.626693
      ],
      [
       -79.149412,
       34.626899
      ],
      [
       -79.149384,
       34.627174
      ],
      [
       -79.149523,
       34.627357
      ],
      [
       -79.149495,
       34.627792
      ],
      [
       -79.149302,
       34.627906
      ],
      [
       -79.148941,
       34.627677
      ],
      [
       -79.148941,
       34.627426
      ],
      [
       -79.148581,
       34.626853
      ],
      [
       -79.148359,
       34.626968
      ],
      [
       -79.148249,
       34.62754
      ],
      [
       -79.148138,
       34.627632
      ],
      [
       -79.147639,
       34.6277
      ],
      [
       -79.146975,
       34.627449
      ],
      [
       -79.146337,
       34.627426
      ],
      [
       -79.146116,
       34.62722
      ],
      [
       -79.145479,
       34.626922
      ],
      [
       -79.145174,
       34.62651
      ],
      [
       -79.144094,
       34.626739
      ],
      [
       -79.143789,
       34.626533
      ],
      [
       -79.143761,
       34.626258
      ],
      [
       -79.143595,
       34.626052
      ],
      [
       -79.142792,
       34.6258
      ],
      [
       -79.142653,
       34.625549
      ],
      [
       -79.142487,
       34.624793
      ],
      [
       -79.142071,
       34.624679
      ],
      [
       -79.141905,
       34.624862
      ],
      [
       -79.141822,
       34.625182
      ],
      [
       -79.141822,
       34.62564
      ],
      [
       -79.140825,
       34.62603
      ],
      [
       -79.14052,
       34.625755
      ],
      [
       -79.140465,
       34.625412
      ],
      [
       -79.140714,
       34.624587
      ],
      [
       -79.14052,
       34.624427
      ],
      [
       -79.14016,
       34.62445
      ],
      [
       -79.139938,
       34.624358
      ],
      [
       -79.139938,
       34.623786
      ],
      [
       -79.139855,
       34.623603
      ],
      [
       -79.139495,
       34.623557
      ],
      [
       -79.139384,
       34.623648
      ],
      [
       -79.139274,
       34.624358
      ],
      [
       -79.138886,
       34.624587
      ],
      [
       -79.138609,
       34.624564
      ],
      [
       -79.138387,
       34.624381
      ],
      [
       -79.138276,
       34.624015
      ],
      [
       -79.138055,
       34.623786
      ],
      [
       -79.137805,
       34.62374
      ],
      [
       -79.137251,
       34.623923
      ],
      [
       -79.137168,
       34.623717
      ],
      [
       -79.137279,
       34.623557
      ],
      [
       -79.137805,
       34.623259
      ],
      [
       -79.137861,
       34.623122
      ],
      [
       -79.137556,
       34.622962
      ],
      [
       -79.136642,
       34.622916
      ],
      [
       -79.13642,
       34.622847
      ],
      [
       -79.135977,
       34.622321
      ],
      [
       -79.134842,
       34.622046
      ],
      [
       -79.134537,
       34.621771
      ],
      [
       -79.134094,
       34.621748
      ],
      [
       -79.133789,
       34.621611
      ],
      [
       -79.133733,
       34.621359
      ],
      [
       -79.13282,
       34.621451
      ],
      [
       -79.132653,
       34.621336
      ],
      [
       -79.132542,
       34.62026
      ],
      [
       -79.132349,
       34.620077
      ],
      [
       -79.132072,
       34.620168
      ],
      [
       -79.132016,
       34.620718
      ],
      [
       -79.131435,
       34.620901
      ],
      [
       -79.131296,
       34.620809
      ],
      [
       -79.131213,
       34.620397
      ],
      [
       -79.131102,
       34.620283
      ],
      [
       -79.130853,
       34.62026
      ],
      [
       -79.130576,
       34.620374
      ],
      [
       -79.13016,
       34.620374
      ],
      [
       -79.129856,
       34.620145
      ],
      [
       -79.128997,
       34.620054
      ],
      [
       -79.128637,
       34.619894
      ],
      [
       -79.128388,
       34.619619
      ],
      [
       -79.127834,
       34.61971
      ],
      [
       -79.127668,
       34.619573
      ],
      [
       -79.127612,
       34.619069
      ],
      [
       -79.127169,
       34.618726
      ],
      [
       -79.127003,
       34.618474
      ],
      [
       -79.125396,
       34.618039
      ],
      [
       -79.125064,
       34.617856
      ],
      [
       -79.124427,
       34.61726
      ],
      [
       -79.123624,
       34.617191
      ],
      [
       -79.123513,
       34.617123
      ],
      [
       -79.123458,
       34.616733
      ],
      [
       -79.123236,
       34.616504
      ],
      [
       -79.123264,
       34.616276
      ],
      [
       -79.123596,
       34.615863
      ],
      [
       -79.123873,
       34.615176
      ],
      [
       -79.12368,
       34.615039
      ],
      [
       -79.123347,
       34.615108
      ],
      [
       -79.122959,
       34.615405
      ],
      [
       -79.122572,
       34.615543
      ],
      [
       -79.122101,
       34.615337
      ],
      [
       -79.121768,
       34.615291
      ],
      [
       -79.12163,
       34.61552
      ],
      [
       -79.121325,
       34.61568
      ],
      [
       -79.121048,
       34.615703
      ],
      [
       -79.120855,
       34.615588
      ],
      [
       -79.120854,
       34.615451
      ],
      [
       -79.120605,
       34.615176
      ],
      [
       -79.12055,
       34.614901
      ],
      [
       -79.120771,
       34.614673
      ],
      [
       -79.120744,
       34.614421
      ],
      [
       -79.120356,
       34.614306
      ],
      [
       -79.119553,
       34.614443
      ],
      [
       -79.119304,
       34.614123
      ],
      [
       -79.118944,
       34.614008
      ],
      [
       -79.118888,
       34.613756
      ],
      [
       -79.119221,
       34.613436
      ],
      [
       -79.119193,
       34.613161
      ],
      [
       -79.118971,
       34.612955
      ],
      [
       -79.118362,
       34.612955
      ],
      [
       -79.118113,
       34.613069
      ],
      [
       -79.11814,
       34.613711
      ],
      [
       -79.117614,
       34.613985
      ],
      [
       -79.117503,
       34.614283
      ],
      [
       -79.117116,
       34.614306
      ],
      [
       -79.117005,
       34.6141
      ],
      [
       -79.11695,
       34.613367
      ],
      [
       -79.116728,
       34.613344
      ],
      [
       -79.116285,
       34.614306
      ],
      [
       -79.116035,
       34.614352
      ],
      [
       -79.115925,
       34.614237
      ],
      [
       -79.115952,
       34.613848
      ],
      [
       -79.116091,
       34.613527
      ],
      [
       -79.116147,
       34.613092
      ],
      [
       -79.116063,
       34.612932
      ],
      [
       -79.11562,
       34.612703
      ],
      [
       -79.11526,
       34.612657
      ],
      [
       -79.11454,
       34.612817
      ],
      [
       -79.114429,
       34.612726
      ],
      [
       -79.11443,
       34.612359
      ],
      [
       -79.11418,
       34.612313
      ],
      [
       -79.113848,
       34.612588
      ],
      [
       -79.113377,
       34.612703
      ],
      [
       -79.112795,
       34.612542
      ],
      [
       -79.112408,
       34.612313
      ],
      [
       -79.112269,
       34.611924
      ],
      [
       -79.112048,
       34.611947
      ],
      [
       -79.111632,
       34.612313
      ],
      [
       -79.110524,
       34.612633
      ],
      [
       -79.11022,
       34.612496
      ],
      [
       -79.11022,
       34.612313
      ],
      [
       -79.110386,
       34.612107
      ],
      [
       -79.111272,
       34.611786
      ],
      [
       -79.111328,
       34.611649
      ],
      [
       -79.111106,
       34.61142
      ],
      [
       -79.110774,
       34.611397
      ],
      [
       -79.109472,
       34.612061
      ],
      [
       -79.108946,
       34.612198
      ],
      [
       -79.108724,
       34.612106
      ],
      [
       -79.108808,
       34.611557
      ],
      [
       -79.108309,
       34.611351
      ],
      [
       -79.107949,
       34.611671
      ],
      [
       -79.107866,
       34.612152
      ],
      [
       -79.107534,
       34.612244
      ],
      [
       -79.107451,
       34.611763
      ],
      [
       -79.107367,
       34.611694
      ],
      [
       -79.107146,
       34.611694
      ],
      [
       -79.107007,
       34.611831
      ],
      [
       -79.106481,
       34.611854
      ],
      [
       -79.106398,
       34.611946
      ],
      [
       -79.10637,
       34.612495
      ],
      [
       -79.106093,
       34.612541
      ],
      [
       -79.105789,
       34.612427
      ],
      [
       -79.105484,
       34.612495
      ],
      [
       -79.105484,
       34.612747
      ],
      [
       -79.105096,
       34.612862
      ],
      [
       -79.10493,
       34.612724
      ],
      [
       -79.104902,
       34.612587
      ],
      [
       -79.105041,
       34.611442
      ],
      [
       -79.104848,
       34.610343
      ],
      [
       -79.103906,
       34.609587
      ],
      [
       -79.103906,
       34.60922
      ],
      [
       -79.103713,
       34.608991
      ],
      [
       -79.103463,
       34.608991
      ],
      [
       -79.10338,
       34.609083
      ],
      [
       -79.103435,
       34.60961
      ],
      [
       -79.103712,
       34.609999
      ],
      [
       -79.10374,
       34.610159
      ],
      [
       -79.103297,
       34.610274
      ],
      [
       -79.102687,
       34.610296
      ],
      [
       -79.102549,
       34.610159
      ],
      [
       -79.102771,
       34.609266
      ],
      [
       -79.102522,
       34.60922
      ],
      [
       -79.101995,
       34.609678
      ],
      [
       -79.101635,
       34.609792
      ],
      [
       -79.101524,
       34.609724
      ],
      [
       -79.101414,
       34.609403
      ]
     ],
     "type": "LineString"
    },
    "properties": {
     "length_km": 11.87,
     "n_sites": 0,
     "name": "Lumber River",
     "order": 4,
     "riverKey": "lumber river",
     "source": "nhd",
     "waterway": "river"
    },
    "type": "Feature"
   }
  ],
  "type": "FeatureCollection"
 },
 "type": "FeatureCollection"
}
