{
 "features": [
  {
   "geometry": {
    "coordinates": [
     -80.331686,
     35.272287
    ],
    "type": "Point"
   },
   "properties": {
    "accumulation": 155855.0,
    "bank_slope_deg": 8.08,
    "bank_slope_score": 1.0,
    "bank_slope_source": "nc-dps-lidar-dem03-cross-section",
    "beach_dist_km": 260.54,
    "bridge_proximity_bonus": 0.0,
    "catchment_area_km2": 15.5404,
    "channel_width_m": 9.74,
    "channel_width_score": 1.0,
    "composite_score": 58.5363,
    "cso_density": 0.0,
    "ej_index": 0.4363,
    "elevation_m": 144.0957,
    "estuary_dist_km": 389.98,
    "feasibility_score": 48.4694,
    "flood_q10_cfs": 1341.07,
    "flow_score": 73.8296,
    "flow_velocity_ms": 0.1613,
    "generation_score": 29.0329,
    "impact_score": 80.3287,
    "impervious_pct": 1.93,
    "land_ownership": 0.5,
    "lat": 35.2723,
    "litter_complaint_density": 0.0,
    "lon": -80.3317,
    "navigable_dist_m": null,
    "npdes_points": 0,
    "pixel_col": 625.0,
    "pixel_row": 264.0,
    "population_density": 59.0,
    "position_along": 0.75,
    "protected_area_score": 5.0149,
    "rank": 1,
    "road_access_m": 443.4,
    "road_access_score": 0.8,
    "road_density_km_km2": 1.213,
    "robustness_pct": 99.5,
    "runoff_coeff_C": 0.0674,
    "seasonal_cv": 0.4707,
    "segment_id": 2,
    "segment_length_m": 4023.7757,
    "stream_order": 3,
    "superfund_score": 0.0078,
    "tourism_amenity_density": 0.9549,
    "tri_facility_density": 0.0,
    "usgs_mean_q_cfs": 12.533,
    "velocity_feasibility": 0.7,
    "water_intake_score": 0.7905
   },
   "type": "Feature"
  },
  {
   "geometry": {
    "coordinates": [
     -80.330826,
     35.262752
    ],
    "type": "Point"
   },
   "properties": {
    "accumulation": 47206.0,
    "bank_slope_deg": 4.64,
    "bank_slope_score": 1.0,
    "bank_slope_source": "nc-dps-lidar-dem03-cross-section",
    "beach_dist_km": 260.0,
    "bridge_proximity_bonus": 0.0,
    "catchment_area_km2": 4.707,
    "channel_width_m": 5.93,
    "channel_width_score": 1.0,
    "composite_score": 48.6465,
    "cso_density": 0.0,
    "ej_index": 0.3724,
    "elevation_m": 144.4318,
    "estuary_dist_km": 389.86,
    "feasibility_score": 52.0408,
    "flood_q10_cfs": 616.12,
    "flow_score": 17.85,
    "flow_velocity_ms": 0.122,
    "generation_score": 47.3575,
    "impact_score": 73.9022,
    "impervious_pct": 1.74,
    "land_ownership": 1.0,
    "lat": 35.2628,
    "litter_complaint_density": 0.0,
    "lon": -80.3308,
    "navigable_dist_m": null,
    "npdes_points": 0,
    "pixel_col": 633.0,
    "pixel_row": 367.0,
    "population_density": 95.3,
    "position_along": 0.5,
    "protected_area_score": 4.9844,
    "rank": 2,
    "road_access_m": 613.7,
    "road_access_score": 0.6,
    "road_density_km_km2": 1.543,
    "robustness_pct": 83.0,
    "runoff_coeff_C": 0.0657,
    "seasonal_cv": 0.4502,
    "segment_id": 4,
    "segment_length_m": 2158.2444,
    "stream_order": 1,
    "superfund_score": 0.0057,
    "tourism_amenity_density": 0.9549,
    "tri_facility_density": 0.0,
    "usgs_mean_q_cfs": 2.7,
    "velocity_feasibility": 0.7,
    "water_intake_score": 0.7691
   },
   "type": "Feature"
  },
  {
   "geometry": {
    "coordinates": [
     -80.36038,
     35.243928
    ],
    "type": "Point"
   },
   "properties": {
    "accumulation": 52150.0,
    "bank_slope_deg": 5.31,
    "bank_slope_score": 1.0,
    "bank_slope_source": "nc-dps-lidar-dem03-cross-section",
    "beach_dist_km": 261.52,
    "bridge_proximity_bonus": 0.0,
    "catchment_area_km2": 5.1999,
    "channel_width_m": 6.18,
    "channel_width_score": 1.0,
    "composite_score": 48.6223,
    "cso_density": 0.0,
    "ej_index": 0.4942,
    "elevation_m": 165.6324,
    "estuary_dist_km": 392.47,
    "feasibility_score": 48.4694,
    "flood_q10_cfs": 664.73,
    "flow_score": 24.2568,
    "flow_velocity_ms": 0.1179,
    "generation_score": 70.9287,
    "impact_score": 46.6968,
    "impervious_pct": 1.79,
    "land_ownership": 0.5,
    "lat": 35.2439,
    "litter_complaint_density": 0.0,
    "lon": -80.3604,
    "navigable_dist_m": null,
    "npdes_points": 7,
    "pixel_col": 365.0,
    "pixel_row": 582.0,
    "population_density": 97.4,
    "position_along": 0.5,
    "protected_area_score": 4.8831,
    "rank": 3,
    "road_access_m": 333.8,
    "road_access_score": 0.8,
    "road_density_km_km2": 1.784,
    "robustness_pct": 81.0,
    "runoff_coeff_C": 0.0661,
    "seasonal_cv": 0.4697,
    "segment_id": 5,
    "segment_length_m": 2770.9102,
    "stream_order": 1,
    "superfund_score": 0.004,
    "tourism_amenity_density": 0.0,
    "tri_facility_density": 0.0,
    "usgs_mean_q_cfs": 6.036,
    "velocity_feasibility": 0.7,
    "water_intake_score": 0.6771
   },
   "type": "Feature"
  },
  {
   "geometry": {
    "coordinates": [
     -80.355045,
     35.291034
    ],
    "type": "Point"
   },
   "properties": {
    "accumulation": 72886.0,
    "bank_slope_deg": 9.3,
    "bank_slope_score": 1.0,
    "bank_slope_source": "nc-dps-lidar-dem03-cross-section",
    "beach_dist_km": 263.37,
    "bridge_proximity_bonus": 0.0,
    "catchment_area_km2": 7.2675,
    "channel_width_m": 7.11,
    "channel_width_score": 1.0,
    "composite_score": 46.3698,
    "cso_density": 0.0,
    "ej_index": 0.4316,
    "elevation_m": 168.7463,
    "estuary_dist_km": 392.19,
    "feasibility_score": 48.4694,
    "flood_q10_cfs": 857.58,
    "flow_score": 54.4062,
    "flow_velocity_ms": 0.1087,
    "generation_score": 26.3477,
    "impact_score": 58.645,
    "impervious_pct": 1.93,
    "land_ownership": 0.5,
    "lat": 35.291,
    "litter_complaint_density": 0.0,
    "lon": -80.355,
    "navigable_dist_m": null,
    "npdes_points": 0,
    "pixel_col": 411.0,
    "pixel_row": 57.0,
    "population_density": 49.4,
    "position_along": 0.8333,
    "protected_area_score": 4.6788,
    "rank": 4,
    "road_access_m": 232.1,
    "road_access_score": 0.8,
    "road_density_km_km2": 1.385,
    "robustness_pct": 71.5,
    "runoff_coeff_C": 0.0674,
    "seasonal_cv": 0.4707,
    "segment_id": 0,
    "segment_length_m": 5369.9374,
    "stream_order": 3,
    "superfund_score": 0.0302,
    "tourism_amenity_density": 0.0,
    "tri_facility_density": 0.0,
    "usgs_mean_q_cfs": 12.533,
    "velocity_feasibility": 0.7,
    "water_intake_score": 0.8084
   },
   "type": "Feature"
  },
  {
   "geometry": {
    "coordinates": [
     -80.344889,
     35.279905
    ],
    "type": "Point"
   },
   "properties": {
    "accumulation": 121961.0,
    "bank_slope_deg": 17.33,
    "bank_slope_score": 0.5,
    "bank_slope_source": "nc-dps-lidar-dem03-cross-section",
    "beach_dist_km": 261.99,
    "bridge_proximity_bonus": 0.0,
    "catchment_area_km2": 12.1608,
    "channel_width_m": 8.8,
    "channel_width_score": 1.0,
    "composite_score": 45.8534,
    "cso_density": 0.0,
    "ej_index": 0.4677,
    "elevation_m": 160.2841,
    "estuary_dist_km": 391.22,
    "feasibility_score": 0.0,
    "flood_q10_cfs": 1170.74,
    "flow_score": 64.1445,
    "flow_velocity_ms": 0.0491,
    "generation_score": 31.6959,
    "impact_score": 67.6949,
    "impervious_pct": 1.93,
    "land_ownership": 0.5,
    "lat": 35.2799,
    "litter_complaint_density": 0.0,
    "lon": -80.3449,
    "navigable_dist_m": null,
    "npdes_points": 0,
    "pixel_col": 503.0,
    "pixel_row": 182.0,
    "population_density": 48.7,
    "position_along": 0.25,
    "protected_area_score": 4.7021,
    "rank": 5,
    "road_access_m": 797.7,
    "road_access_score": 0.6,
    "road_density_km_km2": 1.977,
    "robustness_pct": 58.0,
    "runoff_coeff_C": 0.0674,
    "seasonal_cv": 0.4707,
    "segment_id": 2,
    "segment_length_m": 4023.7757,
    "stream_order": 3,
    "superfund_score": 0.0132,
    "tourism_amenity_density": 0.9549,
    "tri_facility_density": 0.0,
    "usgs_mean_q_cfs": 12.533,
    "velocity_feasibility": 0.3,
    "water_intake_score": 0.7843
   },
   "type": "Feature"
  },
  {
   "geometry": {
    "coordinates": [
     -80.363716,
     35.287356
    ],
    "type": "Point"
   },
   "properties": {
    "accumulation": 49402.0,
    "bank_slope_deg": 8.51,
    "bank_slope_score": 1.0,
    "bank_slope_source": "nc-dps-lidar-dem03-cross-section",
    "beach_dist_km": 263.89,
    "bridge_proximity_bonus": 0.0,
    "catchment_area_km2": 4.9259,
    "channel_width_m": 6.05,
    "channel_width_score": 1.0,
    "composite_score": 44.422,
    "cso_density": 0.0,
    "ej_index": 0.4951,
    "elevation_m": 181.2323,
    "estuary_dist_km": 392.96,
    "feasibility_score": 66.3265,
    "flood_q10_cfs": 631.27,
    "flow_score": 37.1204,
    "flow_velocity_ms": 0.1353,
    "generation_score": 30.5102,
    "impact_score": 53.4661,
    "impervious_pct": 1.17,
    "land_ownership": 0.5,
    "lat": 35.2874,
    "litter_complaint_density": 0.0,
    "lon": -80.3637,
    "navigable_dist_m": null,
    "npdes_points": 0,
    "pixel_col": 333.0,
    "pixel_row": 96.0,
    "population_density": 59.8,
    "position_along": 0.5,
    "protected_area_score": 4.618,
    "rank": 6,
    "road_access_m": 154.3,
    "road_access_score": 1.0,
    "road_density_km_km2": 1.835,
    "robustness_pct": 42.5,
    "runoff_coeff_C": 0.0605,
    "seasonal_cv": 0.4457,
    "segment_id": 0,
    "segment_length_m": 5369.9374,
    "stream_order": 3,
    "superfund_score": 0.0252,
    "tourism_amenity_density": 0.0,
    "tri_facility_density": 0.0,
    "usgs_mean_q_cfs": 5.498,
    "velocity_feasibility": 0.7,
    "water_intake_score": 0.7883
   },
   "type": "Feature"
  },
  {
   "geometry": {
    "coordinates": [
     -80.325829,
     35.241219
    ],
    "type": "Point"
   },
   "properties": {
    "accumulation": 21533.0,
    "bank_slope_deg": 7.89,
    "bank_slope_score": 1.0,
    "bank_slope_source": "nc-dps-lidar-dem03-cross-section",
    "beach_dist_km": 258.55,
    "bridge_proximity_bonus": 0.0,
    "catchment_area_km2": 2.1471,
    "channel_width_m": 4.28,
    "channel_width_score": 1.0,
    "composite_score": 42.3257,
    "cso_density": 0.0,
    "ej_index": 0.1596,
    "elevation_m": 134.9304,
    "estuary_dist_km": 389.32,
    "feasibility_score": 30.6122,
    "flood_q10_cfs": 362.55,
    "flow_score": 12.8793,
    "flow_velocity_ms": 0.0958,
    "generation_score": 63.3333,
    "impact_score": 51.7135,
    "impervious_pct": 5.24,
    "land_ownership": 0.5,
    "lat": 35.2412,
    "litter_complaint_density": 0.0,
    "lon": -80.3258,
    "navigable_dist_m": null,
    "npdes_points": 0,
    "pixel_col": 681.0,
    "pixel_row": 606.0,
    "population_density": 109.1,
    "position_along": 0.5,
    "protected_area_score": 4.9438,
    "rank": 7,
    "road_access_m": 658.1,
    "road_access_score": 0.6,
    "road_density_km_km2": 0.235,
    "robustness_pct": 25.5,
    "runoff_coeff_C": 0.0972,
    "seasonal_cv": 0.4602,
    "segment_id": 7,
    "segment_length_m": 396.4106,
    "stream_order": 1,
    "superfund_score": 0.0031,
    "tourism_amenity_density": 0.0796,
    "tri_facility_density": 0.0,
    "usgs_mean_q_cfs": 3.303,
    "velocity_feasibility": 0.7,
    "water_intake_score": 0.7411
   },
   "type": "Feature"
  },
  {
   "geometry": {
    "coordinates": [
     -80.391612,
     35.242783
    ],
    "type": "Point"
   },
   "properties": {
    "accumulation": 38284.0,
    "bank_slope_deg": 23.67,
    "bank_slope_score": 0.5,
    "bank_slope_source": "nc-dps-lidar-dem03-cross-section",
    "beach_dist_km": 264.03,
    "bridge_proximity_bonus": 0.0,
    "catchment_area_km2": 3.8173,
    "channel_width_m": 5.44,
    "channel_width_score": 1.0,
    "composite_score": 41.7738,
    "cso_density": 0.0,
    "ej_index": 0.5042,
    "elevation_m": 154.7637,
    "estuary_dist_km": 395.3,
    "feasibility_score": 34.1837,
    "flood_q10_cfs": 533.37,
    "flow_score": 32.1568,
    "flow_velocity_ms": 0.0945,
    "generation_score": 62.1792,
    "impact_score": 33.1776,
    "impervious_pct": 2.52,
    "land_ownership": 0.5,
    "lat": 35.2428,
    "litter_complaint_density": 0.0,
    "lon": -80.3916,
    "navigable_dist_m": null,
    "npdes_points": 5,
    "pixel_col": 81.0,
    "pixel_row": 596.0,
    "population_density": 77.6,
    "position_along": 0.5,
    "protected_area_score": 4.9468,
    "rank": 8,
    "road_access_m": 337.6,
    "road_access_score": 0.8,
    "road_density_km_km2": 1.915,
    "robustness_pct": 27.0,
    "runoff_coeff_C": 0.0727,
    "seasonal_cv": 0.4788,
    "segment_id": 6,
    "segment_length_m": 2186.7817,
    "stream_order": 1,
    "superfund_score": 0.0035,
    "tourism_amenity_density": 0.0,
    "tri_facility_density": 0.0,
    "usgs_mean_q_cfs": 13.26,
    "velocity_feasibility": 0.7,
    "water_intake_score": 0.6338
   },
   "type": "Feature"
  },
  {
   "geometry": {
    "coordinates": [
     -80.375409,
     35.291027
    ],
    "type": "Point"
   },
   "properties": {
    "accumulation": 36348.0,
    "bank_slope_deg": 4.06,
    "bank_slope_score": 1.0,
    "bank_slope_source": "nc-dps-lidar-dem03-cross-section",
    "beach_dist_km": 265.02,
    "bridge_proximity_bonus": 0.0,
    "catchment_area_km2": 3.6243,
    "channel_width_m": 5.32,
    "channel_width_score": 1.0,
    "composite_score": 40.3827,
    "cso_density": 0.0,
    "ej_index": 0.5,
    "elevation_m": 190.9436,
    "estuary_dist_km": 394.04,
    "feasibility_score": 48.4694,
    "flood_q10_cfs": 500.94,
    "flow_score": 32.5825,
    "flow_velocity_ms": 0.0983,
    "generation_score": 27.11,
    "impact_score": 56.1123,
    "impervious_pct": 1.17,
    "land_ownership": 0.5,
    "lat": 35.291,
    "litter_complaint_density": 0.0,
    "lon": -80.3754,
    "navigable_dist_m": null,
    "npdes_points": 0,
    "pixel_col": 226.0,
    "pixel_row": 60.0,
    "population_density": 63.8,
    "position_along": 0.1667,
    "protected_area_score": 4.7419,
    "rank": 9,
    "road_access_m": 323.7,
    "road_access_score": 0.8,
    "road_density_km_km2": 1.291,
    "robustness_pct": 0.0,
    "runoff_coeff_C": 0.0605,
    "seasonal_cv": 0.4457,
    "segment_id": 0,
    "segment_length_m": 5369.9374,
    "stream_order": 3,
    "superfund_score": 0.0292,
    "tourism_amenity_density": 0.0,
    "tri_facility_density": 0.0,
    "usgs_mean_q_cfs": 5.498,
    "velocity_feasibility": 0.7,
    "water_intake_score": 0.8008
   },
   "type": "Feature"
  },
  {
   "geometry": {
    "coordinates": [
     -80.351722,
     35.282425
    ],
    "type": "Point"
   },
   "properties": {
    "accumulation": 25312.0,
    "bank_slope_deg": 12.02,
    "bank_slope_score": 1.0,
    "bank_slope_source": "nc-dps-lidar-dem03-cross-section",
    "beach_dist_km": 262.67,
    "bridge_proximity_bonus": 0.0,
    "catchment_area_km2": 2.5239,
    "channel_width_m": 4.58,
    "channel_width_score": 1.0,
    "composite_score": 39.493,
    "cso_density": 0.0,
    "ej_index": 0.4776,
    "elevation_m": 167.9002,
    "estuary_dist_km": 391.85,
    "feasibility_score": 42.8571,
    "flood_q10_cfs": 373.65,
    "flow_score": 40.6652,
    "flow_velocity_ms": 0.5,
    "generation_score": 13.4041,
    "impact_score": 62.9231,
    "impervious_pct": null,
    "land_ownership": 0.5,
    "lat": 35.2824,
    "litter_complaint_density": 0.0,
    "lon": -80.3517,
    "navigable_dist_m": null,
    "npdes_points": 0,
    "pixel_col": 442.0,
    "pixel_row": 152.0,
    "population_density": 42.6,
    "position_along": 0.5,
    "protected_area_score": 4.5849,
    "rank": 10,
    "road_access_m": 548.1,
    "road_access_score": 0.6,
    "road_density_km_km2": 1.636,
    "robustness_pct": 12.0,
    "runoff_coeff_C": null,
    "seasonal_cv": null,
    "segment_id": 1,
    "segment_length_m": 1068.9897,
    "stream_order": 3,
    "superfund_score": 0.0167,
    "tourism_amenity_density": 0.9549,
    "tri_facility_density": 0.0,
    "usgs_mean_q_cfs": null,
    "velocity_feasibility": 1.0,
    "water_intake_score": 0.7837
   },
   "type": "Feature"
  },
  {
   "geometry": {
    "coordinates": [
     -80.396115,
     35.265803
    ],
    "type": "Point"
   },
   "properties": {
    "accumulation": 32501.0,
    "bank_slope_deg": 12.79,
    "bank_slope_score": 1.0,
    "bank_slope_source": "nc-dps-lidar-dem03-cross-section",
    "beach_dist_km": 265.49,
    "bridge_proximity_bonus": 0.0,
    "catchment_area_km2": 3.2407,
    "channel_width_m": 5.08,
    "channel_width_score": 1.0,
    "composite_score": 37.5247,
    "cso_density": 0.0,
    "ej_index": 0.5,
    "elevation_m": 172.8742,
    "estuary_dist_km": 395.8,
    "feasibility_score": 48.4694,
    "flood_q10_cfs": 471.45,
    "flow_score": 30.937,
    "flow_velocity_ms": 0.1129,
    "generation_score": 32.8275,
    "impact_score": 42.2393,
    "impervious_pct": 2.52,
    "land_ownership": 0.5,
    "lat": 35.2658,
    "litter_complaint_density": 0.0,
    "lon": -80.3961,
    "navigable_dist_m": null,
    "npdes_points": 0,
    "pixel_col": 35.0,
    "pixel_row": 341.0,
    "population_density": 63.8,
    "position_along": 0.5,
    "protected_area_score": 5.0904,
    "rank": 11,
    "road_access_m": 329.5,
    "road_access_score": 0.8,
    "road_density_km_km2": 0.991,
    "robustness_pct": 0.0,
    "runoff_coeff_C": 0.0727,
    "seasonal_cv": 0.4788,
    "segment_id": 3,
    "segment_length_m": 1318.3341,
    "stream_order": 1,
    "superfund_score": 0.0064,
    "tourism_amenity_density": 0.0,
    "tri_facility_density": 0.0,
    "usgs_mean_q_cfs": 13.26,
    "velocity_feasibility": 0.7,
    "water_intake_score": 0.6932
   },
   "type": "Feature"
  }
 ],
 "note": "GRIME region 'Red Cross, NC' \u2014 real-data pipeline (DEM\u2192streams\u2192candidates\u2192stream mask (sites confined to \u00b1150 m of mapped OSM/NHD waterways)\u2192region-appropriate real parameters\u2192shipped scoring, math unchanged). Width curve: Bieger et al. 2015 JAWRA Table 3, Appalachian Highlands. Flood: SIR 2014-5030 HR1. NC Piedmont (DEQ physiography polygon)",
 "provenance": {
  "candidates_pre_gate": 11,
  "constant": [
   "bridge_proximity_bonus",
   "channel_width_score",
   "cso_density",
   "litter_complaint_density",
   "tri_facility_density"
  ],
  "gated_navigable": 0,
  "hard_gate_removed": 0,
  "n_parameters": 27,
  "parameters": {
   "bank_slope_score": {
    "kind": "real",
    "n_3dep_10m_fallback": 0,
    "n_nc_lidar_3_125ft": 11,
    "n_real": 11,
    "n_sites": 11,
    "source": "NC OneMap / NC DPS DEM03 statewide lidar-derived 3.125-ft (0.953 m) elevations (perpendicular 50 m transect; robust 5 m bank-rise metric); unavailable profiles use the region 10 m 3DEP DEM-gradient fallback",
    "source_mosaics": [
     "Stanly_Ground_3ft"
    ]
   },
   "beach_dist_km": {
    "kind": "real",
    "n_real": 11,
    "n_sites": 11,
    "source": "haversine to region ref: Wrightsville Beach (shipped NC reference)"
   },
   "bridge_proximity_bonus": {
    "kind": "real",
    "n_real": 11,
    "n_sites": 11,
    "source": "FHWA/BTS NBI (NTAD), 50 m proximity"
   },
   "catchment_area_km2": {
    "kind": "real",
    "n_real": 11,
    "n_sites": 11,
    "source": "DEM flow accumulation (pipeline)"
   },
   "channel_width_score": {
    "kind": "real",
    "n_real": 11,
    "n_sites": 11,
    "source": "Bieger 2015 AHI width curve on DEM drainage area \u2192 shipped width curve"
   },
   "cso_density": {
    "kind": "real",
    "n_real": 11,
    "n_sites": 11,
    "source": "EPA ECHO open CSO/TCS outfall PF coordinates states=NC, Cauchy proximity"
   },
   "ej_index": {
    "kind": "real",
    "n_real": 11,
    "n_sites": 11,
    "source": "Census ACS C17002+B03002 two-component demographic index, percentile-ranked within region"
   },
   "estuary_dist_km": {
    "kind": "real",
    "n_real": 11,
    "n_sites": 11,
    "source": "haversine to region ref: Pamlico Sound (shipped NC reference)"
   },
   "flood_q10_cfs": {
    "impervious_fallback_reason": "StreamCat imperviousness unavailable; the existing regression-input fallback of 0.0% impervious was used and is disclosed here",
    "kind": "real",
    "n_impervious_fallback": 1,
    "n_real": 11,
    "n_sites": 11,
    "source": "USGS SIR 2014-5030 Table 7 HR1 (NC Piedmont)"
   },
   "flow_velocity_ms": {
    "fallback_reason": "EROM/DEM continuity input unavailable; shipped 0.5 m/s default used",
    "kind": "real",
    "n_fallback": 1,
    "n_real": 10,
    "n_sites": 11,
    "source": "Manning (region DEM/D8) blended with EROM continuity (shipped M4 logic)"
   },
   "impervious_pct": {
    "fallback_reason": "NLDI/StreamCat did not return a snap-compatible catchment value; value remains null and is removed by constant-column handling",
    "kind": "real",
    "n_fallback": 1,
    "n_real": 10,
    "n_sites": 11,
    "source": "EPA StreamCat pctimp2019 (per NHDPlus watershed)"
   },
   "land_ownership": {
    "kind": "real",
    "n_fallback": 0,
    "n_real": 11,
    "n_sites": 11,
    "source": "NC OneMap statewide parcels (NC Parcels Transformer) ownname"
   },
   "litter_complaint_density": {
    "kind": "fallback",
    "n_real": 0,
    "n_sites": 11,
    "source": "no public machine-readable litter/illegal-dumping feed for this region"
   },
   "navigable_dist_m": {
    "kind": "real",
    "n_real": 11,
    "n_sites": 11,
    "source": "USACE/BTS NWN (NTAD): no navigable segment within this bbox (+2 km) \u2014 computed absence, gate passes all sites"
   },
   "npdes_points": {
    "kind": "real",
    "n_real": 11,
    "n_sites": 11,
    "source": "EPA ECHO active NPDES outfalls states=NC (types NPD/GPC/NGP; statuses ADC/EFF/EXP), per catchment"
   },
   "population_density": {
    "kind": "real",
    "n_real": 11,
    "n_sites": 11,
    "source": "Census ACS 2022 B01003 block groups (bbox, multi-county), area-weighted"
   },
   "protected_area_score": {
    "kind": "real",
    "n_real": 11,
    "n_sites": 11,
    "source": "USGS PAD-US 4.1 state GDB; states=NC; shipped designation-weighted proximity curve"
   },
   "road_access_score": {
    "kind": "real",
    "n_real": 11,
    "n_sites": 11,
    "source": "OSM drive network nearest-node distance"
   },
   "road_density_km_km2": {
    "kind": "real",
    "n_real": 11,
    "n_sites": 11,
    "source": "OSM drive network (osmnx, cached) clipped per catchment"
   },
   "runoff_coeff_C": {
    "fallback_reason": "source impervious_pct was unavailable; derived value remains null",
    "kind": "real",
    "n_fallback": 1,
    "n_real": 10,
    "n_sites": 11,
    "source": "derived from real impervious_pct (C=0.05+0.009*I)"
   },
   "seasonal_cv": {
    "fallback_reason": "NHDPlus monthly EROM was unavailable or failed the drainage-area snap guard; value remains null",
    "kind": "real",
    "n_fallback": 1,
    "n_real": 10,
    "n_sites": 11,
    "source": "CV of NHDPlus EROM monthly flows per COMID"
   },
   "stream_order": {
    "kind": "real",
    "n_real": 11,
    "n_sites": 11,
    "source": "DEM stream-network confluence heuristic (pipeline)"
   },
   "superfund_score": {
    "kind": "real",
    "n_real": 11,
    "n_sites": 11,
    "source": "EPA DataMap SEMS active sites states=NC (non-archived, georeferenced), shipped 500 m inverse-distance curve"
   },
   "tourism_amenity_density": {
    "kind": "real",
    "n_real": 11,
    "n_sites": 11,
    "source": "OSM leisure/tourism features per 2 km radius"
   },
   "tri_facility_density": {
    "kind": "real",
    "n_real": 11,
    "n_sites": 11,
    "source": "EPA DataMap TRI open facilities states=NC (preferred decimal or packed-DMS recovery), per catchment"
   },
   "usgs_mean_q_cfs": {
    "fallback_reason": "NHDPlus EROM was unavailable or failed the drainage-area snap guard; value remains null",
    "kind": "real",
    "n_fallback": 1,
    "n_real": 10,
    "n_sites": 11,
    "source": "NHDPlus EROM qe_ma per COMID (snap-guarded)"
   },
   "velocity_feasibility": {
    "fallback_reason": "derived from the shipped 0.5 m/s velocity fallback",
    "kind": "real",
    "n_fallback": 1,
    "n_real": 10,
    "n_sites": 11,
    "source": "shipped step curve on the computed velocity"
   },
   "velocity_transport_favorability": {
    "fallback_reason": "EROM/DEM continuity input unavailable; shipped 0.5 m/s default used",
    "kind": "derived",
    "n_fallback": 1,
    "n_real": 10,
    "n_sites": 11,
    "source": "scored form of flow_velocity_ms inside the Flow family \u2014 peaked Gaussian exp(-((v-0.9)/0.6)^2), model.json curves.velocity_transport_favorability; construct: transport/delivery favorability, deliberately distinct from velocity_feasibility (device operability)"
   },
   "water_intake_score": {
    "kind": "real",
    "n_real": 11,
    "n_sites": 11,
    "source": "NC OneMap / NC DEQ SWAP public water supply sources (source_typ='Surface Water'), shipped exp(-d/10km) curve"
   }
  },
  "stream_mask": {
   "buffer_m": 150.0,
   "pre_mask": 11,
   "removed": 0,
   "sources": [
    "osm-overpass (all waterway ways)",
    "usgs-nhdplus flowlines"
   ]
  },
  "varying": [
   "bank_slope_score",
   "beach_dist_km",
   "catchment_area_km2",
   "ej_index",
   "estuary_dist_km",
   "flood_q10_cfs",
   "flow_velocity_ms",
   "impervious_pct",
   "land_ownership",
   "npdes_points",
   "population_density",
   "protected_area_score",
   "road_access_score",
   "road_density_km_km2",
   "runoff_coeff_C",
   "seasonal_cv",
   "stream_order",
   "superfund_score",
   "tourism_amenity_density",
   "usgs_mean_q_cfs",
   "velocity_feasibility",
   "water_intake_score"
  ]
 },
 "region": {
  "bbox": [
   -80.4,
   35.2344,
   -80.3246,
   35.296
  ],
  "beach_ref": {
   "label": "Wrightsville Beach (shipped NC reference)",
   "lat": 34.21,
   "lon": -77.79
  },
  "center": [
   -80.362301,
   35.265207
  ],
  "estuary_ref": {
   "label": "Pamlico Sound (shipped NC reference)",
   "lat": 35.05,
   "lon": -76.05
  },
  "flood_method": "sir2014_hr1",
  "name": "Red Cross, NC",
  "notes": "NC Piedmont (DEQ physiography polygon)",
  "slug": "red-cross",
  "state": "NC",
  "utm_epsg": 32617,
  "width_curve": {
   "a": 3.12,
   "b": 0.415,
   "code": "AHI",
   "source": "Bieger et al. 2015 JAWRA Table 3, Appalachian Highlands"
  }
 },
 "type": "FeatureCollection"
}
