{
 "features": [
  {
   "geometry": {
    "coordinates": [
     -79.156292,
     34.77962
    ],
    "type": "Point"
   },
   "properties": {
    "accumulation": 58787.0,
    "bank_slope_deg": 3.29,
    "bank_slope_score": 1.0,
    "bank_slope_source": "nc-dps-lidar-dem03-cross-section",
    "beach_dist_km": 140.32,
    "bridge_proximity_bonus": 0.0,
    "catchment_area_km2": 5.8649,
    "channel_width_m": 4.22,
    "channel_width_score": 1.0,
    "composite_score": 55.8707,
    "cso_density": 0.0,
    "ej_index": 0.779,
    "elevation_m": 53.8345,
    "estuary_dist_km": 284.81,
    "feasibility_score": 39.6825,
    "flood_q10_cfs": 279.74,
    "flow_score": 73.1727,
    "flow_velocity_ms": 0.105,
    "generation_score": 33.0543,
    "impact_score": 72.3629,
    "impervious_pct": 2.62,
    "land_ownership": 0.5,
    "lat": 34.7796,
    "litter_complaint_density": 0.0,
    "lon": -79.1563,
    "navigable_dist_m": null,
    "npdes_points": 0,
    "pixel_col": 573.0,
    "pixel_row": 628.0,
    "population_density": 49.0,
    "position_along": 0.5,
    "protected_area_score": 5.003,
    "rank": 1,
    "road_access_m": 373.9,
    "road_access_score": 0.8,
    "road_density_km_km2": 0.754,
    "robustness_pct": 99.5,
    "runoff_coeff_C": 0.0736,
    "seasonal_cv": 0.4113,
    "segment_id": 8,
    "segment_length_m": 1711.3725,
    "stream_order": 3,
    "superfund_score": 0.0095,
    "tourism_amenity_density": 0.0,
    "tri_facility_density": 0.0,
    "usgs_mean_q_cfs": 3.986,
    "velocity_feasibility": 0.7,
    "water_intake_score": 0.2311
   },
   "type": "Feature"
  },
  {
   "geometry": {
    "coordinates": [
     -79.14505,
     34.806942
    ],
    "type": "Point"
   },
   "properties": {
    "accumulation": 61369.0,
    "bank_slope_deg": 3.58,
    "bank_slope_score": 1.0,
    "bank_slope_source": "nc-dps-lidar-dem03-cross-section",
    "beach_dist_km": 140.79,
    "bridge_proximity_bonus": 0.0,
    "catchment_area_km2": 6.1225,
    "channel_width_m": 4.29,
    "channel_width_score": 1.0,
    "composite_score": 47.739,
    "cso_density": 0.0,
    "ej_index": 0.6365,
    "elevation_m": 51.2205,
    "estuary_dist_km": 283.44,
    "feasibility_score": 68.254,
    "flood_q10_cfs": 270.08,
    "flow_score": 70.9976,
    "flow_velocity_ms": 0.5,
    "generation_score": 8.9755,
    "impact_score": 56.8631,
    "impervious_pct": null,
    "land_ownership": 0.5,
    "lat": 34.8069,
    "litter_complaint_density": 0.0,
    "lon": -79.1451,
    "navigable_dist_m": null,
    "npdes_points": 0,
    "pixel_col": 671.0,
    "pixel_row": 321.0,
    "population_density": 68.5,
    "position_along": 0.5,
    "protected_area_score": 5.0956,
    "rank": 2,
    "road_access_m": 515.0,
    "road_access_score": 0.6,
    "road_density_km_km2": 0.852,
    "robustness_pct": 87.0,
    "runoff_coeff_C": null,
    "seasonal_cv": null,
    "segment_id": 4,
    "segment_length_m": 48.2277,
    "stream_order": 3,
    "superfund_score": 0.004,
    "tourism_amenity_density": 0.3183,
    "tri_facility_density": 0.0,
    "usgs_mean_q_cfs": null,
    "velocity_feasibility": 1.0,
    "water_intake_score": 0.2201
   },
   "type": "Feature"
  },
  {
   "geometry": {
    "coordinates": [
     -79.166014,
     34.782446
    ],
    "type": "Point"
   },
   "properties": {
    "accumulation": 20703.0,
    "bank_slope_deg": 4.9,
    "bank_slope_score": 1.0,
    "bank_slope_source": "nc-dps-lidar-dem03-cross-section",
    "beach_dist_km": 141.25,
    "bridge_proximity_bonus": 0.0,
    "catchment_area_km2": 2.0654,
    "channel_width_m": 2.89,
    "channel_width_score": 1.0,
    "composite_score": 46.6002,
    "cso_density": 0.0,
    "ej_index": 0.8008,
    "elevation_m": 56.1895,
    "estuary_dist_km": 285.66,
    "feasibility_score": 0.0,
    "flood_q10_cfs": 149.49,
    "flow_score": 43.0167,
    "flow_velocity_ms": 0.1134,
    "generation_score": 59.1193,
    "impact_score": 60.3676,
    "impervious_pct": 2.62,
    "land_ownership": 0.5,
    "lat": 34.7824,
    "litter_complaint_density": 0.0,
    "lon": -79.166,
    "navigable_dist_m": null,
    "npdes_points": 0,
    "pixel_col": 483.0,
    "pixel_row": 600.0,
    "population_density": 44.7,
    "position_along": 0.5,
    "protected_area_score": 4.9857,
    "rank": 3,
    "road_access_m": 1010.7,
    "road_access_score": 0.3,
    "road_density_km_km2": 0.794,
    "robustness_pct": 71.0,
    "runoff_coeff_C": 0.0736,
    "seasonal_cv": 0.4113,
    "segment_id": 7,
    "segment_length_m": 617.6813,
    "stream_order": 3,
    "superfund_score": 0.0076,
    "tourism_amenity_density": 0.0,
    "tri_facility_density": 0.4842,
    "usgs_mean_q_cfs": 3.986,
    "velocity_feasibility": 0.7,
    "water_intake_score": 0.2182
   },
   "type": "Feature"
  },
  {
   "geometry": {
    "coordinates": [
     -79.173251,
     34.817879
    ],
    "type": "Point"
   },
   "properties": {
    "accumulation": 33119.0,
    "bank_slope_deg": 1.78,
    "bank_slope_score": 1.0,
    "bank_slope_source": "nc-dps-lidar-dem03-cross-section",
    "beach_dist_km": 143.63,
    "bridge_proximity_bonus": 0.0,
    "catchment_area_km2": 3.3041,
    "channel_width_m": 3.43,
    "channel_width_score": 1.0,
    "composite_score": 46.0675,
    "cso_density": 0.0,
    "ej_index": 0.6052,
    "elevation_m": 53.5961,
    "estuary_dist_km": 285.87,
    "feasibility_score": 100.0,
    "flood_q10_cfs": 186.5,
    "flow_score": 35.8199,
    "flow_velocity_ms": 0.5,
    "generation_score": 31.1421,
    "impact_score": 42.5663,
    "impervious_pct": null,
    "land_ownership": 0.5,
    "lat": 34.8179,
    "litter_complaint_density": 0.0,
    "lon": -79.1733,
    "navigable_dist_m": null,
    "npdes_points": 0,
    "pixel_col": 410.0,
    "pixel_row": 206.0,
    "population_density": 97.0,
    "position_along": 0.5,
    "protected_area_score": 5.7691,
    "rank": 4,
    "road_access_m": 164.5,
    "road_access_score": 1.0,
    "road_density_km_km2": 5.881,
    "robustness_pct": 75.5,
    "runoff_coeff_C": null,
    "seasonal_cv": null,
    "segment_id": 0,
    "segment_length_m": 1244.9351,
    "stream_order": 1,
    "superfund_score": 0.0027,
    "tourism_amenity_density": 1.3528,
    "tri_facility_density": 0.0,
    "usgs_mean_q_cfs": null,
    "velocity_feasibility": 1.0,
    "water_intake_score": 0.19
   },
   "type": "Feature"
  },
  {
   "geometry": {
    "coordinates": [
     -79.151445,
     34.810482
    ],
    "type": "Point"
   },
   "properties": {
    "accumulation": 31951.0,
    "bank_slope_deg": 0.73,
    "bank_slope_score": 1.0,
    "bank_slope_source": "nc-dps-lidar-dem03-cross-section",
    "beach_dist_km": 141.49,
    "bridge_proximity_bonus": 0.0,
    "catchment_area_km2": 3.1876,
    "channel_width_m": 3.38,
    "channel_width_score": 1.0,
    "composite_score": 43.278,
    "cso_density": 0.0,
    "ej_index": 0.6362,
    "elevation_m": 51.6237,
    "estuary_dist_km": 283.98,
    "feasibility_score": 84.127,
    "flood_q10_cfs": 182.52,
    "flow_score": 48.89,
    "flow_velocity_ms": 0.5,
    "generation_score": 10.3497,
    "impact_score": 51.1052,
    "impervious_pct": null,
    "land_ownership": 0.5,
    "lat": 34.8105,
    "litter_complaint_density": 0.0,
    "lon": -79.1514,
    "navigable_dist_m": null,
    "npdes_points": 0,
    "pixel_col": 610.0,
    "pixel_row": 286.0,
    "population_density": 68.9,
    "position_along": 0.5,
    "protected_area_score": 5.2249,
    "rank": 5,
    "road_access_m": 397.0,
    "road_access_score": 0.8,
    "road_density_km_km2": 1.32,
    "robustness_pct": 53.5,
    "runoff_coeff_C": null,
    "seasonal_cv": null,
    "segment_id": 3,
    "segment_length_m": 1701.0902,
    "stream_order": 3,
    "superfund_score": 0.0036,
    "tourism_amenity_density": 0.3183,
    "tri_facility_density": 0.0,
    "usgs_mean_q_cfs": null,
    "velocity_feasibility": 1.0,
    "water_intake_score": 0.2119
   },
   "type": "Feature"
  },
  {
   "geometry": {
    "coordinates": [
     -79.145597,
     34.81121
    ],
    "type": "Point"
   },
   "properties": {
    "accumulation": 22861.0,
    "bank_slope_deg": 5.78,
    "bank_slope_score": 1.0,
    "bank_slope_source": "nc-dps-lidar-dem03-cross-section",
    "beach_dist_km": 141.06,
    "bridge_proximity_bonus": 0.0,
    "catchment_area_km2": 2.2807,
    "channel_width_m": 2.99,
    "channel_width_score": 1.0,
    "composite_score": 42.395,
    "cso_density": 0.0,
    "ej_index": 0.6402,
    "elevation_m": 52.6535,
    "estuary_dist_km": 283.44,
    "feasibility_score": 55.5556,
    "flood_q10_cfs": 156.21,
    "flow_score": 31.9558,
    "flow_velocity_ms": 0.1295,
    "generation_score": 30.3632,
    "impact_score": 56.546,
    "impervious_pct": 1.95,
    "land_ownership": 0.5,
    "lat": 34.8112,
    "litter_complaint_density": 0.0,
    "lon": -79.1456,
    "navigable_dist_m": null,
    "npdes_points": 0,
    "pixel_col": 665.0,
    "pixel_row": 277.0,
    "population_density": 64.1,
    "position_along": 0.5,
    "protected_area_score": 5.2434,
    "rank": 6,
    "road_access_m": 108.4,
    "road_access_score": 1.0,
    "road_density_km_km2": 0.919,
    "robustness_pct": 53.0,
    "runoff_coeff_C": 0.0675,
    "seasonal_cv": 0.3965,
    "segment_id": 1,
    "segment_length_m": 1470.2342,
    "stream_order": 3,
    "superfund_score": 0.0035,
    "tourism_amenity_density": 0.3183,
    "tri_facility_density": 0.0,
    "usgs_mean_q_cfs": 1.629,
    "velocity_feasibility": 0.7,
    "water_intake_score": 0.2167
   },
   "type": "Feature"
  },
  {
   "geometry": {
    "coordinates": [
     -79.171657,
     34.781203
    ],
    "type": "Point"
   },
   "properties": {
    "accumulation": 28677.0,
    "bank_slope_deg": 2.87,
    "bank_slope_score": 1.0,
    "bank_slope_source": "nc-dps-lidar-dem03-cross-section",
    "beach_dist_km": 141.66,
    "bridge_proximity_bonus": 0.0,
    "catchment_area_km2": 2.861,
    "channel_width_m": 3.25,
    "channel_width_score": 1.0,
    "composite_score": 42.226,
    "cso_density": 0.0,
    "ej_index": 0.7518,
    "elevation_m": 56.0956,
    "estuary_dist_km": 286.18,
    "feasibility_score": 0.0,
    "flood_q10_cfs": 181.79,
    "flow_score": 49.3653,
    "flow_velocity_ms": 0.0924,
    "generation_score": 51.152,
    "impact_score": 48.4635,
    "impervious_pct": 2.62,
    "land_ownership": 0.5,
    "lat": 34.7812,
    "litter_complaint_density": 0.0,
    "lon": -79.1717,
    "navigable_dist_m": null,
    "npdes_points": 0,
    "pixel_col": 432.0,
    "pixel_row": 612.0,
    "population_density": 46.3,
    "position_along": 0.5,
    "protected_area_score": 4.7873,
    "rank": 7,
    "road_access_m": 1206.2,
    "road_access_score": 0.3,
    "road_density_km_km2": 0.469,
    "robustness_pct": 54.0,
    "runoff_coeff_C": 0.0736,
    "seasonal_cv": 0.4113,
    "segment_id": 6,
    "segment_length_m": 1655.8742,
    "stream_order": 3,
    "superfund_score": 0.0073,
    "tourism_amenity_density": 0.0,
    "tri_facility_density": 0.3495,
    "usgs_mean_q_cfs": 3.986,
    "velocity_feasibility": 0.7,
    "water_intake_score": 0.2134
   },
   "type": "Feature"
  },
  {
   "geometry": {
    "coordinates": [
     -79.198808,
     34.790073
    ],
    "type": "Point"
   },
   "properties": {
    "accumulation": 37448.0,
    "bank_slope_deg": 1.91,
    "bank_slope_score": 1.0,
    "bank_slope_source": "nc-dps-lidar-dem03-cross-section",
    "beach_dist_km": 144.32,
    "bridge_proximity_bonus": 0.0,
    "catchment_area_km2": 3.736,
    "channel_width_m": 3.58,
    "channel_width_score": 1.0,
    "composite_score": 36.6453,
    "cso_density": 0.0,
    "ej_index": 0.7345,
    "elevation_m": 54.4135,
    "estuary_dist_km": 288.53,
    "feasibility_score": 68.254,
    "flood_q10_cfs": 200.77,
    "flow_score": 39.217,
    "flow_velocity_ms": 0.5,
    "generation_score": 30.3945,
    "impact_score": 24.9488,
    "impervious_pct": null,
    "land_ownership": 0.5,
    "lat": 34.7901,
    "litter_complaint_density": 0.0,
    "lon": -79.1988,
    "navigable_dist_m": null,
    "npdes_points": 0,
    "pixel_col": 182.0,
    "pixel_row": 520.0,
    "population_density": 133.9,
    "position_along": 0.5,
    "protected_area_score": 5.2372,
    "rank": 8,
    "road_access_m": 743.7,
    "road_access_score": 0.6,
    "road_density_km_km2": 1.384,
    "robustness_pct": 6.0,
    "runoff_coeff_C": null,
    "seasonal_cv": null,
    "segment_id": 5,
    "segment_length_m": 814.0194,
    "stream_order": 1,
    "superfund_score": 0.0038,
    "tourism_amenity_density": 0.3979,
    "tri_facility_density": 0.0,
    "usgs_mean_q_cfs": null,
    "velocity_feasibility": 1.0,
    "water_intake_score": 0.1831
   },
   "type": "Feature"
  },
  {
   "geometry": {
    "coordinates": [
     -79.188541,
     34.778303
    ],
    "type": "Point"
   },
   "properties": {
    "accumulation": 21736.0,
    "bank_slope_deg": 1.45,
    "bank_slope_score": 1.0,
    "bank_slope_source": "nc-dps-lidar-dem03-cross-section",
    "beach_dist_km": 142.9,
    "bridge_proximity_bonus": 0.0,
    "catchment_area_km2": 2.1685,
    "channel_width_m": 2.94,
    "channel_width_score": 1.0,
    "composite_score": 25.2183,
    "cso_density": 0.0,
    "ej_index": 0.549,
    "elevation_m": 52.9959,
    "estuary_dist_km": 287.75,
    "feasibility_score": 84.127,
    "flood_q10_cfs": 144.83,
    "flow_score": 26.4574,
    "flow_velocity_ms": 0.5,
    "generation_score": 2.6294,
    "impact_score": 17.3201,
    "impervious_pct": null,
    "land_ownership": 0.5,
    "lat": 34.7783,
    "litter_complaint_density": 0.0,
    "lon": -79.1885,
    "navigable_dist_m": null,
    "npdes_points": 0,
    "pixel_col": 278.0,
    "pixel_row": 648.0,
    "population_density": 53.3,
    "position_along": 0.5,
    "protected_area_score": 4.7734,
    "rank": 9,
    "road_access_m": 421.5,
    "road_access_score": 0.8,
    "road_density_km_km2": 0.217,
    "robustness_pct": 0.5,
    "runoff_coeff_C": null,
    "seasonal_cv": null,
    "segment_id": 9,
    "segment_length_m": 958.7025,
    "stream_order": 1,
    "superfund_score": 0.0059,
    "tourism_amenity_density": 0.0,
    "tri_facility_density": 0.0,
    "usgs_mean_q_cfs": null,
    "velocity_feasibility": 1.0,
    "water_intake_score": 0.1987
   },
   "type": "Feature"
  }
 ],
 "note": "GRIME region 'Red Springs, NC' \u2014 real-data pipeline (DEM\u2192streams\u2192candidates\u2192stream mask (sites confined to \u00b1150 m of mapped OSM/NHD waterways)\u2192region-appropriate real parameters\u2192shipped scoring, math unchanged). Width curve: Bieger et al. 2015 JAWRA Table 3, Atlantic Plain. Flood: SIR 2014-5030 HR4 (I24H50Y: NOAA Atlas 14). NC Coastal Plain (SIR 2014-5030 HR4; I24H50Y from NOAA Atlas 14 at region center)",
 "provenance": {
  "candidates_pre_gate": 9,
  "constant": [
   "bank_slope_score",
   "bridge_proximity_bonus",
   "channel_width_score",
   "cso_density",
   "land_ownership",
   "litter_complaint_density",
   "npdes_points"
  ],
  "gated_navigable": 0,
  "hard_gate_removed": 0,
  "n_parameters": 27,
  "parameters": {
   "bank_slope_score": {
    "kind": "real",
    "n_3dep_10m_fallback": 0,
    "n_nc_lidar_3_125ft": 9,
    "n_real": 9,
    "n_sites": 9,
    "source": "NC OneMap / NC DPS DEM03 statewide lidar-derived 3.125-ft (0.953 m) elevations (perpendicular 50 m transect; robust 5 m bank-rise metric); unavailable profiles use the region 10 m 3DEP DEM-gradient fallback",
    "source_mosaics": [
     "Robeson_Ground_3ft"
    ]
   },
   "beach_dist_km": {
    "kind": "real",
    "n_real": 9,
    "n_sites": 9,
    "source": "haversine to region ref: Wrightsville Beach (shipped NC reference)"
   },
   "bridge_proximity_bonus": {
    "kind": "real",
    "n_real": 9,
    "n_sites": 9,
    "source": "FHWA/BTS NBI (NTAD), 50 m proximity"
   },
   "catchment_area_km2": {
    "kind": "real",
    "n_real": 9,
    "n_sites": 9,
    "source": "DEM flow accumulation (pipeline)"
   },
   "channel_width_score": {
    "kind": "real",
    "n_real": 9,
    "n_sites": 9,
    "source": "Bieger 2015 APL width curve on DEM drainage area \u2192 shipped width curve"
   },
   "cso_density": {
    "kind": "real",
    "n_real": 9,
    "n_sites": 9,
    "source": "EPA ECHO open CSO/TCS outfall PF coordinates states=NC, Cauchy proximity"
   },
   "ej_index": {
    "kind": "real",
    "n_real": 9,
    "n_sites": 9,
    "source": "Census ACS C17002+B03002 two-component demographic index, percentile-ranked within region"
   },
   "estuary_dist_km": {
    "kind": "real",
    "n_real": 9,
    "n_sites": 9,
    "source": "haversine to region ref: Pamlico Sound (shipped NC reference)"
   },
   "flood_q10_cfs": {
    "impervious_fallback_reason": "StreamCat imperviousness unavailable; the existing regression-input fallback of 0.0% impervious was used and is disclosed here",
    "kind": "real",
    "n_impervious_fallback": 5,
    "n_real": 9,
    "n_sites": 9,
    "source": "USGS SIR 2014-5030 Table 7 HR4 (NC Coastal Plain; I24H50Y from NOAA Atlas 14 at region center)"
   },
   "flow_velocity_ms": {
    "fallback_reason": "EROM/DEM continuity input unavailable; shipped 0.5 m/s default used",
    "kind": "real",
    "n_fallback": 5,
    "n_real": 4,
    "n_sites": 9,
    "source": "Manning (region DEM/D8) blended with EROM continuity (shipped M4 logic)"
   },
   "impervious_pct": {
    "fallback_reason": "NLDI/StreamCat did not return a snap-compatible catchment value; value remains null and is removed by constant-column handling",
    "kind": "real",
    "n_fallback": 5,
    "n_real": 4,
    "n_sites": 9,
    "source": "EPA StreamCat pctimp2019 (per NHDPlus watershed)"
   },
   "land_ownership": {
    "kind": "real",
    "n_fallback": 0,
    "n_real": 9,
    "n_sites": 9,
    "source": "NC OneMap statewide parcels (NC Parcels Transformer) ownname"
   },
   "litter_complaint_density": {
    "kind": "fallback",
    "n_real": 0,
    "n_sites": 9,
    "source": "no public machine-readable litter/illegal-dumping feed for this region"
   },
   "navigable_dist_m": {
    "kind": "real",
    "n_real": 9,
    "n_sites": 9,
    "source": "USACE/BTS NWN (NTAD): no navigable segment within this bbox (+2 km) \u2014 computed absence, gate passes all sites"
   },
   "npdes_points": {
    "kind": "real",
    "n_real": 9,
    "n_sites": 9,
    "source": "EPA ECHO active NPDES outfalls states=NC (types NPD/GPC/NGP; statuses ADC/EFF/EXP), per catchment"
   },
   "population_density": {
    "kind": "real",
    "n_real": 9,
    "n_sites": 9,
    "source": "Census ACS 2022 B01003 block groups (bbox, multi-county), area-weighted"
   },
   "protected_area_score": {
    "kind": "real",
    "n_real": 9,
    "n_sites": 9,
    "source": "USGS PAD-US 4.1 state GDB; states=NC; shipped designation-weighted proximity curve"
   },
   "road_access_score": {
    "kind": "real",
    "n_real": 9,
    "n_sites": 9,
    "source": "OSM drive network nearest-node distance"
   },
   "road_density_km_km2": {
    "kind": "real",
    "n_real": 9,
    "n_sites": 9,
    "source": "OSM drive network (osmnx, cached) clipped per catchment"
   },
   "runoff_coeff_C": {
    "fallback_reason": "source impervious_pct was unavailable; derived value remains null",
    "kind": "real",
    "n_fallback": 5,
    "n_real": 4,
    "n_sites": 9,
    "source": "derived from real impervious_pct (C=0.05+0.009*I)"
   },
   "seasonal_cv": {
    "fallback_reason": "NHDPlus monthly EROM was unavailable or failed the drainage-area snap guard; value remains null",
    "kind": "real",
    "n_fallback": 5,
    "n_real": 4,
    "n_sites": 9,
    "source": "CV of NHDPlus EROM monthly flows per COMID"
   },
   "stream_order": {
    "kind": "real",
    "n_real": 9,
    "n_sites": 9,
    "source": "DEM stream-network confluence heuristic (pipeline)"
   },
   "superfund_score": {
    "kind": "real",
    "n_real": 9,
    "n_sites": 9,
    "source": "EPA DataMap SEMS active sites states=NC (non-archived, georeferenced), shipped 500 m inverse-distance curve"
   },
   "tourism_amenity_density": {
    "kind": "real",
    "n_real": 9,
    "n_sites": 9,
    "source": "OSM leisure/tourism features per 2 km radius"
   },
   "tri_facility_density": {
    "kind": "real",
    "n_real": 9,
    "n_sites": 9,
    "source": "EPA DataMap TRI open facilities states=NC (preferred decimal or packed-DMS recovery), per catchment"
   },
   "usgs_mean_q_cfs": {
    "fallback_reason": "NHDPlus EROM was unavailable or failed the drainage-area snap guard; value remains null",
    "kind": "real",
    "n_fallback": 5,
    "n_real": 4,
    "n_sites": 9,
    "source": "NHDPlus EROM qe_ma per COMID (snap-guarded)"
   },
   "velocity_feasibility": {
    "fallback_reason": "derived from the shipped 0.5 m/s velocity fallback",
    "kind": "real",
    "n_fallback": 5,
    "n_real": 4,
    "n_sites": 9,
    "source": "shipped step curve on the computed velocity"
   },
   "velocity_transport_favorability": {
    "fallback_reason": "EROM/DEM continuity input unavailable; shipped 0.5 m/s default used",
    "kind": "derived",
    "n_fallback": 5,
    "n_real": 4,
    "n_sites": 9,
    "source": "scored form of flow_velocity_ms inside the Flow family \u2014 peaked Gaussian exp(-((v-0.9)/0.6)^2), model.json curves.velocity_transport_favorability; construct: transport/delivery favorability, deliberately distinct from velocity_feasibility (device operability)"
   },
   "water_intake_score": {
    "kind": "real",
    "n_real": 9,
    "n_sites": 9,
    "source": "NC OneMap / NC DEQ SWAP public water supply sources (source_typ='Surface Water'), shipped exp(-d/10km) curve"
   }
  },
  "stream_mask": {
   "buffer_m": 150.0,
   "pre_mask": 10,
   "removed": 1,
   "sources": [
    "osm-overpass (all waterway ways)",
    "usgs-nhdplus flowlines"
   ]
  },
  "varying": [
   "beach_dist_km",
   "catchment_area_km2",
   "ej_index",
   "estuary_dist_km",
   "flood_q10_cfs",
   "flow_velocity_ms",
   "impervious_pct",
   "population_density",
   "protected_area_score",
   "road_access_score",
   "road_density_km_km2",
   "runoff_coeff_C",
   "seasonal_cv",
   "stream_order",
   "superfund_score",
   "tourism_amenity_density",
   "tri_facility_density",
   "usgs_mean_q_cfs",
   "velocity_feasibility",
   "water_intake_score"
  ]
 },
 "region": {
  "bbox": [
   -79.2175,
   34.7763,
   -79.1448,
   34.836
  ],
  "beach_ref": {
   "label": "Wrightsville Beach (shipped NC reference)",
   "lat": 34.21,
   "lon": -77.79
  },
  "center": [
   -79.181112,
   34.806148
  ],
  "estuary_ref": {
   "label": "Pamlico Sound (shipped NC reference)",
   "lat": 35.05,
   "lon": -76.05
  },
  "flood_method": "sir2014_hr4",
  "name": "Red Springs, NC",
  "notes": "NC Coastal Plain (SIR 2014-5030 HR4; I24H50Y from NOAA Atlas 14 at region center)",
  "slug": "red-springs",
  "state": "NC",
  "utm_epsg": 32617,
  "width_curve": {
   "a": 2.22,
   "b": 0.363,
   "code": "APL",
   "source": "Bieger et al. 2015 JAWRA Table 3, Atlantic Plain"
  }
 },
 "type": "FeatureCollection"
}
