{
 "features": [
  {
   "geometry": {
    "coordinates": [
     -77.254505,
     35.81034
    ],
    "type": "Point"
   },
   "properties": {
    "accumulation": 21871.0,
    "bank_slope_deg": 9.78,
    "bank_slope_score": 1.0,
    "bank_slope_source": "nc-dps-lidar-dem03-cross-section",
    "beach_dist_km": 184.51,
    "bridge_proximity_bonus": 0.0,
    "catchment_area_km2": 2.1802,
    "channel_width_m": 2.95,
    "channel_width_score": 1.0,
    "composite_score": 58.5663,
    "cso_density": 0.0,
    "ej_index": 0.5353,
    "elevation_m": 13.0242,
    "estuary_dist_km": 138.05,
    "feasibility_score": 60.7143,
    "flood_q10_cfs": 175.05,
    "flow_score": 25.3663,
    "flow_velocity_ms": 0.1185,
    "generation_score": 72.1195,
    "impact_score": 71.6059,
    "impervious_pct": 2.34,
    "land_ownership": 0.5,
    "lat": 35.8103,
    "litter_complaint_density": 0.0,
    "lon": -77.2545,
    "navigable_dist_m": null,
    "npdes_points": 0,
    "pixel_col": 188.0,
    "pixel_row": 362.0,
    "population_density": 29.1,
    "position_along": 0.5,
    "protected_area_score": 11.6699,
    "rank": 1,
    "road_access_m": 459.4,
    "road_access_score": 0.8,
    "road_density_km_km2": 1.936,
    "robustness_pct": 100.0,
    "runoff_coeff_C": 0.0711,
    "seasonal_cv": 0.4762,
    "segment_id": 2,
    "segment_length_m": 652.5263,
    "stream_order": 3,
    "superfund_score": 0.0574,
    "tourism_amenity_density": 0.3979,
    "tri_facility_density": 0.0,
    "usgs_mean_q_cfs": 1.203,
    "velocity_feasibility": 0.7,
    "water_intake_score": 0.3054
   },
   "type": "Feature"
  },
  {
   "geometry": {
    "coordinates": [
     -77.258127,
     35.810782
    ],
    "type": "Point"
   },
   "properties": {
    "accumulation": 25962.0,
    "bank_slope_deg": 11.22,
    "bank_slope_score": 1.0,
    "bank_slope_source": "nc-dps-lidar-dem03-cross-section",
    "beach_dist_km": 184.47,
    "bridge_proximity_bonus": 0.0,
    "catchment_area_km2": 2.588,
    "channel_width_m": 3.14,
    "channel_width_score": 1.0,
    "composite_score": 52.4466,
    "cso_density": 0.0,
    "ej_index": 0.4813,
    "elevation_m": 12.2176,
    "estuary_dist_km": 138.34,
    "feasibility_score": 100.0,
    "flood_q10_cfs": 183.76,
    "flow_score": 43.8867,
    "flow_velocity_ms": 0.5,
    "generation_score": 28.4708,
    "impact_score": 59.779,
    "impervious_pct": null,
    "land_ownership": 1.0,
    "lat": 35.8108,
    "litter_complaint_density": 0.0,
    "lon": -77.2581,
    "navigable_dist_m": null,
    "npdes_points": 0,
    "pixel_col": 160.0,
    "pixel_row": 360.0,
    "population_density": 26.9,
    "position_along": 0.5,
    "protected_area_score": 11.6354,
    "rank": 2,
    "road_access_m": 373.8,
    "road_access_score": 0.8,
    "road_density_km_km2": 2.007,
    "robustness_pct": 100.0,
    "runoff_coeff_C": null,
    "seasonal_cv": null,
    "segment_id": 1,
    "segment_length_m": 192.8335,
    "stream_order": 3,
    "superfund_score": 0.0685,
    "tourism_amenity_density": 0.3979,
    "tri_facility_density": 0.0,
    "usgs_mean_q_cfs": null,
    "velocity_feasibility": 1.0,
    "water_intake_score": 0.305
   },
   "type": "Feature"
  },
  {
   "geometry": {
    "coordinates": [
     -77.258427,
     35.808523
    ],
    "type": "Point"
   },
   "properties": {
    "accumulation": 49883.0,
    "bank_slope_deg": 3.35,
    "bank_slope_score": 1.0,
    "bank_slope_source": "nc-dps-lidar-dem03-cross-section",
    "beach_dist_km": 184.22,
    "bridge_proximity_bonus": 0.0,
    "catchment_area_km2": 4.9726,
    "channel_width_m": 3.97,
    "channel_width_score": 1.0,
    "composite_score": 48.8381,
    "cso_density": 0.0,
    "ej_index": 0.4429,
    "elevation_m": 12.3814,
    "estuary_dist_km": 138.21,
    "feasibility_score": 58.3333,
    "flood_q10_cfs": 271.98,
    "flow_score": 72.0,
    "flow_velocity_ms": 0.5,
    "generation_score": 14.4715,
    "impact_score": 59.1556,
    "impervious_pct": null,
    "land_ownership": 1.0,
    "lat": 35.8085,
    "litter_complaint_density": 0.0,
    "lon": -77.2584,
    "navigable_dist_m": null,
    "npdes_points": 0,
    "pixel_col": 156.0,
    "pixel_row": 385.0,
    "population_density": 25.4,
    "position_along": 0.5,
    "protected_area_score": 11.6464,
    "rank": 3,
    "road_access_m": 617.3,
    "road_access_score": 0.6,
    "road_density_km_km2": 1.483,
    "robustness_pct": 100.0,
    "runoff_coeff_C": null,
    "seasonal_cv": null,
    "segment_id": 3,
    "segment_length_m": 503.7655,
    "stream_order": 3,
    "superfund_score": 0.0551,
    "tourism_amenity_density": 0.3979,
    "tri_facility_density": 0.0,
    "usgs_mean_q_cfs": null,
    "velocity_feasibility": 1.0,
    "water_intake_score": 0.3051
   },
   "type": "Feature"
  },
  {
   "geometry": {
    "coordinates": [
     -77.274008,
     35.829904
    ],
    "type": "Point"
   },
   "properties": {
    "accumulation": 27643.0,
    "bank_slope_deg": 0.86,
    "bank_slope_score": 1.0,
    "bank_slope_source": "nc-dps-lidar-dem03-cross-section",
    "beach_dist_km": 186.15,
    "bridge_proximity_bonus": 0.0,
    "catchment_area_km2": 2.7556,
    "channel_width_m": 3.21,
    "channel_width_score": 1.0,
    "composite_score": 30.3921,
    "cso_density": 0.0,
    "ej_index": 0.6215,
    "elevation_m": 14.6284,
    "estuary_dist_km": 140.77,
    "feasibility_score": 0.0,
    "flood_q10_cfs": 194.04,
    "flow_score": 34.4525,
    "flow_velocity_ms": 0.0452,
    "generation_score": 36.5967,
    "impact_score": 36.0,
    "impervious_pct": 0.72,
    "land_ownership": 0.5,
    "lat": 35.8299,
    "litter_complaint_density": 0.0,
    "lon": -77.274,
    "navigable_dist_m": null,
    "npdes_points": 0,
    "pixel_col": 17.0,
    "pixel_row": 140.0,
    "population_density": 24.8,
    "position_along": 0.5,
    "protected_area_score": 11.4634,
    "rank": 4,
    "road_access_m": 760.7,
    "road_access_score": 0.6,
    "road_density_km_km2": 0.237,
    "robustness_pct": 100.0,
    "runoff_coeff_C": 0.0565,
    "seasonal_cv": 0.4175,
    "segment_id": 0,
    "segment_length_m": 348.1526,
    "stream_order": 1,
    "superfund_score": 0.2457,
    "tourism_amenity_density": 0.6366,
    "tri_facility_density": 0.3629,
    "usgs_mean_q_cfs": 7.084,
    "velocity_feasibility": 0.3,
    "water_intake_score": 0.3024
   },
   "type": "Feature"
  }
 ],
 "note": "GRIME region 'Robersonville, NC' \u2014 real-data pipeline (DEM\u2192streams\u2192candidates\u2192stream mask (sites confined to \u00b1150 m of mapped OSM/NHD waterways)\u2192region-appropriate real parameters\u2192shipped scoring, math unchanged). Width curve: Bieger et al. 2015 JAWRA Table 3, Atlantic Plain. Flood: SIR 2014-5030 HR4 (I24H50Y: NOAA Atlas 14). NC Coastal Plain (SIR 2014-5030 HR4; I24H50Y from NOAA Atlas 14 at region center)",
 "provenance": {
  "candidates_pre_gate": 4,
  "constant": [
   "bank_slope_score",
   "bridge_proximity_bonus",
   "channel_width_score",
   "cso_density",
   "litter_complaint_density",
   "npdes_points"
  ],
  "gated_navigable": 0,
  "hard_gate_removed": 0,
  "n_parameters": 27,
  "parameters": {
   "bank_slope_score": {
    "kind": "real",
    "n_3dep_10m_fallback": 0,
    "n_nc_lidar_3_125ft": 4,
    "n_real": 4,
    "n_sites": 4,
    "source": "NC OneMap / NC DPS DEM03 statewide lidar-derived 3.125-ft (0.953 m) elevations (perpendicular 50 m transect; robust 5 m bank-rise metric); unavailable profiles use the region 10 m 3DEP DEM-gradient fallback",
    "source_mosaics": [
     "Martin_Ground_3ft"
    ]
   },
   "beach_dist_km": {
    "kind": "real",
    "n_real": 4,
    "n_sites": 4,
    "source": "haversine to region ref: Wrightsville Beach (shipped NC reference)"
   },
   "bridge_proximity_bonus": {
    "kind": "real",
    "n_real": 4,
    "n_sites": 4,
    "source": "FHWA/BTS NBI (NTAD), 50 m proximity"
   },
   "catchment_area_km2": {
    "kind": "real",
    "n_real": 4,
    "n_sites": 4,
    "source": "DEM flow accumulation (pipeline)"
   },
   "channel_width_score": {
    "kind": "real",
    "n_real": 4,
    "n_sites": 4,
    "source": "Bieger 2015 APL width curve on DEM drainage area \u2192 shipped width curve"
   },
   "cso_density": {
    "kind": "real",
    "n_real": 4,
    "n_sites": 4,
    "source": "EPA ECHO open CSO/TCS outfall PF coordinates states=NC, Cauchy proximity"
   },
   "ej_index": {
    "kind": "real",
    "n_real": 4,
    "n_sites": 4,
    "source": "Census ACS C17002+B03002 two-component demographic index, percentile-ranked within region"
   },
   "estuary_dist_km": {
    "kind": "real",
    "n_real": 4,
    "n_sites": 4,
    "source": "haversine to region ref: Pamlico Sound (shipped NC reference)"
   },
   "flood_q10_cfs": {
    "impervious_fallback_reason": "StreamCat imperviousness unavailable; the existing regression-input fallback of 0.0% impervious was used and is disclosed here",
    "kind": "real",
    "n_impervious_fallback": 2,
    "n_real": 4,
    "n_sites": 4,
    "source": "USGS SIR 2014-5030 Table 7 HR4 (NC Coastal Plain; I24H50Y from NOAA Atlas 14 at region center)"
   },
   "flow_velocity_ms": {
    "fallback_reason": "EROM/DEM continuity input unavailable; shipped 0.5 m/s default used",
    "kind": "real",
    "n_fallback": 2,
    "n_real": 2,
    "n_sites": 4,
    "source": "Manning (region DEM/D8) blended with EROM continuity (shipped M4 logic)"
   },
   "impervious_pct": {
    "fallback_reason": "NLDI/StreamCat did not return a snap-compatible catchment value; value remains null and is removed by constant-column handling",
    "kind": "real",
    "n_fallback": 2,
    "n_real": 2,
    "n_sites": 4,
    "source": "EPA StreamCat pctimp2019 (per NHDPlus watershed)"
   },
   "land_ownership": {
    "kind": "real",
    "n_fallback": 0,
    "n_real": 4,
    "n_sites": 4,
    "source": "NC OneMap statewide parcels (NC Parcels Transformer) ownname"
   },
   "litter_complaint_density": {
    "kind": "fallback",
    "n_real": 0,
    "n_sites": 4,
    "source": "no public machine-readable litter/illegal-dumping feed for this region"
   },
   "navigable_dist_m": {
    "kind": "real",
    "n_real": 4,
    "n_sites": 4,
    "source": "USACE/BTS NWN (NTAD): no navigable segment within this bbox (+2 km) \u2014 computed absence, gate passes all sites"
   },
   "npdes_points": {
    "kind": "real",
    "n_real": 4,
    "n_sites": 4,
    "source": "EPA ECHO active NPDES outfalls states=NC (types NPD/GPC/NGP; statuses ADC/EFF/EXP), per catchment"
   },
   "population_density": {
    "kind": "real",
    "n_real": 4,
    "n_sites": 4,
    "source": "Census ACS 2022 B01003 block groups (bbox, multi-county), area-weighted"
   },
   "protected_area_score": {
    "kind": "real",
    "n_real": 4,
    "n_sites": 4,
    "source": "USGS PAD-US 4.1 state GDB; states=NC; shipped designation-weighted proximity curve"
   },
   "road_access_score": {
    "kind": "real",
    "n_real": 4,
    "n_sites": 4,
    "source": "OSM drive network nearest-node distance"
   },
   "road_density_km_km2": {
    "kind": "real",
    "n_real": 4,
    "n_sites": 4,
    "source": "OSM drive network (osmnx, cached) clipped per catchment"
   },
   "runoff_coeff_C": {
    "fallback_reason": "source impervious_pct was unavailable; derived value remains null",
    "kind": "real",
    "n_fallback": 2,
    "n_real": 2,
    "n_sites": 4,
    "source": "derived from real impervious_pct (C=0.05+0.009*I)"
   },
   "seasonal_cv": {
    "fallback_reason": "NHDPlus monthly EROM was unavailable or failed the drainage-area snap guard; value remains null",
    "kind": "real",
    "n_fallback": 2,
    "n_real": 2,
    "n_sites": 4,
    "source": "CV of NHDPlus EROM monthly flows per COMID"
   },
   "stream_order": {
    "kind": "real",
    "n_real": 4,
    "n_sites": 4,
    "source": "DEM stream-network confluence heuristic (pipeline)"
   },
   "superfund_score": {
    "kind": "real",
    "n_real": 4,
    "n_sites": 4,
    "source": "EPA DataMap SEMS active sites states=NC (non-archived, georeferenced), shipped 500 m inverse-distance curve"
   },
   "tourism_amenity_density": {
    "kind": "real",
    "n_real": 4,
    "n_sites": 4,
    "source": "OSM leisure/tourism features per 2 km radius"
   },
   "tri_facility_density": {
    "kind": "real",
    "n_real": 4,
    "n_sites": 4,
    "source": "EPA DataMap TRI open facilities states=NC (preferred decimal or packed-DMS recovery), per catchment"
   },
   "usgs_mean_q_cfs": {
    "fallback_reason": "NHDPlus EROM was unavailable or failed the drainage-area snap guard; value remains null",
    "kind": "real",
    "n_fallback": 2,
    "n_real": 2,
    "n_sites": 4,
    "source": "NHDPlus EROM qe_ma per COMID (snap-guarded)"
   },
   "velocity_feasibility": {
    "fallback_reason": "derived from the shipped 0.5 m/s velocity fallback",
    "kind": "real",
    "n_fallback": 2,
    "n_real": 2,
    "n_sites": 4,
    "source": "shipped step curve on the computed velocity"
   },
   "velocity_transport_favorability": {
    "fallback_reason": "EROM/DEM continuity input unavailable; shipped 0.5 m/s default used",
    "kind": "derived",
    "n_fallback": 2,
    "n_real": 2,
    "n_sites": 4,
    "source": "scored form of flow_velocity_ms inside the Flow family \u2014 peaked Gaussian exp(-((v-0.9)/0.6)^2), model.json curves.velocity_transport_favorability; construct: transport/delivery favorability, deliberately distinct from velocity_feasibility (device operability)"
   },
   "water_intake_score": {
    "kind": "real",
    "n_real": 4,
    "n_sites": 4,
    "source": "NC OneMap / NC DEQ SWAP public water supply sources (source_typ='Surface Water'), shipped exp(-d/10km) curve"
   }
  },
  "stream_mask": {
   "buffer_m": 150.0,
   "pre_mask": 4,
   "removed": 0,
   "sources": [
    "osm-overpass (all waterway ways)",
    "usgs-nhdplus flowlines"
   ]
  },
  "varying": [
   "beach_dist_km",
   "catchment_area_km2",
   "ej_index",
   "estuary_dist_km",
   "flood_q10_cfs",
   "flow_velocity_ms",
   "impervious_pct",
   "land_ownership",
   "population_density",
   "protected_area_score",
   "road_access_score",
   "road_density_km_km2",
   "runoff_coeff_C",
   "seasonal_cv",
   "stream_order",
   "superfund_score",
   "tourism_amenity_density",
   "tri_facility_density",
   "usgs_mean_q_cfs",
   "velocity_feasibility",
   "water_intake_score"
  ]
 },
 "region": {
  "bbox": [
   -77.2755,
   35.8067,
   -77.2311,
   35.8427
  ],
  "beach_ref": {
   "label": "Wrightsville Beach (shipped NC reference)",
   "lat": 34.21,
   "lon": -77.79
  },
  "center": [
   -77.253291,
   35.824701
  ],
  "estuary_ref": {
   "label": "Pamlico Sound (shipped NC reference)",
   "lat": 35.05,
   "lon": -76.05
  },
  "flood_method": "sir2014_hr4",
  "name": "Robersonville, NC",
  "notes": "NC Coastal Plain (SIR 2014-5030 HR4; I24H50Y from NOAA Atlas 14 at region center)",
  "slug": "robersonville",
  "state": "NC",
  "utm_epsg": 32618,
  "width_curve": {
   "a": 2.22,
   "b": 0.363,
   "code": "APL",
   "source": "Bieger et al. 2015 JAWRA Table 3, Atlantic Plain"
  }
 },
 "type": "FeatureCollection"
}
