{
 "features": [
  {
   "geometry": {
    "coordinates": [
     -78.528779,
     34.941232
    ],
    "type": "Point"
   },
   "properties": {
    "accumulation": 29751.0,
    "bank_slope_deg": 2.43,
    "bank_slope_score": 1.0,
    "bank_slope_source": "nc-dps-lidar-dem03-cross-section",
    "beach_dist_km": 105.76,
    "bridge_proximity_bonus": 0.0,
    "catchment_area_km2": 2.9658,
    "channel_width_m": 3.29,
    "channel_width_score": 1.0,
    "composite_score": 57.0872,
    "cso_density": 0.0,
    "ej_index": 0.2347,
    "elevation_m": 33.478,
    "estuary_dist_km": 226.11,
    "feasibility_score": 41.6667,
    "flood_q10_cfs": 211.61,
    "flow_score": 34.9756,
    "flow_velocity_ms": 0.1146,
    "generation_score": 88.7553,
    "impact_score": 51.5557,
    "impervious_pct": 2.88,
    "land_ownership": 0.5,
    "lat": 34.9412,
    "litter_complaint_density": 0.0,
    "lon": -78.5288,
    "navigable_dist_m": null,
    "npdes_points": 0,
    "pixel_col": 89.0,
    "pixel_row": 384.0,
    "population_density": 53.0,
    "position_along": 0.5,
    "protected_area_score": 5.007,
    "rank": 1,
    "road_access_m": 361.3,
    "road_access_score": 0.8,
    "road_density_km_km2": 1.338,
    "robustness_pct": 100.0,
    "runoff_coeff_C": 0.0759,
    "seasonal_cv": 0.4226,
    "segment_id": 3,
    "segment_length_m": 1784.0302,
    "stream_order": 1,
    "superfund_score": 0.0025,
    "tourism_amenity_density": 0.7162,
    "tri_facility_density": 0.0,
    "usgs_mean_q_cfs": 3.78,
    "velocity_feasibility": 0.7,
    "water_intake_score": 0.1123
   },
   "type": "Feature"
  },
  {
   "geometry": {
    "coordinates": [
     -78.520233,
     34.938301
    ],
    "type": "Point"
   },
   "properties": {
    "accumulation": 23846.0,
    "bank_slope_deg": 4.62,
    "bank_slope_score": 1.0,
    "bank_slope_source": "nc-dps-lidar-dem03-cross-section",
    "beach_dist_km": 105.02,
    "bridge_proximity_bonus": 0.0,
    "catchment_area_km2": 2.3772,
    "channel_width_m": 3.04,
    "channel_width_score": 1.0,
    "composite_score": 45.9378,
    "cso_density": 0.0,
    "ej_index": 0.2675,
    "elevation_m": 31.7204,
    "estuary_dist_km": 225.36,
    "feasibility_score": 0.0,
    "flood_q10_cfs": 185.29,
    "flow_score": 30.382,
    "flow_velocity_ms": 0.107,
    "generation_score": 73.3549,
    "impact_score": 54.453,
    "impervious_pct": 2.88,
    "land_ownership": 0.5,
    "lat": 34.9383,
    "litter_complaint_density": 0.0,
    "lon": -78.5202,
    "navigable_dist_m": null,
    "npdes_points": 0,
    "pixel_col": 169.0,
    "pixel_row": 415.0,
    "population_density": 48.8,
    "position_along": 0.5,
    "protected_area_score": 4.9307,
    "rank": 2,
    "road_access_m": 700.4,
    "road_access_score": 0.6,
    "road_density_km_km2": 0.869,
    "robustness_pct": 100.0,
    "runoff_coeff_C": 0.0759,
    "seasonal_cv": 0.4226,
    "segment_id": 4,
    "segment_length_m": 413.2034,
    "stream_order": 1,
    "superfund_score": 0.0022,
    "tourism_amenity_density": 1.0345,
    "tri_facility_density": 0.0,
    "usgs_mean_q_cfs": 3.78,
    "velocity_feasibility": 0.7,
    "water_intake_score": 0.1052
   },
   "type": "Feature"
  },
  {
   "geometry": {
    "coordinates": [
     -78.491256,
     34.958441
    ],
    "type": "Point"
   },
   "properties": {
    "accumulation": 70549.0,
    "bank_slope_deg": 2.7,
    "bank_slope_score": 1.0,
    "bank_slope_source": "nc-dps-lidar-dem03-cross-section",
    "beach_dist_km": 105.11,
    "bridge_proximity_bonus": 0.0,
    "catchment_area_km2": 7.0329,
    "channel_width_m": 4.51,
    "channel_width_score": 1.0,
    "composite_score": 42.9269,
    "cso_density": 0.0,
    "ej_index": 0.5056,
    "elevation_m": 26.0544,
    "estuary_dist_km": 222.58,
    "feasibility_score": 33.3333,
    "flood_q10_cfs": 332.35,
    "flow_score": 72.0,
    "flow_velocity_ms": 0.5,
    "generation_score": 20.6663,
    "impact_score": 45.7567,
    "impervious_pct": null,
    "land_ownership": 0.5,
    "lat": 34.9584,
    "litter_complaint_density": 0.0,
    "lon": -78.4913,
    "navigable_dist_m": null,
    "npdes_points": 0,
    "pixel_col": 428.0,
    "pixel_row": 183.0,
    "population_density": 27.7,
    "position_along": 0.5,
    "protected_area_score": 4.779,
    "rank": 3,
    "road_access_m": 609.5,
    "road_access_score": 0.6,
    "road_density_km_km2": 1.758,
    "robustness_pct": 100.0,
    "runoff_coeff_C": null,
    "seasonal_cv": null,
    "segment_id": 2,
    "segment_length_m": 9.9844,
    "stream_order": 3,
    "superfund_score": 0.0023,
    "tourism_amenity_density": 0.3183,
    "tri_facility_density": 0.0,
    "usgs_mean_q_cfs": null,
    "velocity_feasibility": 1.0,
    "water_intake_score": 0.0862
   },
   "type": "Feature"
  },
  {
   "geometry": {
    "coordinates": [
     -78.493265,
     34.960248
    ],
    "type": "Point"
   },
   "properties": {
    "accumulation": 21989.0,
    "bank_slope_deg": 2.78,
    "bank_slope_score": 1.0,
    "bank_slope_source": "nc-dps-lidar-dem03-cross-section",
    "beach_dist_km": 105.38,
    "bridge_proximity_bonus": 0.0,
    "catchment_area_km2": 2.1921,
    "channel_width_m": 2.95,
    "channel_width_score": 1.0,
    "composite_score": 39.0257,
    "cso_density": 0.0,
    "ej_index": 0.5419,
    "elevation_m": 26.2375,
    "estuary_dist_km": 222.75,
    "feasibility_score": 58.3333,
    "flood_q10_cfs": 165.05,
    "flow_score": 40.0,
    "flow_velocity_ms": 0.5,
    "generation_score": 20.8333,
    "impact_score": 46.7523,
    "impervious_pct": null,
    "land_ownership": 1.0,
    "lat": 34.9602,
    "litter_complaint_density": 0.0,
    "lon": -78.4933,
    "navigable_dist_m": null,
    "npdes_points": 0,
    "pixel_col": 410.0,
    "pixel_row": 163.0,
    "population_density": 25.9,
    "position_along": 0.5,
    "protected_area_score": 4.7332,
    "rank": 4,
    "road_access_m": 701.0,
    "road_access_score": 0.6,
    "road_density_km_km2": 1.888,
    "robustness_pct": 100.0,
    "runoff_coeff_C": null,
    "seasonal_cv": null,
    "segment_id": 1,
    "segment_length_m": 640.8383,
    "stream_order": 3,
    "superfund_score": 0.0025,
    "tourism_amenity_density": 0.3183,
    "tri_facility_density": 0.0,
    "usgs_mean_q_cfs": null,
    "velocity_feasibility": 1.0,
    "water_intake_score": 0.0877
   },
   "type": "Feature"
  }
 ],
 "note": "GRIME region 'Roseboro, NC' \u2014 real-data pipeline (DEM\u2192streams\u2192candidates\u2192stream mask (sites confined to \u00b1150 m of mapped OSM/NHD waterways)\u2192region-appropriate real parameters\u2192shipped scoring, math unchanged). Width curve: Bieger et al. 2015 JAWRA Table 3, Atlantic Plain. Flood: SIR 2014-5030 HR4 (I24H50Y: NOAA Atlas 14). NC Coastal Plain (SIR 2014-5030 HR4; I24H50Y from NOAA Atlas 14 at region center)",
 "provenance": {
  "candidates_pre_gate": 4,
  "constant": [
   "bank_slope_score",
   "bridge_proximity_bonus",
   "channel_width_score",
   "cso_density",
   "litter_complaint_density",
   "npdes_points",
   "tri_facility_density"
  ],
  "gated_navigable": 0,
  "hard_gate_removed": 0,
  "n_parameters": 27,
  "parameters": {
   "bank_slope_score": {
    "kind": "real",
    "n_3dep_10m_fallback": 0,
    "n_nc_lidar_3_125ft": 4,
    "n_real": 4,
    "n_sites": 4,
    "source": "NC OneMap / NC DPS DEM03 statewide lidar-derived 3.125-ft (0.953 m) elevations (perpendicular 50 m transect; robust 5 m bank-rise metric); unavailable profiles use the region 10 m 3DEP DEM-gradient fallback",
    "source_mosaics": [
     "Sampson_Ground_3ft"
    ]
   },
   "beach_dist_km": {
    "kind": "real",
    "n_real": 4,
    "n_sites": 4,
    "source": "haversine to region ref: Wrightsville Beach (shipped NC reference)"
   },
   "bridge_proximity_bonus": {
    "kind": "real",
    "n_real": 4,
    "n_sites": 4,
    "source": "FHWA/BTS NBI (NTAD), 50 m proximity"
   },
   "catchment_area_km2": {
    "kind": "real",
    "n_real": 4,
    "n_sites": 4,
    "source": "DEM flow accumulation (pipeline)"
   },
   "channel_width_score": {
    "kind": "real",
    "n_real": 4,
    "n_sites": 4,
    "source": "Bieger 2015 APL width curve on DEM drainage area \u2192 shipped width curve"
   },
   "cso_density": {
    "kind": "real",
    "n_real": 4,
    "n_sites": 4,
    "source": "EPA ECHO open CSO/TCS outfall PF coordinates states=NC, Cauchy proximity"
   },
   "ej_index": {
    "kind": "real",
    "n_real": 4,
    "n_sites": 4,
    "source": "Census ACS C17002+B03002 two-component demographic index, percentile-ranked within region"
   },
   "estuary_dist_km": {
    "kind": "real",
    "n_real": 4,
    "n_sites": 4,
    "source": "haversine to region ref: Pamlico Sound (shipped NC reference)"
   },
   "flood_q10_cfs": {
    "impervious_fallback_reason": "StreamCat imperviousness unavailable; the existing regression-input fallback of 0.0% impervious was used and is disclosed here",
    "kind": "real",
    "n_impervious_fallback": 2,
    "n_real": 4,
    "n_sites": 4,
    "source": "USGS SIR 2014-5030 Table 7 HR4 (NC Coastal Plain; I24H50Y from NOAA Atlas 14 at region center)"
   },
   "flow_velocity_ms": {
    "fallback_reason": "EROM/DEM continuity input unavailable; shipped 0.5 m/s default used",
    "kind": "real",
    "n_fallback": 2,
    "n_real": 2,
    "n_sites": 4,
    "source": "Manning (region DEM/D8) blended with EROM continuity (shipped M4 logic)"
   },
   "impervious_pct": {
    "fallback_reason": "NLDI/StreamCat did not return a snap-compatible catchment value; value remains null and is removed by constant-column handling",
    "kind": "real",
    "n_fallback": 2,
    "n_real": 2,
    "n_sites": 4,
    "source": "EPA StreamCat pctimp2019 (per NHDPlus watershed)"
   },
   "land_ownership": {
    "kind": "real",
    "n_fallback": 0,
    "n_real": 4,
    "n_sites": 4,
    "source": "NC OneMap statewide parcels (NC Parcels Transformer) ownname"
   },
   "litter_complaint_density": {
    "kind": "fallback",
    "n_real": 0,
    "n_sites": 4,
    "source": "no public machine-readable litter/illegal-dumping feed for this region"
   },
   "navigable_dist_m": {
    "kind": "real",
    "n_real": 4,
    "n_sites": 4,
    "source": "USACE/BTS NWN (NTAD): no navigable segment within this bbox (+2 km) \u2014 computed absence, gate passes all sites"
   },
   "npdes_points": {
    "kind": "real",
    "n_real": 4,
    "n_sites": 4,
    "source": "EPA ECHO active NPDES outfalls states=NC (types NPD/GPC/NGP; statuses ADC/EFF/EXP), per catchment"
   },
   "population_density": {
    "kind": "real",
    "n_real": 4,
    "n_sites": 4,
    "source": "Census ACS 2022 B01003 block groups (bbox, multi-county), area-weighted"
   },
   "protected_area_score": {
    "kind": "real",
    "n_real": 4,
    "n_sites": 4,
    "source": "USGS PAD-US 4.1 state GDB; states=NC; shipped designation-weighted proximity curve"
   },
   "road_access_score": {
    "kind": "real",
    "n_real": 4,
    "n_sites": 4,
    "source": "OSM drive network nearest-node distance"
   },
   "road_density_km_km2": {
    "kind": "real",
    "n_real": 4,
    "n_sites": 4,
    "source": "OSM drive network (osmnx, cached) clipped per catchment"
   },
   "runoff_coeff_C": {
    "fallback_reason": "source impervious_pct was unavailable; derived value remains null",
    "kind": "real",
    "n_fallback": 2,
    "n_real": 2,
    "n_sites": 4,
    "source": "derived from real impervious_pct (C=0.05+0.009*I)"
   },
   "seasonal_cv": {
    "fallback_reason": "NHDPlus monthly EROM was unavailable or failed the drainage-area snap guard; value remains null",
    "kind": "real",
    "n_fallback": 2,
    "n_real": 2,
    "n_sites": 4,
    "source": "CV of NHDPlus EROM monthly flows per COMID"
   },
   "stream_order": {
    "kind": "real",
    "n_real": 4,
    "n_sites": 4,
    "source": "DEM stream-network confluence heuristic (pipeline)"
   },
   "superfund_score": {
    "kind": "real",
    "n_real": 4,
    "n_sites": 4,
    "source": "EPA DataMap SEMS active sites states=NC (non-archived, georeferenced), shipped 500 m inverse-distance curve"
   },
   "tourism_amenity_density": {
    "kind": "real",
    "n_real": 4,
    "n_sites": 4,
    "source": "OSM leisure/tourism features per 2 km radius"
   },
   "tri_facility_density": {
    "kind": "real",
    "n_real": 4,
    "n_sites": 4,
    "source": "EPA DataMap TRI open facilities states=NC (preferred decimal or packed-DMS recovery), per catchment"
   },
   "usgs_mean_q_cfs": {
    "fallback_reason": "NHDPlus EROM was unavailable or failed the drainage-area snap guard; value remains null",
    "kind": "real",
    "n_fallback": 2,
    "n_real": 2,
    "n_sites": 4,
    "source": "NHDPlus EROM qe_ma per COMID (snap-guarded)"
   },
   "velocity_feasibility": {
    "fallback_reason": "derived from the shipped 0.5 m/s velocity fallback",
    "kind": "real",
    "n_fallback": 2,
    "n_real": 2,
    "n_sites": 4,
    "source": "shipped step curve on the computed velocity"
   },
   "velocity_transport_favorability": {
    "fallback_reason": "EROM/DEM continuity input unavailable; shipped 0.5 m/s default used",
    "kind": "derived",
    "n_fallback": 2,
    "n_real": 2,
    "n_sites": 4,
    "source": "scored form of flow_velocity_ms inside the Flow family \u2014 peaked Gaussian exp(-((v-0.9)/0.6)^2), model.json curves.velocity_transport_favorability; construct: transport/delivery favorability, deliberately distinct from velocity_feasibility (device operability)"
   },
   "water_intake_score": {
    "kind": "real",
    "n_real": 4,
    "n_sites": 4,
    "source": "NC OneMap / NC DEQ SWAP public water supply sources (source_typ='Surface Water'), shipped exp(-d/10km) curve"
   }
  },
  "stream_mask": {
   "buffer_m": 150.0,
   "pre_mask": 5,
   "removed": 1,
   "sources": [
    "osm-overpass (all waterway ways)",
    "usgs-nhdplus flowlines"
   ]
  },
  "varying": [
   "beach_dist_km",
   "catchment_area_km2",
   "ej_index",
   "estuary_dist_km",
   "flood_q10_cfs",
   "flow_velocity_ms",
   "impervious_pct",
   "land_ownership",
   "population_density",
   "protected_area_score",
   "road_access_score",
   "road_density_km_km2",
   "runoff_coeff_C",
   "seasonal_cv",
   "stream_order",
   "superfund_score",
   "tourism_amenity_density",
   "usgs_mean_q_cfs",
   "velocity_feasibility",
   "water_intake_score"
  ]
 },
 "region": {
  "bbox": [
   -78.5375,
   34.9365,
   -78.4907,
   34.9749
  ],
  "beach_ref": {
   "label": "Wrightsville Beach (shipped NC reference)",
   "lat": 34.21,
   "lon": -77.79
  },
  "center": [
   -78.514126,
   34.955726
  ],
  "estuary_ref": {
   "label": "Pamlico Sound (shipped NC reference)",
   "lat": 35.05,
   "lon": -76.05
  },
  "flood_method": "sir2014_hr4",
  "name": "Roseboro, NC",
  "notes": "NC Coastal Plain (SIR 2014-5030 HR4; I24H50Y from NOAA Atlas 14 at region center)",
  "slug": "roseboro",
  "state": "NC",
  "utm_epsg": 32617,
  "width_curve": {
   "a": 2.22,
   "b": 0.363,
   "code": "APL",
   "source": "Bieger et al. 2015 JAWRA Table 3, Atlantic Plain"
  }
 },
 "type": "FeatureCollection"
}
