{
 "features": [
  {
   "geometry": {
    "coordinates": [
     -82.806447,
     35.147871
    ],
    "type": "Point"
   },
   "properties": {
    "accumulation": 116168.0,
    "bank_slope_deg": 18.5,
    "bank_slope_score": 0.5,
    "bank_slope_source": "nc-dps-lidar-dem03-cross-section",
    "beach_dist_km": 470.36,
    "bridge_proximity_bonus": 0.0,
    "catchment_area_km2": 11.594,
    "channel_width_m": 8.63,
    "channel_width_score": 1.0,
    "composite_score": 74.2857,
    "cso_density": 0.0,
    "ej_index": 0.5237,
    "elevation_m": 657.5406,
    "estuary_dist_km": 614.65,
    "feasibility_score": 0.0,
    "flood_q10_cfs": null,
    "flow_score": 100.0,
    "flow_velocity_ms": 0.5,
    "generation_score": 64.2857,
    "impact_score": 100.0,
    "impervious_pct": null,
    "land_ownership": 0.5,
    "lat": 35.1479,
    "litter_complaint_density": 0.0,
    "lon": -82.8064,
    "navigable_dist_m": null,
    "npdes_points": 1,
    "pixel_col": 332.0,
    "pixel_row": 180.0,
    "population_density": 37.9,
    "position_along": 0.875,
    "protected_area_score": 10.8584,
    "rank": 1,
    "road_access_m": 472.4,
    "road_access_score": 0.8,
    "road_density_km_km2": 1.874,
    "robustness_pct": 100.0,
    "runoff_coeff_C": null,
    "seasonal_cv": null,
    "segment_id": 0,
    "segment_length_m": 6764.3345,
    "stream_order": 1,
    "superfund_score": 0.0,
    "tourism_amenity_density": 0.7958,
    "tri_facility_density": 0.0,
    "usgs_mean_q_cfs": null,
    "velocity_feasibility": 1.0,
    "water_intake_score": 0.8564
   },
   "type": "Feature"
  },
  {
   "geometry": {
    "coordinates": [
     -82.823904,
     35.140968
    ],
    "type": "Point"
   },
   "properties": {
    "accumulation": 54919.0,
    "bank_slope_deg": 20.84,
    "bank_slope_score": 0.5,
    "bank_slope_source": "nc-dps-lidar-dem03-cross-section",
    "beach_dist_km": 471.76,
    "bridge_proximity_bonus": 0.0,
    "catchment_area_km2": 5.4811,
    "channel_width_m": 6.32,
    "channel_width_score": 1.0,
    "composite_score": 52.7742,
    "cso_density": 0.0,
    "ej_index": 0.3787,
    "elevation_m": 662.9807,
    "estuary_dist_km": 616.25,
    "feasibility_score": 100.0,
    "flood_q10_cfs": null,
    "flow_score": 28.3423,
    "flow_velocity_ms": 0.5,
    "generation_score": 75.7764,
    "impact_score": 26.5189,
    "impervious_pct": null,
    "land_ownership": 0.5,
    "lat": 35.141,
    "litter_complaint_density": 0.0,
    "lon": -82.8239,
    "navigable_dist_m": null,
    "npdes_points": 1,
    "pixel_col": 170.0,
    "pixel_row": 258.0,
    "population_density": 32.7,
    "position_along": 0.375,
    "protected_area_score": 10.3963,
    "rank": 2,
    "road_access_m": 103.0,
    "road_access_score": 1.0,
    "road_density_km_km2": 3.844,
    "robustness_pct": 100.0,
    "runoff_coeff_C": null,
    "seasonal_cv": null,
    "segment_id": 0,
    "segment_length_m": 6764.3345,
    "stream_order": 1,
    "superfund_score": 0.0,
    "tourism_amenity_density": 0.7958,
    "tri_facility_density": 0.0,
    "usgs_mean_q_cfs": null,
    "velocity_feasibility": 1.0,
    "water_intake_score": 0.7838
   },
   "type": "Feature"
  },
  {
   "geometry": {
    "coordinates": [
     -82.810553,
     35.136716
    ],
    "type": "Point"
   },
   "properties": {
    "accumulation": 98014.0,
    "bank_slope_deg": 20.73,
    "bank_slope_score": 0.5,
    "bank_slope_source": "nc-dps-lidar-dem03-cross-section",
    "beach_dist_km": 470.48,
    "bridge_proximity_bonus": 0.0,
    "catchment_area_km2": 9.7822,
    "channel_width_m": 8.04,
    "channel_width_score": 1.0,
    "composite_score": 36.9657,
    "cso_density": 0.0,
    "ej_index": 0.3983,
    "elevation_m": 660.4715,
    "estuary_dist_km": 615.04,
    "feasibility_score": 0.0,
    "flood_q10_cfs": null,
    "flow_score": 78.7614,
    "flow_velocity_ms": 0.5,
    "generation_score": 25.4438,
    "impact_score": 32.1407,
    "impervious_pct": null,
    "land_ownership": 0.5,
    "lat": 35.1367,
    "litter_complaint_density": 0.0,
    "lon": -82.8106,
    "navigable_dist_m": null,
    "npdes_points": 1,
    "pixel_col": 292.0,
    "pixel_row": 305.0,
    "population_density": 29.2,
    "position_along": 0.625,
    "protected_area_score": 10.5092,
    "rank": 3,
    "road_access_m": 406.3,
    "road_access_score": 0.8,
    "road_density_km_km2": 1.967,
    "robustness_pct": 100.0,
    "runoff_coeff_C": null,
    "seasonal_cv": null,
    "segment_id": 0,
    "segment_length_m": 6764.3345,
    "stream_order": 1,
    "superfund_score": 0.0,
    "tourism_amenity_density": 0.7162,
    "tri_facility_density": 0.0,
    "usgs_mean_q_cfs": null,
    "velocity_feasibility": 1.0,
    "water_intake_score": 0.7662
   },
   "type": "Feature"
  },
  {
   "geometry": {
    "coordinates": [
     -82.834061,
     35.145721
    ],
    "type": "Point"
   },
   "properties": {
    "accumulation": 30693.0,
    "bank_slope_deg": 24.28,
    "bank_slope_score": 0.5,
    "bank_slope_source": "nc-dps-lidar-dem03-cross-section",
    "beach_dist_km": 472.77,
    "bridge_proximity_bonus": 0.0,
    "catchment_area_km2": 3.0633,
    "channel_width_m": 4.97,
    "channel_width_score": 1.0,
    "composite_score": 21.9866,
    "cso_density": 0.0,
    "ej_index": 0.5075,
    "elevation_m": 666.9753,
    "estuary_dist_km": 617.16,
    "feasibility_score": 0.0,
    "flood_q10_cfs": null,
    "flow_score": 0.0,
    "flow_velocity_ms": 0.5,
    "generation_score": 28.9703,
    "impact_score": 44.3182,
    "impervious_pct": null,
    "land_ownership": 0.5,
    "lat": 35.1457,
    "litter_complaint_density": 0.0,
    "lon": -82.8341,
    "navigable_dist_m": null,
    "npdes_points": 1,
    "pixel_col": 78.0,
    "pixel_row": 200.0,
    "population_density": 24.1,
    "position_along": 0.125,
    "protected_area_score": 10.6042,
    "rank": 4,
    "road_access_m": 280.7,
    "road_access_score": 0.8,
    "road_density_km_km2": 3.472,
    "robustness_pct": 100.0,
    "runoff_coeff_C": null,
    "seasonal_cv": null,
    "segment_id": 0,
    "segment_length_m": 6764.3345,
    "stream_order": 1,
    "superfund_score": 0.0,
    "tourism_amenity_density": 0.7958,
    "tri_facility_density": 0.0,
    "usgs_mean_q_cfs": null,
    "velocity_feasibility": 1.0,
    "water_intake_score": 0.7973
   },
   "type": "Feature"
  }
 ],
 "note": "GRIME region 'Rosman, NC' \u2014 real-data pipeline (DEM\u2192streams\u2192candidates\u2192stream mask (sites confined to \u00b1150 m of mapped OSM/NHD waterways)\u2192region-appropriate real parameters\u2192shipped scoring, math unchanged). Width curve: Bieger et al. 2015 JAWRA Table 3, Appalachian Highlands. Flood: not applicable here (documented fallback). NC Blue Ridge (outside SIR 2014-5030 urban coverage)",
 "provenance": {
  "candidates_pre_gate": 4,
  "constant": [
   "bank_slope_score",
   "bridge_proximity_bonus",
   "channel_width_score",
   "cso_density",
   "flood_q10_cfs",
   "flow_velocity_ms",
   "impervious_pct",
   "land_ownership",
   "litter_complaint_density",
   "npdes_points",
   "runoff_coeff_C",
   "seasonal_cv",
   "stream_order",
   "superfund_score",
   "tri_facility_density",
   "usgs_mean_q_cfs",
   "velocity_feasibility"
  ],
  "gated_navigable": 0,
  "hard_gate_removed": 0,
  "n_parameters": 27,
  "parameters": {
   "bank_slope_score": {
    "kind": "real",
    "n_3dep_10m_fallback": 0,
    "n_nc_lidar_3_125ft": 4,
    "n_real": 4,
    "n_sites": 4,
    "source": "NC OneMap / NC DPS DEM03 statewide lidar-derived 3.125-ft (0.953 m) elevations (perpendicular 50 m transect; robust 5 m bank-rise metric); unavailable profiles use the region 10 m 3DEP DEM-gradient fallback",
    "source_mosaics": [
     "Transylvania_Ground_3ft"
    ]
   },
   "beach_dist_km": {
    "kind": "real",
    "n_real": 4,
    "n_sites": 4,
    "source": "haversine to region ref: Wrightsville Beach (shipped NC reference)"
   },
   "bridge_proximity_bonus": {
    "kind": "real",
    "n_real": 4,
    "n_sites": 4,
    "source": "FHWA/BTS NBI (NTAD), 50 m proximity"
   },
   "catchment_area_km2": {
    "kind": "real",
    "n_real": 4,
    "n_sites": 4,
    "source": "DEM flow accumulation (pipeline)"
   },
   "channel_width_score": {
    "kind": "real",
    "n_real": 4,
    "n_sites": 4,
    "source": "Bieger 2015 AHI width curve on DEM drainage area \u2192 shipped width curve"
   },
   "cso_density": {
    "kind": "real",
    "n_real": 4,
    "n_sites": 4,
    "source": "EPA ECHO open CSO/TCS outfall PF coordinates states=NC, Cauchy proximity"
   },
   "ej_index": {
    "kind": "real",
    "n_real": 4,
    "n_sites": 4,
    "source": "Census ACS C17002+B03002 two-component demographic index, percentile-ranked within region"
   },
   "estuary_dist_km": {
    "kind": "real",
    "n_real": 4,
    "n_sites": 4,
    "source": "haversine to region ref: Pamlico Sound (shipped NC reference)"
   },
   "flood_q10_cfs": {
    "impervious_fallback_reason": "StreamCat imperviousness unavailable; the existing regression-input fallback of 0.0% impervious was used and is disclosed here",
    "kind": "fallback",
    "n_impervious_fallback": 4,
    "n_real": 0,
    "n_sites": 4,
    "source": "flood regression not valid here (NC Blue Ridge (outside SIR 2014-5030 urban coverage)...) \u2014 NaN, dropped by constant-column handling"
   },
   "flow_velocity_ms": {
    "kind": "fallback",
    "n_fallback": 4,
    "n_real": 0,
    "n_sites": 4,
    "reason": "EROM/DEM continuity input unavailable; shipped 0.5 m/s default used",
    "source": "Manning (region DEM/D8) blended with EROM continuity (shipped M4 logic)"
   },
   "impervious_pct": {
    "kind": "fallback",
    "n_fallback": 4,
    "n_real": 0,
    "n_sites": 4,
    "reason": "NLDI/StreamCat did not return a snap-compatible catchment value; value remains null and is removed by constant-column handling",
    "source": "EPA StreamCat pctimp2019 (per NHDPlus watershed)"
   },
   "land_ownership": {
    "fallback_reason": "no containing parcel owner returned; shipped unknown ownership 0.5 used",
    "kind": "real",
    "n_fallback": 3,
    "n_real": 1,
    "n_sites": 4,
    "source": "NC OneMap statewide parcels (NC Parcels Transformer) ownname"
   },
   "litter_complaint_density": {
    "kind": "fallback",
    "n_real": 0,
    "n_sites": 4,
    "source": "no public machine-readable litter/illegal-dumping feed for this region"
   },
   "navigable_dist_m": {
    "kind": "real",
    "n_real": 4,
    "n_sites": 4,
    "source": "USACE/BTS NWN (NTAD): no navigable segment within this bbox (+2 km) \u2014 computed absence, gate passes all sites"
   },
   "npdes_points": {
    "kind": "real",
    "n_real": 4,
    "n_sites": 4,
    "source": "EPA ECHO active NPDES outfalls states=NC (types NPD/GPC/NGP; statuses ADC/EFF/EXP), per catchment"
   },
   "population_density": {
    "kind": "real",
    "n_real": 4,
    "n_sites": 4,
    "source": "Census ACS 2022 B01003 block groups (bbox, multi-county), area-weighted"
   },
   "protected_area_score": {
    "kind": "real",
    "n_real": 4,
    "n_sites": 4,
    "source": "USGS PAD-US 4.1 state GDB; states=NC; shipped designation-weighted proximity curve"
   },
   "road_access_score": {
    "kind": "real",
    "n_real": 4,
    "n_sites": 4,
    "source": "OSM drive network nearest-node distance"
   },
   "road_density_km_km2": {
    "kind": "real",
    "n_real": 4,
    "n_sites": 4,
    "source": "OSM drive network (osmnx, cached) clipped per catchment"
   },
   "runoff_coeff_C": {
    "kind": "fallback",
    "n_fallback": 4,
    "n_real": 0,
    "n_sites": 4,
    "reason": "source impervious_pct was unavailable; derived value remains null",
    "source": "derived from real impervious_pct (C=0.05+0.009*I)"
   },
   "seasonal_cv": {
    "kind": "fallback",
    "n_fallback": 4,
    "n_real": 0,
    "n_sites": 4,
    "reason": "NHDPlus monthly EROM was unavailable or failed the drainage-area snap guard; value remains null",
    "source": "CV of NHDPlus EROM monthly flows per COMID"
   },
   "stream_order": {
    "kind": "real",
    "n_real": 4,
    "n_sites": 4,
    "source": "DEM stream-network confluence heuristic (pipeline)"
   },
   "superfund_score": {
    "kind": "real",
    "n_real": 4,
    "n_sites": 4,
    "source": "EPA DataMap SEMS active sites states=NC (non-archived, georeferenced), shipped 500 m inverse-distance curve"
   },
   "tourism_amenity_density": {
    "kind": "real",
    "n_real": 4,
    "n_sites": 4,
    "source": "OSM leisure/tourism features per 2 km radius"
   },
   "tri_facility_density": {
    "kind": "real",
    "n_real": 4,
    "n_sites": 4,
    "source": "EPA DataMap TRI open facilities states=NC (preferred decimal or packed-DMS recovery), per catchment"
   },
   "usgs_mean_q_cfs": {
    "kind": "fallback",
    "n_fallback": 4,
    "n_real": 0,
    "n_sites": 4,
    "reason": "NHDPlus EROM was unavailable or failed the drainage-area snap guard; value remains null",
    "source": "NHDPlus EROM qe_ma per COMID (snap-guarded)"
   },
   "velocity_feasibility": {
    "kind": "fallback",
    "n_fallback": 4,
    "n_real": 0,
    "n_sites": 4,
    "reason": "derived from the shipped 0.5 m/s velocity fallback",
    "source": "shipped step curve on the computed velocity"
   },
   "velocity_transport_favorability": {
    "fallback_reason": "EROM/DEM continuity input unavailable; shipped 0.5 m/s default used",
    "kind": "derived",
    "n_fallback": 4,
    "n_real": 0,
    "n_sites": 4,
    "source": "scored form of flow_velocity_ms inside the Flow family \u2014 peaked Gaussian exp(-((v-0.9)/0.6)^2), model.json curves.velocity_transport_favorability; construct: transport/delivery favorability, deliberately distinct from velocity_feasibility (device operability)"
   },
   "water_intake_score": {
    "kind": "real",
    "n_real": 4,
    "n_sites": 4,
    "source": "NC OneMap / NC DEQ SWAP public water supply sources (source_typ='Surface Water'), shipped exp(-d/10km) curve"
   }
  },
  "stream_mask": {
   "buffer_m": 150.0,
   "pre_mask": 4,
   "removed": 0,
   "sources": [
    "osm-overpass (all waterway ways)",
    "usgs-nhdplus flowlines"
   ]
  },
  "varying": [
   "beach_dist_km",
   "catchment_area_km2",
   "ej_index",
   "estuary_dist_km",
   "population_density",
   "protected_area_score",
   "road_access_score",
   "road_density_km_km2",
   "tourism_amenity_density",
   "water_intake_score"
  ]
 },
 "region": {
  "bbox": [
   -82.8422,
   35.1278,
   -82.7981,
   35.1638
  ],
  "beach_ref": {
   "label": "Wrightsville Beach (shipped NC reference)",
   "lat": 34.21,
   "lon": -77.79
  },
  "center": [
   -82.820155,
   35.145826
  ],
  "estuary_ref": {
   "label": "Pamlico Sound (shipped NC reference)",
   "lat": 35.05,
   "lon": -76.05
  },
  "flood_method": "none",
  "name": "Rosman, NC",
  "notes": "NC Blue Ridge (outside SIR 2014-5030 urban coverage)",
  "slug": "rosman",
  "state": "NC",
  "utm_epsg": 32617,
  "width_curve": {
   "a": 3.12,
   "b": 0.415,
   "code": "AHI",
   "source": "Bieger et al. 2015 JAWRA Table 3, Appalachian Highlands"
  }
 },
 "type": "FeatureCollection"
}
