{
 "features": [
  {
   "geometry": {
    "coordinates": [
     -78.966363,
     36.420933
    ],
    "type": "Point"
   },
   "properties": {
    "accumulation": 134994.0,
    "bank_slope_deg": 0.95,
    "bank_slope_score": 1.0,
    "bank_slope_source": "nc-dps-lidar-dem03-cross-section",
    "beach_dist_km": 268.01,
    "bridge_proximity_bonus": 0.2,
    "catchment_area_km2": 13.4742,
    "channel_width_m": 9.18,
    "channel_width_score": 1.0,
    "composite_score": 63.913,
    "cso_density": 0.0,
    "ej_index": 0.8018,
    "elevation_m": 163.3455,
    "estuary_dist_km": 304.16,
    "feasibility_score": 100.0,
    "flood_q10_cfs": 1528.52,
    "flow_score": 78.6075,
    "flow_velocity_ms": 0.1463,
    "generation_score": 50.3481,
    "impact_score": 47.1891,
    "impervious_pct": 17.12,
    "land_ownership": 0.5,
    "lat": 36.4209,
    "litter_complaint_density": 0.0,
    "lon": -78.9664,
    "navigable_dist_m": null,
    "npdes_points": 1,
    "pixel_col": 584.0,
    "pixel_row": 195.0,
    "population_density": 241.8,
    "position_along": 0.5,
    "protected_area_score": 2.0119,
    "rank": 1,
    "road_access_m": 70.2,
    "road_access_score": 1.0,
    "road_density_km_km2": 3.897,
    "robustness_pct": 100.0,
    "runoff_coeff_C": 0.2041,
    "seasonal_cv": 0.4316,
    "segment_id": 11,
    "segment_length_m": 607.1278,
    "stream_order": 3,
    "superfund_score": 0.0692,
    "tourism_amenity_density": 1.4324,
    "tri_facility_density": 0.0742,
    "usgs_mean_q_cfs": 6.911,
    "velocity_feasibility": 0.7,
    "water_intake_score": 1.3979
   },
   "type": "Feature"
  },
  {
   "geometry": {
    "coordinates": [
     -78.970774,
     36.430235
    ],
    "type": "Point"
   },
   "properties": {
    "accumulation": 183599.0,
    "bank_slope_deg": 12.04,
    "bank_slope_score": 1.0,
    "bank_slope_source": "nc-dps-lidar-dem03-cross-section",
    "beach_dist_km": 269.11,
    "bridge_proximity_bonus": 0.0,
    "catchment_area_km2": 18.3256,
    "channel_width_m": 10.43,
    "channel_width_score": 1.0,
    "composite_score": 58.4534,
    "cso_density": 0.0,
    "ej_index": 0.7053,
    "elevation_m": 152.9882,
    "estuary_dist_km": 305.01,
    "feasibility_score": 84.6154,
    "flood_q10_cfs": 1740.23,
    "flow_score": 94.137,
    "flow_velocity_ms": 0.1479,
    "generation_score": 40.3992,
    "impact_score": 33.6901,
    "impervious_pct": 14.18,
    "land_ownership": 0.5,
    "lat": 36.4302,
    "litter_complaint_density": 0.0,
    "lon": -78.9708,
    "navigable_dist_m": null,
    "npdes_points": 1,
    "pixel_col": 544.0,
    "pixel_row": 93.0,
    "population_density": 174.3,
    "position_along": 0.5,
    "protected_area_score": 1.81,
    "rank": 2,
    "road_access_m": 78.8,
    "road_access_score": 1.0,
    "road_density_km_km2": 2.489,
    "robustness_pct": 87.0,
    "runoff_coeff_C": 0.1776,
    "seasonal_cv": 0.4246,
    "segment_id": 12,
    "segment_length_m": 2183.4714,
    "stream_order": 3,
    "superfund_score": 0.0412,
    "tourism_amenity_density": 0.3979,
    "tri_facility_density": 0.0546,
    "usgs_mean_q_cfs": 9.77,
    "velocity_feasibility": 0.7,
    "water_intake_score": 1.4395
   },
   "type": "Feature"
  },
  {
   "geometry": {
    "coordinates": [
     -78.968325,
     36.416712
    ],
    "type": "Point"
   },
   "properties": {
    "accumulation": 88112.0,
    "bank_slope_deg": 15.87,
    "bank_slope_score": 0.5,
    "bank_slope_source": "nc-dps-lidar-dem03-cross-section",
    "beach_dist_km": 267.65,
    "bridge_proximity_bonus": 0.2,
    "catchment_area_km2": 8.7947,
    "channel_width_m": 7.69,
    "channel_width_score": 1.0,
    "composite_score": 57.6905,
    "cso_density": 0.0,
    "ej_index": 0.8127,
    "elevation_m": 170.0994,
    "estuary_dist_km": 304.09,
    "feasibility_score": 84.6154,
    "flood_q10_cfs": 1327.53,
    "flow_score": 65.5057,
    "flow_velocity_ms": 0.1464,
    "generation_score": 45.811,
    "impact_score": 49.5948,
    "impervious_pct": 24.02,
    "land_ownership": 0.5,
    "lat": 36.4167,
    "litter_complaint_density": 0.0,
    "lon": -78.9683,
    "navigable_dist_m": null,
    "npdes_points": 0,
    "pixel_col": 570.0,
    "pixel_row": 242.0,
    "population_density": 278.5,
    "position_along": 0.5,
    "protected_area_score": 2.0898,
    "rank": 3,
    "road_access_m": 157.2,
    "road_access_score": 1.0,
    "road_density_km_km2": 4.827,
    "robustness_pct": 100.0,
    "runoff_coeff_C": 0.2662,
    "seasonal_cv": 0.4386,
    "segment_id": 10,
    "segment_length_m": 739.4305,
    "stream_order": 3,
    "superfund_score": 0.0733,
    "tourism_amenity_density": 1.512,
    "tri_facility_density": 0.1137,
    "usgs_mean_q_cfs": 4.532,
    "velocity_feasibility": 0.7,
    "water_intake_score": 1.415
   },
   "type": "Feature"
  },
  {
   "geometry": {
    "coordinates": [
     -78.97575,
     36.408677
    ],
    "type": "Point"
   },
   "properties": {
    "accumulation": 26493.0,
    "bank_slope_deg": 5.97,
    "bank_slope_score": 1.0,
    "bank_slope_source": "nc-dps-lidar-dem03-cross-section",
    "beach_dist_km": 267.1,
    "bridge_proximity_bonus": 0.0,
    "catchment_area_km2": 2.6444,
    "channel_width_m": 4.67,
    "channel_width_score": 1.0,
    "composite_score": 57.3115,
    "cso_density": 0.0,
    "ej_index": 0.806,
    "elevation_m": 186.4722,
    "estuary_dist_km": 304.23,
    "feasibility_score": 84.6154,
    "flood_q10_cfs": 769.58,
    "flow_score": 39.9956,
    "flow_velocity_ms": 0.1151,
    "generation_score": 61.0646,
    "impact_score": 54.3362,
    "impervious_pct": 39.28,
    "land_ownership": 0.5,
    "lat": 36.4087,
    "litter_complaint_density": 0.0,
    "lon": -78.9758,
    "navigable_dist_m": null,
    "npdes_points": 0,
    "pixel_col": 506.0,
    "pixel_row": 335.0,
    "population_density": 438.6,
    "position_along": 0.5,
    "protected_area_score": 2.2883,
    "rank": 4,
    "road_access_m": 53.3,
    "road_access_score": 1.0,
    "road_density_km_km2": 5.765,
    "robustness_pct": 100.0,
    "runoff_coeff_C": 0.4035,
    "seasonal_cv": 0.4674,
    "segment_id": 7,
    "segment_length_m": 2092.2572,
    "stream_order": 3,
    "superfund_score": 0.1034,
    "tourism_amenity_density": 1.512,
    "tri_facility_density": 0.0,
    "usgs_mean_q_cfs": 1.765,
    "velocity_feasibility": 0.7,
    "water_intake_score": 1.4804
   },
   "type": "Feature"
  },
  {
   "geometry": {
    "coordinates": [
     -78.971693,
     36.403457
    ],
    "type": "Point"
   },
   "properties": {
    "accumulation": 43714.0,
    "bank_slope_deg": 13.94,
    "bank_slope_score": 1.0,
    "bank_slope_source": "nc-dps-lidar-dem03-cross-section",
    "beach_dist_km": 266.43,
    "bridge_proximity_bonus": 0.0,
    "catchment_area_km2": 4.3632,
    "channel_width_m": 5.75,
    "channel_width_score": 1.0,
    "composite_score": 52.2354,
    "cso_density": 0.0,
    "ej_index": 0.8875,
    "elevation_m": 178.4217,
    "estuary_dist_km": 303.64,
    "feasibility_score": 84.6154,
    "flood_q10_cfs": 723.04,
    "flow_score": 37.6874,
    "flow_velocity_ms": 0.0918,
    "generation_score": 40.6884,
    "impact_score": 59.7159,
    "impervious_pct": 14.15,
    "land_ownership": 0.5,
    "lat": 36.4035,
    "litter_complaint_density": 0.0,
    "lon": -78.9717,
    "navigable_dist_m": null,
    "npdes_points": 0,
    "pixel_col": 542.0,
    "pixel_row": 390.0,
    "population_density": 386.1,
    "position_along": 0.5,
    "protected_area_score": 2.4694,
    "rank": 5,
    "road_access_m": 94.5,
    "road_access_score": 1.0,
    "road_density_km_km2": 5.463,
    "robustness_pct": 63.5,
    "runoff_coeff_C": 0.1774,
    "seasonal_cv": 0.4592,
    "segment_id": 9,
    "segment_length_m": 2513.0413,
    "stream_order": 3,
    "superfund_score": 0.1478,
    "tourism_amenity_density": 1.4324,
    "tri_facility_density": 0.0,
    "usgs_mean_q_cfs": 2.695,
    "velocity_feasibility": 0.7,
    "water_intake_score": 1.4234
   },
   "type": "Feature"
  },
  {
   "geometry": {
    "coordinates": [
     -78.963043,
     36.424547
    ],
    "type": "Point"
   },
   "properties": {
    "accumulation": 23566.0,
    "bank_slope_deg": 5.81,
    "bank_slope_score": 1.0,
    "bank_slope_source": "nc-dps-lidar-dem03-cross-section",
    "beach_dist_km": 268.26,
    "bridge_proximity_bonus": 0.0,
    "catchment_area_km2": 2.3522,
    "channel_width_m": 4.45,
    "channel_width_score": 1.0,
    "composite_score": 51.1716,
    "cso_density": 0.0,
    "ej_index": 0.7692,
    "elevation_m": 168.3294,
    "estuary_dist_km": 304.1,
    "feasibility_score": 84.6154,
    "flood_q10_cfs": 378.96,
    "flow_score": 28.7152,
    "flow_velocity_ms": 0.1249,
    "generation_score": 64.3578,
    "impact_score": 39.9774,
    "impervious_pct": 3.84,
    "land_ownership": 0.5,
    "lat": 36.4245,
    "litter_complaint_density": 0.0,
    "lon": -78.963,
    "navigable_dist_m": null,
    "npdes_points": 1,
    "pixel_col": 612.0,
    "pixel_row": 158.0,
    "population_density": 229.7,
    "position_along": 0.5,
    "protected_area_score": 1.9513,
    "rank": 6,
    "road_access_m": 90.8,
    "road_access_score": 1.0,
    "road_density_km_km2": 5.986,
    "robustness_pct": 47.5,
    "runoff_coeff_C": 0.0846,
    "seasonal_cv": 0.4829,
    "segment_id": 1,
    "segment_length_m": 869.3091,
    "stream_order": 3,
    "superfund_score": 0.0707,
    "tourism_amenity_density": 0.6366,
    "tri_facility_density": 0.4251,
    "usgs_mean_q_cfs": 1.337,
    "velocity_feasibility": 0.7,
    "water_intake_score": 1.3637
   },
   "type": "Feature"
  },
  {
   "geometry": {
    "coordinates": [
     -78.99441,
     36.356098
    ],
    "type": "Point"
   },
   "properties": {
    "accumulation": 28132.0,
    "bank_slope_deg": 9.93,
    "bank_slope_score": 1.0,
    "bank_slope_source": "nc-dps-lidar-dem03-cross-section",
    "beach_dist_km": 262.48,
    "bridge_proximity_bonus": 0.0,
    "catchment_area_km2": 2.8079,
    "channel_width_m": 4.79,
    "channel_width_score": 1.0,
    "composite_score": 42.9412,
    "cso_density": 0.0,
    "ej_index": 0.7692,
    "elevation_m": 186.9512,
    "estuary_dist_km": 302.93,
    "feasibility_score": 65.3846,
    "flood_q10_cfs": 568.8,
    "flow_score": 18.2774,
    "flow_velocity_ms": 0.1103,
    "generation_score": 42.4537,
    "impact_score": 52.7602,
    "impervious_pct": 19.42,
    "land_ownership": 0.5,
    "lat": 36.3561,
    "litter_complaint_density": 0.0,
    "lon": -78.9944,
    "navigable_dist_m": null,
    "npdes_points": 0,
    "pixel_col": 347.0,
    "pixel_row": 924.0,
    "population_density": 145.1,
    "position_along": 0.5,
    "protected_area_score": 3.922,
    "rank": 7,
    "road_access_m": 442.1,
    "road_access_score": 0.8,
    "road_density_km_km2": 2.156,
    "robustness_pct": 0.5,
    "runoff_coeff_C": 0.2248,
    "seasonal_cv": 0.4813,
    "segment_id": 17,
    "segment_length_m": 1844.7931,
    "stream_order": 1,
    "superfund_score": 0.0166,
    "tourism_amenity_density": 0.0,
    "tri_facility_density": 0.3561,
    "usgs_mean_q_cfs": 1.615,
    "velocity_feasibility": 0.7,
    "water_intake_score": 1.3266
   },
   "type": "Feature"
  },
  {
   "geometry": {
    "coordinates": [
     -78.963838,
     36.414194
    ],
    "type": "Point"
   },
   "properties": {
    "accumulation": 35578.0,
    "bank_slope_deg": 18.35,
    "bank_slope_score": 0.5,
    "bank_slope_source": "nc-dps-lidar-dem03-cross-section",
    "beach_dist_km": 267.23,
    "bridge_proximity_bonus": 0.0,
    "catchment_area_km2": 3.5512,
    "channel_width_m": 5.28,
    "channel_width_score": 1.0,
    "composite_score": 41.7074,
    "cso_density": 0.0,
    "ej_index": 0.8395,
    "elevation_m": 172.0807,
    "estuary_dist_km": 303.6,
    "feasibility_score": 69.2308,
    "flood_q10_cfs": 507.93,
    "flow_score": 32.4938,
    "flow_velocity_ms": 0.1128,
    "generation_score": 27.1597,
    "impact_score": 50.1714,
    "impervious_pct": 2.84,
    "land_ownership": 0.5,
    "lat": 36.4142,
    "litter_complaint_density": 0.0,
    "lon": -78.9638,
    "navigable_dist_m": null,
    "npdes_points": 0,
    "pixel_col": 610.0,
    "pixel_row": 270.0,
    "population_density": 275.7,
    "position_along": 0.5,
    "protected_area_score": 2.1488,
    "rank": 8,
    "road_access_m": 178.6,
    "road_access_score": 1.0,
    "road_density_km_km2": 5.641,
    "robustness_pct": 0.0,
    "runoff_coeff_C": 0.0756,
    "seasonal_cv": 0.4738,
    "segment_id": 6,
    "segment_length_m": 1355.129,
    "stream_order": 3,
    "superfund_score": 0.0908,
    "tourism_amenity_density": 1.2732,
    "tri_facility_density": 0.0,
    "usgs_mean_q_cfs": 2.103,
    "velocity_feasibility": 0.7,
    "water_intake_score": 1.3667
   },
   "type": "Feature"
  },
  {
   "geometry": {
    "coordinates": [
     -78.98528,
     36.423907
    ],
    "type": "Point"
   },
   "properties": {
    "accumulation": 26940.0,
    "bank_slope_deg": 15.63,
    "bank_slope_score": 0.5,
    "bank_slope_source": "nc-dps-lidar-dem03-cross-section",
    "beach_dist_km": 269.0,
    "bridge_proximity_bonus": 0.0,
    "catchment_area_km2": 2.689,
    "channel_width_m": 4.7,
    "channel_width_score": 1.0,
    "composite_score": 38.3158,
    "cso_density": 0.0,
    "ej_index": 0.7692,
    "elevation_m": 169.041,
    "estuary_dist_km": 305.8,
    "feasibility_score": 69.2308,
    "flood_q10_cfs": 435.16,
    "flow_score": 38.7608,
    "flow_velocity_ms": 0.1517,
    "generation_score": 15.0949,
    "impact_score": 45.7083,
    "impervious_pct": 5.98,
    "land_ownership": 0.5,
    "lat": 36.4239,
    "litter_complaint_density": 0.0,
    "lon": -78.9853,
    "navigable_dist_m": null,
    "npdes_points": 0,
    "pixel_col": 415.0,
    "pixel_row": 166.0,
    "population_density": 195.9,
    "position_along": 0.5,
    "protected_area_score": 2.0389,
    "rank": 9,
    "road_access_m": 143.7,
    "road_access_score": 1.0,
    "road_density_km_km2": 1.2,
    "robustness_pct": 0.0,
    "runoff_coeff_C": 0.1038,
    "seasonal_cv": 0.4553,
    "segment_id": 4,
    "segment_length_m": 2682.0002,
    "stream_order": 3,
    "superfund_score": 0.0371,
    "tourism_amenity_density": 1.4324,
    "tri_facility_density": 0.0,
    "usgs_mean_q_cfs": 1.765,
    "velocity_feasibility": 0.7,
    "water_intake_score": 1.61
   },
   "type": "Feature"
  },
  {
   "geometry": {
    "coordinates": [
     -78.930589,
     36.369686
    ],
    "type": "Point"
   },
   "properties": {
    "accumulation": 79019.0,
    "bank_slope_deg": 4.32,
    "bank_slope_score": 1.0,
    "bank_slope_source": "nc-dps-lidar-dem03-cross-section",
    "beach_dist_km": 261.5,
    "bridge_proximity_bonus": 0.0,
    "catchment_area_km2": 7.8871,
    "channel_width_m": 7.35,
    "channel_width_score": 1.0,
    "composite_score": 36.5384,
    "cso_density": 0.0,
    "ej_index": 0.2237,
    "elevation_m": 178.1512,
    "estuary_dist_km": 298.6,
    "feasibility_score": 84.6154,
    "flood_q10_cfs": 913.11,
    "flow_score": 34.277,
    "flow_velocity_ms": 0.1145,
    "generation_score": 5.459,
    "impact_score": 45.464,
    "impervious_pct": 1.3,
    "land_ownership": 0.5,
    "lat": 36.3697,
    "litter_complaint_density": 0.0,
    "lon": -78.9306,
    "navigable_dist_m": null,
    "npdes_points": 0,
    "pixel_col": 921.0,
    "pixel_row": 762.0,
    "population_density": 72.8,
    "position_along": 0.75,
    "protected_area_score": 4.4427,
    "rank": 10,
    "road_access_m": 152.9,
    "road_access_score": 1.0,
    "road_density_km_km2": 1.484,
    "robustness_pct": 0.0,
    "runoff_coeff_C": 0.0617,
    "seasonal_cv": 0.4592,
    "segment_id": 15,
    "segment_length_m": 3179.9408,
    "stream_order": 1,
    "superfund_score": 0.0178,
    "tourism_amenity_density": 0.0,
    "tri_facility_density": 0.0,
    "usgs_mean_q_cfs": 4.095,
    "velocity_feasibility": 0.7,
    "water_intake_score": 1.0361
   },
   "type": "Feature"
  },
  {
   "geometry": {
    "coordinates": [
     -79.020363,
     36.358692
    ],
    "type": "Point"
   },
   "properties": {
    "accumulation": 54457.0,
    "bank_slope_deg": 3.54,
    "bank_slope_score": 1.0,
    "bank_slope_source": "nc-dps-lidar-dem03-cross-section",
    "beach_dist_km": 263.73,
    "bridge_proximity_bonus": 0.0,
    "catchment_area_km2": 5.4355,
    "channel_width_m": 6.3,
    "channel_width_score": 1.0,
    "composite_score": 35.1225,
    "cso_density": 0.0,
    "ej_index": 0.6094,
    "elevation_m": 188.8983,
    "estuary_dist_km": 305.12,
    "feasibility_score": 65.3846,
    "flood_q10_cfs": 748.57,
    "flow_score": 34.7043,
    "flow_velocity_ms": 0.1264,
    "generation_score": 11.1372,
    "impact_score": 44.3252,
    "impervious_pct": 6.67,
    "land_ownership": 0.5,
    "lat": 36.3587,
    "litter_complaint_density": 0.0,
    "lon": -79.0204,
    "navigable_dist_m": null,
    "npdes_points": 0,
    "pixel_col": 113.0,
    "pixel_row": 900.0,
    "population_density": 111.2,
    "position_along": 0.75,
    "protected_area_score": 3.4104,
    "rank": 11,
    "road_access_m": 313.4,
    "road_access_score": 0.8,
    "road_density_km_km2": 1.431,
    "robustness_pct": 0.0,
    "runoff_coeff_C": 0.11,
    "seasonal_cv": 0.4356,
    "segment_id": 13,
    "segment_length_m": 4386.6299,
    "stream_order": 1,
    "superfund_score": 0.0116,
    "tourism_amenity_density": 0.0,
    "tri_facility_density": 0.0,
    "usgs_mean_q_cfs": 3.777,
    "velocity_feasibility": 0.7,
    "water_intake_score": 1.4674
   },
   "type": "Feature"
  },
  {
   "geometry": {
    "coordinates": [
     -78.984721,
     36.435485
    ],
    "type": "Point"
   },
   "properties": {
    "accumulation": 67865.0,
    "bank_slope_deg": 9.67,
    "bank_slope_score": 1.0,
    "bank_slope_source": "nc-dps-lidar-dem03-cross-section",
    "beach_dist_km": 270.15,
    "bridge_proximity_bonus": 0.0,
    "catchment_area_km2": 6.7738,
    "channel_width_m": 6.9,
    "channel_width_score": 1.0,
    "composite_score": 35.0054,
    "cso_density": 0.0,
    "ej_index": 0.626,
    "elevation_m": 145.8625,
    "estuary_dist_km": 306.39,
    "feasibility_score": 65.3846,
    "flood_q10_cfs": 841.67,
    "flow_score": 51.9172,
    "flow_velocity_ms": 0.1223,
    "generation_score": 9.5179,
    "impact_score": 31.2101,
    "impervious_pct": 3.89,
    "land_ownership": 0.5,
    "lat": 36.4355,
    "litter_complaint_density": 0.0,
    "lon": -78.9847,
    "navigable_dist_m": null,
    "npdes_points": 0,
    "pixel_col": 418.0,
    "pixel_row": 37.0,
    "population_density": 136.0,
    "position_along": 0.5,
    "protected_area_score": 1.8823,
    "rank": 12,
    "road_access_m": 487.1,
    "road_access_score": 0.8,
    "road_density_km_km2": 0.866,
    "robustness_pct": 1.5,
    "runoff_coeff_C": 0.085,
    "seasonal_cv": 0.4256,
    "segment_id": 5,
    "segment_length_m": 1055.4093,
    "stream_order": 3,
    "superfund_score": 0.0243,
    "tourism_amenity_density": 0.3979,
    "tri_facility_density": 0.0,
    "usgs_mean_q_cfs": 4.012,
    "velocity_feasibility": 0.7,
    "water_intake_score": 1.5836
   },
   "type": "Feature"
  },
  {
   "geometry": {
    "coordinates": [
     -78.967775,
     36.357133
    ],
    "type": "Point"
   },
   "properties": {
    "accumulation": 28004.0,
    "bank_slope_deg": 13.8,
    "bank_slope_score": 1.0,
    "bank_slope_source": "nc-dps-lidar-dem03-cross-section",
    "beach_dist_km": 261.59,
    "bridge_proximity_bonus": 0.0,
    "catchment_area_km2": 2.7952,
    "channel_width_m": 4.78,
    "channel_width_score": 1.0,
    "composite_score": 33.9924,
    "cso_density": 0.0,
    "ej_index": 0.7308,
    "elevation_m": 189.1911,
    "estuary_dist_km": 300.87,
    "feasibility_score": 84.6154,
    "flood_q10_cfs": 433.47,
    "flow_score": 14.83,
    "flow_velocity_ms": 0.1115,
    "generation_score": 3.7815,
    "impact_score": 54.8606,
    "impervious_pct": 4.09,
    "land_ownership": 0.5,
    "lat": 36.3571,
    "litter_complaint_density": 0.0,
    "lon": -78.9678,
    "navigable_dist_m": null,
    "npdes_points": 0,
    "pixel_col": 587.0,
    "pixel_row": 908.0,
    "population_density": 42.8,
    "position_along": 0.5,
    "protected_area_score": 4.1659,
    "rank": 13,
    "road_access_m": 195.3,
    "road_access_score": 1.0,
    "road_density_km_km2": 0.649,
    "robustness_pct": 0.0,
    "runoff_coeff_C": 0.0868,
    "seasonal_cv": 0.4846,
    "segment_id": 16,
    "segment_length_m": 1652.1305,
    "stream_order": 1,
    "superfund_score": 0.0187,
    "tourism_amenity_density": 0.0,
    "tri_facility_density": 0.0,
    "usgs_mean_q_cfs": 1.817,
    "velocity_feasibility": 0.7,
    "water_intake_score": 1.1994
   },
   "type": "Feature"
  },
  {
   "geometry": {
    "coordinates": [
     -79.005625,
     36.352913
    ],
    "type": "Point"
   },
   "properties": {
    "accumulation": 22889.0,
    "bank_slope_deg": 8.66,
    "bank_slope_score": 1.0,
    "bank_slope_source": "nc-dps-lidar-dem03-cross-section",
    "beach_dist_km": 262.58,
    "bridge_proximity_bonus": 0.0,
    "catchment_area_km2": 2.2846,
    "channel_width_m": 4.4,
    "channel_width_score": 1.0,
    "composite_score": 33.6284,
    "cso_density": 0.0,
    "ej_index": 0.7692,
    "elevation_m": 183.4032,
    "estuary_dist_km": 303.65,
    "feasibility_score": 84.6154,
    "flood_q10_cfs": 350.66,
    "flow_score": 11.5497,
    "flow_velocity_ms": 0.1039,
    "generation_score": 8.4436,
    "impact_score": 51.7185,
    "impervious_pct": 0.66,
    "land_ownership": 0.5,
    "lat": 36.3529,
    "litter_complaint_density": 0.0,
    "lon": -79.0056,
    "navigable_dist_m": null,
    "npdes_points": 0,
    "pixel_col": 249.0,
    "pixel_row": 962.0,
    "population_density": 145.1,
    "position_along": 0.5,
    "protected_area_score": 3.8391,
    "rank": 14,
    "road_access_m": 69.1,
    "road_access_score": 1.0,
    "road_density_km_km2": 1.119,
    "robustness_pct": 0.0,
    "runoff_coeff_C": 0.0559,
    "seasonal_cv": 0.4785,
    "segment_id": 18,
    "segment_length_m": 634.6757,
    "stream_order": 1,
    "superfund_score": 0.0127,
    "tourism_amenity_density": 0.0,
    "tri_facility_density": 0.0,
    "usgs_mean_q_cfs": 1.412,
    "velocity_feasibility": 0.7,
    "water_intake_score": 1.365
   },
   "type": "Feature"
  },
  {
   "geometry": {
    "coordinates": [
     -78.926217,
     36.412773
    ],
    "type": "Point"
   },
   "properties": {
    "accumulation": 74140.0,
    "bank_slope_deg": 1.0,
    "bank_slope_score": 1.0,
    "bank_slope_source": "nc-dps-lidar-dem03-cross-section",
    "beach_dist_km": 265.74,
    "bridge_proximity_bonus": 0.0,
    "catchment_area_km2": 7.4002,
    "channel_width_m": 7.16,
    "channel_width_score": 1.0,
    "composite_score": 31.941,
    "cso_density": 0.0,
    "ej_index": 0.9617,
    "elevation_m": 172.7008,
    "estuary_dist_km": 300.59,
    "feasibility_score": 65.3846,
    "flood_q10_cfs": 857.56,
    "flow_score": 34.4383,
    "flow_velocity_ms": 0.1164,
    "generation_score": 1.7484,
    "impact_score": 43.3306,
    "impervious_pct": 1.15,
    "land_ownership": 0.5,
    "lat": 36.4128,
    "litter_complaint_density": 0.0,
    "lon": -78.9262,
    "navigable_dist_m": null,
    "npdes_points": 0,
    "pixel_col": 950.0,
    "pixel_row": 278.0,
    "population_density": 42.4,
    "position_along": 0.8333,
    "protected_area_score": 1.8778,
    "rank": 15,
    "road_access_m": 280.3,
    "road_access_score": 0.8,
    "road_density_km_km2": 0.622,
    "robustness_pct": 0.0,
    "runoff_coeff_C": 0.0604,
    "seasonal_cv": 0.4547,
    "segment_id": 8,
    "segment_length_m": 4722.884,
    "stream_order": 1,
    "superfund_score": 0.115,
    "tourism_amenity_density": 0.0,
    "tri_facility_density": 0.0,
    "usgs_mean_q_cfs": 4.258,
    "velocity_feasibility": 0.7,
    "water_intake_score": 1.0384
   },
   "type": "Feature"
  },
  {
   "geometry": {
    "coordinates": [
     -79.014448,
     36.408576
    ],
    "type": "Point"
   },
   "properties": {
    "accumulation": 64748.0,
    "bank_slope_deg": 8.18,
    "bank_slope_score": 1.0,
    "bank_slope_source": "nc-dps-lidar-dem03-cross-section",
    "beach_dist_km": 268.53,
    "bridge_proximity_bonus": 0.0,
    "catchment_area_km2": 6.4627,
    "channel_width_m": 6.77,
    "channel_width_score": 1.0,
    "composite_score": 29.4067,
    "cso_density": 0.0,
    "ej_index": 0.1216,
    "elevation_m": 161.0756,
    "estuary_dist_km": 307.27,
    "feasibility_score": 65.3846,
    "flood_q10_cfs": 780.74,
    "flow_score": 38.4412,
    "flow_velocity_ms": 0.1273,
    "generation_score": 7.0981,
    "impact_score": 26.1978,
    "impervious_pct": 1.62,
    "land_ownership": 0.5,
    "lat": 36.4086,
    "litter_complaint_density": 0.0,
    "lon": -79.0144,
    "navigable_dist_m": null,
    "npdes_points": 0,
    "pixel_col": 158.0,
    "pixel_row": 341.0,
    "population_density": 73.7,
    "position_along": 0.625,
    "protected_area_score": 2.1182,
    "rank": 16,
    "road_access_m": 369.0,
    "road_access_score": 0.8,
    "road_density_km_km2": 2.125,
    "robustness_pct": 0.0,
    "runoff_coeff_C": 0.0646,
    "seasonal_cv": 0.4249,
    "segment_id": 14,
    "segment_length_m": 6271.5579,
    "stream_order": 1,
    "superfund_score": 0.0266,
    "tourism_amenity_density": 0.0,
    "tri_facility_density": 0.0,
    "usgs_mean_q_cfs": 4.389,
    "velocity_feasibility": 0.7,
    "water_intake_score": 1.8575
   },
   "type": "Feature"
  },
  {
   "geometry": {
    "coordinates": [
     -78.990319,
     36.428529
    ],
    "type": "Point"
   },
   "properties": {
    "accumulation": 26419.0,
    "bank_slope_deg": 14.4,
    "bank_slope_score": 1.0,
    "bank_slope_source": "nc-dps-lidar-dem03-cross-section",
    "beach_dist_km": 269.65,
    "bridge_proximity_bonus": 0.0,
    "catchment_area_km2": 2.637,
    "channel_width_m": 4.67,
    "channel_width_score": 1.0,
    "composite_score": 29.2961,
    "cso_density": 0.0,
    "ej_index": 0.7016,
    "elevation_m": 152.6649,
    "estuary_dist_km": 306.45,
    "feasibility_score": 46.1538,
    "flood_q10_cfs": 405.87,
    "flow_score": 32.7723,
    "flow_velocity_ms": 0.1197,
    "generation_score": 11.3043,
    "impact_score": 35.9622,
    "impervious_pct": 2.84,
    "land_ownership": 0.5,
    "lat": 36.4285,
    "litter_complaint_density": 0.0,
    "lon": -78.9903,
    "navigable_dist_m": null,
    "npdes_points": 0,
    "pixel_col": 370.0,
    "pixel_row": 116.0,
    "population_density": 163.3,
    "position_along": 0.5,
    "protected_area_score": 1.9711,
    "rank": 17,
    "road_access_m": 550.9,
    "road_access_score": 0.6,
    "road_density_km_km2": 1.286,
    "robustness_pct": 0.0,
    "runoff_coeff_C": 0.0756,
    "seasonal_cv": 0.4543,
    "segment_id": 3,
    "segment_length_m": 1147.7493,
    "stream_order": 3,
    "superfund_score": 0.0278,
    "tourism_amenity_density": 0.3979,
    "tri_facility_density": 0.0,
    "usgs_mean_q_cfs": 1.649,
    "velocity_feasibility": 0.7,
    "water_intake_score": 1.6686
   },
   "type": "Feature"
  },
  {
   "geometry": {
    "coordinates": [
     -79.019524,
     36.399874
    ],
    "type": "Point"
   },
   "properties": {
    "accumulation": 49702.0,
    "bank_slope_deg": 14.13,
    "bank_slope_score": 1.0,
    "bank_slope_source": "nc-dps-lidar-dem03-cross-section",
    "beach_dist_km": 267.84,
    "bridge_proximity_bonus": 0.0,
    "catchment_area_km2": 4.9609,
    "channel_width_m": 6.06,
    "channel_width_score": 1.0,
    "composite_score": 29.2661,
    "cso_density": 0.0,
    "ej_index": 0.1154,
    "elevation_m": 173.5966,
    "estuary_dist_km": 307.2,
    "feasibility_score": 65.3846,
    "flood_q10_cfs": 639.66,
    "flow_score": 37.0621,
    "flow_velocity_ms": 0.1381,
    "generation_score": 7.111,
    "impact_score": 26.8654,
    "impervious_pct": 1.62,
    "land_ownership": 0.5,
    "lat": 36.3999,
    "litter_complaint_density": 0.0,
    "lon": -79.0195,
    "navigable_dist_m": null,
    "npdes_points": 0,
    "pixel_col": 114.0,
    "pixel_row": 439.0,
    "population_density": 71.0,
    "position_along": 0.375,
    "protected_area_score": 2.3048,
    "rank": 18,
    "road_access_m": 331.1,
    "road_access_score": 0.8,
    "road_density_km_km2": 2.204,
    "robustness_pct": 0.0,
    "runoff_coeff_C": 0.0646,
    "seasonal_cv": 0.4249,
    "segment_id": 14,
    "segment_length_m": 6271.5579,
    "stream_order": 1,
    "superfund_score": 0.0244,
    "tourism_amenity_density": 0.0,
    "tri_facility_density": 0.0,
    "usgs_mean_q_cfs": 4.389,
    "velocity_feasibility": 0.7,
    "water_intake_score": 1.8024
   },
   "type": "Feature"
  },
  {
   "geometry": {
    "coordinates": [
     -78.933712,
     36.405222
    ],
    "type": "Point"
   },
   "properties": {
    "accumulation": 47456.0,
    "bank_slope_deg": 16.4,
    "bank_slope_score": 0.5,
    "bank_slope_source": "nc-dps-lidar-dem03-cross-section",
    "beach_dist_km": 265.24,
    "bridge_proximity_bonus": 0.0,
    "catchment_area_km2": 4.7367,
    "channel_width_m": 5.95,
    "channel_width_score": 1.0,
    "composite_score": 28.2919,
    "cso_density": 0.0,
    "ej_index": 0.961,
    "elevation_m": 179.6061,
    "estuary_dist_km": 300.76,
    "feasibility_score": 50.0,
    "flood_q10_cfs": 615.17,
    "flow_score": 24.1885,
    "flow_velocity_ms": 0.1319,
    "generation_score": 3.1374,
    "impact_score": 46.012,
    "impervious_pct": 1.38,
    "land_ownership": 0.5,
    "lat": 36.4052,
    "litter_complaint_density": 0.0,
    "lon": -78.9337,
    "navigable_dist_m": null,
    "npdes_points": 0,
    "pixel_col": 884.0,
    "pixel_row": 365.0,
    "population_density": 46.6,
    "position_along": 0.5,
    "protected_area_score": 2.0186,
    "rank": 19,
    "road_access_m": 314.9,
    "road_access_score": 0.8,
    "road_density_km_km2": 1.085,
    "robustness_pct": 0.0,
    "runoff_coeff_C": 0.0624,
    "seasonal_cv": 0.4772,
    "segment_id": 8,
    "segment_length_m": 4722.884,
    "stream_order": 1,
    "superfund_score": 0.1176,
    "tourism_amenity_density": 0.0,
    "tri_facility_density": 0.0,
    "usgs_mean_q_cfs": 2.539,
    "velocity_feasibility": 0.7,
    "water_intake_score": 1.0981
   },
   "type": "Feature"
  },
  {
   "geometry": {
    "coordinates": [
     -79.011532,
     36.37451
    ],
    "type": "Point"
   },
   "properties": {
    "accumulation": 33346.0,
    "bank_slope_deg": 11.19,
    "bank_slope_score": 1.0,
    "bank_slope_source": "nc-dps-lidar-dem03-cross-section",
    "beach_dist_km": 264.98,
    "bridge_proximity_bonus": 0.0,
    "catchment_area_km2": 3.3284,
    "channel_width_m": 5.14,
    "channel_width_score": 1.0,
    "composite_score": 28.1853,
    "cso_density": 0.0,
    "ej_index": 0.6432,
    "elevation_m": 196.1763,
    "estuary_dist_km": 305.24,
    "feasibility_score": 34.6154,
    "flood_q10_cfs": 517.26,
    "flow_score": 18.5293,
    "flow_velocity_ms": 0.0387,
    "generation_score": 14.0083,
    "impact_score": 47.1938,
    "impervious_pct": 6.67,
    "land_ownership": 0.5,
    "lat": 36.3745,
    "litter_complaint_density": 0.0,
    "lon": -79.0115,
    "navigable_dist_m": null,
    "npdes_points": 0,
    "pixel_col": 190.0,
    "pixel_row": 723.0,
    "population_density": 118.3,
    "position_along": 0.25,
    "protected_area_score": 2.8936,
    "rank": 20,
    "road_access_m": 348.7,
    "road_access_score": 0.8,
    "road_density_km_km2": 2.578,
    "robustness_pct": 0.0,
    "runoff_coeff_C": 0.11,
    "seasonal_cv": 0.4356,
    "segment_id": 13,
    "segment_length_m": 4386.6299,
    "stream_order": 1,
    "superfund_score": 0.0241,
    "tourism_amenity_density": 0.7162,
    "tri_facility_density": 0.0,
    "usgs_mean_q_cfs": 3.777,
    "velocity_feasibility": 0.3,
    "water_intake_score": 1.5397
   },
   "type": "Feature"
  },
  {
   "geometry": {
    "coordinates": [
     -78.946288,
     36.398955
    ],
    "type": "Point"
   },
   "properties": {
    "accumulation": 27071.0,
    "bank_slope_deg": 13.43,
    "bank_slope_score": 1.0,
    "bank_slope_source": "nc-dps-lidar-dem03-cross-section",
    "beach_dist_km": 265.05,
    "bridge_proximity_bonus": 0.0,
    "catchment_area_km2": 2.702,
    "channel_width_m": 4.71,
    "channel_width_score": 1.0,
    "composite_score": 27.8367,
    "cso_density": 0.0,
    "ej_index": 0.9521,
    "elevation_m": 188.8826,
    "estuary_dist_km": 301.4,
    "feasibility_score": 46.1538,
    "flood_q10_cfs": 402.97,
    "flow_score": 16.6799,
    "flow_velocity_ms": 0.1106,
    "generation_score": 8.1969,
    "impact_score": 47.6152,
    "impervious_pct": 1.38,
    "land_ownership": 0.5,
    "lat": 36.399,
    "litter_complaint_density": 0.0,
    "lon": -78.9463,
    "navigable_dist_m": null,
    "npdes_points": 0,
    "pixel_col": 773.0,
    "pixel_row": 437.0,
    "population_density": 89.0,
    "position_along": 0.1667,
    "protected_area_score": 2.4579,
    "rank": 21,
    "road_access_m": 621.0,
    "road_access_score": 0.6,
    "road_density_km_km2": 2.298,
    "robustness_pct": 0.0,
    "runoff_coeff_C": 0.0624,
    "seasonal_cv": 0.4772,
    "segment_id": 8,
    "segment_length_m": 4722.884,
    "stream_order": 1,
    "superfund_score": 0.0826,
    "tourism_amenity_density": 0.0,
    "tri_facility_density": 0.0,
    "usgs_mean_q_cfs": 2.539,
    "velocity_feasibility": 0.7,
    "water_intake_score": 1.1866
   },
   "type": "Feature"
  },
  {
   "geometry": {
    "coordinates": [
     -79.012621,
     36.419234
    ],
    "type": "Point"
   },
   "properties": {
    "accumulation": 82247.0,
    "bank_slope_deg": 20.39,
    "bank_slope_score": 0.5,
    "bank_slope_source": "nc-dps-lidar-dem03-cross-section",
    "beach_dist_km": 269.53,
    "bridge_proximity_bonus": 0.0,
    "catchment_area_km2": 8.2093,
    "channel_width_m": 7.47,
    "channel_width_score": 1.0,
    "composite_score": 24.4923,
    "cso_density": 0.0,
    "ej_index": 0.1714,
    "elevation_m": 148.7883,
    "estuary_dist_km": 307.69,
    "feasibility_score": 30.7692,
    "flood_q10_cfs": 937.72,
    "flow_score": 40.0946,
    "flow_velocity_ms": 0.1151,
    "generation_score": 5.9738,
    "impact_score": 26.8703,
    "impervious_pct": 1.62,
    "land_ownership": 0.5,
    "lat": 36.4192,
    "litter_complaint_density": 0.0,
    "lon": -79.0126,
    "navigable_dist_m": null,
    "npdes_points": 0,
    "pixel_col": 172.0,
    "pixel_row": 223.0,
    "population_density": 79.9,
    "position_along": 0.875,
    "protected_area_score": 2.0972,
    "rank": 22,
    "road_access_m": 624.4,
    "road_access_score": 0.6,
    "road_density_km_km2": 1.433,
    "robustness_pct": 0.0,
    "runoff_coeff_C": 0.0646,
    "seasonal_cv": 0.4249,
    "segment_id": 14,
    "segment_length_m": 6271.5579,
    "stream_order": 1,
    "superfund_score": 0.0215,
    "tourism_amenity_density": 0.0,
    "tri_facility_density": 0.0,
    "usgs_mean_q_cfs": 4.389,
    "velocity_feasibility": 0.7,
    "water_intake_score": 1.9484
   },
   "type": "Feature"
  },
  {
   "geometry": {
    "coordinates": [
     -79.022383,
     36.387772
    ],
    "type": "Point"
   },
   "properties": {
    "accumulation": 31417.0,
    "bank_slope_deg": 16.07,
    "bank_slope_score": 0.5,
    "bank_slope_source": "nc-dps-lidar-dem03-cross-section",
    "beach_dist_km": 266.73,
    "bridge_proximity_bonus": 0.0,
    "catchment_area_km2": 3.1358,
    "channel_width_m": 5.01,
    "channel_width_score": 1.0,
    "composite_score": 24.0007,
    "cso_density": 0.0,
    "ej_index": 0.2212,
    "elevation_m": 180.4494,
    "estuary_dist_km": 306.79,
    "feasibility_score": 50.0,
    "flood_q10_cfs": 452.72,
    "flow_score": 26.4645,
    "flow_velocity_ms": 0.092,
    "generation_score": 4.139,
    "impact_score": 28.8096,
    "impervious_pct": 1.62,
    "land_ownership": 0.5,
    "lat": 36.3878,
    "litter_complaint_density": 0.0,
    "lon": -79.0224,
    "navigable_dist_m": null,
    "npdes_points": 0,
    "pixel_col": 91.0,
    "pixel_row": 574.0,
    "population_density": 61.2,
    "position_along": 0.125,
    "protected_area_score": 2.2868,
    "rank": 23,
    "road_access_m": 483.9,
    "road_access_score": 0.8,
    "road_density_km_km2": 1.083,
    "robustness_pct": 0.0,
    "runoff_coeff_C": 0.0646,
    "seasonal_cv": 0.4249,
    "segment_id": 14,
    "segment_length_m": 6271.5579,
    "stream_order": 1,
    "superfund_score": 0.0211,
    "tourism_amenity_density": 0.0,
    "tri_facility_density": 0.0,
    "usgs_mean_q_cfs": 4.389,
    "velocity_feasibility": 0.7,
    "water_intake_score": 1.7068
   },
   "type": "Feature"
  },
  {
   "geometry": {
    "coordinates": [
     -78.943798,
     36.371365
    ],
    "type": "Point"
   },
   "properties": {
    "accumulation": 37435.0,
    "bank_slope_deg": 10.55,
    "bank_slope_score": 1.0,
    "bank_slope_source": "nc-dps-lidar-dem03-cross-section",
    "beach_dist_km": 262.15,
    "bridge_proximity_bonus": 0.0,
    "catchment_area_km2": 3.7365,
    "channel_width_m": 5.39,
    "channel_width_score": 1.0,
    "composite_score": 22.2489,
    "cso_density": 0.0,
    "ej_index": 0.1731,
    "elevation_m": 186.945,
    "estuary_dist_km": 299.73,
    "feasibility_score": 34.6154,
    "flood_q10_cfs": 514.47,
    "flow_score": 12.1686,
    "flow_velocity_ms": 0.0399,
    "generation_score": 6.458,
    "impact_score": 40.2568,
    "impervious_pct": 1.38,
    "land_ownership": 0.5,
    "lat": 36.3714,
    "litter_complaint_density": 0.0,
    "lon": -78.9438,
    "navigable_dist_m": null,
    "npdes_points": 0,
    "pixel_col": 802.0,
    "pixel_row": 745.0,
    "population_density": 75.8,
    "position_along": 0.25,
    "protected_area_score": 3.8164,
    "rank": 24,
    "road_access_m": 467.2,
    "road_access_score": 0.8,
    "road_density_km_km2": 1.844,
    "robustness_pct": 0.0,
    "runoff_coeff_C": 0.0624,
    "seasonal_cv": 0.4695,
    "segment_id": 15,
    "segment_length_m": 3179.9408,
    "stream_order": 1,
    "superfund_score": 0.024,
    "tourism_amenity_density": 0.0,
    "tri_facility_density": 0.0,
    "usgs_mean_q_cfs": 3.072,
    "velocity_feasibility": 0.3,
    "water_intake_score": 1.1132
   },
   "type": "Feature"
  },
  {
   "geometry": {
    "coordinates": [
     -79.017321,
     36.427198
    ],
    "type": "Point"
   },
   "properties": {
    "accumulation": 22917.0,
    "bank_slope_deg": 0.0,
    "bank_slope_score": 1.0,
    "bank_slope_source": "nc-dps-lidar-dem03-cross-section",
    "beach_dist_km": 270.52,
    "bridge_proximity_bonus": 0.0,
    "catchment_area_km2": 2.2874,
    "channel_width_m": 4.4,
    "channel_width_score": 1.0,
    "composite_score": 21.4474,
    "cso_density": 0.0,
    "ej_index": 0.1154,
    "elevation_m": 147.6587,
    "estuary_dist_km": 308.49,
    "feasibility_score": 34.6154,
    "flood_q10_cfs": 355.93,
    "flow_score": 32.2237,
    "flow_velocity_ms": 0.0347,
    "generation_score": 3.8527,
    "impact_score": 23.478,
    "impervious_pct": 1.46,
    "land_ownership": 0.5,
    "lat": 36.4272,
    "litter_complaint_density": 0.0,
    "lon": -79.0173,
    "navigable_dist_m": null,
    "npdes_points": 0,
    "pixel_col": 128.0,
    "pixel_row": 135.0,
    "population_density": 71.0,
    "position_along": 0.5,
    "protected_area_score": 1.9432,
    "rank": 25,
    "road_access_m": 309.6,
    "road_access_score": 0.8,
    "road_density_km_km2": 0.734,
    "robustness_pct": 0.0,
    "runoff_coeff_C": 0.0631,
    "seasonal_cv": 0.4139,
    "segment_id": 2,
    "segment_length_m": 258.753,
    "stream_order": 1,
    "superfund_score": 0.0154,
    "tourism_amenity_density": 0.0,
    "tri_facility_density": 0.0,
    "usgs_mean_q_cfs": 9.545,
    "velocity_feasibility": 0.3,
    "water_intake_score": 2.0186
   },
   "type": "Feature"
  },
  {
   "geometry": {
    "coordinates": [
     -78.923695,
     36.43636
    ],
    "type": "Point"
   },
   "properties": {
    "accumulation": 20045.0,
    "bank_slope_deg": 15.08,
    "bank_slope_score": 0.5,
    "bank_slope_source": "nc-dps-lidar-dem03-cross-section",
    "beach_dist_km": 268.07,
    "bridge_proximity_bonus": 0.0,
    "catchment_area_km2": 2.0008,
    "channel_width_m": 4.16,
    "channel_width_score": 1.0,
    "composite_score": 17.5072,
    "cso_density": 0.0,
    "ej_index": 0.9615,
    "elevation_m": 167.5496,
    "estuary_dist_km": 301.69,
    "feasibility_score": 30.7692,
    "flood_q10_cfs": 318.68,
    "flow_score": 12.4428,
    "flow_velocity_ms": 0.1289,
    "generation_score": 0.166,
    "impact_score": 32.4376,
    "impervious_pct": 0.91,
    "land_ownership": 0.5,
    "lat": 36.4364,
    "litter_complaint_density": 0.0,
    "lon": -78.9237,
    "navigable_dist_m": null,
    "npdes_points": 0,
    "pixel_col": 966.0,
    "pixel_row": 17.0,
    "population_density": 40.6,
    "position_along": 0.5,
    "protected_area_score": 1.7305,
    "rank": 26,
    "road_access_m": 795.4,
    "road_access_score": 0.6,
    "road_density_km_km2": 0.007,
    "robustness_pct": 0.0,
    "runoff_coeff_C": 0.0582,
    "seasonal_cv": 0.4933,
    "segment_id": 0,
    "segment_length_m": 82.3494,
    "stream_order": 1,
    "superfund_score": 0.0381,
    "tourism_amenity_density": 0.0,
    "tri_facility_density": 0.0,
    "usgs_mean_q_cfs": 1.286,
    "velocity_feasibility": 0.7,
    "water_intake_score": 0.9992
   },
   "type": "Feature"
  }
 ],
 "note": "GRIME region 'Roxboro, NC' \u2014 real-data pipeline (DEM\u2192streams\u2192candidates\u2192stream mask (sites confined to \u00b1150 m of mapped OSM/NHD waterways)\u2192region-appropriate real parameters\u2192shipped scoring, math unchanged). Width curve: Bieger et al. 2015 JAWRA Table 3, Appalachian Highlands. Flood: SIR 2014-5030 HR1. NC Piedmont (DEQ physiography polygon)",
 "provenance": {
  "candidates_pre_gate": 26,
  "constant": [
   "channel_width_score",
   "cso_density",
   "land_ownership",
   "litter_complaint_density"
  ],
  "gated_navigable": 0,
  "hard_gate_removed": 0,
  "n_parameters": 27,
  "parameters": {
   "bank_slope_score": {
    "kind": "real",
    "n_3dep_10m_fallback": 0,
    "n_nc_lidar_3_125ft": 26,
    "n_real": 26,
    "n_sites": 26,
    "source": "NC OneMap / NC DPS DEM03 statewide lidar-derived 3.125-ft (0.953 m) elevations (perpendicular 50 m transect; robust 5 m bank-rise metric); unavailable profiles use the region 10 m 3DEP DEM-gradient fallback",
    "source_mosaics": [
     "Person_2024_QL1_03ft_CountywideRaster"
    ]
   },
   "beach_dist_km": {
    "kind": "real",
    "n_real": 26,
    "n_sites": 26,
    "source": "haversine to region ref: Wrightsville Beach (shipped NC reference)"
   },
   "bridge_proximity_bonus": {
    "kind": "real",
    "n_real": 26,
    "n_sites": 26,
    "source": "FHWA/BTS NBI (NTAD), 50 m proximity"
   },
   "catchment_area_km2": {
    "kind": "real",
    "n_real": 26,
    "n_sites": 26,
    "source": "DEM flow accumulation (pipeline)"
   },
   "channel_width_score": {
    "kind": "real",
    "n_real": 26,
    "n_sites": 26,
    "source": "Bieger 2015 AHI width curve on DEM drainage area \u2192 shipped width curve"
   },
   "cso_density": {
    "kind": "real",
    "n_real": 26,
    "n_sites": 26,
    "source": "EPA ECHO open CSO/TCS outfall PF coordinates states=NC, Cauchy proximity"
   },
   "ej_index": {
    "kind": "real",
    "n_real": 26,
    "n_sites": 26,
    "source": "Census ACS C17002+B03002 two-component demographic index, percentile-ranked within region"
   },
   "estuary_dist_km": {
    "kind": "real",
    "n_real": 26,
    "n_sites": 26,
    "source": "haversine to region ref: Pamlico Sound (shipped NC reference)"
   },
   "flood_q10_cfs": {
    "kind": "real",
    "n_real": 26,
    "n_sites": 26,
    "source": "USGS SIR 2014-5030 Table 7 HR1 (NC Piedmont)"
   },
   "flow_velocity_ms": {
    "kind": "real",
    "n_fallback": 0,
    "n_real": 26,
    "n_sites": 26,
    "source": "Manning (region DEM/D8) blended with EROM continuity (shipped M4 logic)"
   },
   "impervious_pct": {
    "kind": "real",
    "n_real": 26,
    "n_sites": 26,
    "source": "EPA StreamCat pctimp2019 (per NHDPlus watershed)"
   },
   "land_ownership": {
    "fallback_reason": "no containing parcel owner returned; shipped unknown ownership 0.5 used",
    "kind": "real",
    "n_fallback": 4,
    "n_real": 22,
    "n_sites": 26,
    "source": "NC OneMap statewide parcels (NC Parcels Transformer) ownname"
   },
   "litter_complaint_density": {
    "kind": "fallback",
    "n_real": 0,
    "n_sites": 26,
    "source": "no public machine-readable litter/illegal-dumping feed for this region"
   },
   "navigable_dist_m": {
    "kind": "real",
    "n_real": 26,
    "n_sites": 26,
    "source": "USACE/BTS NWN (NTAD): no navigable segment within this bbox (+2 km) \u2014 computed absence, gate passes all sites"
   },
   "npdes_points": {
    "kind": "real",
    "n_real": 26,
    "n_sites": 26,
    "source": "EPA ECHO active NPDES outfalls states=NC (types NPD/GPC/NGP; statuses ADC/EFF/EXP), per catchment"
   },
   "population_density": {
    "kind": "real",
    "n_real": 26,
    "n_sites": 26,
    "source": "Census ACS 2022 B01003 block groups (bbox, multi-county), area-weighted"
   },
   "protected_area_score": {
    "kind": "real",
    "n_real": 26,
    "n_sites": 26,
    "source": "USGS PAD-US 4.1 state GDB; states=NC; shipped designation-weighted proximity curve"
   },
   "road_access_score": {
    "kind": "real",
    "n_real": 26,
    "n_sites": 26,
    "source": "OSM drive network nearest-node distance"
   },
   "road_density_km_km2": {
    "kind": "real",
    "n_real": 26,
    "n_sites": 26,
    "source": "OSM drive network (osmnx, cached) clipped per catchment"
   },
   "runoff_coeff_C": {
    "kind": "real",
    "n_real": 26,
    "n_sites": 26,
    "source": "derived from real impervious_pct (C=0.05+0.009*I)"
   },
   "seasonal_cv": {
    "kind": "real",
    "n_real": 26,
    "n_sites": 26,
    "source": "CV of NHDPlus EROM monthly flows per COMID"
   },
   "stream_order": {
    "kind": "real",
    "n_real": 26,
    "n_sites": 26,
    "source": "DEM stream-network confluence heuristic (pipeline)"
   },
   "superfund_score": {
    "kind": "real",
    "n_real": 26,
    "n_sites": 26,
    "source": "EPA DataMap SEMS active sites states=NC (non-archived, georeferenced), shipped 500 m inverse-distance curve"
   },
   "tourism_amenity_density": {
    "kind": "real",
    "n_real": 26,
    "n_sites": 26,
    "source": "OSM leisure/tourism features per 2 km radius"
   },
   "tri_facility_density": {
    "kind": "real",
    "n_real": 26,
    "n_sites": 26,
    "source": "EPA DataMap TRI open facilities states=NC (preferred decimal or packed-DMS recovery), per catchment"
   },
   "usgs_mean_q_cfs": {
    "kind": "real",
    "n_real": 26,
    "n_sites": 26,
    "source": "NHDPlus EROM qe_ma per COMID (snap-guarded)"
   },
   "velocity_feasibility": {
    "kind": "real",
    "n_fallback": 0,
    "n_real": 26,
    "n_sites": 26,
    "source": "shipped step curve on the computed velocity"
   },
   "velocity_transport_favorability": {
    "kind": "derived",
    "n_real": 26,
    "n_sites": 26,
    "source": "scored form of flow_velocity_ms inside the Flow family \u2014 peaked Gaussian exp(-((v-0.9)/0.6)^2), model.json curves.velocity_transport_favorability; construct: transport/delivery favorability, deliberately distinct from velocity_feasibility (device operability)"
   },
   "water_intake_score": {
    "kind": "real",
    "n_real": 26,
    "n_sites": 26,
    "source": "NC OneMap / NC DEQ SWAP public water supply sources (source_typ='Surface Water'), shipped exp(-d/10km) curve"
   }
  },
  "stream_mask": {
   "buffer_m": 150.0,
   "pre_mask": 26,
   "removed": 0,
   "sources": [
    "osm-overpass (all waterway ways)",
    "usgs-nhdplus flowlines"
   ]
  },
  "varying": [
   "bank_slope_score",
   "beach_dist_km",
   "bridge_proximity_bonus",
   "catchment_area_km2",
   "ej_index",
   "estuary_dist_km",
   "flood_q10_cfs",
   "flow_velocity_ms",
   "impervious_pct",
   "npdes_points",
   "population_density",
   "protected_area_score",
   "road_access_score",
   "road_density_km_km2",
   "runoff_coeff_C",
   "seasonal_cv",
   "stream_order",
   "superfund_score",
   "tourism_amenity_density",
   "tri_facility_density",
   "usgs_mean_q_cfs",
   "velocity_feasibility",
   "water_intake_score"
  ]
 },
 "region": {
  "bbox": [
   -79.0312,
   36.3512,
   -78.9233,
   36.438
  ],
  "beach_ref": {
   "label": "Wrightsville Beach (shipped NC reference)",
   "lat": 34.21,
   "lon": -77.79
  },
  "center": [
   -78.977279,
   36.394578
  ],
  "estuary_ref": {
   "label": "Pamlico Sound (shipped NC reference)",
   "lat": 35.05,
   "lon": -76.05
  },
  "flood_method": "sir2014_hr1",
  "name": "Roxboro, NC",
  "notes": "NC Piedmont (DEQ physiography polygon)",
  "slug": "roxboro",
  "state": "NC",
  "utm_epsg": 32617,
  "width_curve": {
   "a": 3.12,
   "b": 0.415,
   "code": "AHI",
   "source": "Bieger et al. 2015 JAWRA Table 3, Appalachian Highlands"
  }
 },
 "type": "FeatureCollection"
}
