{
 "features": [
  {
   "geometry": {
    "coordinates": [
     -122.40496,
     37.769663
    ],
    "type": "Point"
   },
   "properties": {
    "accumulation": 137973.0,
    "bank_slope_deg": 0.73,
    "bank_slope_score": 1.0,
    "bank_slope_source": "usgs-3dep-10m-gradient-fallback",
    "beach_dist_km": 9.3,
    "bridge_proximity_bonus": 0.0,
    "catchment_area_km2": 13.7666,
    "channel_width_m": 7.86,
    "channel_width_score": 1.0,
    "composite_score": 64.9939,
    "cso_density": 1.9313,
    "ej_index": 0.5248,
    "elevation_m": 4.1411,
    "estuary_dist_km": 4.56,
    "feasibility_score": 45.4545,
    "flood_q10_cfs": null,
    "flow_score": 53.6142,
    "flow_velocity_ms": 0.0244,
    "generation_score": 79.4017,
    "impact_score": 69.8389,
    "impervious_pct": 81.95,
    "land_ownership": 0.5,
    "lat": 37.7697,
    "litter_complaint_density": 0.0,
    "lon": -122.405,
    "navigable_dist_m": null,
    "npdes_points": 12,
    "pixel_col": 1235.0,
    "pixel_row": 898.0,
    "population_density": 10249.0,
    "position_along": 0.5,
    "protected_area_score": 121.2051,
    "rank": 1,
    "road_access_m": 7.2,
    "road_access_score": 1.0,
    "road_density_km_km2": 18.813,
    "robustness_pct": 98.5,
    "runoff_coeff_C": 0.7875,
    "seasonal_cv": 1.1436,
    "segment_id": 30,
    "segment_length_m": 1998.1389,
    "stream_order": 3,
    "superfund_score": 0.3747,
    "tourism_amenity_density": 91.5937,
    "tri_facility_density": 0.6538,
    "usgs_mean_q_cfs": 2.047,
    "velocity_feasibility": 0.3,
    "water_intake_score": 0.0
   },
   "type": "Feature"
  },
  {
   "geometry": {
    "coordinates": [
     -122.39204,
     37.775297
    ],
    "type": "Point"
   },
   "properties": {
    "accumulation": 196918.0,
    "bank_slope_deg": 0.01,
    "bank_slope_score": 1.0,
    "bank_slope_source": "usgs-3dep-10m-gradient-fallback",
    "beach_dist_km": 10.51,
    "bridge_proximity_bonus": 0.0,
    "catchment_area_km2": 19.648,
    "channel_width_m": 9.06,
    "channel_width_score": 1.0,
    "composite_score": 64.807,
    "cso_density": 5.5793,
    "ej_index": 0.5162,
    "elevation_m": -1.07,
    "estuary_dist_km": 3.36,
    "feasibility_score": 45.4545,
    "flood_q10_cfs": null,
    "flow_score": 58.2847,
    "flow_velocity_ms": 0.0265,
    "generation_score": 78.7974,
    "impact_score": 65.9279,
    "impervious_pct": 81.95,
    "land_ownership": 0.5,
    "lat": 37.7753,
    "litter_complaint_density": 0.0,
    "lon": -122.392,
    "navigable_dist_m": null,
    "npdes_points": 17,
    "pixel_col": 1349.0,
    "pixel_row": 833.0,
    "population_density": 6223.7,
    "position_along": 0.5,
    "protected_area_score": 119.8897,
    "rank": 2,
    "road_access_m": 53.0,
    "road_access_score": 1.0,
    "road_density_km_km2": 11.995,
    "robustness_pct": 98.5,
    "runoff_coeff_C": 0.7875,
    "seasonal_cv": 1.1436,
    "segment_id": 31,
    "segment_length_m": 2455.4467,
    "stream_order": 3,
    "superfund_score": 0.4123,
    "tourism_amenity_density": 65.1739,
    "tri_facility_density": 0.6107,
    "usgs_mean_q_cfs": 2.047,
    "velocity_feasibility": 0.3,
    "water_intake_score": 0.0
   },
   "type": "Feature"
  },
  {
   "geometry": {
    "coordinates": [
     -122.39497,
     37.745882
    ],
    "type": "Point"
   },
   "properties": {
    "accumulation": 200726.0,
    "bank_slope_deg": 0.82,
    "bank_slope_score": 1.0,
    "bank_slope_source": "usgs-3dep-10m-gradient-fallback",
    "beach_dist_km": 10.23,
    "bridge_proximity_bonus": 0.0,
    "catchment_area_km2": 20.0279,
    "channel_width_m": 9.13,
    "channel_width_score": 1.0,
    "composite_score": 60.4901,
    "cso_density": 2.9457,
    "ej_index": 0.6224,
    "elevation_m": 3.2253,
    "estuary_dist_km": 6.41,
    "feasibility_score": 45.4545,
    "flood_q10_cfs": null,
    "flow_score": 63.201,
    "flow_velocity_ms": 0.0302,
    "generation_score": 67.4747,
    "impact_score": 58.7642,
    "impervious_pct": 73.15,
    "land_ownership": 0.5,
    "lat": 37.7459,
    "litter_complaint_density": 0.0,
    "lon": -122.395,
    "navigable_dist_m": null,
    "npdes_points": 23,
    "pixel_col": 1325.0,
    "pixel_row": 1163.0,
    "population_density": 5211.2,
    "position_along": 0.5,
    "protected_area_score": 115.4625,
    "rank": 3,
    "road_access_m": 85.6,
    "road_access_score": 1.0,
    "road_density_km_km2": 15.085,
    "robustness_pct": 83.0,
    "runoff_coeff_C": 0.7084,
    "seasonal_cv": 1.1622,
    "segment_id": 53,
    "segment_length_m": 856.4466,
    "stream_order": 3,
    "superfund_score": 0.2974,
    "tourism_amenity_density": 27.693,
    "tri_facility_density": 0.4494,
    "usgs_mean_q_cfs": 2.597,
    "velocity_feasibility": 0.3,
    "water_intake_score": 0.0
   },
   "type": "Feature"
  },
  {
   "geometry": {
    "coordinates": [
     -122.410671,
     37.748265
    ],
    "type": "Point"
   },
   "properties": {
    "accumulation": 44477.0,
    "bank_slope_deg": 0.51,
    "bank_slope_score": 1.0,
    "bank_slope_source": "usgs-3dep-10m-gradient-fallback",
    "beach_dist_km": 8.83,
    "bridge_proximity_bonus": 0.0,
    "catchment_area_km2": 4.4378,
    "channel_width_m": 5.0,
    "channel_width_score": 1.0,
    "composite_score": 58.0909,
    "cso_density": 0.7901,
    "ej_index": 0.5138,
    "elevation_m": 11.6807,
    "estuary_dist_km": 6.77,
    "feasibility_score": 66.2338,
    "flood_q10_cfs": null,
    "flow_score": 51.6361,
    "flow_velocity_ms": 0.0619,
    "generation_score": 61.1739,
    "impact_score": 56.3154,
    "impervious_pct": 73.15,
    "land_ownership": 0.5,
    "lat": 37.7483,
    "litter_complaint_density": 0.0,
    "lon": -122.4107,
    "navigable_dist_m": null,
    "npdes_points": 1,
    "pixel_col": 1186.0,
    "pixel_row": 1136.0,
    "population_density": 8851.2,
    "position_along": 0.5,
    "protected_area_score": 117.4395,
    "rank": 4,
    "road_access_m": 9.6,
    "road_access_score": 1.0,
    "road_density_km_km2": 20.337,
    "robustness_pct": 72.0,
    "runoff_coeff_C": 0.7084,
    "seasonal_cv": 1.1622,
    "segment_id": 39,
    "segment_length_m": 2594.6314,
    "stream_order": 3,
    "superfund_score": 0.1841,
    "tourism_amenity_density": 46.712,
    "tri_facility_density": 0.4507,
    "usgs_mean_q_cfs": 2.597,
    "velocity_feasibility": 0.7,
    "water_intake_score": 0.0
   },
   "type": "Feature"
  },
  {
   "geometry": {
    "coordinates": [
     -122.416498,
     37.763059
    ],
    "type": "Point"
   },
   "properties": {
    "accumulation": 29686.0,
    "bank_slope_deg": 0.97,
    "bank_slope_score": 1.0,
    "bank_slope_source": "usgs-3dep-10m-gradient-fallback",
    "beach_dist_km": 8.23,
    "bridge_proximity_bonus": 0.0,
    "catchment_area_km2": 2.962,
    "channel_width_m": 4.26,
    "channel_width_score": 1.0,
    "composite_score": 56.562,
    "cso_density": 0.7294,
    "ej_index": 0.5376,
    "elevation_m": 5.9311,
    "estuary_dist_km": 5.79,
    "feasibility_score": 45.4545,
    "flood_q10_cfs": null,
    "flow_score": 44.9641,
    "flow_velocity_ms": 0.017,
    "generation_score": 63.6775,
    "impact_score": 64.665,
    "impervious_pct": 81.95,
    "land_ownership": 0.5,
    "lat": 37.7631,
    "litter_complaint_density": 0.0,
    "lon": -122.4165,
    "navigable_dist_m": null,
    "npdes_points": 1,
    "pixel_col": 1134.0,
    "pixel_row": 972.0,
    "population_density": 11115.1,
    "position_along": 0.5,
    "protected_area_score": 120.9444,
    "rank": 5,
    "road_access_m": 67.5,
    "road_access_score": 1.0,
    "road_density_km_km2": 19.574,
    "robustness_pct": 51.5,
    "runoff_coeff_C": 0.7875,
    "seasonal_cv": 1.1436,
    "segment_id": 29,
    "segment_length_m": 1615.7224,
    "stream_order": 3,
    "superfund_score": 0.186,
    "tourism_amenity_density": 74.0866,
    "tri_facility_density": 0.3376,
    "usgs_mean_q_cfs": 2.047,
    "velocity_feasibility": 0.3,
    "water_intake_score": 0.0
   },
   "type": "Feature"
  },
  {
   "geometry": {
    "coordinates": [
     -122.38503,
     37.790363
    ],
    "type": "Point"
   },
   "properties": {
    "accumulation": 240694.0,
    "bank_slope_deg": 0.15,
    "bank_slope_score": 1.0,
    "bank_slope_source": "usgs-3dep-10m-gradient-fallback",
    "beach_dist_km": 11.49,
    "bridge_proximity_bonus": 0.0,
    "catchment_area_km2": 24.0158,
    "channel_width_m": 9.81,
    "channel_width_score": 1.0,
    "composite_score": 55.8735,
    "cso_density": 1.722,
    "ej_index": 0.54,
    "elevation_m": -1.0316,
    "estuary_dist_km": 1.7,
    "feasibility_score": 59.0909,
    "flood_q10_cfs": null,
    "flow_score": 63.8281,
    "flow_velocity_ms": 0.5,
    "generation_score": 39.1339,
    "impact_score": 64.3756,
    "impervious_pct": null,
    "land_ownership": 0.5,
    "lat": 37.7904,
    "litter_complaint_density": 0.0,
    "lon": -122.385,
    "navigable_dist_m": null,
    "npdes_points": 29,
    "pixel_col": 1406.0,
    "pixel_row": 664.0,
    "population_density": 4637.2,
    "position_along": 0.5,
    "protected_area_score": 116.0095,
    "rank": 6,
    "road_access_m": 307.7,
    "road_access_score": 0.8,
    "road_density_km_km2": 7.064,
    "robustness_pct": 43.0,
    "runoff_coeff_C": null,
    "seasonal_cv": null,
    "segment_id": 32,
    "segment_length_m": 1749.7152,
    "stream_order": 3,
    "superfund_score": 0.3933,
    "tourism_amenity_density": 50.7704,
    "tri_facility_density": 0.3331,
    "usgs_mean_q_cfs": null,
    "velocity_feasibility": 1.0,
    "water_intake_score": 0.0
   },
   "type": "Feature"
  },
  {
   "geometry": {
    "coordinates": [
     -122.394975,
     37.802613
    ],
    "type": "Point"
   },
   "properties": {
    "accumulation": 272489.0,
    "bank_slope_deg": 0.0,
    "bank_slope_score": 1.0,
    "bank_slope_source": "usgs-3dep-10m-gradient-fallback",
    "beach_dist_km": 11.16,
    "bridge_proximity_bonus": 0.0,
    "catchment_area_km2": 27.1883,
    "channel_width_m": 10.31,
    "channel_width_score": 1.0,
    "composite_score": 54.1985,
    "cso_density": 1.5694,
    "ej_index": 0.5328,
    "elevation_m": -1.07,
    "estuary_dist_km": 2.21,
    "feasibility_score": 59.0909,
    "flood_q10_cfs": null,
    "flow_score": 66.3242,
    "flow_velocity_ms": 0.5,
    "generation_score": 33.6986,
    "impact_score": 62.1473,
    "impervious_pct": null,
    "land_ownership": 0.5,
    "lat": 37.8026,
    "litter_complaint_density": 0.0,
    "lon": -122.395,
    "navigable_dist_m": null,
    "npdes_points": 23,
    "pixel_col": 1318.0,
    "pixel_row": 529.0,
    "population_density": 5196.4,
    "position_along": 0.1667,
    "protected_area_score": 115.7274,
    "rank": 7,
    "road_access_m": 401.0,
    "road_access_score": 0.8,
    "road_density_km_km2": 7.331,
    "robustness_pct": 19.5,
    "runoff_coeff_C": null,
    "seasonal_cv": null,
    "segment_id": 33,
    "segment_length_m": 5069.0518,
    "stream_order": 3,
    "superfund_score": 0.2537,
    "tourism_amenity_density": 54.7493,
    "tri_facility_density": 0.2207,
    "usgs_mean_q_cfs": null,
    "velocity_feasibility": 1.0,
    "water_intake_score": 0.0
   },
   "type": "Feature"
  },
  {
   "geometry": {
    "coordinates": [
     -122.420731,
     37.732109
    ],
    "type": "Point"
   },
   "properties": {
    "accumulation": 113155.0,
    "bank_slope_deg": 4.13,
    "bank_slope_score": 1.0,
    "bank_slope_source": "usgs-3dep-10m-gradient-fallback",
    "beach_dist_km": 8.44,
    "bridge_proximity_bonus": 0.0,
    "catchment_area_km2": 11.2903,
    "channel_width_m": 7.26,
    "channel_width_score": 1.0,
    "composite_score": 53.9309,
    "cso_density": 0.3752,
    "ej_index": 0.5998,
    "elevation_m": 21.8643,
    "estuary_dist_km": 8.77,
    "feasibility_score": 66.2338,
    "flood_q10_cfs": null,
    "flow_score": 58.8158,
    "flow_velocity_ms": 0.1301,
    "generation_score": 43.9443,
    "impact_score": 53.6954,
    "impervious_pct": 73.15,
    "land_ownership": 0.5,
    "lat": 37.7321,
    "litter_complaint_density": 0.0,
    "lon": -122.4207,
    "navigable_dist_m": null,
    "npdes_points": 1,
    "pixel_col": 1099.0,
    "pixel_row": 1315.0,
    "population_density": 7753.2,
    "position_along": 0.25,
    "protected_area_score": 110.2456,
    "rank": 8,
    "road_access_m": 63.4,
    "road_access_score": 1.0,
    "road_density_km_km2": 19.339,
    "robustness_pct": 0.0,
    "runoff_coeff_C": 0.7084,
    "seasonal_cv": 1.1622,
    "segment_id": 52,
    "segment_length_m": 3989.5947,
    "stream_order": 3,
    "superfund_score": 0.1463,
    "tourism_amenity_density": 36.9239,
    "tri_facility_density": 0.0,
    "usgs_mean_q_cfs": 2.597,
    "velocity_feasibility": 0.7,
    "water_intake_score": 0.0
   },
   "type": "Feature"
  },
  {
   "geometry": {
    "coordinates": [
     -122.391009,
     37.794557
    ],
    "type": "Point"
   },
   "properties": {
    "accumulation": 22040.0,
    "bank_slope_deg": 0.0,
    "bank_slope_score": 1.0,
    "bank_slope_source": "usgs-3dep-10m-gradient-fallback",
    "beach_dist_km": 11.14,
    "bridge_proximity_bonus": 0.0,
    "catchment_area_km2": 2.1991,
    "channel_width_m": 3.78,
    "channel_width_score": 1.0,
    "composite_score": 53.3565,
    "cso_density": 2.2431,
    "ej_index": 0.487,
    "elevation_m": -1.07,
    "estuary_dist_km": 1.94,
    "feasibility_score": 81.8182,
    "flood_q10_cfs": null,
    "flow_score": 46.663,
    "flow_velocity_ms": 0.5,
    "generation_score": 31.867,
    "impact_score": 66.1929,
    "impervious_pct": null,
    "land_ownership": 0.5,
    "lat": 37.7946,
    "litter_complaint_density": 0.0,
    "lon": -122.391,
    "navigable_dist_m": null,
    "npdes_points": 3,
    "pixel_col": 1355.0,
    "pixel_row": 618.0,
    "population_density": 3967.0,
    "position_along": 0.5,
    "protected_area_score": 117.8382,
    "rank": 9,
    "road_access_m": 150.0,
    "road_access_score": 1.0,
    "road_density_km_km2": 9.039,
    "robustness_pct": 22.0,
    "runoff_coeff_C": null,
    "seasonal_cv": null,
    "segment_id": 18,
    "segment_length_m": 552.9371,
    "stream_order": 3,
    "superfund_score": 0.4778,
    "tourism_amenity_density": 67.6409,
    "tri_facility_density": 0.4547,
    "usgs_mean_q_cfs": null,
    "velocity_feasibility": 1.0,
    "water_intake_score": 0.0
   },
   "type": "Feature"
  },
  {
   "geometry": {
    "coordinates": [
     -122.409303,
     37.811009
    ],
    "type": "Point"
   },
   "properties": {
    "accumulation": 286726.0,
    "bank_slope_deg": 0.0,
    "bank_slope_score": 1.0,
    "bank_slope_source": "usgs-3dep-10m-gradient-fallback",
    "beach_dist_km": 10.51,
    "bridge_proximity_bonus": 0.0,
    "catchment_area_km2": 28.6088,
    "channel_width_m": 10.52,
    "channel_width_score": 1.0,
    "composite_score": 50.1372,
    "cso_density": 1.346,
    "ej_index": 0.4768,
    "elevation_m": -1.07,
    "estuary_dist_km": 3.66,
    "feasibility_score": 59.0909,
    "flood_q10_cfs": null,
    "flow_score": 67.4419,
    "flow_velocity_ms": 0.5,
    "generation_score": 27.1307,
    "impact_score": 54.2461,
    "impervious_pct": null,
    "land_ownership": 0.5,
    "lat": 37.811,
    "litter_complaint_density": 0.0,
    "lon": -122.4093,
    "navigable_dist_m": null,
    "npdes_points": 22,
    "pixel_col": 1190.0,
    "pixel_row": 439.0,
    "population_density": 4395.8,
    "position_along": 0.5,
    "protected_area_score": 113.4443,
    "rank": 10,
    "road_access_m": 316.6,
    "road_access_score": 0.8,
    "road_density_km_km2": 6.07,
    "robustness_pct": 0.5,
    "runoff_coeff_C": null,
    "seasonal_cv": null,
    "segment_id": 33,
    "segment_length_m": 5069.0518,
    "stream_order": 3,
    "superfund_score": 0.1737,
    "tourism_amenity_density": 41.062,
    "tri_facility_density": 0.1049,
    "usgs_mean_q_cfs": null,
    "velocity_feasibility": 1.0,
    "water_intake_score": 0.0
   },
   "type": "Feature"
  },
  {
   "geometry": {
    "coordinates": [
     -122.431765,
     37.731919
    ],
    "type": "Point"
   },
   "properties": {
    "accumulation": 20160.0,
    "bank_slope_deg": 2.68,
    "bank_slope_score": 1.0,
    "bank_slope_source": "usgs-3dep-10m-gradient-fallback",
    "beach_dist_km": 7.55,
    "bridge_proximity_bonus": 0.2,
    "catchment_area_km2": 2.0115,
    "channel_width_m": 3.65,
    "channel_width_score": 1.0,
    "composite_score": 49.3978,
    "cso_density": 0.2777,
    "ej_index": 0.5016,
    "elevation_m": 35.0317,
    "estuary_dist_km": 9.32,
    "feasibility_score": 100.0,
    "flood_q10_cfs": null,
    "flow_score": 46.5154,
    "flow_velocity_ms": 0.5,
    "generation_score": 27.3042,
    "impact_score": 48.5924,
    "impervious_pct": null,
    "land_ownership": 0.5,
    "lat": 37.7319,
    "litter_complaint_density": 0.0,
    "lon": -122.4318,
    "navigable_dist_m": null,
    "npdes_points": 0,
    "pixel_col": 1001.0,
    "pixel_row": 1320.0,
    "population_density": 8715.6,
    "position_along": 0.5,
    "protected_area_score": 109.1032,
    "rank": 11,
    "road_access_m": 5.0,
    "road_access_score": 1.0,
    "road_density_km_km2": 24.001,
    "robustness_pct": 11.5,
    "runoff_coeff_C": null,
    "seasonal_cv": null,
    "segment_id": 44,
    "segment_length_m": 247.0039,
    "stream_order": 3,
    "superfund_score": 0.1123,
    "tourism_amenity_density": 39.55,
    "tri_facility_density": 0.0,
    "usgs_mean_q_cfs": null,
    "velocity_feasibility": 1.0,
    "water_intake_score": 0.0
   },
   "type": "Feature"
  },
  {
   "geometry": {
    "coordinates": [
     -122.482715,
     37.788572
    ],
    "type": "Point"
   },
   "properties": {
    "accumulation": 130472.0,
    "bank_slope_deg": 2.39,
    "bank_slope_score": 1.0,
    "bank_slope_source": "usgs-3dep-10m-gradient-fallback",
    "beach_dist_km": 3.98,
    "bridge_proximity_bonus": 0.0,
    "catchment_area_km2": 13.0182,
    "channel_width_m": 7.68,
    "channel_width_score": 1.0,
    "composite_score": 44.0028,
    "cso_density": 1.6244,
    "ej_index": 0.3749,
    "elevation_m": 18.9178,
    "estuary_dist_km": 9.99,
    "feasibility_score": 66.2338,
    "flood_q10_cfs": null,
    "flow_score": 51.4243,
    "flow_velocity_ms": 0.1397,
    "generation_score": 31.8582,
    "impact_score": 38.8474,
    "impervious_pct": 53.29,
    "land_ownership": 0.5,
    "lat": 37.7886,
    "litter_complaint_density": 0.0,
    "lon": -122.4827,
    "navigable_dist_m": null,
    "npdes_points": 4,
    "pixel_col": 545.0,
    "pixel_row": 691.0,
    "population_density": 4180.5,
    "position_along": 0.5,
    "protected_area_score": 93.2774,
    "rank": 12,
    "road_access_m": 43.6,
    "road_access_score": 1.0,
    "road_density_km_km2": 9.259,
    "robustness_pct": 0.0,
    "runoff_coeff_C": 0.5296,
    "seasonal_cv": 1.1865,
    "segment_id": 35,
    "segment_length_m": 1890.2692,
    "stream_order": 3,
    "superfund_score": 0.166,
    "tourism_amenity_density": 30.0803,
    "tri_facility_density": 0.0,
    "usgs_mean_q_cfs": 1.864,
    "velocity_feasibility": 0.7,
    "water_intake_score": 0.0
   },
   "type": "Feature"
  },
  {
   "geometry": {
    "coordinates": [
     -122.381132,
     37.720338
    ],
    "type": "Point"
   },
   "properties": {
    "accumulation": 49297.0,
    "bank_slope_deg": 0.08,
    "bank_slope_score": 1.0,
    "bank_slope_source": "usgs-3dep-10m-gradient-fallback",
    "beach_dist_km": 12.16,
    "bridge_proximity_bonus": 0.0,
    "catchment_area_km2": 4.9187,
    "channel_width_m": 5.21,
    "channel_width_score": 1.0,
    "composite_score": 42.8736,
    "cso_density": 2.4347,
    "ej_index": 0.7802,
    "elevation_m": -0.0406,
    "estuary_dist_km": 8.91,
    "feasibility_score": 59.0909,
    "flood_q10_cfs": null,
    "flow_score": 32.5237,
    "flow_velocity_ms": 0.5,
    "generation_score": 25.7783,
    "impact_score": 60.4852,
    "impervious_pct": null,
    "land_ownership": 0.5,
    "lat": 37.7203,
    "litter_complaint_density": 0.0,
    "lon": -122.3811,
    "navigable_dist_m": null,
    "npdes_points": 3,
    "pixel_col": 1449.0,
    "pixel_row": 1446.0,
    "population_density": 2002.6,
    "position_along": 0.75,
    "protected_area_score": 101.6948,
    "rank": 13,
    "road_access_m": 337.1,
    "road_access_score": 0.8,
    "road_density_km_km2": 5.706,
    "robustness_pct": 0.0,
    "runoff_coeff_C": null,
    "seasonal_cv": null,
    "segment_id": 45,
    "segment_length_m": 3561.615,
    "stream_order": 1,
    "superfund_score": 0.7389,
    "tourism_amenity_density": 14.0852,
    "tri_facility_density": 0.4066,
    "usgs_mean_q_cfs": null,
    "velocity_feasibility": 1.0,
    "water_intake_score": 0.0
   },
   "type": "Feature"
  },
  {
   "geometry": {
    "coordinates": [
     -122.474116,
     37.786288
    ],
    "type": "Point"
   },
   "properties": {
    "accumulation": 23181.0,
    "bank_slope_deg": 0.51,
    "bank_slope_score": 1.0,
    "bank_slope_source": "usgs-3dep-10m-gradient-fallback",
    "beach_dist_km": 4.3,
    "bridge_proximity_bonus": 0.0,
    "catchment_area_km2": 2.3129,
    "channel_width_m": 3.86,
    "channel_width_score": 1.0,
    "composite_score": 42.5616,
    "cso_density": 0.5699,
    "ej_index": 0.3325,
    "elevation_m": 41.6567,
    "estuary_dist_km": 9.27,
    "feasibility_score": 66.2338,
    "flood_q10_cfs": null,
    "flow_score": 40.7588,
    "flow_velocity_ms": 0.0545,
    "generation_score": 33.0098,
    "impact_score": 41.7798,
    "impervious_pct": 53.29,
    "land_ownership": 0.5,
    "lat": 37.7863,
    "litter_complaint_density": 0.0,
    "lon": -122.4741,
    "navigable_dist_m": null,
    "npdes_points": 0,
    "pixel_col": 621.0,
    "pixel_row": 717.0,
    "population_density": 6331.3,
    "position_along": 0.5,
    "protected_area_score": 97.7955,
    "rank": 14,
    "road_access_m": 25.1,
    "road_access_score": 1.0,
    "road_density_km_km2": 12.86,
    "robustness_pct": 0.0,
    "runoff_coeff_C": 0.5296,
    "seasonal_cv": 1.1865,
    "segment_id": 19,
    "segment_length_m": 119.8664,
    "stream_order": 3,
    "superfund_score": 0.1858,
    "tourism_amenity_density": 47.0303,
    "tri_facility_density": 0.0,
    "usgs_mean_q_cfs": 1.864,
    "velocity_feasibility": 0.7,
    "water_intake_score": 0.0
   },
   "type": "Feature"
  },
  {
   "geometry": {
    "coordinates": [
     -122.45561,
     37.806461
    ],
    "type": "Point"
   },
   "properties": {
    "accumulation": 76670.0,
    "bank_slope_deg": 0.57,
    "bank_slope_score": 1.0,
    "bank_slope_source": "usgs-3dep-10m-gradient-fallback",
    "beach_dist_km": 7.04,
    "bridge_proximity_bonus": 0.0,
    "catchment_area_km2": 7.6499,
    "channel_width_m": 6.22,
    "channel_width_score": 1.0,
    "composite_score": 38.0176,
    "cso_density": 0.6062,
    "ej_index": 0.4209,
    "elevation_m": -0.5253,
    "estuary_dist_km": 7.56,
    "feasibility_score": 59.0909,
    "flood_q10_cfs": null,
    "flow_score": 50.9516,
    "flow_velocity_ms": 0.5,
    "generation_score": 7.6018,
    "impact_score": 47.1185,
    "impervious_pct": null,
    "land_ownership": 0.5,
    "lat": 37.8065,
    "litter_complaint_density": 0.0,
    "lon": -122.4556,
    "navigable_dist_m": null,
    "npdes_points": 2,
    "pixel_col": 782.0,
    "pixel_row": 493.0,
    "population_density": 1073.8,
    "position_along": 0.5,
    "protected_area_score": 103.9597,
    "rank": 15,
    "road_access_m": 277.2,
    "road_access_score": 0.8,
    "road_density_km_km2": 7.467,
    "robustness_pct": 0.0,
    "runoff_coeff_C": null,
    "seasonal_cv": null,
    "segment_id": 16,
    "segment_length_m": 529.1159,
    "stream_order": 3,
    "superfund_score": 0.271,
    "tourism_amenity_density": 34.457,
    "tri_facility_density": 0.0,
    "usgs_mean_q_cfs": null,
    "velocity_feasibility": 1.0,
    "water_intake_score": 0.0
   },
   "type": "Feature"
  },
  {
   "geometry": {
    "coordinates": [
     -122.442912,
     37.808436
    ],
    "type": "Point"
   },
   "properties": {
    "accumulation": 34930.0,
    "bank_slope_deg": 0.35,
    "bank_slope_score": 1.0,
    "bank_slope_source": "usgs-3dep-10m-gradient-fallback",
    "beach_dist_km": 7.99,
    "bridge_proximity_bonus": 0.0,
    "catchment_area_km2": 3.4852,
    "channel_width_m": 4.54,
    "channel_width_score": 1.0,
    "composite_score": 37.9181,
    "cso_density": 1.6519,
    "ej_index": 0.349,
    "elevation_m": -0.4856,
    "estuary_dist_km": 6.47,
    "feasibility_score": 59.0909,
    "flood_q10_cfs": null,
    "flow_score": 47.6749,
    "flow_velocity_ms": 0.5,
    "generation_score": 12.0458,
    "impact_score": 45.0734,
    "impervious_pct": null,
    "land_ownership": 0.5,
    "lat": 37.8084,
    "litter_complaint_density": 0.0,
    "lon": -122.4429,
    "navigable_dist_m": null,
    "npdes_points": 2,
    "pixel_col": 894.0,
    "pixel_row": 471.0,
    "population_density": 2460.6,
    "position_along": 0.5,
    "protected_area_score": 107.5988,
    "rank": 16,
    "road_access_m": 297.2,
    "road_access_score": 0.8,
    "road_density_km_km2": 6.21,
    "robustness_pct": 0.0,
    "runoff_coeff_C": null,
    "seasonal_cv": null,
    "segment_id": 14,
    "segment_length_m": 1968.7604,
    "stream_order": 3,
    "superfund_score": 0.2798,
    "tourism_amenity_density": 31.5923,
    "tri_facility_density": 0.0,
    "usgs_mean_q_cfs": null,
    "velocity_feasibility": 1.0,
    "water_intake_score": 0.0
   },
   "type": "Feature"
  },
  {
   "geometry": {
    "coordinates": [
     -122.411448,
     37.702598
    ],
    "type": "Point"
   },
   "properties": {
    "accumulation": 25140.0,
    "bank_slope_deg": 3.29,
    "bank_slope_score": 1.0,
    "bank_slope_source": "usgs-3dep-10m-gradient-fallback",
    "beach_dist_km": 10.76,
    "bridge_proximity_bonus": 0.0,
    "catchment_area_km2": 2.5084,
    "channel_width_m": 3.98,
    "channel_width_score": 1.0,
    "composite_score": 37.4718,
    "cso_density": 0.2104,
    "ej_index": 0.6816,
    "elevation_m": 3.5954,
    "estuary_dist_km": 11.43,
    "feasibility_score": 45.4545,
    "flood_q10_cfs": null,
    "flow_score": 43.604,
    "flow_velocity_ms": 0.0283,
    "generation_score": 19.2881,
    "impact_score": 46.5539,
    "impervious_pct": 42.57,
    "land_ownership": 0.5,
    "lat": 37.7026,
    "litter_complaint_density": 0.0,
    "lon": -122.4114,
    "navigable_dist_m": null,
    "npdes_points": 0,
    "pixel_col": 1183.0,
    "pixel_row": 1645.0,
    "population_density": 2424.1,
    "position_along": 0.5,
    "protected_area_score": 93.9271,
    "rank": 17,
    "road_access_m": 137.4,
    "road_access_score": 1.0,
    "road_density_km_km2": 6.576,
    "robustness_pct": 0.0,
    "runoff_coeff_C": 0.4331,
    "seasonal_cv": 1.1804,
    "segment_id": 61,
    "segment_length_m": 715.8926,
    "stream_order": 3,
    "superfund_score": 0.4605,
    "tourism_amenity_density": 11.4592,
    "tri_facility_density": 0.0,
    "usgs_mean_q_cfs": 2.276,
    "velocity_feasibility": 0.3,
    "water_intake_score": 0.0
   },
   "type": "Feature"
  },
  {
   "geometry": {
    "coordinates": [
     -122.407443,
     37.700372
    ],
    "type": "Point"
   },
   "properties": {
    "accumulation": 51397.0,
    "bank_slope_deg": 0.64,
    "bank_slope_score": 1.0,
    "bank_slope_source": "usgs-3dep-10m-gradient-fallback",
    "beach_dist_km": 11.19,
    "bridge_proximity_bonus": 0.0,
    "catchment_area_km2": 5.1283,
    "channel_width_m": 5.3,
    "channel_width_score": 1.0,
    "composite_score": 36.6636,
    "cso_density": 0.2079,
    "ej_index": 0.6295,
    "elevation_m": 3.0405,
    "estuary_dist_km": 11.56,
    "feasibility_score": 45.4545,
    "flood_q10_cfs": null,
    "flow_score": 45.5544,
    "flow_velocity_ms": 0.0229,
    "generation_score": 17.1443,
    "impact_score": 44.3782,
    "impervious_pct": 42.57,
    "land_ownership": 0.5,
    "lat": 37.7004,
    "litter_complaint_density": 0.0,
    "lon": -122.4074,
    "navigable_dist_m": null,
    "npdes_points": 1,
    "pixel_col": 1218.0,
    "pixel_row": 1669.0,
    "population_density": 1592.8,
    "position_along": 0.5,
    "protected_area_score": 93.5727,
    "rank": 18,
    "road_access_m": 79.4,
    "road_access_score": 1.0,
    "road_density_km_km2": 4.199,
    "robustness_pct": 0.0,
    "runoff_coeff_C": 0.4331,
    "seasonal_cv": 1.1804,
    "segment_id": 62,
    "segment_length_m": 395.833,
    "stream_order": 3,
    "superfund_score": 0.5892,
    "tourism_amenity_density": 6.2866,
    "tri_facility_density": 0.0,
    "usgs_mean_q_cfs": 2.276,
    "velocity_feasibility": 0.3,
    "water_intake_score": 0.0
   },
   "type": "Feature"
  },
  {
   "geometry": {
    "coordinates": [
     -122.51131,
     37.771323
    ],
    "type": "Point"
   },
   "properties": {
    "accumulation": 25265.0,
    "bank_slope_deg": 1.68,
    "bank_slope_score": 1.0,
    "bank_slope_source": "usgs-3dep-10m-gradient-fallback",
    "beach_dist_km": 1.26,
    "bridge_proximity_bonus": 0.0,
    "catchment_area_km2": 2.5209,
    "channel_width_m": 3.99,
    "channel_width_score": 1.0,
    "composite_score": 33.6667,
    "cso_density": 0.5539,
    "ej_index": 0.3265,
    "elevation_m": 5.3738,
    "estuary_dist_km": 12.82,
    "feasibility_score": 66.2338,
    "flood_q10_cfs": null,
    "flow_score": 32.2009,
    "flow_velocity_ms": 0.0634,
    "generation_score": 23.3216,
    "impact_score": 28.9497,
    "impervious_pct": 59.15,
    "land_ownership": 0.5,
    "lat": 37.7713,
    "litter_complaint_density": 0.0,
    "lon": -122.5113,
    "navigable_dist_m": null,
    "npdes_points": 1,
    "pixel_col": 293.0,
    "pixel_row": 885.0,
    "population_density": 1596.8,
    "position_along": 0.5,
    "protected_area_score": 78.5398,
    "rank": 19,
    "road_access_m": 16.9,
    "road_access_score": 1.0,
    "road_density_km_km2": 6.008,
    "robustness_pct": 0.0,
    "runoff_coeff_C": 0.5824,
    "seasonal_cv": 1.1655,
    "segment_id": 24,
    "segment_length_m": 1389.5783,
    "stream_order": 3,
    "superfund_score": 0.1766,
    "tourism_amenity_density": 20.2127,
    "tri_facility_density": 0.0,
    "usgs_mean_q_cfs": 0.89,
    "velocity_feasibility": 0.7,
    "water_intake_score": 0.0
   },
   "type": "Feature"
  },
  {
   "geometry": {
    "coordinates": [
     -122.515238,
     37.777734
    ],
    "type": "Point"
   },
   "properties": {
    "accumulation": 101152.0,
    "bank_slope_deg": 0.44,
    "bank_slope_score": 1.0,
    "bank_slope_source": "usgs-3dep-10m-gradient-fallback",
    "beach_dist_km": 2.03,
    "bridge_proximity_bonus": 0.0,
    "catchment_area_km2": 10.0927,
    "channel_width_m": 6.94,
    "channel_width_score": 1.0,
    "composite_score": 33.3771,
    "cso_density": 0.5145,
    "ej_index": 0.4203,
    "elevation_m": -0.334,
    "estuary_dist_km": 13.0,
    "feasibility_score": 59.0909,
    "flood_q10_cfs": null,
    "flow_score": 52.8736,
    "flow_velocity_ms": 0.5,
    "generation_score": 6.0499,
    "impact_score": 31.6004,
    "impervious_pct": null,
    "land_ownership": 0.5,
    "lat": 37.7777,
    "litter_complaint_density": 0.0,
    "lon": -122.5152,
    "navigable_dist_m": null,
    "npdes_points": 2,
    "pixel_col": 261.0,
    "pixel_row": 811.0,
    "population_density": 1369.1,
    "position_along": 0.25,
    "protected_area_score": 76.8149,
    "rank": 20,
    "road_access_m": 310.1,
    "road_access_score": 0.8,
    "road_density_km_km2": 3.445,
    "robustness_pct": 0.0,
    "runoff_coeff_C": null,
    "seasonal_cv": null,
    "segment_id": 28,
    "segment_length_m": 4454.6399,
    "stream_order": 3,
    "superfund_score": 0.2167,
    "tourism_amenity_density": 14.5627,
    "tri_facility_density": 0.0,
    "usgs_mean_q_cfs": null,
    "velocity_feasibility": 1.0,
    "water_intake_score": 0.0
   },
   "type": "Feature"
  },
  {
   "geometry": {
    "coordinates": [
     -122.454235,
     37.805663
    ],
    "type": "Point"
   },
   "properties": {
    "accumulation": 39083.0,
    "bank_slope_deg": 2.92,
    "bank_slope_score": 1.0,
    "bank_slope_source": "usgs-3dep-10m-gradient-fallback",
    "beach_dist_km": 7.06,
    "bridge_proximity_bonus": 0.0,
    "catchment_area_km2": 3.8996,
    "channel_width_m": 4.75,
    "channel_width_score": 1.0,
    "composite_score": 32.4548,
    "cso_density": 0.6788,
    "ej_index": 0.4243,
    "elevation_m": 1.415,
    "estuary_dist_km": 7.43,
    "feasibility_score": 45.4545,
    "flood_q10_cfs": null,
    "flow_score": 25.1181,
    "flow_velocity_ms": 0.0181,
    "generation_score": 16.3743,
    "impact_score": 48.1495,
    "impervious_pct": 33.37,
    "land_ownership": 0.5,
    "lat": 37.8057,
    "litter_complaint_density": 0.0,
    "lon": -122.4542,
    "navigable_dist_m": null,
    "npdes_points": 1,
    "pixel_col": 798.0,
    "pixel_row": 499.0,
    "population_density": 994.1,
    "position_along": 0.5,
    "protected_area_score": 104.7757,
    "rank": 21,
    "road_access_m": 160.4,
    "road_access_score": 1.0,
    "road_density_km_km2": 7.794,
    "robustness_pct": 0.0,
    "runoff_coeff_C": 0.3503,
    "seasonal_cv": 1.2025,
    "segment_id": 15,
    "segment_length_m": 449.9149,
    "stream_order": 3,
    "superfund_score": 0.2851,
    "tourism_amenity_density": 35.8894,
    "tri_facility_density": 0.0,
    "usgs_mean_q_cfs": 0.405,
    "velocity_feasibility": 0.3,
    "water_intake_score": 0.0
   },
   "type": "Feature"
  },
  {
   "geometry": {
    "coordinates": [
     -122.543002,
     37.831834
    ],
    "type": "Point"
   },
   "properties": {
    "accumulation": 235534.0,
    "bank_slope_deg": 1.13,
    "bank_slope_score": 1.0,
    "bank_slope_source": "usgs-3dep-10m-gradient-fallback",
    "beach_dist_km": 8.5,
    "bridge_proximity_bonus": 0.0,
    "catchment_area_km2": 23.501,
    "channel_width_m": 9.73,
    "channel_width_score": 1.0,
    "composite_score": 28.318,
    "cso_density": 0.065,
    "ej_index": 0.3939,
    "elevation_m": -1.4685,
    "estuary_dist_km": 15.6,
    "feasibility_score": 59.0909,
    "flood_q10_cfs": null,
    "flow_score": 63.4231,
    "flow_velocity_ms": 0.5,
    "generation_score": 0.2134,
    "impact_score": 11.782,
    "impervious_pct": null,
    "land_ownership": 0.5,
    "lat": 37.8318,
    "litter_complaint_density": 0.0,
    "lon": -122.543,
    "navigable_dist_m": null,
    "npdes_points": 0,
    "pixel_col": 11.0,
    "pixel_row": 212.0,
    "population_density": 9.4,
    "position_along": 0.5,
    "protected_area_score": 66.6956,
    "rank": 22,
    "road_access_m": 305.9,
    "road_access_score": 0.8,
    "road_density_km_km2": 0.461,
    "robustness_pct": 0.0,
    "runoff_coeff_C": null,
    "seasonal_cv": null,
    "segment_id": 12,
    "segment_length_m": 189.4944,
    "stream_order": 3,
    "superfund_score": 0.0363,
    "tourism_amenity_density": 2.3077,
    "tri_facility_density": 0.0,
    "usgs_mean_q_cfs": null,
    "velocity_feasibility": 1.0,
    "water_intake_score": 0.0
   },
   "type": "Feature"
  },
  {
   "geometry": {
    "coordinates": [
     -122.39268,
     37.701203
    ],
    "type": "Point"
   },
   "properties": {
    "accumulation": 20620.0,
    "bank_slope_deg": 2.06,
    "bank_slope_score": 1.0,
    "bank_slope_source": "usgs-3dep-10m-gradient-fallback",
    "beach_dist_km": 12.21,
    "bridge_proximity_bonus": 0.0,
    "catchment_area_km2": 2.0574,
    "channel_width_m": 3.68,
    "channel_width_score": 1.0,
    "composite_score": 28.1563,
    "cso_density": 0.2664,
    "ej_index": 0.5405,
    "elevation_m": -0.4644,
    "estuary_dist_km": 11.17,
    "feasibility_score": 45.4545,
    "flood_q10_cfs": null,
    "flow_score": 26.7826,
    "flow_velocity_ms": 0.0191,
    "generation_score": 13.4982,
    "impact_score": 35.3099,
    "impervious_pct": 42.57,
    "land_ownership": 0.5,
    "lat": 37.7012,
    "litter_complaint_density": 0.0,
    "lon": -122.3927,
    "navigable_dist_m": null,
    "npdes_points": 1,
    "pixel_col": 1347.0,
    "pixel_row": 1659.0,
    "population_density": 107.1,
    "position_along": 0.5,
    "protected_area_score": 93.9975,
    "rank": 23,
    "road_access_m": 53.9,
    "road_access_score": 1.0,
    "road_density_km_km2": 1.797,
    "robustness_pct": 0.0,
    "runoff_coeff_C": 0.4331,
    "seasonal_cv": 1.1804,
    "segment_id": 63,
    "segment_length_m": 270.4093,
    "stream_order": 1,
    "superfund_score": 0.303,
    "tourism_amenity_density": 5.5704,
    "tri_facility_density": 0.0,
    "usgs_mean_q_cfs": 2.276,
    "velocity_feasibility": 0.3,
    "water_intake_score": 0.0
   },
   "type": "Feature"
  },
  {
   "geometry": {
    "coordinates": [
     -122.341808,
     37.802999
    ],
    "type": "Point"
   },
   "properties": {
    "accumulation": 20112.0,
    "bank_slope_deg": 0.01,
    "bank_slope_score": 1.0,
    "bank_slope_source": "usgs-3dep-10m-gradient-fallback",
    "beach_dist_km": 15.54,
    "bridge_proximity_bonus": 0.0,
    "catchment_area_km2": 2.0067,
    "channel_width_m": 3.64,
    "channel_width_score": 1.0,
    "composite_score": 24.647,
    "cso_density": 0.2086,
    "ej_index": 0.3753,
    "elevation_m": 0.0492,
    "estuary_dist_km": 2.5,
    "feasibility_score": 36.3636,
    "flood_q10_cfs": null,
    "flow_score": 30.2326,
    "flow_velocity_ms": 0.5,
    "generation_score": 0.3519,
    "impact_score": 38.429,
    "impervious_pct": null,
    "land_ownership": 0.5,
    "lat": 37.803,
    "litter_complaint_density": 0.0,
    "lon": -122.3418,
    "navigable_dist_m": null,
    "npdes_points": 0,
    "pixel_col": 1788.0,
    "pixel_row": 525.0,
    "population_density": 12.0,
    "position_along": 0.5,
    "protected_area_score": 102.9573,
    "rank": 24,
    "road_access_m": 812.4,
    "road_access_score": 0.6,
    "road_density_km_km2": 0.0,
    "robustness_pct": 0.0,
    "runoff_coeff_C": null,
    "seasonal_cv": null,
    "segment_id": 17,
    "segment_length_m": 39.9555,
    "stream_order": 1,
    "superfund_score": 0.3508,
    "tourism_amenity_density": 2.2282,
    "tri_facility_density": 0.0,
    "usgs_mean_q_cfs": null,
    "velocity_feasibility": 1.0,
    "water_intake_score": 0.0
   },
   "type": "Feature"
  },
  {
   "geometry": {
    "coordinates": [
     -122.537145,
     37.822981
    ],
    "type": "Point"
   },
   "properties": {
    "accumulation": 125790.0,
    "bank_slope_deg": 0.0,
    "bank_slope_score": 1.0,
    "bank_slope_source": "usgs-3dep-10m-gradient-fallback",
    "beach_dist_km": 7.4,
    "bridge_proximity_bonus": 0.0,
    "catchment_area_km2": 12.551,
    "channel_width_m": 7.57,
    "channel_width_score": 1.0,
    "composite_score": 23.9457,
    "cso_density": 0.0817,
    "ej_index": 0.4125,
    "elevation_m": -1.6,
    "estuary_dist_km": 14.9,
    "feasibility_score": 36.3636,
    "flood_q10_cfs": null,
    "flow_score": 54.8078,
    "flow_velocity_ms": 0.5,
    "generation_score": 0.4147,
    "impact_score": 15.5494,
    "impervious_pct": null,
    "land_ownership": 0.5,
    "lat": 37.823,
    "litter_complaint_density": 0.0,
    "lon": -122.5371,
    "navigable_dist_m": null,
    "npdes_points": 0,
    "pixel_col": 63.0,
    "pixel_row": 310.0,
    "population_density": 15.2,
    "position_along": 0.5,
    "protected_area_score": 68.568,
    "rank": 25,
    "road_access_m": 681.4,
    "road_access_score": 0.6,
    "road_density_km_km2": 0.786,
    "robustness_pct": 0.0,
    "runoff_coeff_C": null,
    "seasonal_cv": null,
    "segment_id": 11,
    "segment_length_m": 2350.0007,
    "stream_order": 3,
    "superfund_score": 0.0407,
    "tourism_amenity_density": 2.3077,
    "tri_facility_density": 0.0,
    "usgs_mean_q_cfs": null,
    "velocity_feasibility": 1.0,
    "water_intake_score": 0.0
   },
   "type": "Feature"
  },
  {
   "geometry": {
    "coordinates": [
     -122.530896,
     37.830823
    ],
    "type": "Point"
   },
   "properties": {
    "accumulation": 81041.0,
    "bank_slope_deg": 0.0,
    "bank_slope_score": 1.0,
    "bank_slope_source": "usgs-3dep-10m-gradient-fallback",
    "beach_dist_km": 8.09,
    "bridge_proximity_bonus": 0.0,
    "catchment_area_km2": 8.0861,
    "channel_width_m": 6.35,
    "channel_width_score": 1.0,
    "composite_score": 21.7109,
    "cso_density": 0.0775,
    "ej_index": 0.3376,
    "elevation_m": 3.02,
    "estuary_dist_km": 14.54,
    "feasibility_score": 45.4545,
    "flood_q10_cfs": null,
    "flow_score": 43.3882,
    "flow_velocity_ms": 0.0328,
    "generation_score": 1.1074,
    "impact_score": 12.3783,
    "impervious_pct": 1.69,
    "land_ownership": 0.5,
    "lat": 37.8308,
    "litter_complaint_density": 0.0,
    "lon": -122.5309,
    "navigable_dist_m": null,
    "npdes_points": 0,
    "pixel_col": 117.0,
    "pixel_row": 225.0,
    "population_density": 13.2,
    "position_along": 0.5,
    "protected_area_score": 70.3962,
    "rank": 26,
    "road_access_m": 122.4,
    "road_access_score": 1.0,
    "road_density_km_km2": 1.322,
    "robustness_pct": 0.0,
    "runoff_coeff_C": 0.0652,
    "seasonal_cv": 1.1888,
    "segment_id": 5,
    "segment_length_m": 2295.6752,
    "stream_order": 3,
    "superfund_score": 0.0432,
    "tourism_amenity_density": 2.6261,
    "tri_facility_density": 0.0,
    "usgs_mean_q_cfs": 2.138,
    "velocity_feasibility": 0.3,
    "water_intake_score": 0.0
   },
   "type": "Feature"
  },
  {
   "geometry": {
    "coordinates": [
     -122.51103,
     37.833443
    ],
    "type": "Point"
   },
   "properties": {
    "accumulation": 29096.0,
    "bank_slope_deg": 2.3,
    "bank_slope_score": 1.0,
    "bank_slope_source": "usgs-3dep-10m-gradient-fallback",
    "beach_dist_km": 8.17,
    "bridge_proximity_bonus": 0.0,
    "catchment_area_km2": 2.9031,
    "channel_width_m": 4.22,
    "channel_width_score": 1.0,
    "composite_score": 15.0379,
    "cso_density": 0.0939,
    "ej_index": 0.3083,
    "elevation_m": 27.5215,
    "estuary_dist_km": 12.93,
    "feasibility_score": 20.7792,
    "flood_q10_cfs": null,
    "flow_score": 26.813,
    "flow_velocity_ms": 0.0978,
    "generation_score": 1.3763,
    "impact_score": 16.0161,
    "impervious_pct": 1.82,
    "land_ownership": 0.5,
    "lat": 37.8334,
    "litter_complaint_density": 0.0,
    "lon": -122.511,
    "navigable_dist_m": null,
    "npdes_points": 0,
    "pixel_col": 292.0,
    "pixel_row": 196.0,
    "population_density": 9.4,
    "position_along": 0.5,
    "protected_area_score": 78.089,
    "rank": 27,
    "road_access_m": 513.1,
    "road_access_score": 0.6,
    "road_density_km_km2": 1.756,
    "robustness_pct": 0.0,
    "runoff_coeff_C": 0.0664,
    "seasonal_cv": 1.2273,
    "segment_id": 4,
    "segment_length_m": 1925.0832,
    "stream_order": 3,
    "superfund_score": 0.0573,
    "tourism_amenity_density": 2.4669,
    "tri_facility_density": 0.0,
    "usgs_mean_q_cfs": 0.749,
    "velocity_feasibility": 0.7,
    "water_intake_score": 0.0
   },
   "type": "Feature"
  },
  {
   "geometry": {
    "coordinates": [
     -122.517734,
     37.837125
    ],
    "type": "Point"
   },
   "properties": {
    "accumulation": 22402.0,
    "bank_slope_deg": 2.47,
    "bank_slope_score": 1.0,
    "bank_slope_source": "usgs-3dep-10m-gradient-fallback",
    "beach_dist_km": 8.6,
    "bridge_proximity_bonus": 0.0,
    "catchment_area_km2": 2.2352,
    "channel_width_m": 3.8,
    "channel_width_score": 1.0,
    "composite_score": 14.373,
    "cso_density": 0.0807,
    "ej_index": 0.3083,
    "elevation_m": 15.0705,
    "estuary_dist_km": 13.62,
    "feasibility_score": 20.7792,
    "flood_q10_cfs": null,
    "flow_score": 27.9568,
    "flow_velocity_ms": 0.0977,
    "generation_score": 0.5924,
    "impact_score": 13.6308,
    "impervious_pct": 0.03,
    "land_ownership": 0.5,
    "lat": 37.8371,
    "litter_complaint_density": 0.0,
    "lon": -122.5177,
    "navigable_dist_m": null,
    "npdes_points": 0,
    "pixel_col": 235.0,
    "pixel_row": 156.0,
    "population_density": 9.4,
    "position_along": 0.5,
    "protected_area_score": 75.5346,
    "rank": 28,
    "road_access_m": 559.6,
    "road_access_score": 0.6,
    "road_density_km_km2": 1.18,
    "robustness_pct": 0.0,
    "runoff_coeff_C": 0.0503,
    "seasonal_cv": 1.2094,
    "segment_id": 2,
    "segment_length_m": 973.1795,
    "stream_order": 3,
    "superfund_score": 0.0533,
    "tourism_amenity_density": 2.3873,
    "tri_facility_density": 0.0,
    "usgs_mean_q_cfs": 0.916,
    "velocity_feasibility": 0.7,
    "water_intake_score": 0.0
   },
   "type": "Feature"
  }
 ],
 "note": "GRIME region 'San Francisco' \u2014 real-data pipeline (DEM\u2192streams\u2192candidates\u2192stream mask (sites confined to \u00b1150 m of mapped OSM/NHD waterways)\u2192region-appropriate real parameters\u2192shipped scoring, math unchanged). Width curve: Bieger et al. 2015 JAWRA Table 3, Pacific Mountain System. Flood: not applicable here (documented fallback). Peninsula streams largely culverted; tidal bay margins \u2014 low valid-site count expected",
 "provenance": {
  "candidates_pre_gate": 28,
  "constant": [
   "bank_slope_score",
   "channel_width_score",
   "flood_q10_cfs",
   "land_ownership",
   "litter_complaint_density",
   "water_intake_score"
  ],
  "gated_navigable": 0,
  "hard_gate_removed": 0,
  "n_parameters": 27,
  "parameters": {
   "bank_slope_score": {
    "kind": "real",
    "n_3dep_10m_fallback": 28,
    "n_nc_lidar_3_125ft": 0,
    "n_real": 28,
    "n_sites": 28,
    "source": "USGS 3DEP 10 m DEM local gradient; NC lidar source is outside this region",
    "source_mosaics": []
   },
   "beach_dist_km": {
    "kind": "real",
    "n_real": 28,
    "n_sites": 28,
    "source": "haversine to region ref: Ocean Beach"
   },
   "bridge_proximity_bonus": {
    "kind": "real",
    "n_real": 28,
    "n_sites": 28,
    "source": "FHWA/BTS NBI (NTAD), 50 m proximity"
   },
   "catchment_area_km2": {
    "kind": "real",
    "n_real": 28,
    "n_sites": 28,
    "source": "DEM flow accumulation (pipeline)"
   },
   "channel_width_score": {
    "kind": "real",
    "n_real": 28,
    "n_sites": 28,
    "source": "Bieger 2015 PMS width curve on DEM drainage area \u2192 shipped width curve"
   },
   "cso_density": {
    "kind": "real",
    "n_real": 28,
    "n_sites": 28,
    "source": "EPA ECHO open CSO/TCS outfall PF coordinates states=CA, Cauchy proximity"
   },
   "ej_index": {
    "kind": "real",
    "n_real": 28,
    "n_sites": 28,
    "source": "Census ACS C17002+B03002 two-component demographic index, percentile-ranked within region"
   },
   "estuary_dist_km": {
    "kind": "real",
    "n_real": 28,
    "n_sites": 28,
    "source": "haversine to region ref: San Francisco Bay"
   },
   "flood_q10_cfs": {
    "impervious_fallback_reason": "StreamCat imperviousness unavailable; the existing regression-input fallback of 0.0% impervious was used and is disclosed here",
    "kind": "fallback",
    "n_impervious_fallback": 12,
    "n_real": 0,
    "n_sites": 28,
    "source": "flood regression not valid here (Peninsula streams largely culverted; tidal bay margins \u2014 low...) \u2014 NaN, dropped by constant-column handling"
   },
   "flow_velocity_ms": {
    "fallback_reason": "EROM/DEM continuity input unavailable; shipped 0.5 m/s default used",
    "kind": "real",
    "n_fallback": 12,
    "n_real": 16,
    "n_sites": 28,
    "source": "Manning (region DEM/D8) blended with EROM continuity (shipped M4 logic)"
   },
   "impervious_pct": {
    "fallback_reason": "NLDI/StreamCat did not return a snap-compatible catchment value; value remains null and is removed by constant-column handling",
    "kind": "real",
    "n_fallback": 12,
    "n_real": 16,
    "n_sites": 28,
    "source": "EPA StreamCat pctimp2019 (per NHDPlus watershed)"
   },
   "land_ownership": {
    "kind": "fallback",
    "n_fallback": 28,
    "n_real": 0,
    "n_sites": 28,
    "source": "no parcel integration outside NC (statewide layer is NC OneMap) \u2014 unknown 0.5"
   },
   "litter_complaint_density": {
    "kind": "fallback",
    "n_real": 0,
    "n_sites": 28,
    "source": "no public machine-readable litter/illegal-dumping feed for this region"
   },
   "navigable_dist_m": {
    "kind": "fallback",
    "n_real": 0,
    "n_sites": 28,
    "source": "no USACE NWN clip covering state=CA \u2014 navigability gate inert"
   },
   "npdes_points": {
    "kind": "real",
    "n_real": 28,
    "n_sites": 28,
    "source": "EPA ECHO active NPDES outfalls states=CA (types NPD/GPC/NGP; statuses ADC/EFF/EXP), per catchment"
   },
   "population_density": {
    "kind": "real",
    "n_real": 28,
    "n_sites": 28,
    "source": "Census ACS 2022 B01003 block groups (bbox, multi-county), area-weighted"
   },
   "protected_area_score": {
    "kind": "real",
    "n_real": 28,
    "n_sites": 28,
    "source": "USGS PAD-US 4.1 USGS feature service; states=CA; shipped designation-weighted proximity curve"
   },
   "road_access_score": {
    "kind": "real",
    "n_real": 28,
    "n_sites": 28,
    "source": "OSM drive network nearest-node distance"
   },
   "road_density_km_km2": {
    "kind": "real",
    "n_real": 28,
    "n_sites": 28,
    "source": "OSM drive network (osmnx, cached) clipped per catchment"
   },
   "runoff_coeff_C": {
    "fallback_reason": "source impervious_pct was unavailable; derived value remains null",
    "kind": "real",
    "n_fallback": 12,
    "n_real": 16,
    "n_sites": 28,
    "source": "derived from real impervious_pct (C=0.05+0.009*I)"
   },
   "seasonal_cv": {
    "fallback_reason": "NHDPlus monthly EROM was unavailable or failed the drainage-area snap guard; value remains null",
    "kind": "real",
    "n_fallback": 12,
    "n_real": 16,
    "n_sites": 28,
    "source": "CV of NHDPlus EROM monthly flows per COMID"
   },
   "stream_order": {
    "kind": "real",
    "n_real": 28,
    "n_sites": 28,
    "source": "DEM stream-network confluence heuristic (pipeline)"
   },
   "superfund_score": {
    "kind": "real",
    "n_real": 28,
    "n_sites": 28,
    "source": "EPA DataMap SEMS active sites states=CA (non-archived, georeferenced), shipped 500 m inverse-distance curve"
   },
   "tourism_amenity_density": {
    "kind": "real",
    "n_real": 28,
    "n_sites": 28,
    "source": "OSM leisure/tourism features per 2 km radius"
   },
   "tri_facility_density": {
    "kind": "real",
    "n_real": 28,
    "n_sites": 28,
    "source": "EPA DataMap TRI open facilities states=CA (preferred decimal or packed-DMS recovery), per catchment"
   },
   "usgs_mean_q_cfs": {
    "fallback_reason": "NHDPlus EROM was unavailable or failed the drainage-area snap guard; value remains null",
    "kind": "real",
    "n_fallback": 12,
    "n_real": 16,
    "n_sites": 28,
    "source": "NHDPlus EROM qe_ma per COMID (snap-guarded)"
   },
   "velocity_feasibility": {
    "fallback_reason": "derived from the shipped 0.5 m/s velocity fallback",
    "kind": "real",
    "n_fallback": 12,
    "n_real": 16,
    "n_sites": 28,
    "source": "shipped step curve on the computed velocity"
   },
   "velocity_transport_favorability": {
    "fallback_reason": "EROM/DEM continuity input unavailable; shipped 0.5 m/s default used",
    "kind": "derived",
    "n_fallback": 12,
    "n_real": 16,
    "n_sites": 28,
    "source": "scored form of flow_velocity_ms inside the Flow family \u2014 peaked Gaussian exp(-((v-0.9)/0.6)^2), model.json curves.velocity_transport_favorability; construct: transport/delivery favorability, deliberately distinct from velocity_feasibility (device operability)"
   },
   "water_intake_score": {
    "kind": "fallback",
    "n_real": 0,
    "n_sites": 28,
    "source": "no public surface-intake layer wired outside NC (SWAP layer is NC-only)"
   }
  },
  "stream_mask": {
   "buffer_m": 150.0,
   "pre_mask": 76,
   "removed": 48,
   "sources": [
    "osm-overpass (all waterway ways)",
    "usgs-nhdplus flowlines"
   ]
  },
  "varying": [
   "beach_dist_km",
   "bridge_proximity_bonus",
   "catchment_area_km2",
   "cso_density",
   "ej_index",
   "estuary_dist_km",
   "flow_velocity_ms",
   "impervious_pct",
   "npdes_points",
   "population_density",
   "protected_area_score",
   "road_access_score",
   "road_density_km_km2",
   "runoff_coeff_C",
   "seasonal_cv",
   "stream_order",
   "superfund_score",
   "tourism_amenity_density",
   "tri_facility_density",
   "usgs_mean_q_cfs",
   "velocity_feasibility"
  ]
 },
 "region": {
  "bbox": [
   -122.5444,
   37.6999,
   -122.2944,
   37.8499
  ],
  "beach_ref": {
   "label": "Ocean Beach",
   "lat": 37.76,
   "lon": -122.51
  },
  "center": [
   -122.4194,
   37.7749
  ],
  "estuary_ref": {
   "label": "San Francisco Bay",
   "lat": 37.8,
   "lon": -122.37
  },
  "flood_method": "none",
  "name": "San Francisco",
  "notes": "Peninsula streams largely culverted; tidal bay margins \u2014 low valid-site count expected",
  "slug": "san-francisco",
  "state": "CA",
  "utm_epsg": 32610,
  "width_curve": {
   "a": 2.76,
   "b": 0.399,
   "code": "PMS",
   "source": "Bieger et al. 2015 JAWRA Table 3, Pacific Mountain System"
  }
 },
 "type": "FeatureCollection"
}
