{
 "features": [
  {
   "geometry": {
    "coordinates": [
     -78.276461,
     34.37151
    ],
    "type": "Point"
   },
   "properties": {
    "accumulation": 147060.0,
    "bank_slope_deg": 1.88,
    "bank_slope_score": 1.0,
    "bank_slope_source": "nc-dps-lidar-dem03-cross-section",
    "beach_dist_km": 48.16,
    "bridge_proximity_bonus": 0.0,
    "catchment_area_km2": 14.6805,
    "channel_width_m": 5.89,
    "channel_width_score": 1.0,
    "composite_score": 70.6115,
    "cso_density": 0.0,
    "ej_index": 0.536,
    "elevation_m": 4.1947,
    "estuary_dist_km": 217.04,
    "feasibility_score": 44.4444,
    "flood_q10_cfs": 608.09,
    "flow_score": 95.8194,
    "flow_velocity_ms": 0.162,
    "generation_score": 69.2677,
    "impact_score": 64.0323,
    "impervious_pct": 0.78,
    "land_ownership": 0.5,
    "lat": 34.3715,
    "litter_complaint_density": 0.0,
    "lon": -78.2765,
    "navigable_dist_m": 2889.7,
    "npdes_points": 1,
    "pixel_col": 707.0,
    "pixel_row": 378.0,
    "population_density": 30.2,
    "position_along": 0.5,
    "protected_area_score": 2.911,
    "rank": 1,
    "road_access_m": 567.0,
    "road_access_score": 0.6,
    "road_density_km_km2": 1.129,
    "robustness_pct": 98.5,
    "runoff_coeff_C": 0.057,
    "seasonal_cv": 0.4072,
    "segment_id": 10,
    "segment_length_m": 2217.1433,
    "stream_order": 3,
    "superfund_score": 0.0136,
    "tourism_amenity_density": 0.1592,
    "tri_facility_density": 0.0,
    "usgs_mean_q_cfs": 22.489,
    "velocity_feasibility": 0.7,
    "water_intake_score": 3.1953
   },
   "type": "Feature"
  },
  {
   "geometry": {
    "coordinates": [
     -78.277043,
     34.386744
    ],
    "type": "Point"
   },
   "properties": {
    "accumulation": 128847.0,
    "bank_slope_deg": 1.81,
    "bank_slope_score": 1.0,
    "bank_slope_source": "nc-dps-lidar-dem03-cross-section",
    "beach_dist_km": 48.87,
    "bridge_proximity_bonus": 0.0,
    "catchment_area_km2": 12.8624,
    "channel_width_m": 5.61,
    "channel_width_score": 1.0,
    "composite_score": 67.8655,
    "cso_density": 0.0,
    "ej_index": 0.5427,
    "elevation_m": 3.4403,
    "estuary_dist_km": 216.49,
    "feasibility_score": 72.2222,
    "flood_q10_cfs": 563.38,
    "flow_score": 81.5121,
    "flow_velocity_ms": 0.1698,
    "generation_score": 61.4752,
    "impact_score": 60.7052,
    "impervious_pct": 0.91,
    "land_ownership": 0.5,
    "lat": 34.3867,
    "litter_complaint_density": 0.0,
    "lon": -78.277,
    "navigable_dist_m": 1325.9,
    "npdes_points": 1,
    "pixel_col": 697.0,
    "pixel_row": 208.0,
    "population_density": 20.9,
    "position_along": 0.8333,
    "protected_area_score": 3.0261,
    "rank": 2,
    "road_access_m": 223.6,
    "road_access_score": 0.8,
    "road_density_km_km2": 1.086,
    "robustness_pct": 100.0,
    "runoff_coeff_C": 0.0582,
    "seasonal_cv": 0.4285,
    "segment_id": 2,
    "segment_length_m": 5458.3731,
    "stream_order": 3,
    "superfund_score": 0.0095,
    "tourism_amenity_density": 0.0,
    "tri_facility_density": 0.0,
    "usgs_mean_q_cfs": 11.944,
    "velocity_feasibility": 0.7,
    "water_intake_score": 3.5865
   },
   "type": "Feature"
  },
  {
   "geometry": {
    "coordinates": [
     -78.304838,
     34.393845
    ],
    "type": "Point"
   },
   "properties": {
    "accumulation": 85216.0,
    "bank_slope_deg": 5.82,
    "bank_slope_score": 1.0,
    "bank_slope_source": "nc-dps-lidar-dem03-cross-section",
    "beach_dist_km": 51.52,
    "bridge_proximity_bonus": 0.0,
    "catchment_area_km2": 8.5068,
    "channel_width_m": 4.83,
    "channel_width_score": 1.0,
    "composite_score": 62.0686,
    "cso_density": 0.0,
    "ej_index": 0.7978,
    "elevation_m": 8.4363,
    "estuary_dist_km": 218.61,
    "feasibility_score": 100.0,
    "flood_q10_cfs": 439.54,
    "flow_score": 62.963,
    "flow_velocity_ms": 0.1278,
    "generation_score": 32.5172,
    "impact_score": 71.9089,
    "impervious_pct": 0.91,
    "land_ownership": 0.5,
    "lat": 34.3938,
    "litter_complaint_density": 0.0,
    "lon": -78.3048,
    "navigable_dist_m": 1544.3,
    "npdes_points": 0,
    "pixel_col": 439.0,
    "pixel_row": 137.0,
    "population_density": 11.7,
    "position_along": 0.1667,
    "protected_area_score": 3.0049,
    "rank": 3,
    "road_access_m": 165.4,
    "road_access_score": 1.0,
    "road_density_km_km2": 1.351,
    "robustness_pct": 80.5,
    "runoff_coeff_C": 0.0582,
    "seasonal_cv": 0.434,
    "segment_id": 2,
    "segment_length_m": 5458.3731,
    "stream_order": 3,
    "superfund_score": 0.0054,
    "tourism_amenity_density": 0.0796,
    "tri_facility_density": 0.0,
    "usgs_mean_q_cfs": 10.429,
    "velocity_feasibility": 0.7,
    "water_intake_score": 3.8145
   },
   "type": "Feature"
  },
  {
   "geometry": {
    "coordinates": [
     -78.282604,
     34.357013
    ],
    "type": "Point"
   },
   "properties": {
    "accumulation": 27250.0,
    "bank_slope_deg": 6.83,
    "bank_slope_score": 1.0,
    "bank_slope_source": "nc-dps-lidar-dem03-cross-section",
    "beach_dist_km": 48.12,
    "bridge_proximity_bonus": 0.0,
    "catchment_area_km2": 2.7203,
    "channel_width_m": 3.19,
    "channel_width_score": 1.0,
    "composite_score": 59.6248,
    "cso_density": 0.0,
    "ej_index": 0.6987,
    "elevation_m": 8.9454,
    "estuary_dist_km": 218.15,
    "feasibility_score": 72.2222,
    "flood_q10_cfs": 221.77,
    "flow_score": 30.6842,
    "flow_velocity_ms": 0.1189,
    "generation_score": 69.1304,
    "impact_score": 67.9376,
    "impervious_pct": 0.93,
    "land_ownership": 0.5,
    "lat": 34.357,
    "litter_complaint_density": 0.0,
    "lon": -78.2826,
    "navigable_dist_m": 4588.7,
    "npdes_points": 0,
    "pixel_col": 651.0,
    "pixel_row": 538.0,
    "population_density": 34.3,
    "position_along": 0.5,
    "protected_area_score": 2.9449,
    "rank": 4,
    "road_access_m": 310.0,
    "road_access_score": 0.8,
    "road_density_km_km2": 1.952,
    "robustness_pct": 69.0,
    "runoff_coeff_C": 0.0584,
    "seasonal_cv": 0.5586,
    "segment_id": 8,
    "segment_length_m": 982.4069,
    "stream_order": 3,
    "superfund_score": 0.015,
    "tourism_amenity_density": 0.1592,
    "tri_facility_density": 0.0,
    "usgs_mean_q_cfs": 2.653,
    "velocity_feasibility": 0.7,
    "water_intake_score": 2.8348
   },
   "type": "Feature"
  },
  {
   "geometry": {
    "coordinates": [
     -78.291464,
     34.390348
    ],
    "type": "Point"
   },
   "properties": {
    "accumulation": 105730.0,
    "bank_slope_deg": 1.57,
    "bank_slope_score": 1.0,
    "bank_slope_source": "nc-dps-lidar-dem03-cross-section",
    "beach_dist_km": 50.24,
    "bridge_proximity_bonus": 0.0,
    "catchment_area_km2": 10.5547,
    "channel_width_m": 5.22,
    "channel_width_score": 1.0,
    "composite_score": 58.8489,
    "cso_density": 0.0,
    "ej_index": 0.7008,
    "elevation_m": 6.8449,
    "estuary_dist_km": 217.59,
    "feasibility_score": 44.4444,
    "flood_q10_cfs": 500.31,
    "flow_score": 67.5148,
    "flow_velocity_ms": 0.1248,
    "generation_score": 43.1633,
    "impact_score": 74.5153,
    "impervious_pct": 0.91,
    "land_ownership": 0.5,
    "lat": 34.3903,
    "litter_complaint_density": 0.0,
    "lon": -78.2915,
    "navigable_dist_m": 1271.9,
    "npdes_points": 0,
    "pixel_col": 563.0,
    "pixel_row": 174.0,
    "population_density": 16.7,
    "position_along": 0.5,
    "protected_area_score": 3.0979,
    "rank": 5,
    "road_access_m": 719.7,
    "road_access_score": 0.6,
    "road_density_km_km2": 1.728,
    "robustness_pct": 67.5,
    "runoff_coeff_C": 0.0582,
    "seasonal_cv": 0.434,
    "segment_id": 2,
    "segment_length_m": 5458.3731,
    "stream_order": 3,
    "superfund_score": 0.007,
    "tourism_amenity_density": 0.0796,
    "tri_facility_density": 0.0,
    "usgs_mean_q_cfs": 10.429,
    "velocity_feasibility": 0.7,
    "water_intake_score": 3.8274
   },
   "type": "Feature"
  },
  {
   "geometry": {
    "coordinates": [
     -78.293258,
     34.372114
    ],
    "type": "Point"
   },
   "properties": {
    "accumulation": 67151.0,
    "bank_slope_deg": 6.94,
    "bank_slope_score": 1.0,
    "bank_slope_source": "nc-dps-lidar-dem03-cross-section",
    "beach_dist_km": 49.62,
    "bridge_proximity_bonus": 0.0,
    "catchment_area_km2": 6.7035,
    "channel_width_m": 4.43,
    "channel_width_score": 1.0,
    "composite_score": 58.0066,
    "cso_density": 0.0,
    "ej_index": 0.6859,
    "elevation_m": 6.475,
    "estuary_dist_km": 218.46,
    "feasibility_score": 72.2222,
    "flood_q10_cfs": 379.45,
    "flow_score": 58.1125,
    "flow_velocity_ms": 0.0839,
    "generation_score": 55.4644,
    "impact_score": 53.3528,
    "impervious_pct": 0.74,
    "land_ownership": 0.5,
    "lat": 34.3721,
    "litter_complaint_density": 0.0,
    "lon": -78.2933,
    "navigable_dist_m": 3299.5,
    "npdes_points": 0,
    "pixel_col": 552.0,
    "pixel_row": 376.0,
    "population_density": 33.0,
    "position_along": 0.5,
    "protected_area_score": 2.8543,
    "rank": 6,
    "road_access_m": 468.5,
    "road_access_score": 0.8,
    "road_density_km_km2": 1.492,
    "robustness_pct": 65.5,
    "runoff_coeff_C": 0.0567,
    "seasonal_cv": 0.418,
    "segment_id": 5,
    "segment_length_m": 1637.8182,
    "stream_order": 3,
    "superfund_score": 0.0092,
    "tourism_amenity_density": 0.0,
    "tri_facility_density": 0.0,
    "usgs_mean_q_cfs": 15.803,
    "velocity_feasibility": 0.7,
    "water_intake_score": 3.2356
   },
   "type": "Feature"
  },
  {
   "geometry": {
    "coordinates": [
     -78.285528,
     34.364015
    ],
    "type": "Point"
   },
   "properties": {
    "accumulation": 56823.0,
    "bank_slope_deg": 0.41,
    "bank_slope_score": 1.0,
    "bank_slope_source": "nc-dps-lidar-dem03-cross-section",
    "beach_dist_km": 48.64,
    "bridge_proximity_bonus": 0.0,
    "catchment_area_km2": 5.6725,
    "channel_width_m": 4.17,
    "channel_width_score": 1.0,
    "composite_score": 54.8902,
    "cso_density": 0.0,
    "ej_index": 0.6987,
    "elevation_m": 6.6152,
    "estuary_dist_km": 218.12,
    "feasibility_score": 44.4444,
    "flood_q10_cfs": 342.85,
    "flow_score": 47.5735,
    "flow_velocity_ms": 0.1541,
    "generation_score": 52.107,
    "impact_score": 68.9935,
    "impervious_pct": 0.69,
    "land_ownership": 0.5,
    "lat": 34.364,
    "litter_complaint_density": 0.0,
    "lon": -78.2855,
    "navigable_dist_m": 3938.8,
    "npdes_points": 0,
    "pixel_col": 623.0,
    "pixel_row": 461.0,
    "population_density": 34.3,
    "position_along": 0.5,
    "protected_area_score": 2.9814,
    "rank": 7,
    "road_access_m": 543.2,
    "road_access_score": 0.6,
    "road_density_km_km2": 1.201,
    "robustness_pct": 9.0,
    "runoff_coeff_C": 0.0562,
    "seasonal_cv": 0.5087,
    "segment_id": 9,
    "segment_length_m": 1095.7401,
    "stream_order": 3,
    "superfund_score": 0.0125,
    "tourism_amenity_density": 0.1592,
    "tri_facility_density": 0.0,
    "usgs_mean_q_cfs": 4.704,
    "velocity_feasibility": 0.7,
    "water_intake_score": 3.0173
   },
   "type": "Feature"
  },
  {
   "geometry": {
    "coordinates": [
     -78.312285,
     34.377256
    ],
    "type": "Point"
   },
   "properties": {
    "accumulation": 27578.0,
    "bank_slope_deg": 3.48,
    "bank_slope_score": 1.0,
    "bank_slope_source": "nc-dps-lidar-dem03-cross-section",
    "beach_dist_km": 51.46,
    "bridge_proximity_bonus": 0.0,
    "catchment_area_km2": 2.753,
    "channel_width_m": 3.21,
    "channel_width_score": 1.0,
    "composite_score": 51.3789,
    "cso_density": 0.0,
    "ej_index": 0.755,
    "elevation_m": 12.8696,
    "estuary_dist_km": 219.89,
    "feasibility_score": 72.2222,
    "flood_q10_cfs": 224.94,
    "flow_score": 38.9087,
    "flow_velocity_ms": 0.1429,
    "generation_score": 60.8608,
    "impact_score": 41.8673,
    "impervious_pct": 1.23,
    "land_ownership": 0.5,
    "lat": 34.3773,
    "litter_complaint_density": 0.0,
    "lon": -78.3123,
    "navigable_dist_m": 3372.1,
    "npdes_points": 0,
    "pixel_col": 375.0,
    "pixel_row": 323.0,
    "population_density": 21.6,
    "position_along": 0.5,
    "protected_area_score": 2.6273,
    "rank": 8,
    "road_access_m": 426.5,
    "road_access_score": 0.8,
    "road_density_km_km2": 1.707,
    "robustness_pct": 2.5,
    "runoff_coeff_C": 0.0611,
    "seasonal_cv": 0.5179,
    "segment_id": 3,
    "segment_length_m": 2889.697,
    "stream_order": 3,
    "superfund_score": 0.0059,
    "tourism_amenity_density": 0.0,
    "tri_facility_density": 0.0,
    "usgs_mean_q_cfs": 2.923,
    "velocity_feasibility": 0.7,
    "water_intake_score": 3.2096
   },
   "type": "Feature"
  },
  {
   "geometry": {
    "coordinates": [
     -78.299791,
     34.376459
    ],
    "type": "Point"
   },
   "properties": {
    "accumulation": 21652.0,
    "bank_slope_deg": 11.95,
    "bank_slope_score": 1.0,
    "bank_slope_source": "nc-dps-lidar-dem03-cross-section",
    "beach_dist_km": 50.36,
    "bridge_proximity_bonus": 0.0,
    "catchment_area_km2": 2.1614,
    "channel_width_m": 2.94,
    "channel_width_score": 1.0,
    "composite_score": 51.0468,
    "cso_density": 0.0,
    "ej_index": 0.7123,
    "elevation_m": 8.3583,
    "estuary_dist_km": 218.85,
    "feasibility_score": 44.4444,
    "flood_q10_cfs": 194.53,
    "flow_score": 29.73,
    "flow_velocity_ms": 0.0887,
    "generation_score": 69.9663,
    "impact_score": 53.1924,
    "impervious_pct": 1.23,
    "land_ownership": 0.5,
    "lat": 34.3765,
    "litter_complaint_density": 0.0,
    "lon": -78.2998,
    "navigable_dist_m": 2945.1,
    "npdes_points": 0,
    "pixel_col": 489.0,
    "pixel_row": 330.0,
    "population_density": 31.3,
    "position_along": 0.5,
    "protected_area_score": 2.8679,
    "rank": 9,
    "road_access_m": 576.2,
    "road_access_score": 0.6,
    "road_density_km_km2": 1.397,
    "robustness_pct": 7.0,
    "runoff_coeff_C": 0.0611,
    "seasonal_cv": 0.5179,
    "segment_id": 4,
    "segment_length_m": 325.2814,
    "stream_order": 3,
    "superfund_score": 0.0075,
    "tourism_amenity_density": 0.0,
    "tri_facility_density": 0.0,
    "usgs_mean_q_cfs": 2.923,
    "velocity_feasibility": 0.7,
    "water_intake_score": 3.3334
   },
   "type": "Feature"
  },
  {
   "geometry": {
    "coordinates": [
     -78.287439,
     34.359131
    ],
    "type": "Point"
   },
   "properties": {
    "accumulation": 21413.0,
    "bank_slope_deg": 4.22,
    "bank_slope_score": 1.0,
    "bank_slope_source": "nc-dps-lidar-dem03-cross-section",
    "beach_dist_km": 48.62,
    "bridge_proximity_bonus": 0.0,
    "catchment_area_km2": 2.1376,
    "channel_width_m": 2.92,
    "channel_width_score": 1.0,
    "composite_score": 46.8927,
    "cso_density": 0.0,
    "ej_index": 0.6987,
    "elevation_m": 8.4482,
    "estuary_dist_km": 218.48,
    "feasibility_score": 72.2222,
    "flood_q10_cfs": 189.14,
    "flow_score": 20.7361,
    "flow_velocity_ms": 0.1027,
    "generation_score": 38.3943,
    "impact_score": 64.5234,
    "impervious_pct": 0.31,
    "land_ownership": 0.5,
    "lat": 34.3591,
    "litter_complaint_density": 0.0,
    "lon": -78.2874,
    "navigable_dist_m": 4507.3,
    "npdes_points": 0,
    "pixel_col": 609.0,
    "pixel_row": 517.0,
    "population_density": 34.3,
    "position_along": 0.5,
    "protected_area_score": 2.9194,
    "rank": 10,
    "road_access_m": 204.4,
    "road_access_score": 0.8,
    "road_density_km_km2": 1.206,
    "robustness_pct": 0.5,
    "runoff_coeff_C": 0.0528,
    "seasonal_cv": 0.5734,
    "segment_id": 7,
    "segment_length_m": 486.5628,
    "stream_order": 3,
    "superfund_score": 0.0127,
    "tourism_amenity_density": 0.1592,
    "tri_facility_density": 0.0,
    "usgs_mean_q_cfs": 1.761,
    "velocity_feasibility": 0.7,
    "water_intake_score": 2.885
   },
   "type": "Feature"
  },
  {
   "geometry": {
    "coordinates": [
     -78.301959,
     34.364689
    ],
    "type": "Point"
   },
   "properties": {
    "accumulation": 62445.0,
    "bank_slope_deg": 1.51,
    "bank_slope_score": 1.0,
    "bank_slope_source": "nc-dps-lidar-dem03-cross-section",
    "beach_dist_km": 50.08,
    "bridge_proximity_bonus": 0.0,
    "catchment_area_km2": 6.2337,
    "channel_width_m": 4.31,
    "channel_width_score": 1.0,
    "composite_score": 43.9667,
    "cso_density": 0.0,
    "ej_index": 0.6987,
    "elevation_m": 8.1645,
    "estuary_dist_km": 219.5,
    "feasibility_score": 44.4444,
    "flood_q10_cfs": 362.08,
    "flow_score": 37.8965,
    "flow_velocity_ms": 0.0826,
    "generation_score": 48.4802,
    "impact_score": 44.2727,
    "impervious_pct": 0.6,
    "land_ownership": 0.5,
    "lat": 34.3647,
    "litter_complaint_density": 0.0,
    "lon": -78.302,
    "navigable_dist_m": 4256.6,
    "npdes_points": 0,
    "pixel_col": 474.0,
    "pixel_row": 459.0,
    "population_density": 34.3,
    "position_along": 0.75,
    "protected_area_score": 2.8072,
    "rank": 11,
    "road_access_m": 584.1,
    "road_access_score": 0.6,
    "road_density_km_km2": 1.168,
    "robustness_pct": 0.0,
    "runoff_coeff_C": 0.0554,
    "seasonal_cv": 0.4276,
    "segment_id": 11,
    "segment_length_m": 3532.6927,
    "stream_order": 1,
    "superfund_score": 0.0084,
    "tourism_amenity_density": 0.0,
    "tri_facility_density": 0.0,
    "usgs_mean_q_cfs": 12.655,
    "velocity_feasibility": 0.7,
    "water_intake_score": 2.974
   },
   "type": "Feature"
  },
  {
   "geometry": {
    "coordinates": [
     -78.315568,
     34.395252
    ],
    "type": "Point"
   },
   "properties": {
    "accumulation": 22413.0,
    "bank_slope_deg": 5.51,
    "bank_slope_score": 1.0,
    "bank_slope_source": "nc-dps-lidar-dem03-cross-section",
    "beach_dist_km": 52.49,
    "bridge_proximity_bonus": 0.0,
    "catchment_area_km2": 2.2374,
    "channel_width_m": 2.97,
    "channel_width_score": 1.0,
    "composite_score": 40.0981,
    "cso_density": 0.0,
    "ej_index": 0.8013,
    "elevation_m": 11.0053,
    "estuary_dist_km": 219.48,
    "feasibility_score": 72.2222,
    "flood_q10_cfs": 195.44,
    "flow_score": 25.9163,
    "flow_velocity_ms": 0.1261,
    "generation_score": 21.5624,
    "impact_score": 54.3898,
    "impervious_pct": 0.54,
    "land_ownership": 0.5,
    "lat": 34.3953,
    "litter_complaint_density": 0.0,
    "lon": -78.3156,
    "navigable_dist_m": 1639.7,
    "npdes_points": 0,
    "pixel_col": 340.0,
    "pixel_row": 124.0,
    "population_density": 11.1,
    "position_along": 0.5,
    "protected_area_score": 2.8676,
    "rank": 12,
    "road_access_m": 425.9,
    "road_access_score": 0.8,
    "road_density_km_km2": 1.642,
    "robustness_pct": 0.0,
    "runoff_coeff_C": 0.0549,
    "seasonal_cv": 0.5646,
    "segment_id": 1,
    "segment_length_m": 940.0173,
    "stream_order": 3,
    "superfund_score": 0.0045,
    "tourism_amenity_density": 0.0,
    "tri_facility_density": 0.0,
    "usgs_mean_q_cfs": 1.412,
    "velocity_feasibility": 0.7,
    "water_intake_score": 3.5651
   },
   "type": "Feature"
  },
  {
   "geometry": {
    "coordinates": [
     -78.319563,
     34.400479
    ],
    "type": "Point"
   },
   "properties": {
    "accumulation": 25911.0,
    "bank_slope_deg": 6.12,
    "bank_slope_score": 1.0,
    "bank_slope_source": "nc-dps-lidar-dem03-cross-section",
    "beach_dist_km": 53.05,
    "bridge_proximity_bonus": 0.0,
    "catchment_area_km2": 2.5866,
    "channel_width_m": 3.13,
    "channel_width_score": 1.0,
    "composite_score": 38.6283,
    "cso_density": 0.0,
    "ej_index": 0.8013,
    "elevation_m": 11.1851,
    "estuary_dist_km": 219.62,
    "feasibility_score": 72.2222,
    "flood_q10_cfs": 214.27,
    "flow_score": 33.0218,
    "flow_velocity_ms": 0.1069,
    "generation_score": 15.942,
    "impact_score": 49.1897,
    "impervious_pct": 0.75,
    "land_ownership": 0.5,
    "lat": 34.4005,
    "litter_complaint_density": 0.0,
    "lon": -78.3196,
    "navigable_dist_m": 1261.7,
    "npdes_points": 0,
    "pixel_col": 301.0,
    "pixel_row": 68.0,
    "population_density": 11.1,
    "position_along": 0.5,
    "protected_area_score": 2.7805,
    "rank": 13,
    "road_access_m": 212.2,
    "road_access_score": 0.8,
    "road_density_km_km2": 0.449,
    "robustness_pct": 0.0,
    "runoff_coeff_C": 0.0568,
    "seasonal_cv": 0.4888,
    "segment_id": 0,
    "segment_length_m": 2061.0045,
    "stream_order": 3,
    "superfund_score": 0.004,
    "tourism_amenity_density": 0.0,
    "tri_facility_density": 0.0,
    "usgs_mean_q_cfs": 3.938,
    "velocity_feasibility": 0.7,
    "water_intake_score": 3.5036
   },
   "type": "Feature"
  },
  {
   "geometry": {
    "coordinates": [
     -78.314941,
     34.357947
    ],
    "type": "Point"
   },
   "properties": {
    "accumulation": 34134.0,
    "bank_slope_deg": 6.66,
    "bank_slope_score": 1.0,
    "bank_slope_source": "nc-dps-lidar-dem03-cross-section",
    "beach_dist_km": 50.96,
    "bridge_proximity_bonus": 0.0,
    "catchment_area_km2": 3.4075,
    "channel_width_m": 3.46,
    "channel_width_score": 1.0,
    "composite_score": 32.3374,
    "cso_density": 0.0,
    "ej_index": 0.6987,
    "elevation_m": 12.376,
    "estuary_dist_km": 220.88,
    "feasibility_score": 72.2222,
    "flood_q10_cfs": 250.54,
    "flow_score": 10.0406,
    "flow_velocity_ms": 0.0919,
    "generation_score": 35.8812,
    "impact_score": 27.432,
    "impervious_pct": 0.36,
    "land_ownership": 0.5,
    "lat": 34.3579,
    "litter_complaint_density": 0.0,
    "lon": -78.3149,
    "navigable_dist_m": 5364.5,
    "npdes_points": 0,
    "pixel_col": 356.0,
    "pixel_row": 537.0,
    "population_density": 34.3,
    "position_along": 0.25,
    "protected_area_score": 2.5979,
    "rank": 14,
    "road_access_m": 433.4,
    "road_access_score": 0.8,
    "road_density_km_km2": 0.816,
    "robustness_pct": 0.0,
    "runoff_coeff_C": 0.0532,
    "seasonal_cv": 0.5649,
    "segment_id": 11,
    "segment_length_m": 3532.6927,
    "stream_order": 1,
    "superfund_score": 0.0067,
    "tourism_amenity_density": 0.0,
    "tri_facility_density": 0.0,
    "usgs_mean_q_cfs": 1.765,
    "velocity_feasibility": 0.7,
    "water_intake_score": 2.6802
   },
   "type": "Feature"
  },
  {
   "geometry": {
    "coordinates": [
     -78.333551,
     34.364481
    ],
    "type": "Point"
   },
   "properties": {
    "accumulation": 30033.0,
    "bank_slope_deg": 1.54,
    "bank_slope_score": 1.0,
    "bank_slope_source": "nc-dps-lidar-dem03-cross-section",
    "beach_dist_km": 52.81,
    "bridge_proximity_bonus": 0.0,
    "catchment_area_km2": 2.9981,
    "channel_width_m": 3.31,
    "channel_width_score": 1.0,
    "composite_score": 24.7141,
    "cso_density": 0.0,
    "ej_index": 0.719,
    "elevation_m": 14.4486,
    "estuary_dist_km": 222.22,
    "feasibility_score": 27.7778,
    "flood_q10_cfs": 233.09,
    "flow_score": 16.567,
    "flow_velocity_ms": 0.049,
    "generation_score": 41.249,
    "impact_score": 13.4367,
    "impervious_pct": 0.56,
    "land_ownership": 0.5,
    "lat": 34.3645,
    "litter_complaint_density": 0.0,
    "lon": -78.3336,
    "navigable_dist_m": 5420.2,
    "npdes_points": 0,
    "pixel_col": 183.0,
    "pixel_row": 471.0,
    "population_density": 29.7,
    "position_along": 0.5,
    "protected_area_score": 2.4183,
    "rank": 15,
    "road_access_m": 326.3,
    "road_access_score": 0.8,
    "road_density_km_km2": 1.183,
    "robustness_pct": 0.0,
    "runoff_coeff_C": 0.055,
    "seasonal_cv": 0.4597,
    "segment_id": 6,
    "segment_length_m": 1692.6235,
    "stream_order": 1,
    "superfund_score": 0.0046,
    "tourism_amenity_density": 0.0,
    "tri_facility_density": 0.0,
    "usgs_mean_q_cfs": 6.616,
    "velocity_feasibility": 0.3,
    "water_intake_score": 2.5755
   },
   "type": "Feature"
  }
 ],
 "note": "GRIME region 'Sandyfield, NC' \u2014 real-data pipeline (DEM\u2192streams\u2192candidates\u2192stream mask (sites confined to \u00b1150 m of mapped OSM/NHD waterways)\u2192region-appropriate real parameters\u2192shipped scoring, math unchanged). Width curve: Bieger et al. 2015 JAWRA Table 3, Atlantic Plain. Flood: SIR 2014-5030 HR4 (I24H50Y: NOAA Atlas 14). NC Coastal Plain (SIR 2014-5030 HR4; I24H50Y from NOAA Atlas 14 at region center); merged nearby towns: East Arcadia",
 "provenance": {
  "candidates_pre_gate": 15,
  "constant": [
   "bank_slope_score",
   "bridge_proximity_bonus",
   "channel_width_score",
   "cso_density",
   "land_ownership",
   "litter_complaint_density",
   "tri_facility_density"
  ],
  "gated_navigable": 0,
  "hard_gate_removed": 0,
  "n_parameters": 27,
  "parameters": {
   "bank_slope_score": {
    "kind": "real",
    "n_3dep_10m_fallback": 0,
    "n_nc_lidar_3_125ft": 15,
    "n_real": 15,
    "n_sites": 15,
    "source": "NC OneMap / NC DPS DEM03 statewide lidar-derived 3.125-ft (0.953 m) elevations (perpendicular 50 m transect; robust 5 m bank-rise metric); unavailable profiles use the region 10 m 3DEP DEM-gradient fallback",
    "source_mosaics": [
     "Bladen_Ground_3ft",
     "Columbus_Ground_3ft"
    ]
   },
   "beach_dist_km": {
    "kind": "real",
    "n_real": 15,
    "n_sites": 15,
    "source": "haversine to region ref: Wrightsville Beach (shipped NC reference)"
   },
   "bridge_proximity_bonus": {
    "kind": "real",
    "n_real": 15,
    "n_sites": 15,
    "source": "FHWA/BTS NBI (NTAD), 50 m proximity"
   },
   "catchment_area_km2": {
    "kind": "real",
    "n_real": 15,
    "n_sites": 15,
    "source": "DEM flow accumulation (pipeline)"
   },
   "channel_width_score": {
    "kind": "real",
    "n_real": 15,
    "n_sites": 15,
    "source": "Bieger 2015 APL width curve on DEM drainage area \u2192 shipped width curve"
   },
   "cso_density": {
    "kind": "real",
    "n_real": 15,
    "n_sites": 15,
    "source": "EPA ECHO open CSO/TCS outfall PF coordinates states=NC, Cauchy proximity"
   },
   "ej_index": {
    "kind": "real",
    "n_real": 15,
    "n_sites": 15,
    "source": "Census ACS C17002+B03002 two-component demographic index, percentile-ranked within region"
   },
   "estuary_dist_km": {
    "kind": "real",
    "n_real": 15,
    "n_sites": 15,
    "source": "haversine to region ref: Pamlico Sound (shipped NC reference)"
   },
   "flood_q10_cfs": {
    "kind": "real",
    "n_real": 15,
    "n_sites": 15,
    "source": "USGS SIR 2014-5030 Table 7 HR4 (NC Coastal Plain; I24H50Y from NOAA Atlas 14 at region center)"
   },
   "flow_velocity_ms": {
    "kind": "real",
    "n_fallback": 0,
    "n_real": 15,
    "n_sites": 15,
    "source": "Manning (region DEM/D8) blended with EROM continuity (shipped M4 logic)"
   },
   "impervious_pct": {
    "kind": "real",
    "n_real": 15,
    "n_sites": 15,
    "source": "EPA StreamCat pctimp2019 (per NHDPlus watershed)"
   },
   "land_ownership": {
    "kind": "real",
    "n_fallback": 0,
    "n_real": 15,
    "n_sites": 15,
    "source": "NC OneMap statewide parcels (NC Parcels Transformer) ownname"
   },
   "litter_complaint_density": {
    "kind": "fallback",
    "n_real": 0,
    "n_sites": 15,
    "source": "no public machine-readable litter/illegal-dumping feed for this region"
   },
   "navigable_dist_m": {
    "kind": "real",
    "n_real": 15,
    "n_sites": 15,
    "source": "USACE/BTS National Waterway Network lines (NTAD, retrieved 2026-07-10), distance to nearest navigable segment"
   },
   "npdes_points": {
    "kind": "real",
    "n_real": 15,
    "n_sites": 15,
    "source": "EPA ECHO active NPDES outfalls states=NC (types NPD/GPC/NGP; statuses ADC/EFF/EXP), per catchment"
   },
   "population_density": {
    "kind": "real",
    "n_real": 15,
    "n_sites": 15,
    "source": "Census ACS 2022 B01003 block groups (bbox, multi-county), area-weighted"
   },
   "protected_area_score": {
    "kind": "real",
    "n_real": 15,
    "n_sites": 15,
    "source": "USGS PAD-US 4.1 state GDB; states=NC; shipped designation-weighted proximity curve"
   },
   "road_access_score": {
    "kind": "real",
    "n_real": 15,
    "n_sites": 15,
    "source": "OSM drive network nearest-node distance"
   },
   "road_density_km_km2": {
    "kind": "real",
    "n_real": 15,
    "n_sites": 15,
    "source": "OSM drive network (osmnx, cached) clipped per catchment"
   },
   "runoff_coeff_C": {
    "kind": "real",
    "n_real": 15,
    "n_sites": 15,
    "source": "derived from real impervious_pct (C=0.05+0.009*I)"
   },
   "seasonal_cv": {
    "kind": "real",
    "n_real": 15,
    "n_sites": 15,
    "source": "CV of NHDPlus EROM monthly flows per COMID"
   },
   "stream_order": {
    "kind": "real",
    "n_real": 15,
    "n_sites": 15,
    "source": "DEM stream-network confluence heuristic (pipeline)"
   },
   "superfund_score": {
    "kind": "real",
    "n_real": 15,
    "n_sites": 15,
    "source": "EPA DataMap SEMS active sites states=NC (non-archived, georeferenced), shipped 500 m inverse-distance curve"
   },
   "tourism_amenity_density": {
    "kind": "real",
    "n_real": 15,
    "n_sites": 15,
    "source": "OSM leisure/tourism features per 2 km radius"
   },
   "tri_facility_density": {
    "kind": "real",
    "n_real": 15,
    "n_sites": 15,
    "source": "EPA DataMap TRI open facilities states=NC (preferred decimal or packed-DMS recovery), per catchment"
   },
   "usgs_mean_q_cfs": {
    "kind": "real",
    "n_real": 15,
    "n_sites": 15,
    "source": "NHDPlus EROM qe_ma per COMID (snap-guarded)"
   },
   "velocity_feasibility": {
    "kind": "real",
    "n_fallback": 0,
    "n_real": 15,
    "n_sites": 15,
    "source": "shipped step curve on the computed velocity"
   },
   "velocity_transport_favorability": {
    "kind": "derived",
    "n_real": 15,
    "n_sites": 15,
    "source": "scored form of flow_velocity_ms inside the Flow family \u2014 peaked Gaussian exp(-((v-0.9)/0.6)^2), model.json curves.velocity_transport_favorability; construct: transport/delivery favorability, deliberately distinct from velocity_feasibility (device operability)"
   },
   "water_intake_score": {
    "kind": "real",
    "n_real": 15,
    "n_sites": 15,
    "source": "NC OneMap / NC DEQ SWAP public water supply sources (source_typ='Surface Water'), shipped exp(-d/10km) curve"
   }
  },
  "stream_mask": {
   "buffer_m": 150.0,
   "pre_mask": 15,
   "removed": 0,
   "sources": [
    "osm-overpass (all waterway ways)",
    "usgs-nhdplus flowlines"
   ]
  },
  "varying": [
   "beach_dist_km",
   "catchment_area_km2",
   "ej_index",
   "estuary_dist_km",
   "flood_q10_cfs",
   "flow_velocity_ms",
   "impervious_pct",
   "npdes_points",
   "population_density",
   "protected_area_score",
   "road_access_score",
   "road_density_km_km2",
   "runoff_coeff_C",
   "seasonal_cv",
   "stream_order",
   "superfund_score",
   "tourism_amenity_density",
   "usgs_mean_q_cfs",
   "velocity_feasibility",
   "water_intake_score"
  ]
 },
 "region": {
  "bbox": [
   -78.352,
   34.3392,
   -78.2695,
   34.4054
  ],
  "beach_ref": {
   "label": "Wrightsville Beach (shipped NC reference)",
   "lat": 34.21,
   "lon": -77.79
  },
  "center": [
   -78.303801,
   34.367559
  ],
  "estuary_ref": {
   "label": "Pamlico Sound (shipped NC reference)",
   "lat": 35.05,
   "lon": -76.05
  },
  "flood_method": "sir2014_hr4",
  "name": "Sandyfield, NC",
  "notes": "NC Coastal Plain (SIR 2014-5030 HR4; I24H50Y from NOAA Atlas 14 at region center); merged nearby towns: East Arcadia",
  "slug": "sandyfield",
  "state": "NC",
  "utm_epsg": 32617,
  "width_curve": {
   "a": 2.22,
   "b": 0.363,
   "code": "APL",
   "source": "Bieger et al. 2015 JAWRA Table 3, Atlantic Plain"
  }
 },
 "type": "FeatureCollection"
}
