{
 "features": [
  {
   "geometry": {
    "coordinates": [
     -81.426318,
     35.803977
    ],
    "type": "Point"
   },
   "properties": {
    "accumulation": 22384.0,
    "bank_slope_deg": 9.74,
    "bank_slope_score": 1.0,
    "bank_slope_source": "nc-dps-lidar-dem03-cross-section",
    "beach_dist_km": 375.59,
    "bridge_proximity_bonus": 0.0,
    "catchment_area_km2": 2.233,
    "channel_width_m": 4.35,
    "channel_width_score": 1.0,
    "composite_score": 51.6194,
    "cso_density": 0.0,
    "ej_index": 0.6033,
    "elevation_m": 320.0551,
    "estuary_dist_km": 494.23,
    "feasibility_score": 76.7857,
    "flood_q10_cfs": 528.44,
    "flow_score": 11.6709,
    "flow_velocity_ms": 0.1124,
    "generation_score": 60.1999,
    "impact_score": 63.7461,
    "impervious_pct": 25.08,
    "land_ownership": 1.0,
    "lat": 35.804,
    "litter_complaint_density": 0.0,
    "lon": -81.4263,
    "navigable_dist_m": null,
    "npdes_points": 0,
    "pixel_col": 913.0,
    "pixel_row": 612.0,
    "population_density": 175.8,
    "position_along": 0.5,
    "protected_area_score": 7.947,
    "rank": 1,
    "road_access_m": 74.7,
    "road_access_score": 1.0,
    "road_density_km_km2": 4.144,
    "robustness_pct": 71.5,
    "runoff_coeff_C": 0.2757,
    "seasonal_cv": 0.4652,
    "segment_id": 8,
    "segment_length_m": 78.1897,
    "stream_order": 1,
    "superfund_score": 0.0131,
    "tourism_amenity_density": 1.0345,
    "tri_facility_density": 0.4478,
    "usgs_mean_q_cfs": 1.661,
    "velocity_feasibility": 0.7,
    "water_intake_score": 2.6056
   },
   "type": "Feature"
  },
  {
   "geometry": {
    "coordinates": [
     -81.475636,
     35.837814
    ],
    "type": "Point"
   },
   "properties": {
    "accumulation": 105019.0,
    "bank_slope_deg": 8.79,
    "bank_slope_score": 1.0,
    "bank_slope_source": "nc-dps-lidar-dem03-cross-section",
    "beach_dist_km": 381.27,
    "bridge_proximity_bonus": 0.0,
    "catchment_area_km2": 10.4765,
    "channel_width_m": 8.27,
    "channel_width_score": 1.0,
    "composite_score": 50.141,
    "cso_density": 0.0,
    "ej_index": 0.3809,
    "elevation_m": 345.8758,
    "estuary_dist_km": 499.18,
    "feasibility_score": 58.0357,
    "flood_q10_cfs": 1231.17,
    "flow_score": 42.3485,
    "flow_velocity_ms": 0.1469,
    "generation_score": 65.672,
    "impact_score": 37.1564,
    "impervious_pct": 11.55,
    "land_ownership": 0.5,
    "lat": 35.8378,
    "litter_complaint_density": 0.0,
    "lon": -81.4756,
    "navigable_dist_m": null,
    "npdes_points": 2,
    "pixel_col": 469.0,
    "pixel_row": 235.0,
    "population_density": 253.0,
    "position_along": 0.5,
    "protected_area_score": 8.3094,
    "rank": 2,
    "road_access_m": 160.6,
    "road_access_score": 1.0,
    "road_density_km_km2": 5.189,
    "robustness_pct": 91.0,
    "runoff_coeff_C": 0.154,
    "seasonal_cv": 0.3954,
    "segment_id": 3,
    "segment_length_m": 8642.6009,
    "stream_order": 1,
    "superfund_score": 0.1073,
    "tourism_amenity_density": 2.1486,
    "tri_facility_density": 0.2864,
    "usgs_mean_q_cfs": 13.286,
    "velocity_feasibility": 0.7,
    "water_intake_score": 2.0922
   },
   "type": "Feature"
  },
  {
   "geometry": {
    "coordinates": [
     -81.462898,
     35.823596
    ],
    "type": "Point"
   },
   "properties": {
    "accumulation": 135718.0,
    "bank_slope_deg": 14.61,
    "bank_slope_score": 1.0,
    "bank_slope_source": "nc-dps-lidar-dem03-cross-section",
    "beach_dist_km": 379.52,
    "bridge_proximity_bonus": 0.0,
    "catchment_area_km2": 13.539,
    "channel_width_m": 9.2,
    "channel_width_score": 1.0,
    "composite_score": 49.3083,
    "cso_density": 0.0,
    "ej_index": 0.5697,
    "elevation_m": 333.3786,
    "estuary_dist_km": 497.81,
    "feasibility_score": 58.0357,
    "flood_q10_cfs": 1419.08,
    "flow_score": 49.4102,
    "flow_velocity_ms": 0.1402,
    "generation_score": 45.5059,
    "impact_score": 48.6621,
    "impervious_pct": 11.55,
    "land_ownership": 0.5,
    "lat": 35.8236,
    "litter_complaint_density": 0.0,
    "lon": -81.4629,
    "navigable_dist_m": null,
    "npdes_points": 1,
    "pixel_col": 583.0,
    "pixel_row": 393.0,
    "population_density": 240.2,
    "position_along": 0.9,
    "protected_area_score": 8.1614,
    "rank": 3,
    "road_access_m": 186.1,
    "road_access_score": 1.0,
    "road_density_km_km2": 4.541,
    "robustness_pct": 87.0,
    "runoff_coeff_C": 0.154,
    "seasonal_cv": 0.3954,
    "segment_id": 3,
    "segment_length_m": 8642.6009,
    "stream_order": 1,
    "superfund_score": 0.0382,
    "tourism_amenity_density": 1.512,
    "tri_facility_density": 0.0739,
    "usgs_mean_q_cfs": 13.286,
    "velocity_feasibility": 0.7,
    "water_intake_score": 2.34
   },
   "type": "Feature"
  },
  {
   "geometry": {
    "coordinates": [
     -81.456888,
     35.842856
    ],
    "type": "Point"
   },
   "properties": {
    "accumulation": 65562.0,
    "bank_slope_deg": 12.18,
    "bank_slope_score": 1.0,
    "bank_slope_source": "nc-dps-lidar-dem03-cross-section",
    "beach_dist_km": 380.03,
    "bridge_proximity_bonus": 0.0,
    "catchment_area_km2": 6.5404,
    "channel_width_m": 6.8,
    "channel_width_score": 1.0,
    "composite_score": 47.734,
    "cso_density": 0.0,
    "ej_index": 0.3541,
    "elevation_m": 335.478,
    "estuary_dist_km": 497.59,
    "feasibility_score": 58.0357,
    "flood_q10_cfs": 960.72,
    "flow_score": 52.9839,
    "flow_velocity_ms": 0.0869,
    "generation_score": 57.3473,
    "impact_score": 28.5951,
    "impervious_pct": 12.96,
    "land_ownership": 0.5,
    "lat": 35.8429,
    "litter_complaint_density": 0.0,
    "lon": -81.4569,
    "navigable_dist_m": null,
    "npdes_points": 2,
    "pixel_col": 638.0,
    "pixel_row": 177.0,
    "population_density": 237.0,
    "position_along": 0.625,
    "protected_area_score": 7.8081,
    "rank": 4,
    "road_access_m": 142.1,
    "road_access_score": 1.0,
    "road_density_km_km2": 4.34,
    "robustness_pct": 76.5,
    "runoff_coeff_C": 0.1666,
    "seasonal_cv": 0.3871,
    "segment_id": 0,
    "segment_length_m": 6738.9747,
    "stream_order": 3,
    "superfund_score": 0.0619,
    "tourism_amenity_density": 0.4775,
    "tri_facility_density": 0.1529,
    "usgs_mean_q_cfs": 22.906,
    "velocity_feasibility": 0.7,
    "water_intake_score": 2.0079
   },
   "type": "Feature"
  },
  {
   "geometry": {
    "coordinates": [
     -81.467698,
     35.833742
    ],
    "type": "Point"
   },
   "properties": {
    "accumulation": 114922.0,
    "bank_slope_deg": 28.61,
    "bank_slope_score": 0.5,
    "bank_slope_source": "nc-dps-lidar-dem03-cross-section",
    "beach_dist_km": 380.43,
    "bridge_proximity_bonus": 0.0,
    "catchment_area_km2": 11.4644,
    "channel_width_m": 8.59,
    "channel_width_score": 1.0,
    "composite_score": 46.7964,
    "cso_density": 0.0,
    "ej_index": 0.4634,
    "elevation_m": 339.9048,
    "estuary_dist_km": 498.4,
    "feasibility_score": 41.2946,
    "flood_q10_cfs": 1294.18,
    "flow_score": 44.913,
    "flow_velocity_ms": 0.1541,
    "generation_score": 56.7231,
    "impact_score": 41.1901,
    "impervious_pct": 11.55,
    "land_ownership": 0.5,
    "lat": 35.8337,
    "litter_complaint_density": 0.0,
    "lon": -81.4677,
    "navigable_dist_m": null,
    "npdes_points": 2,
    "pixel_col": 540.0,
    "pixel_row": 280.0,
    "population_density": 256.5,
    "position_along": 0.7,
    "protected_area_score": 8.0889,
    "rank": 5,
    "road_access_m": 210.5,
    "road_access_score": 0.8,
    "road_density_km_km2": 5.008,
    "robustness_pct": 64.0,
    "runoff_coeff_C": 0.154,
    "seasonal_cv": 0.3954,
    "segment_id": 3,
    "segment_length_m": 8642.6009,
    "stream_order": 1,
    "superfund_score": 0.0646,
    "tourism_amenity_density": 1.9894,
    "tri_facility_density": 0.0872,
    "usgs_mean_q_cfs": 13.286,
    "velocity_feasibility": 0.7,
    "water_intake_score": 2.1645
   },
   "type": "Feature"
  },
  {
   "geometry": {
    "coordinates": [
     -81.46951,
     35.845422
    ],
    "type": "Point"
   },
   "properties": {
    "accumulation": 40709.0,
    "bank_slope_deg": 30.4,
    "bank_slope_score": 0.2,
    "bank_slope_source": "nc-dps-lidar-dem03-cross-section",
    "beach_dist_km": 381.17,
    "bridge_proximity_bonus": 0.0,
    "catchment_area_km2": 4.0611,
    "channel_width_m": 5.58,
    "channel_width_score": 1.0,
    "composite_score": 44.7157,
    "cso_density": 0.0,
    "ej_index": 0.263,
    "elevation_m": 339.202,
    "estuary_dist_km": 498.76,
    "feasibility_score": 31.25,
    "flood_q10_cfs": 689.06,
    "flow_score": 42.3615,
    "flow_velocity_ms": 0.0432,
    "generation_score": 68.8522,
    "impact_score": 29.2738,
    "impervious_pct": 14.49,
    "land_ownership": 0.5,
    "lat": 35.8454,
    "litter_complaint_density": 0.0,
    "lon": -81.4695,
    "navigable_dist_m": null,
    "npdes_points": 2,
    "pixel_col": 524.0,
    "pixel_row": 150.0,
    "population_density": 269.1,
    "position_along": 0.375,
    "protected_area_score": 8.0553,
    "rank": 6,
    "road_access_m": 90.1,
    "road_access_score": 1.0,
    "road_density_km_km2": 5.257,
    "robustness_pct": 33.0,
    "runoff_coeff_C": 0.1804,
    "seasonal_cv": 0.3879,
    "segment_id": 0,
    "segment_length_m": 6738.9747,
    "stream_order": 3,
    "superfund_score": 0.1133,
    "tourism_amenity_density": 1.9099,
    "tri_facility_density": 0.2462,
    "usgs_mean_q_cfs": 19.557,
    "velocity_feasibility": 0.3,
    "water_intake_score": 1.9714
   },
   "type": "Feature"
  },
  {
   "geometry": {
    "coordinates": [
     -81.490982,
     35.835519
    ],
    "type": "Point"
   },
   "properties": {
    "accumulation": 81663.0,
    "bank_slope_deg": 3.91,
    "bank_slope_score": 1.0,
    "bank_slope_source": "nc-dps-lidar-dem03-cross-section",
    "beach_dist_km": 382.38,
    "bridge_proximity_bonus": 0.0,
    "catchment_area_km2": 8.1466,
    "channel_width_m": 7.45,
    "channel_width_score": 1.0,
    "composite_score": 44.2028,
    "cso_density": 0.0,
    "ej_index": 0.3781,
    "elevation_m": 351.8919,
    "estuary_dist_km": 500.51,
    "feasibility_score": 58.0357,
    "flood_q10_cfs": 1071.05,
    "flow_score": 36.5631,
    "flow_velocity_ms": 0.145,
    "generation_score": 50.1732,
    "impact_score": 37.6825,
    "impervious_pct": 11.55,
    "land_ownership": 0.5,
    "lat": 35.8355,
    "litter_complaint_density": 0.0,
    "lon": -81.491,
    "navigable_dist_m": null,
    "npdes_points": 0,
    "pixel_col": 330.0,
    "pixel_row": 259.0,
    "population_density": 261.0,
    "position_along": 0.3,
    "protected_area_score": 8.5909,
    "rank": 7,
    "road_access_m": 188.6,
    "road_access_score": 1.0,
    "road_density_km_km2": 5.538,
    "robustness_pct": 12.0,
    "runoff_coeff_C": 0.154,
    "seasonal_cv": 0.3954,
    "segment_id": 3,
    "segment_length_m": 8642.6009,
    "stream_order": 1,
    "superfund_score": 0.1537,
    "tourism_amenity_density": 2.5465,
    "tri_facility_density": 0.2455,
    "usgs_mean_q_cfs": 13.286,
    "velocity_feasibility": 0.7,
    "water_intake_score": 2.0974
   },
   "type": "Feature"
  },
  {
   "geometry": {
    "coordinates": [
     -81.434212,
     35.821599
    ],
    "type": "Point"
   },
   "properties": {
    "accumulation": 38906.0,
    "bank_slope_deg": 22.42,
    "bank_slope_score": 0.5,
    "bank_slope_source": "nc-dps-lidar-dem03-cross-section",
    "beach_dist_km": 377.12,
    "bridge_proximity_bonus": 0.0,
    "catchment_area_km2": 3.8812,
    "channel_width_m": 5.48,
    "channel_width_score": 1.0,
    "composite_score": 42.2949,
    "cso_density": 0.0,
    "ej_index": 0.6513,
    "elevation_m": 317.2809,
    "estuary_dist_km": 495.22,
    "feasibility_score": 41.2946,
    "flood_q10_cfs": 632.54,
    "flow_score": 22.6312,
    "flow_velocity_ms": 0.0827,
    "generation_score": 46.3361,
    "impact_score": 55.1403,
    "impervious_pct": 11.55,
    "land_ownership": 0.5,
    "lat": 35.8216,
    "litter_complaint_density": 0.0,
    "lon": -81.4342,
    "navigable_dist_m": null,
    "npdes_points": 0,
    "pixel_col": 842.0,
    "pixel_row": 415.0,
    "population_density": 172.6,
    "position_along": 0.5,
    "protected_area_score": 7.7494,
    "rank": 8,
    "road_access_m": 201.8,
    "road_access_score": 0.8,
    "road_density_km_km2": 2.991,
    "robustness_pct": 16.0,
    "runoff_coeff_C": 0.154,
    "seasonal_cv": 0.3954,
    "segment_id": 4,
    "segment_length_m": 2733.0391,
    "stream_order": 1,
    "superfund_score": 0.0208,
    "tourism_amenity_density": 1.0345,
    "tri_facility_density": 0.5153,
    "usgs_mean_q_cfs": 13.286,
    "velocity_feasibility": 0.7,
    "water_intake_score": 2.3226
   },
   "type": "Feature"
  },
  {
   "geometry": {
    "coordinates": [
     -81.442998,
     35.840066
    ],
    "type": "Point"
   },
   "properties": {
    "accumulation": 84147.0,
    "bank_slope_deg": 27.36,
    "bank_slope_score": 0.5,
    "bank_slope_source": "nc-dps-lidar-dem03-cross-section",
    "beach_dist_km": 378.77,
    "bridge_proximity_bonus": 0.0,
    "catchment_area_km2": 8.3944,
    "channel_width_m": 7.54,
    "channel_width_score": 1.0,
    "composite_score": 41.603,
    "cso_density": 0.0,
    "ej_index": 0.5293,
    "elevation_m": 331.2704,
    "estuary_dist_km": 496.31,
    "feasibility_score": 50.2232,
    "flood_q10_cfs": 1110.39,
    "flow_score": 59.6881,
    "flow_velocity_ms": 0.16,
    "generation_score": 27.7965,
    "impact_score": 36.0284,
    "impervious_pct": 12.96,
    "land_ownership": 0.5,
    "lat": 35.8401,
    "litter_complaint_density": 0.0,
    "lon": -81.443,
    "navigable_dist_m": null,
    "npdes_points": 0,
    "pixel_col": 764.0,
    "pixel_row": 209.0,
    "population_density": 186.4,
    "position_along": 0.875,
    "protected_area_score": 7.551,
    "rank": 9,
    "road_access_m": 109.0,
    "road_access_score": 1.0,
    "road_density_km_km2": 3.65,
    "robustness_pct": 10.0,
    "runoff_coeff_C": 0.1666,
    "seasonal_cv": 0.3871,
    "segment_id": 0,
    "segment_length_m": 6738.9747,
    "stream_order": 3,
    "superfund_score": 0.038,
    "tourism_amenity_density": 0.0,
    "tri_facility_density": 0.0,
    "usgs_mean_q_cfs": 22.906,
    "velocity_feasibility": 0.7,
    "water_intake_score": 2.038
   },
   "type": "Feature"
  },
  {
   "geometry": {
    "coordinates": [
     -81.498611,
     35.790213
    ],
    "type": "Point"
   },
   "properties": {
    "accumulation": 132808.0,
    "bank_slope_deg": 19.6,
    "bank_slope_score": 0.5,
    "bank_slope_source": "nc-dps-lidar-dem03-cross-section",
    "beach_dist_km": 380.73,
    "bridge_proximity_bonus": 0.0,
    "catchment_area_km2": 13.2487,
    "channel_width_m": 9.12,
    "channel_width_score": 1.0,
    "composite_score": 41.068,
    "cso_density": 0.0,
    "ej_index": 0.4085,
    "elevation_m": 303.6043,
    "estuary_dist_km": 500.47,
    "feasibility_score": 50.2232,
    "flood_q10_cfs": 1292.21,
    "flow_score": 56.4135,
    "flow_velocity_ms": 0.0559,
    "generation_score": 18.4107,
    "impact_score": 46.3598,
    "impervious_pct": 5.64,
    "land_ownership": 0.5,
    "lat": 35.7902,
    "litter_complaint_density": 0.0,
    "lon": -81.4986,
    "navigable_dist_m": null,
    "npdes_points": 1,
    "pixel_col": 257.0,
    "pixel_row": 762.0,
    "population_density": 148.8,
    "position_along": 0.5,
    "protected_area_score": 10.1028,
    "rank": 10,
    "road_access_m": 191.0,
    "road_access_score": 1.0,
    "road_density_km_km2": 1.358,
    "robustness_pct": 12.5,
    "runoff_coeff_C": 0.1008,
    "seasonal_cv": 0.3969,
    "segment_id": 12,
    "segment_length_m": 2179.8606,
    "stream_order": 3,
    "superfund_score": 0.0156,
    "tourism_amenity_density": 0.0796,
    "tri_facility_density": 0.0,
    "usgs_mean_q_cfs": 11.037,
    "velocity_feasibility": 0.7,
    "water_intake_score": 2.7291
   },
   "type": "Feature"
  },
  {
   "geometry": {
    "coordinates": [
     -81.431452,
     35.84161
    ],
    "type": "Point"
   },
   "properties": {
    "accumulation": 135270.0,
    "bank_slope_deg": 33.35,
    "bank_slope_score": 0.2,
    "bank_slope_source": "nc-dps-lidar-dem03-cross-section",
    "beach_dist_km": 377.93,
    "bridge_proximity_bonus": 0.0,
    "catchment_area_km2": 13.4943,
    "channel_width_m": 9.19,
    "channel_width_score": 1.0,
    "composite_score": 40.7451,
    "cso_density": 0.0,
    "ej_index": 0.5784,
    "elevation_m": 322.5704,
    "estuary_dist_km": 495.3,
    "feasibility_score": 36.6071,
    "flood_q10_cfs": 1399.75,
    "flow_score": 72.9544,
    "flow_velocity_ms": 0.056,
    "generation_score": 17.693,
    "impact_score": 39.025,
    "impervious_pct": 10.69,
    "land_ownership": 0.5,
    "lat": 35.8416,
    "litter_complaint_density": 0.0,
    "lon": -81.4315,
    "navigable_dist_m": null,
    "npdes_points": 0,
    "pixel_col": 868.0,
    "pixel_row": 194.0,
    "population_density": 153.7,
    "position_along": 0.5,
    "protected_area_score": 7.4519,
    "rank": 11,
    "road_access_m": 300.4,
    "road_access_score": 0.8,
    "road_density_km_km2": 1.897,
    "robustness_pct": 20.0,
    "runoff_coeff_C": 0.1462,
    "seasonal_cv": 0.3872,
    "segment_id": 2,
    "segment_length_m": 2814.2403,
    "stream_order": 3,
    "superfund_score": 0.0291,
    "tourism_amenity_density": 0.0,
    "tri_facility_density": 0.0,
    "usgs_mean_q_cfs": 28.752,
    "velocity_feasibility": 0.7,
    "water_intake_score": 1.9838
   },
   "type": "Feature"
  },
  {
   "geometry": {
    "coordinates": [
     -81.461031,
     35.794683
    ],
    "type": "Point"
   },
   "properties": {
    "accumulation": 58745.0,
    "bank_slope_deg": 20.42,
    "bank_slope_score": 0.5,
    "bank_slope_source": "nc-dps-lidar-dem03-cross-section",
    "beach_dist_km": 377.92,
    "bridge_proximity_bonus": 0.0,
    "catchment_area_km2": 5.8603,
    "channel_width_m": 6.5,
    "channel_width_score": 1.0,
    "composite_score": 37.7858,
    "cso_density": 0.0,
    "ej_index": 0.4624,
    "elevation_m": 307.7219,
    "estuary_dist_km": 497.18,
    "feasibility_score": 41.2946,
    "flood_q10_cfs": 847.17,
    "flow_score": 22.4461,
    "flow_velocity_ms": 0.1661,
    "generation_score": 31.9716,
    "impact_score": 54.6286,
    "impervious_pct": 10.5,
    "land_ownership": 0.5,
    "lat": 35.7947,
    "litter_complaint_density": 0.0,
    "lon": -81.461,
    "navigable_dist_m": null,
    "npdes_points": 1,
    "pixel_col": 597.0,
    "pixel_row": 714.0,
    "population_density": 199.3,
    "position_along": 0.75,
    "protected_area_score": 8.5437,
    "rank": 12,
    "road_access_m": 319.1,
    "road_access_score": 0.8,
    "road_density_km_km2": 2.598,
    "robustness_pct": 2.0,
    "runoff_coeff_C": 0.1445,
    "seasonal_cv": 0.4253,
    "segment_id": 7,
    "segment_length_m": 3198.334,
    "stream_order": 1,
    "superfund_score": 0.0155,
    "tourism_amenity_density": 0.2387,
    "tri_facility_density": 0.0,
    "usgs_mean_q_cfs": 3.66,
    "velocity_feasibility": 0.7,
    "water_intake_score": 2.8595
   },
   "type": "Feature"
  },
  {
   "geometry": {
    "coordinates": [
     -81.505338,
     35.840232
    ],
    "type": "Point"
   },
   "properties": {
    "accumulation": 38071.0,
    "bank_slope_deg": 2.44,
    "bank_slope_score": 1.0,
    "bank_slope_source": "nc-dps-lidar-dem03-cross-section",
    "beach_dist_km": 383.77,
    "bridge_proximity_bonus": 0.0,
    "catchment_area_km2": 3.7979,
    "channel_width_m": 5.43,
    "channel_width_score": 1.0,
    "composite_score": 36.3999,
    "cso_density": 0.0,
    "ej_index": 0.5698,
    "elevation_m": 356.9048,
    "estuary_dist_km": 501.86,
    "feasibility_score": 58.0357,
    "flood_q10_cfs": 622.28,
    "flow_score": 22.8715,
    "flow_velocity_ms": 0.1046,
    "generation_score": 37.3769,
    "impact_score": 35.8788,
    "impervious_pct": 11.55,
    "land_ownership": 0.5,
    "lat": 35.8402,
    "litter_complaint_density": 0.0,
    "lon": -81.5053,
    "navigable_dist_m": null,
    "npdes_points": 0,
    "pixel_col": 200.0,
    "pixel_row": 204.0,
    "population_density": 268.3,
    "position_along": 0.1,
    "protected_area_score": 9.3756,
    "rank": 13,
    "road_access_m": 174.0,
    "road_access_score": 1.0,
    "road_density_km_km2": 4.414,
    "robustness_pct": 0.0,
    "runoff_coeff_C": 0.154,
    "seasonal_cv": 0.3954,
    "segment_id": 3,
    "segment_length_m": 8642.6009,
    "stream_order": 1,
    "superfund_score": 0.1619,
    "tourism_amenity_density": 1.0345,
    "tri_facility_density": 0.0,
    "usgs_mean_q_cfs": 13.286,
    "velocity_feasibility": 0.7,
    "water_intake_score": 1.9765
   },
   "type": "Feature"
  },
  {
   "geometry": {
    "coordinates": [
     -81.500007,
     35.805614
    ],
    "type": "Point"
   },
   "properties": {
    "accumulation": 56681.0,
    "bank_slope_deg": 19.69,
    "bank_slope_score": 0.5,
    "bank_slope_source": "nc-dps-lidar-dem03-cross-section",
    "beach_dist_km": 381.6,
    "bridge_proximity_bonus": 0.2,
    "catchment_area_km2": 5.6544,
    "channel_width_m": 6.4,
    "channel_width_score": 1.0,
    "composite_score": 34.7625,
    "cso_density": 0.0,
    "ej_index": 0.3355,
    "elevation_m": 317.7172,
    "estuary_dist_km": 500.83,
    "feasibility_score": 53.7946,
    "flood_q10_cfs": 771.99,
    "flow_score": 34.8055,
    "flow_velocity_ms": 0.1386,
    "generation_score": 23.6209,
    "impact_score": 36.3524,
    "impervious_pct": 6.73,
    "land_ownership": 0.5,
    "lat": 35.8056,
    "litter_complaint_density": 0.0,
    "lon": -81.5,
    "navigable_dist_m": null,
    "npdes_points": 0,
    "pixel_col": 245.0,
    "pixel_row": 591.0,
    "population_density": 231.3,
    "position_along": 0.5,
    "protected_area_score": 9.8596,
    "rank": 14,
    "road_access_m": 317.6,
    "road_access_score": 0.8,
    "road_density_km_km2": 2.421,
    "robustness_pct": 0.0,
    "runoff_coeff_C": 0.1106,
    "seasonal_cv": 0.4135,
    "segment_id": 5,
    "segment_length_m": 2902.1238,
    "stream_order": 3,
    "superfund_score": 0.0249,
    "tourism_amenity_density": 0.0,
    "tri_facility_density": 0.0,
    "usgs_mean_q_cfs": 4.851,
    "velocity_feasibility": 0.7,
    "water_intake_score": 2.5205
   },
   "type": "Feature"
  },
  {
   "geometry": {
    "coordinates": [
     -81.477262,
     35.851873
    ],
    "type": "Point"
   },
   "properties": {
    "accumulation": 25660.0,
    "bank_slope_deg": 30.27,
    "bank_slope_score": 0.2,
    "bank_slope_source": "nc-dps-lidar-dem03-cross-section",
    "beach_dist_km": 382.12,
    "bridge_proximity_bonus": 0.0,
    "catchment_area_km2": 2.5598,
    "channel_width_m": 4.61,
    "channel_width_score": 1.0,
    "composite_score": 34.28,
    "cso_density": 0.0,
    "ej_index": 0.2608,
    "elevation_m": 346.4941,
    "estuary_dist_km": 499.56,
    "feasibility_score": 47.3214,
    "flood_q10_cfs": 377.65,
    "flow_score": 41.223,
    "flow_velocity_ms": 0.5,
    "generation_score": 26.0751,
    "impact_score": 30.1784,
    "impervious_pct": null,
    "land_ownership": 0.5,
    "lat": 35.8519,
    "litter_complaint_density": 0.0,
    "lon": -81.4773,
    "navigable_dist_m": null,
    "npdes_points": 0,
    "pixel_col": 455.0,
    "pixel_row": 77.0,
    "population_density": 271.3,
    "position_along": 0.125,
    "protected_area_score": 8.1593,
    "rank": 15,
    "road_access_m": 317.5,
    "road_access_score": 0.8,
    "road_density_km_km2": 4.486,
    "robustness_pct": 0.0,
    "runoff_coeff_C": null,
    "seasonal_cv": null,
    "segment_id": 0,
    "segment_length_m": 6738.9747,
    "stream_order": 3,
    "superfund_score": 0.2316,
    "tourism_amenity_density": 2.2282,
    "tri_facility_density": 0.0,
    "usgs_mean_q_cfs": null,
    "velocity_feasibility": 1.0,
    "water_intake_score": 1.8631
   },
   "type": "Feature"
  },
  {
   "geometry": {
    "coordinates": [
     -81.453185,
     35.789227
    ],
    "type": "Point"
   },
   "properties": {
    "accumulation": 20143.0,
    "bank_slope_deg": 13.97,
    "bank_slope_score": 1.0,
    "bank_slope_source": "nc-dps-lidar-dem03-cross-section",
    "beach_dist_km": 377.01,
    "bridge_proximity_bonus": 0.0,
    "catchment_area_km2": 2.0094,
    "channel_width_m": 4.17,
    "channel_width_score": 1.0,
    "composite_score": 34.2512,
    "cso_density": 0.0,
    "ej_index": 0.4646,
    "elevation_m": 302.2863,
    "estuary_dist_km": 496.4,
    "feasibility_score": 49.1071,
    "flood_q10_cfs": 388.48,
    "flow_score": 6.1343,
    "flow_velocity_ms": 0.091,
    "generation_score": 24.4947,
    "impact_score": 60.0105,
    "impervious_pct": 12.04,
    "land_ownership": 0.5,
    "lat": 35.7892,
    "litter_complaint_density": 0.0,
    "lon": -81.4532,
    "navigable_dist_m": null,
    "npdes_points": 0,
    "pixel_col": 668.0,
    "pixel_row": 775.0,
    "population_density": 219.1,
    "position_along": 0.5,
    "protected_area_score": 8.576,
    "rank": 16,
    "road_access_m": 446.6,
    "road_access_score": 0.8,
    "road_density_km_km2": 1.06,
    "robustness_pct": 4.5,
    "runoff_coeff_C": 0.1584,
    "seasonal_cv": 0.4697,
    "segment_id": 13,
    "segment_length_m": 136.4035,
    "stream_order": 1,
    "superfund_score": 0.0128,
    "tourism_amenity_density": 0.4775,
    "tri_facility_density": 0.0,
    "usgs_mean_q_cfs": 1.398,
    "velocity_feasibility": 0.7,
    "water_intake_score": 2.9372
   },
   "type": "Feature"
  },
  {
   "geometry": {
    "coordinates": [
     -81.505322,
     35.798898
    ],
    "type": "Point"
   },
   "properties": {
    "accumulation": 48543.0,
    "bank_slope_deg": 17.47,
    "bank_slope_score": 0.5,
    "bank_slope_source": "nc-dps-lidar-dem03-cross-section",
    "beach_dist_km": 381.7,
    "bridge_proximity_bonus": 0.0,
    "catchment_area_km2": 4.8426,
    "channel_width_m": 6.0,
    "channel_width_score": 1.0,
    "composite_score": 30.9147,
    "cso_density": 0.0,
    "ej_index": 0.4173,
    "elevation_m": 308.6461,
    "estuary_dist_km": 501.21,
    "feasibility_score": 41.2946,
    "flood_q10_cfs": 675.21,
    "flow_score": 31.0069,
    "flow_velocity_ms": 0.1033,
    "generation_score": 15.8873,
    "impact_score": 40.6752,
    "impervious_pct": 5.75,
    "land_ownership": 0.5,
    "lat": 35.7989,
    "litter_complaint_density": 0.0,
    "lon": -81.5053,
    "navigable_dist_m": null,
    "npdes_points": 0,
    "pixel_col": 198.0,
    "pixel_row": 665.0,
    "population_density": 175.2,
    "position_along": 0.5,
    "protected_area_score": 10.1191,
    "rank": 17,
    "road_access_m": 458.0,
    "road_access_score": 0.8,
    "road_density_km_km2": 2.248,
    "robustness_pct": 0.0,
    "runoff_coeff_C": 0.1018,
    "seasonal_cv": 0.4146,
    "segment_id": 11,
    "segment_length_m": 343.4323,
    "stream_order": 3,
    "superfund_score": 0.0196,
    "tourism_amenity_density": 0.0,
    "tri_facility_density": 0.0,
    "usgs_mean_q_cfs": 4.638,
    "velocity_feasibility": 0.7,
    "water_intake_score": 2.5737
   },
   "type": "Feature"
  },
  {
   "geometry": {
    "coordinates": [
     -81.469038,
     35.801215
    ],
    "type": "Point"
   },
   "properties": {
    "accumulation": 26718.0,
    "bank_slope_deg": 26.44,
    "bank_slope_score": 0.5,
    "bank_slope_source": "nc-dps-lidar-dem03-cross-section",
    "beach_dist_km": 378.89,
    "bridge_proximity_bonus": 0.0,
    "catchment_area_km2": 2.6653,
    "channel_width_m": 4.69,
    "channel_width_score": 1.0,
    "composite_score": 29.8452,
    "cso_density": 0.0,
    "ej_index": 0.4558,
    "elevation_m": 324.6044,
    "estuary_dist_km": 498.0,
    "feasibility_score": 41.2946,
    "flood_q10_cfs": 464.19,
    "flow_score": 9.3007,
    "flow_velocity_ms": 0.1339,
    "generation_score": 22.0417,
    "impact_score": 49.0445,
    "impervious_pct": 10.05,
    "land_ownership": 0.5,
    "lat": 35.8012,
    "litter_complaint_density": 0.0,
    "lon": -81.469,
    "navigable_dist_m": null,
    "npdes_points": 0,
    "pixel_col": 526.0,
    "pixel_row": 641.0,
    "population_density": 176.5,
    "position_along": 0.25,
    "protected_area_score": 8.6269,
    "rank": 18,
    "road_access_m": 256.2,
    "road_access_score": 0.8,
    "road_density_km_km2": 2.938,
    "robustness_pct": 0.0,
    "runoff_coeff_C": 0.1405,
    "seasonal_cv": 0.4583,
    "segment_id": 7,
    "segment_length_m": 3198.334,
    "stream_order": 1,
    "superfund_score": 0.0196,
    "tourism_amenity_density": 0.0796,
    "tri_facility_density": 0.0,
    "usgs_mean_q_cfs": 1.726,
    "velocity_feasibility": 0.7,
    "water_intake_score": 2.7446
   },
   "type": "Feature"
  },
  {
   "geometry": {
    "coordinates": [
     -81.509297,
     35.801159
    ],
    "type": "Point"
   },
   "properties": {
    "accumulation": 24018.0,
    "bank_slope_deg": 11.5,
    "bank_slope_score": 1.0,
    "bank_slope_source": "nc-dps-lidar-dem03-cross-section",
    "beach_dist_km": 382.13,
    "bridge_proximity_bonus": 0.0,
    "catchment_area_km2": 2.396,
    "channel_width_m": 4.48,
    "channel_width_score": 1.0,
    "composite_score": 29.7767,
    "cso_density": 0.0,
    "ej_index": 0.4374,
    "elevation_m": 317.9428,
    "estuary_dist_km": 501.6,
    "feasibility_score": 58.0357,
    "flood_q10_cfs": 379.12,
    "flow_score": 21.7003,
    "flow_velocity_ms": 0.1806,
    "generation_score": 13.1324,
    "impact_score": 39.0219,
    "impervious_pct": 3.07,
    "land_ownership": 0.5,
    "lat": 35.8012,
    "litter_complaint_density": 0.0,
    "lon": -81.5093,
    "navigable_dist_m": null,
    "npdes_points": 0,
    "pixel_col": 162.0,
    "pixel_row": 640.0,
    "population_density": 180.7,
    "position_along": 0.5,
    "protected_area_score": 10.069,
    "rank": 19,
    "road_access_m": 131.6,
    "road_access_score": 1.0,
    "road_density_km_km2": 1.976,
    "robustness_pct": 0.0,
    "runoff_coeff_C": 0.0776,
    "seasonal_cv": 0.4572,
    "segment_id": 9,
    "segment_length_m": 628.3567,
    "stream_order": 3,
    "superfund_score": 0.0206,
    "tourism_amenity_density": 0.0796,
    "tri_facility_density": 0.0,
    "usgs_mean_q_cfs": 1.695,
    "velocity_feasibility": 0.7,
    "water_intake_score": 2.5147
   },
   "type": "Feature"
  },
  {
   "geometry": {
    "coordinates": [
     -81.502962,
     35.81329
    ],
    "type": "Point"
   },
   "properties": {
    "accumulation": 20335.0,
    "bank_slope_deg": 1.45,
    "bank_slope_score": 1.0,
    "bank_slope_source": "nc-dps-lidar-dem03-cross-section",
    "beach_dist_km": 382.23,
    "bridge_proximity_bonus": 0.0,
    "catchment_area_km2": 2.0286,
    "channel_width_m": 4.18,
    "channel_width_score": 1.0,
    "composite_score": 29.3145,
    "cso_density": 0.0,
    "ej_index": 0.1731,
    "elevation_m": 329.7711,
    "estuary_dist_km": 501.22,
    "feasibility_score": 58.0357,
    "flood_q10_cfs": 349.87,
    "flow_score": 5.1873,
    "flow_velocity_ms": 0.1283,
    "generation_score": 38.1656,
    "impact_score": 26.2087,
    "impervious_pct": 5.65,
    "land_ownership": 0.5,
    "lat": 35.8133,
    "litter_complaint_density": 0.0,
    "lon": -81.503,
    "navigable_dist_m": null,
    "npdes_points": 0,
    "pixel_col": 220.0,
    "pixel_row": 504.0,
    "population_density": 336.6,
    "position_along": 0.5,
    "protected_area_score": 9.7525,
    "rank": 20,
    "road_access_m": 91.4,
    "road_access_score": 1.0,
    "road_density_km_km2": 4.036,
    "robustness_pct": 0.0,
    "runoff_coeff_C": 0.1008,
    "seasonal_cv": 0.4746,
    "segment_id": 6,
    "segment_length_m": 172.9279,
    "stream_order": 1,
    "superfund_score": 0.0329,
    "tourism_amenity_density": 0.0796,
    "tri_facility_density": 0.0,
    "usgs_mean_q_cfs": 1.373,
    "velocity_feasibility": 0.7,
    "water_intake_score": 2.3968
   },
   "type": "Feature"
  },
  {
   "geometry": {
    "coordinates": [
     -81.500387,
     35.780728
    ],
    "type": "Point"
   },
   "properties": {
    "accumulation": 25660.0,
    "bank_slope_deg": 0.01,
    "bank_slope_score": 1.0,
    "bank_slope_source": "nc-dps-lidar-dem03-cross-section",
    "beach_dist_km": 380.4,
    "bridge_proximity_bonus": 0.0,
    "catchment_area_km2": 2.5598,
    "channel_width_m": 4.61,
    "channel_width_score": 1.0,
    "composite_score": 29.0372,
    "cso_density": 0.0,
    "ej_index": 0.3874,
    "elevation_m": 302.1031,
    "estuary_dist_km": 500.49,
    "feasibility_score": 50.8929,
    "flood_q10_cfs": 377.65,
    "flow_score": 27.223,
    "flow_velocity_ms": 0.5,
    "generation_score": 0.4321,
    "impact_score": 48.2261,
    "impervious_pct": null,
    "land_ownership": 0.5,
    "lat": 35.7807,
    "litter_complaint_density": 0.0,
    "lon": -81.5004,
    "navigable_dist_m": null,
    "npdes_points": 0,
    "pixel_col": 238.0,
    "pixel_row": 866.0,
    "population_density": 132.0,
    "position_along": 0.25,
    "protected_area_score": 10.5006,
    "rank": 21,
    "road_access_m": 767.1,
    "road_access_score": 0.6,
    "road_density_km_km2": 0.234,
    "robustness_pct": 0.0,
    "runoff_coeff_C": null,
    "seasonal_cv": null,
    "segment_id": 14,
    "segment_length_m": 3352.6344,
    "stream_order": 1,
    "superfund_score": 0.0122,
    "tourism_amenity_density": 0.0796,
    "tri_facility_density": 0.0,
    "usgs_mean_q_cfs": null,
    "velocity_feasibility": 1.0,
    "water_intake_score": 2.7556
   },
   "type": "Feature"
  },
  {
   "geometry": {
    "coordinates": [
     -81.507558,
     35.798645
    ],
    "type": "Point"
   },
   "properties": {
    "accumulation": 20992.0,
    "bank_slope_deg": 17.01,
    "bank_slope_score": 0.5,
    "bank_slope_source": "nc-dps-lidar-dem03-cross-section",
    "beach_dist_km": 381.87,
    "bridge_proximity_bonus": 0.0,
    "catchment_area_km2": 2.0941,
    "channel_width_m": 4.24,
    "channel_width_score": 1.0,
    "composite_score": 28.5161,
    "cso_density": 0.0,
    "ej_index": 0.4404,
    "elevation_m": 311.3238,
    "estuary_dist_km": 501.4,
    "feasibility_score": 41.2946,
    "flood_q10_cfs": 368.85,
    "flow_score": 22.113,
    "flow_velocity_ms": 0.1312,
    "generation_score": 15.6313,
    "impact_score": 40.3475,
    "impervious_pct": 7.3,
    "land_ownership": 0.5,
    "lat": 35.7986,
    "litter_complaint_density": 0.0,
    "lon": -81.5076,
    "navigable_dist_m": null,
    "npdes_points": 0,
    "pixel_col": 178.0,
    "pixel_row": 665.0,
    "population_density": 161.2,
    "position_along": 0.5,
    "protected_area_score": 9.9854,
    "rank": 22,
    "road_access_m": 269.5,
    "road_access_score": 0.8,
    "road_density_km_km2": 2.136,
    "robustness_pct": 0.0,
    "runoff_coeff_C": 0.1157,
    "seasonal_cv": 0.431,
    "segment_id": 10,
    "segment_length_m": 201.178,
    "stream_order": 3,
    "superfund_score": 0.0192,
    "tourism_amenity_density": 0.0796,
    "tri_facility_density": 0.0,
    "usgs_mean_q_cfs": 3.016,
    "velocity_feasibility": 0.7,
    "water_intake_score": 2.5588
   },
   "type": "Feature"
  },
  {
   "geometry": {
    "coordinates": [
     -81.441831,
     35.846182
    ],
    "type": "Point"
   },
   "properties": {
    "accumulation": 34279.0,
    "bank_slope_deg": 19.83,
    "bank_slope_score": 0.5,
    "bank_slope_source": "nc-dps-lidar-dem03-cross-section",
    "beach_dist_km": 378.99,
    "bridge_proximity_bonus": 0.0,
    "catchment_area_km2": 3.4196,
    "channel_width_m": 5.2,
    "channel_width_score": 1.0,
    "composite_score": 27.5985,
    "cso_density": 0.0,
    "ej_index": 0.553,
    "elevation_m": 330.1081,
    "estuary_dist_km": 496.3,
    "feasibility_score": 50.2232,
    "flood_q10_cfs": 486.74,
    "flow_score": 24.0221,
    "flow_velocity_ms": 0.1298,
    "generation_score": 11.8694,
    "impact_score": 34.9955,
    "impervious_pct": 2.03,
    "land_ownership": 0.5,
    "lat": 35.8462,
    "litter_complaint_density": 0.0,
    "lon": -81.4418,
    "navigable_dist_m": null,
    "npdes_points": 0,
    "pixel_col": 772.0,
    "pixel_row": 143.0,
    "population_density": 157.6,
    "position_along": 0.5,
    "protected_area_score": 7.6271,
    "rank": 23,
    "road_access_m": 145.1,
    "road_access_score": 1.0,
    "road_density_km_km2": 3.006,
    "robustness_pct": 0.0,
    "runoff_coeff_C": 0.0683,
    "seasonal_cv": 0.4467,
    "segment_id": 1,
    "segment_length_m": 775.0421,
    "stream_order": 3,
    "superfund_score": 0.0422,
    "tourism_amenity_density": 0.0,
    "tri_facility_density": 0.0,
    "usgs_mean_q_cfs": 2.617,
    "velocity_feasibility": 0.7,
    "water_intake_score": 1.9347
   },
   "type": "Feature"
  },
  {
   "geometry": {
    "coordinates": [
     -81.518341,
     35.780922
    ],
    "type": "Point"
   },
   "properties": {
    "accumulation": 35895.0,
    "bank_slope_deg": 0.01,
    "bank_slope_score": 1.0,
    "bank_slope_source": "nc-dps-lidar-dem03-cross-section",
    "beach_dist_km": 381.87,
    "bridge_proximity_bonus": 0.0,
    "catchment_area_km2": 3.5808,
    "channel_width_m": 5.3,
    "channel_width_score": 1.0,
    "composite_score": 25.6493,
    "cso_density": 0.0,
    "ej_index": 0.3296,
    "elevation_m": 302.1031,
    "estuary_dist_km": 502.1,
    "feasibility_score": 37.5,
    "flood_q10_cfs": 486.35,
    "flow_score": 30.2403,
    "flow_velocity_ms": 0.5,
    "generation_score": 1.6806,
    "impact_score": 39.867,
    "impervious_pct": null,
    "land_ownership": 0.5,
    "lat": 35.7809,
    "litter_complaint_density": 0.0,
    "lon": -81.5183,
    "navigable_dist_m": null,
    "npdes_points": 0,
    "pixel_col": 75.0,
    "pixel_row": 863.0,
    "population_density": 146.9,
    "position_along": 0.75,
    "protected_area_score": 11.0019,
    "rank": 24,
    "road_access_m": 1232.8,
    "road_access_score": 0.3,
    "road_density_km_km2": 0.049,
    "robustness_pct": 0.0,
    "runoff_coeff_C": null,
    "seasonal_cv": null,
    "segment_id": 14,
    "segment_length_m": 3352.6344,
    "stream_order": 1,
    "superfund_score": 0.0117,
    "tourism_amenity_density": 0.0796,
    "tri_facility_density": 0.0,
    "usgs_mean_q_cfs": null,
    "velocity_feasibility": 1.0,
    "water_intake_score": 2.5894
   },
   "type": "Feature"
  }
 ],
 "note": "GRIME region 'Sawmills, NC' \u2014 real-data pipeline (DEM\u2192streams\u2192candidates\u2192stream mask (sites confined to \u00b1150 m of mapped OSM/NHD waterways)\u2192region-appropriate real parameters\u2192shipped scoring, math unchanged). Width curve: Bieger et al. 2015 JAWRA Table 3, Appalachian Highlands. Flood: SIR 2014-5030 HR1. NC Piedmont (DEQ physiography polygon)",
 "provenance": {
  "candidates_pre_gate": 24,
  "constant": [
   "channel_width_score",
   "cso_density",
   "litter_complaint_density"
  ],
  "gated_navigable": 0,
  "hard_gate_removed": 0,
  "n_parameters": 27,
  "parameters": {
   "bank_slope_score": {
    "kind": "real",
    "n_3dep_10m_fallback": 0,
    "n_nc_lidar_3_125ft": 24,
    "n_real": 24,
    "n_sites": 24,
    "source": "NC OneMap / NC DPS DEM03 statewide lidar-derived 3.125-ft (0.953 m) elevations (perpendicular 50 m transect; robust 5 m bank-rise metric); unavailable profiles use the region 10 m 3DEP DEM-gradient fallback",
    "source_mosaics": [
     "Burke_QL1_2025_03ft_CountywideRaster",
     "Caldwell_Ground_3ft"
    ]
   },
   "beach_dist_km": {
    "kind": "real",
    "n_real": 24,
    "n_sites": 24,
    "source": "haversine to region ref: Wrightsville Beach (shipped NC reference)"
   },
   "bridge_proximity_bonus": {
    "kind": "real",
    "n_real": 24,
    "n_sites": 24,
    "source": "FHWA/BTS NBI (NTAD), 50 m proximity"
   },
   "catchment_area_km2": {
    "kind": "real",
    "n_real": 24,
    "n_sites": 24,
    "source": "DEM flow accumulation (pipeline)"
   },
   "channel_width_score": {
    "kind": "real",
    "n_real": 24,
    "n_sites": 24,
    "source": "Bieger 2015 AHI width curve on DEM drainage area \u2192 shipped width curve"
   },
   "cso_density": {
    "kind": "real",
    "n_real": 24,
    "n_sites": 24,
    "source": "EPA ECHO open CSO/TCS outfall PF coordinates states=NC, Cauchy proximity"
   },
   "ej_index": {
    "kind": "real",
    "n_real": 24,
    "n_sites": 24,
    "source": "Census ACS C17002+B03002 two-component demographic index, percentile-ranked within region"
   },
   "estuary_dist_km": {
    "kind": "real",
    "n_real": 24,
    "n_sites": 24,
    "source": "haversine to region ref: Pamlico Sound (shipped NC reference)"
   },
   "flood_q10_cfs": {
    "impervious_fallback_reason": "StreamCat imperviousness unavailable; the existing regression-input fallback of 0.0% impervious was used and is disclosed here",
    "kind": "real",
    "n_impervious_fallback": 3,
    "n_real": 24,
    "n_sites": 24,
    "source": "USGS SIR 2014-5030 Table 7 HR1 (NC Piedmont)"
   },
   "flow_velocity_ms": {
    "fallback_reason": "EROM/DEM continuity input unavailable; shipped 0.5 m/s default used",
    "kind": "real",
    "n_fallback": 3,
    "n_real": 21,
    "n_sites": 24,
    "source": "Manning (region DEM/D8) blended with EROM continuity (shipped M4 logic)"
   },
   "impervious_pct": {
    "fallback_reason": "NLDI/StreamCat did not return a snap-compatible catchment value; value remains null and is removed by constant-column handling",
    "kind": "real",
    "n_fallback": 3,
    "n_real": 21,
    "n_sites": 24,
    "source": "EPA StreamCat pctimp2019 (per NHDPlus watershed)"
   },
   "land_ownership": {
    "fallback_reason": "no containing parcel owner returned; shipped unknown ownership 0.5 used",
    "kind": "real",
    "n_fallback": 4,
    "n_real": 20,
    "n_sites": 24,
    "source": "NC OneMap statewide parcels (NC Parcels Transformer) ownname"
   },
   "litter_complaint_density": {
    "kind": "fallback",
    "n_real": 0,
    "n_sites": 24,
    "source": "no public machine-readable litter/illegal-dumping feed for this region"
   },
   "navigable_dist_m": {
    "kind": "real",
    "n_real": 24,
    "n_sites": 24,
    "source": "USACE/BTS NWN (NTAD): no navigable segment within this bbox (+2 km) \u2014 computed absence, gate passes all sites"
   },
   "npdes_points": {
    "kind": "real",
    "n_real": 24,
    "n_sites": 24,
    "source": "EPA ECHO active NPDES outfalls states=NC (types NPD/GPC/NGP; statuses ADC/EFF/EXP), per catchment"
   },
   "population_density": {
    "kind": "real",
    "n_real": 24,
    "n_sites": 24,
    "source": "Census ACS 2022 B01003 block groups (bbox, multi-county), area-weighted"
   },
   "protected_area_score": {
    "kind": "real",
    "n_real": 24,
    "n_sites": 24,
    "source": "USGS PAD-US 4.1 state GDB; states=NC; shipped designation-weighted proximity curve"
   },
   "road_access_score": {
    "kind": "real",
    "n_real": 24,
    "n_sites": 24,
    "source": "OSM drive network nearest-node distance"
   },
   "road_density_km_km2": {
    "kind": "real",
    "n_real": 24,
    "n_sites": 24,
    "source": "OSM drive network (osmnx, cached) clipped per catchment"
   },
   "runoff_coeff_C": {
    "fallback_reason": "source impervious_pct was unavailable; derived value remains null",
    "kind": "real",
    "n_fallback": 3,
    "n_real": 21,
    "n_sites": 24,
    "source": "derived from real impervious_pct (C=0.05+0.009*I)"
   },
   "seasonal_cv": {
    "fallback_reason": "NHDPlus monthly EROM was unavailable or failed the drainage-area snap guard; value remains null",
    "kind": "real",
    "n_fallback": 3,
    "n_real": 21,
    "n_sites": 24,
    "source": "CV of NHDPlus EROM monthly flows per COMID"
   },
   "stream_order": {
    "kind": "real",
    "n_real": 24,
    "n_sites": 24,
    "source": "DEM stream-network confluence heuristic (pipeline)"
   },
   "superfund_score": {
    "kind": "real",
    "n_real": 24,
    "n_sites": 24,
    "source": "EPA DataMap SEMS active sites states=NC (non-archived, georeferenced), shipped 500 m inverse-distance curve"
   },
   "tourism_amenity_density": {
    "kind": "real",
    "n_real": 24,
    "n_sites": 24,
    "source": "OSM leisure/tourism features per 2 km radius"
   },
   "tri_facility_density": {
    "kind": "real",
    "n_real": 24,
    "n_sites": 24,
    "source": "EPA DataMap TRI open facilities states=NC (preferred decimal or packed-DMS recovery), per catchment"
   },
   "usgs_mean_q_cfs": {
    "fallback_reason": "NHDPlus EROM was unavailable or failed the drainage-area snap guard; value remains null",
    "kind": "real",
    "n_fallback": 3,
    "n_real": 21,
    "n_sites": 24,
    "source": "NHDPlus EROM qe_ma per COMID (snap-guarded)"
   },
   "velocity_feasibility": {
    "fallback_reason": "derived from the shipped 0.5 m/s velocity fallback",
    "kind": "real",
    "n_fallback": 3,
    "n_real": 21,
    "n_sites": 24,
    "source": "shipped step curve on the computed velocity"
   },
   "velocity_transport_favorability": {
    "fallback_reason": "EROM/DEM continuity input unavailable; shipped 0.5 m/s default used",
    "kind": "derived",
    "n_fallback": 3,
    "n_real": 21,
    "n_sites": 24,
    "source": "scored form of flow_velocity_ms inside the Flow family \u2014 peaked Gaussian exp(-((v-0.9)/0.6)^2), model.json curves.velocity_transport_favorability; construct: transport/delivery favorability, deliberately distinct from velocity_feasibility (device operability)"
   },
   "water_intake_score": {
    "kind": "real",
    "n_real": 24,
    "n_sites": 24,
    "source": "NC OneMap / NC DEQ SWAP public water supply sources (source_typ='Surface Water'), shipped exp(-d/10km) curve"
   }
  },
  "stream_mask": {
   "buffer_m": 150.0,
   "pre_mask": 24,
   "removed": 0,
   "sources": [
    "osm-overpass (all waterway ways)",
    "usgs-nhdplus flowlines"
   ]
  },
  "varying": [
   "bank_slope_score",
   "beach_dist_km",
   "bridge_proximity_bonus",
   "catchment_area_km2",
   "ej_index",
   "estuary_dist_km",
   "flood_q10_cfs",
   "flow_velocity_ms",
   "impervious_pct",
   "land_ownership",
   "npdes_points",
   "population_density",
   "protected_area_score",
   "road_access_score",
   "road_density_km_km2",
   "runoff_coeff_C",
   "seasonal_cv",
   "stream_order",
   "superfund_score",
   "tourism_amenity_density",
   "tri_facility_density",
   "usgs_mean_q_cfs",
   "velocity_feasibility",
   "water_intake_score"
  ]
 },
 "region": {
  "bbox": [
   -81.5269,
   35.7766,
   -81.4258,
   35.8586
  ],
  "beach_ref": {
   "label": "Wrightsville Beach (shipped NC reference)",
   "lat": 34.21,
   "lon": -77.79
  },
  "center": [
   -81.476331,
   35.817593
  ],
  "estuary_ref": {
   "label": "Pamlico Sound (shipped NC reference)",
   "lat": 35.05,
   "lon": -76.05
  },
  "flood_method": "sir2014_hr1",
  "name": "Sawmills, NC",
  "notes": "NC Piedmont (DEQ physiography polygon)",
  "slug": "sawmills",
  "state": "NC",
  "utm_epsg": 32617,
  "width_curve": {
   "a": 3.12,
   "b": 0.415,
   "code": "AHI",
   "source": "Bieger et al. 2015 JAWRA Table 3, Appalachian Highlands"
  }
 },
 "type": "FeatureCollection"
}
