{
 "features": [
  {
   "geometry": {
    "coordinates": [
     -78.293056,
     35.546562
    ],
    "type": "Point"
   },
   "properties": {
    "accumulation": 92084.0,
    "bank_slope_deg": 1.21,
    "bank_slope_score": 1.0,
    "bank_slope_source": "nc-dps-lidar-dem03-cross-section",
    "beach_dist_km": 155.54,
    "bridge_proximity_bonus": 0.0,
    "catchment_area_km2": 9.1968,
    "channel_width_m": 4.97,
    "channel_width_score": 1.0,
    "composite_score": 65.9843,
    "cso_density": 0.0,
    "ej_index": 0.8189,
    "elevation_m": 45.1094,
    "estuary_dist_km": 210.91,
    "feasibility_score": 87.7551,
    "flood_q10_cfs": 449.99,
    "flow_score": 56.4722,
    "flow_velocity_ms": 0.1511,
    "generation_score": 67.27,
    "impact_score": 61.74,
    "impervious_pct": 10.26,
    "land_ownership": 1.0,
    "lat": 35.5466,
    "litter_complaint_density": 0.0,
    "lon": -78.2931,
    "navigable_dist_m": null,
    "npdes_points": 2,
    "pixel_col": 408.0,
    "pixel_row": 349.0,
    "population_density": 407.3,
    "position_along": 0.5,
    "protected_area_score": 7.6719,
    "rank": 1,
    "road_access_m": 107.6,
    "road_access_score": 1.0,
    "road_density_km_km2": 5.695,
    "robustness_pct": 100.0,
    "runoff_coeff_C": 0.1423,
    "seasonal_cv": 0.4348,
    "segment_id": 1,
    "segment_length_m": 8271.2546,
    "stream_order": 3,
    "superfund_score": 0.0496,
    "tourism_amenity_density": 1.1141,
    "tri_facility_density": 0.3262,
    "usgs_mean_q_cfs": 6.732,
    "velocity_feasibility": 0.7,
    "water_intake_score": 1.9049
   },
   "type": "Feature"
  },
  {
   "geometry": {
    "coordinates": [
     -78.308324,
     35.542264
    ],
    "type": "Point"
   },
   "properties": {
    "accumulation": 111640.0,
    "bank_slope_deg": 2.24,
    "bank_slope_score": 1.0,
    "bank_slope_source": "nc-dps-lidar-dem03-cross-section",
    "beach_dist_km": 155.5,
    "bridge_proximity_bonus": 0.0,
    "catchment_area_km2": 11.1499,
    "channel_width_m": 5.33,
    "channel_width_score": 1.0,
    "composite_score": 59.7269,
    "cso_density": 0.0,
    "ej_index": 0.6912,
    "elevation_m": 42.006,
    "estuary_dist_km": 212.13,
    "feasibility_score": 48.4694,
    "flood_q10_cfs": 505.15,
    "flow_score": 62.1295,
    "flow_velocity_ms": 0.2237,
    "generation_score": 67.3891,
    "impact_score": 55.6913,
    "impervious_pct": 10.26,
    "land_ownership": 0.5,
    "lat": 35.5423,
    "litter_complaint_density": 0.0,
    "lon": -78.3083,
    "navigable_dist_m": null,
    "npdes_points": 15,
    "pixel_col": 271.0,
    "pixel_row": 399.0,
    "population_density": 294.9,
    "position_along": 0.7,
    "protected_area_score": 7.7077,
    "rank": 2,
    "road_access_m": 246.0,
    "road_access_score": 0.8,
    "road_density_km_km2": 4.243,
    "robustness_pct": 100.0,
    "runoff_coeff_C": 0.1423,
    "seasonal_cv": 0.4348,
    "segment_id": 1,
    "segment_length_m": 8271.2546,
    "stream_order": 3,
    "superfund_score": 0.0281,
    "tourism_amenity_density": 0.8754,
    "tri_facility_density": 0.3587,
    "usgs_mean_q_cfs": 6.732,
    "velocity_feasibility": 0.7,
    "water_intake_score": 2.0217
   },
   "type": "Feature"
  },
  {
   "geometry": {
    "coordinates": [
     -78.317692,
     35.520055
    ],
    "type": "Point"
   },
   "properties": {
    "accumulation": 79986.0,
    "bank_slope_deg": 10.06,
    "bank_slope_score": 1.0,
    "bank_slope_source": "nc-dps-lidar-dem03-cross-section",
    "beach_dist_km": 153.42,
    "bridge_proximity_bonus": 0.0,
    "catchment_area_km2": 7.9885,
    "channel_width_m": 4.72,
    "channel_width_score": 1.0,
    "composite_score": 54.3967,
    "cso_density": 0.0,
    "ej_index": 0.7198,
    "elevation_m": 38.593,
    "estuary_dist_km": 212.36,
    "feasibility_score": 66.3265,
    "flood_q10_cfs": 643.4,
    "flow_score": 40.2024,
    "flow_velocity_ms": 0.1527,
    "generation_score": 53.8556,
    "impact_score": 60.8016,
    "impervious_pct": 29.27,
    "land_ownership": 0.5,
    "lat": 35.5201,
    "litter_complaint_density": 0.0,
    "lon": -78.3177,
    "navigable_dist_m": null,
    "npdes_points": 4,
    "pixel_col": 193.0,
    "pixel_row": 645.0,
    "population_density": 273.5,
    "position_along": 0.75,
    "protected_area_score": 7.5705,
    "rank": 3,
    "road_access_m": 149.7,
    "road_access_score": 1.0,
    "road_density_km_km2": 5.161,
    "robustness_pct": 95.0,
    "runoff_coeff_C": 0.3134,
    "seasonal_cv": 0.4239,
    "segment_id": 5,
    "segment_length_m": 3652.4406,
    "stream_order": 1,
    "superfund_score": 0.0184,
    "tourism_amenity_density": 3.5014,
    "tri_facility_density": 0.0,
    "usgs_mean_q_cfs": 3.6,
    "velocity_feasibility": 0.7,
    "water_intake_score": 1.8856
   },
   "type": "Feature"
  },
  {
   "geometry": {
    "coordinates": [
     -78.327132,
     35.544042
    ],
    "type": "Point"
   },
   "properties": {
    "accumulation": 208852.0,
    "bank_slope_deg": 1.68,
    "bank_slope_score": 1.0,
    "bank_slope_source": "nc-dps-lidar-dem03-cross-section",
    "beach_dist_km": 156.22,
    "bridge_proximity_bonus": 0.0,
    "catchment_area_km2": 20.8588,
    "channel_width_m": 6.69,
    "channel_width_score": 1.0,
    "composite_score": 54.1662,
    "cso_density": 0.0,
    "ej_index": 0.5969,
    "elevation_m": 32.6119,
    "estuary_dist_km": 213.83,
    "feasibility_score": 60.7143,
    "flood_q10_cfs": 579.58,
    "flow_score": 70.1679,
    "flow_velocity_ms": 0.5,
    "generation_score": 38.0087,
    "impact_score": 53.7148,
    "impervious_pct": null,
    "land_ownership": 0.5,
    "lat": 35.544,
    "litter_complaint_density": 0.0,
    "lon": -78.3271,
    "navigable_dist_m": null,
    "npdes_points": 22,
    "pixel_col": 101.0,
    "pixel_row": 385.0,
    "population_density": 167.4,
    "position_along": 0.5,
    "protected_area_score": 7.6808,
    "rank": 4,
    "road_access_m": 486.2,
    "road_access_score": 0.8,
    "road_density_km_km2": 1.707,
    "robustness_pct": 82.5,
    "runoff_coeff_C": null,
    "seasonal_cv": null,
    "segment_id": 3,
    "segment_length_m": 571.476,
    "stream_order": 3,
    "superfund_score": 0.0117,
    "tourism_amenity_density": 2.3873,
    "tri_facility_density": 0.1918,
    "usgs_mean_q_cfs": null,
    "velocity_feasibility": 1.0,
    "water_intake_score": 2.1574
   },
   "type": "Feature"
  },
  {
   "geometry": {
    "coordinates": [
     -78.318783,
     35.548712
    ],
    "type": "Point"
   },
   "properties": {
    "accumulation": 139632.0,
    "bank_slope_deg": 1.96,
    "bank_slope_score": 1.0,
    "bank_slope_source": "nc-dps-lidar-dem03-cross-section",
    "beach_dist_km": 156.48,
    "bridge_proximity_bonus": 0.0,
    "catchment_area_km2": 13.9455,
    "channel_width_m": 5.78,
    "channel_width_score": 1.0,
    "composite_score": 54.1229,
    "cso_density": 0.0,
    "ej_index": 0.6173,
    "elevation_m": 34.9023,
    "estuary_dist_km": 213.23,
    "feasibility_score": 48.4694,
    "flood_q10_cfs": 577.78,
    "flow_score": 65.2089,
    "flow_velocity_ms": 0.1695,
    "generation_score": 53.0965,
    "impact_score": 48.7378,
    "impervious_pct": 10.26,
    "land_ownership": 0.5,
    "lat": 35.5487,
    "litter_complaint_density": 0.0,
    "lon": -78.3188,
    "navigable_dist_m": null,
    "npdes_points": 21,
    "pixel_col": 175.0,
    "pixel_row": 331.0,
    "population_density": 172.8,
    "position_along": 0.9,
    "protected_area_score": 7.6821,
    "rank": 5,
    "road_access_m": 441.6,
    "road_access_score": 0.8,
    "road_density_km_km2": 1.846,
    "robustness_pct": 71.0,
    "runoff_coeff_C": 0.1423,
    "seasonal_cv": 0.4348,
    "segment_id": 1,
    "segment_length_m": 8271.2546,
    "stream_order": 3,
    "superfund_score": 0.0146,
    "tourism_amenity_density": 0.0796,
    "tri_facility_density": 0.2868,
    "usgs_mean_q_cfs": 6.732,
    "velocity_feasibility": 0.7,
    "water_intake_score": 2.1575
   },
   "type": "Feature"
  },
  {
   "geometry": {
    "coordinates": [
     -78.333674,
     35.517913
    ],
    "type": "Point"
   },
   "properties": {
    "accumulation": 25043.0,
    "bank_slope_deg": 4.56,
    "bank_slope_score": 1.0,
    "bank_slope_source": "nc-dps-lidar-dem03-cross-section",
    "beach_dist_km": 153.66,
    "bridge_proximity_bonus": 0.0,
    "catchment_area_km2": 2.5011,
    "channel_width_m": 3.1,
    "channel_width_score": 1.0,
    "composite_score": 53.4091,
    "cso_density": 0.0,
    "ej_index": 0.7264,
    "elevation_m": 34.2229,
    "estuary_dist_km": 213.71,
    "feasibility_score": 87.7551,
    "flood_q10_cfs": 289.3,
    "flow_score": 29.716,
    "flow_velocity_ms": 0.0937,
    "generation_score": 47.744,
    "impact_score": 61.6453,
    "impervious_pct": 24.88,
    "land_ownership": 1.0,
    "lat": 35.5179,
    "litter_complaint_density": 0.0,
    "lon": -78.3337,
    "navigable_dist_m": null,
    "npdes_points": 0,
    "pixel_col": 48.0,
    "pixel_row": 674.0,
    "population_density": 345.8,
    "position_along": 0.5,
    "protected_area_score": 7.7348,
    "rank": 6,
    "road_access_m": 144.4,
    "road_access_score": 1.0,
    "road_density_km_km2": 3.17,
    "robustness_pct": 50.5,
    "runoff_coeff_C": 0.2739,
    "seasonal_cv": 0.4339,
    "segment_id": 6,
    "segment_length_m": 722.3856,
    "stream_order": 1,
    "superfund_score": 0.0095,
    "tourism_amenity_density": 3.5014,
    "tri_facility_density": 0.0,
    "usgs_mean_q_cfs": 5.87,
    "velocity_feasibility": 0.7,
    "water_intake_score": 1.9788
   },
   "type": "Feature"
  },
  {
   "geometry": {
    "coordinates": [
     -78.286497,
     35.555015
    ],
    "type": "Point"
   },
   "properties": {
    "accumulation": 61197.0,
    "bank_slope_deg": 0.81,
    "bank_slope_score": 1.0,
    "bank_slope_source": "nc-dps-lidar-dem03-cross-section",
    "beach_dist_km": 156.26,
    "bridge_proximity_bonus": 0.0,
    "catchment_area_km2": 6.112,
    "channel_width_m": 4.28,
    "channel_width_score": 1.0,
    "composite_score": 42.4165,
    "cso_density": 0.0,
    "ej_index": 0.778,
    "elevation_m": 48.3149,
    "estuary_dist_km": 210.58,
    "feasibility_score": 30.6122,
    "flood_q10_cfs": 352.1,
    "flow_score": 50.1697,
    "flow_velocity_ms": 0.131,
    "generation_score": 33.0383,
    "impact_score": 51.2359,
    "impervious_pct": 10.26,
    "land_ownership": 0.5,
    "lat": 35.555,
    "litter_complaint_density": 0.0,
    "lon": -78.2865,
    "navigable_dist_m": null,
    "npdes_points": 0,
    "pixel_col": 469.0,
    "pixel_row": 253.0,
    "population_density": 334.3,
    "position_along": 0.3,
    "protected_area_score": 7.2847,
    "rank": 7,
    "road_access_m": 681.2,
    "road_access_score": 0.6,
    "road_density_km_km2": 2.681,
    "robustness_pct": 1.0,
    "runoff_coeff_C": 0.1423,
    "seasonal_cv": 0.4348,
    "segment_id": 1,
    "segment_length_m": 8271.2546,
    "stream_order": 3,
    "superfund_score": 0.0305,
    "tourism_amenity_density": 0.9549,
    "tri_facility_density": 0.0,
    "usgs_mean_q_cfs": 6.732,
    "velocity_feasibility": 0.7,
    "water_intake_score": 1.8901
   },
   "type": "Feature"
  },
  {
   "geometry": {
    "coordinates": [
     -78.260567,
     35.533351
    ],
    "type": "Point"
   },
   "properties": {
    "accumulation": 50875.0,
    "bank_slope_deg": 9.55,
    "bank_slope_score": 1.0,
    "bank_slope_source": "nc-dps-lidar-dem03-cross-section",
    "beach_dist_km": 153.28,
    "bridge_proximity_bonus": 0.0,
    "catchment_area_km2": 5.0811,
    "channel_width_m": 4.01,
    "channel_width_score": 1.0,
    "composite_score": 41.6953,
    "cso_density": 0.0,
    "ej_index": 0.5454,
    "elevation_m": 48.6846,
    "estuary_dist_km": 207.7,
    "feasibility_score": 48.4694,
    "flood_q10_cfs": 293.49,
    "flow_score": 38.7187,
    "flow_velocity_ms": 0.1277,
    "generation_score": 39.6468,
    "impact_score": 42.8372,
    "impervious_pct": 7.2,
    "land_ownership": 0.5,
    "lat": 35.5334,
    "litter_complaint_density": 0.0,
    "lon": -78.2606,
    "navigable_dist_m": null,
    "npdes_points": 0,
    "pixel_col": 711.0,
    "pixel_row": 485.0,
    "population_density": 231.0,
    "position_along": 0.25,
    "protected_area_score": 6.9103,
    "rank": 8,
    "road_access_m": 301.7,
    "road_access_score": 0.8,
    "road_density_km_km2": 4.365,
    "robustness_pct": 0.0,
    "runoff_coeff_C": 0.1148,
    "seasonal_cv": 0.4244,
    "segment_id": 4,
    "segment_length_m": 3235.4253,
    "stream_order": 3,
    "superfund_score": 0.0758,
    "tourism_amenity_density": 0.1592,
    "tri_facility_density": 0.1968,
    "usgs_mean_q_cfs": 4.159,
    "velocity_feasibility": 0.7,
    "water_intake_score": 1.4879
   },
   "type": "Feature"
  },
  {
   "geometry": {
    "coordinates": [
     -78.326653,
     35.555455
    ],
    "type": "Point"
   },
   "properties": {
    "accumulation": 31951.0,
    "bank_slope_deg": 12.08,
    "bank_slope_score": 1.0,
    "bank_slope_source": "nc-dps-lidar-dem03-cross-section",
    "beach_dist_km": 157.41,
    "bridge_proximity_bonus": 0.0,
    "catchment_area_km2": 3.1911,
    "channel_width_m": 3.38,
    "channel_width_score": 1.0,
    "composite_score": 40.062,
    "cso_density": 0.0,
    "ej_index": 0.5881,
    "elevation_m": 33.3686,
    "estuary_dist_km": 214.1,
    "feasibility_score": 42.8571,
    "flood_q10_cfs": 187.75,
    "flow_score": 41.9966,
    "flow_velocity_ms": 0.5,
    "generation_score": 31.1532,
    "impact_score": 45.9609,
    "impervious_pct": null,
    "land_ownership": 0.5,
    "lat": 35.5555,
    "litter_complaint_density": 0.0,
    "lon": -78.3267,
    "navigable_dist_m": null,
    "npdes_points": 8,
    "pixel_col": 103.0,
    "pixel_row": 259.0,
    "population_density": 146.9,
    "position_along": 0.5,
    "protected_area_score": 7.6371,
    "rank": 9,
    "road_access_m": 846.3,
    "road_access_score": 0.6,
    "road_density_km_km2": 0.167,
    "robustness_pct": 0.0,
    "runoff_coeff_C": null,
    "seasonal_cv": null,
    "segment_id": 2,
    "segment_length_m": 2264.0803,
    "stream_order": 3,
    "superfund_score": 0.0095,
    "tourism_amenity_density": 0.0796,
    "tri_facility_density": 0.3134,
    "usgs_mean_q_cfs": null,
    "velocity_feasibility": 1.0,
    "water_intake_score": 2.264
   },
   "type": "Feature"
  },
  {
   "geometry": {
    "coordinates": [
     -78.247275,
     35.517195
    ],
    "type": "Point"
   },
   "properties": {
    "accumulation": 105156.0,
    "bank_slope_deg": 17.64,
    "bank_slope_score": 0.5,
    "bank_slope_source": "nc-dps-lidar-dem03-cross-section",
    "beach_dist_km": 151.22,
    "bridge_proximity_bonus": 0.0,
    "catchment_area_km2": 10.5023,
    "channel_width_m": 5.21,
    "channel_width_score": 1.0,
    "composite_score": 31.1762,
    "cso_density": 0.0,
    "ej_index": 0.3836,
    "elevation_m": 44.1743,
    "estuary_dist_km": 206.09,
    "feasibility_score": 34.1837,
    "flood_q10_cfs": 454.38,
    "flow_score": 52.268,
    "flow_velocity_ms": 0.1228,
    "generation_score": 14.6561,
    "impact_score": 28.6161,
    "impervious_pct": 7.25,
    "land_ownership": 0.5,
    "lat": 35.5172,
    "litter_complaint_density": 0.0,
    "lon": -78.2473,
    "navigable_dist_m": null,
    "npdes_points": 4,
    "pixel_col": 836.0,
    "pixel_row": 662.0,
    "population_density": 102.7,
    "position_along": 0.5,
    "protected_area_score": 6.6276,
    "rank": 10,
    "road_access_m": 251.7,
    "road_access_score": 0.8,
    "road_density_km_km2": 1.578,
    "robustness_pct": 0.0,
    "runoff_coeff_C": 0.1152,
    "seasonal_cv": 0.4287,
    "segment_id": 8,
    "segment_length_m": 204.7233,
    "stream_order": 3,
    "superfund_score": 0.023,
    "tourism_amenity_density": 0.0,
    "tri_facility_density": 0.0,
    "usgs_mean_q_cfs": 5.369,
    "velocity_feasibility": 0.7,
    "water_intake_score": 1.2838
   },
   "type": "Feature"
  },
  {
   "geometry": {
    "coordinates": [
     -78.251992,
     35.515528
    ],
    "type": "Point"
   },
   "properties": {
    "accumulation": 30851.0,
    "bank_slope_deg": 6.33,
    "bank_slope_score": 1.0,
    "bank_slope_source": "nc-dps-lidar-dem03-cross-section",
    "beach_dist_km": 151.16,
    "bridge_proximity_bonus": 0.0,
    "catchment_area_km2": 3.0812,
    "channel_width_m": 3.34,
    "channel_width_score": 1.0,
    "composite_score": 29.072,
    "cso_density": 0.0,
    "ej_index": 0.3692,
    "elevation_m": 46.3414,
    "estuary_dist_km": 206.46,
    "feasibility_score": 66.3265,
    "flood_q10_cfs": 209.17,
    "flow_score": 23.6927,
    "flow_velocity_ms": 0.122,
    "generation_score": 14.3379,
    "impact_score": 29.6615,
    "impervious_pct": 5.55,
    "land_ownership": 0.5,
    "lat": 35.5155,
    "litter_complaint_density": 0.0,
    "lon": -78.252,
    "navigable_dist_m": null,
    "npdes_points": 2,
    "pixel_col": 794.0,
    "pixel_row": 682.0,
    "population_density": 93.3,
    "position_along": 0.5,
    "protected_area_score": 6.6921,
    "rank": 11,
    "road_access_m": 146.9,
    "road_access_score": 1.0,
    "road_density_km_km2": 3.009,
    "robustness_pct": 0.0,
    "runoff_coeff_C": 0.0999,
    "seasonal_cv": 0.4172,
    "segment_id": 7,
    "segment_length_m": 881.9902,
    "stream_order": 3,
    "superfund_score": 0.0274,
    "tourism_amenity_density": 0.0,
    "tri_facility_density": 0.0,
    "usgs_mean_q_cfs": 0.969,
    "velocity_feasibility": 0.7,
    "water_intake_score": 1.309
   },
   "type": "Feature"
  },
  {
   "geometry": {
    "coordinates": [
     -78.279917,
     35.503235
    ],
    "type": "Point"
   },
   "properties": {
    "accumulation": 21158.0,
    "bank_slope_deg": 4.14,
    "bank_slope_score": 1.0,
    "bank_slope_source": "nc-dps-lidar-dem03-cross-section",
    "beach_dist_km": 150.59,
    "bridge_proximity_bonus": 0.0,
    "catchment_area_km2": 2.1131,
    "channel_width_m": 2.91,
    "channel_width_score": 1.0,
    "composite_score": 28.7183,
    "cso_density": 0.0,
    "ej_index": 0.6554,
    "elevation_m": 47.8237,
    "estuary_dist_km": 208.6,
    "feasibility_score": 48.4694,
    "flood_q10_cfs": 196.54,
    "flow_score": 15.5152,
    "flow_velocity_ms": 0.1201,
    "generation_score": 15.4169,
    "impact_score": 43.1467,
    "impervious_pct": 12.61,
    "land_ownership": 0.5,
    "lat": 35.5032,
    "litter_complaint_density": 0.0,
    "lon": -78.2799,
    "navigable_dist_m": null,
    "npdes_points": 0,
    "pixel_col": 543.0,
    "pixel_row": 827.0,
    "population_density": 84.9,
    "position_along": 0.5,
    "protected_area_score": 7.0418,
    "rank": 12,
    "road_access_m": 235.5,
    "road_access_score": 0.8,
    "road_density_km_km2": 1.621,
    "robustness_pct": 0.0,
    "runoff_coeff_C": 0.1635,
    "seasonal_cv": 0.416,
    "segment_id": 10,
    "segment_length_m": 124.0636,
    "stream_order": 1,
    "superfund_score": 0.027,
    "tourism_amenity_density": 0.0796,
    "tri_facility_density": 0.0,
    "usgs_mean_q_cfs": 2.779,
    "velocity_feasibility": 0.7,
    "water_intake_score": 1.4185
   },
   "type": "Feature"
  },
  {
   "geometry": {
    "coordinates": [
     -78.252383,
     35.522485
    ],
    "type": "Point"
   },
   "properties": {
    "accumulation": 61812.0,
    "bank_slope_deg": 10.77,
    "bank_slope_score": 1.0,
    "bank_slope_source": "nc-dps-lidar-dem03-cross-section",
    "beach_dist_km": 151.92,
    "bridge_proximity_bonus": 0.0,
    "catchment_area_km2": 6.1734,
    "channel_width_m": 4.3,
    "channel_width_score": 1.0,
    "composite_score": 27.4642,
    "cso_density": 0.0,
    "ej_index": 0.317,
    "elevation_m": 45.3902,
    "estuary_dist_km": 206.68,
    "feasibility_score": 30.6122,
    "flood_q10_cfs": 329.89,
    "flow_score": 39.1542,
    "flow_velocity_ms": 0.0557,
    "generation_score": 12.4821,
    "impact_score": 31.1306,
    "impervious_pct": 7.2,
    "land_ownership": 0.5,
    "lat": 35.5225,
    "litter_complaint_density": 0.0,
    "lon": -78.2524,
    "navigable_dist_m": null,
    "npdes_points": 3,
    "pixel_col": 787.0,
    "pixel_row": 606.0,
    "population_density": 74.5,
    "position_along": 0.75,
    "protected_area_score": 6.8601,
    "rank": 13,
    "road_access_m": 511.3,
    "road_access_score": 0.6,
    "road_density_km_km2": 1.811,
    "robustness_pct": 0.0,
    "runoff_coeff_C": 0.1148,
    "seasonal_cv": 0.4244,
    "segment_id": 4,
    "segment_length_m": 3235.4253,
    "stream_order": 3,
    "superfund_score": 0.0356,
    "tourism_amenity_density": 0.0796,
    "tri_facility_density": 0.0,
    "usgs_mean_q_cfs": 4.159,
    "velocity_feasibility": 0.7,
    "water_intake_score": 1.3539
   },
   "type": "Feature"
  },
  {
   "geometry": {
    "coordinates": [
     -78.310614,
     35.504032
    ],
    "type": "Point"
   },
   "properties": {
    "accumulation": 20692.0,
    "bank_slope_deg": 1.44,
    "bank_slope_score": 1.0,
    "bank_slope_source": "nc-dps-lidar-dem03-cross-section",
    "beach_dist_km": 151.53,
    "bridge_proximity_bonus": 0.0,
    "catchment_area_km2": 2.0666,
    "channel_width_m": 2.89,
    "channel_width_score": 1.0,
    "composite_score": 25.1204,
    "cso_density": 0.0,
    "ej_index": 0.915,
    "elevation_m": 44.2891,
    "estuary_dist_km": 211.32,
    "feasibility_score": 30.6122,
    "flood_q10_cfs": 157.97,
    "flow_score": 7.8943,
    "flow_velocity_ms": 0.1079,
    "generation_score": 9.7626,
    "impact_score": 52.0874,
    "impervious_pct": 3.79,
    "land_ownership": 0.5,
    "lat": 35.504,
    "litter_complaint_density": 0.0,
    "lon": -78.3106,
    "navigable_dist_m": null,
    "npdes_points": 1,
    "pixel_col": 262.0,
    "pixel_row": 826.0,
    "population_density": 92.2,
    "position_along": 0.5,
    "protected_area_score": 7.0855,
    "rank": 14,
    "road_access_m": 608.4,
    "road_access_score": 0.6,
    "road_density_km_km2": 2.006,
    "robustness_pct": 0.0,
    "runoff_coeff_C": 0.0841,
    "seasonal_cv": 0.4159,
    "segment_id": 9,
    "segment_length_m": 259.5414,
    "stream_order": 1,
    "superfund_score": 0.0149,
    "tourism_amenity_density": 1.1937,
    "tri_facility_density": 0.0,
    "usgs_mean_q_cfs": 1.356,
    "velocity_feasibility": 0.7,
    "water_intake_score": 1.6433
   },
   "type": "Feature"
  },
  {
   "geometry": {
    "coordinates": [
     -78.305506,
     35.566754
    ],
    "type": "Point"
   },
   "properties": {
    "accumulation": 23398.0,
    "bank_slope_deg": 16.95,
    "bank_slope_score": 0.5,
    "bank_slope_source": "nc-dps-lidar-dem03-cross-section",
    "beach_dist_km": 158.02,
    "bridge_proximity_bonus": 0.0,
    "catchment_area_km2": 2.3368,
    "channel_width_m": 3.02,
    "channel_width_score": 1.0,
    "composite_score": 24.6279,
    "cso_density": 0.0,
    "ej_index": 0.5753,
    "elevation_m": 33.4244,
    "estuary_dist_km": 212.57,
    "feasibility_score": 28.5714,
    "flood_q10_cfs": 155.72,
    "flow_score": 26.2588,
    "flow_velocity_ms": 0.5,
    "generation_score": 3.0697,
    "impact_score": 42.8552,
    "impervious_pct": null,
    "land_ownership": 0.5,
    "lat": 35.5668,
    "litter_complaint_density": 0.0,
    "lon": -78.3055,
    "navigable_dist_m": null,
    "npdes_points": 2,
    "pixel_col": 293.0,
    "pixel_row": 128.0,
    "population_density": 98.6,
    "position_along": 0.5,
    "protected_area_score": 7.4093,
    "rank": 15,
    "road_access_m": 990.5,
    "road_access_score": 0.6,
    "road_density_km_km2": 0.0,
    "robustness_pct": 0.0,
    "runoff_coeff_C": null,
    "seasonal_cv": null,
    "segment_id": 0,
    "segment_length_m": 1005.0494,
    "stream_order": 1,
    "superfund_score": 0.0112,
    "tourism_amenity_density": 0.0,
    "tri_facility_density": 0.0,
    "usgs_mean_q_cfs": null,
    "velocity_feasibility": 1.0,
    "water_intake_score": 2.2152
   },
   "type": "Feature"
  },
  {
   "geometry": {
    "coordinates": [
     -78.275341,
     35.558997
    ],
    "type": "Point"
   },
   "properties": {
    "accumulation": 26990.0,
    "bank_slope_deg": 2.74,
    "bank_slope_score": 1.0,
    "bank_slope_source": "nc-dps-lidar-dem03-cross-section",
    "beach_dist_km": 156.4,
    "bridge_proximity_bonus": 0.0,
    "catchment_area_km2": 2.6956,
    "channel_width_m": 3.18,
    "channel_width_score": 1.0,
    "composite_score": 24.3979,
    "cso_density": 0.0,
    "ej_index": 0.7733,
    "elevation_m": 50.2033,
    "estuary_dist_km": 209.72,
    "feasibility_score": 14.2857,
    "flood_q10_cfs": 175.68,
    "flow_score": 20.7187,
    "flow_velocity_ms": 0.0461,
    "generation_score": 11.5994,
    "impact_score": 45.3186,
    "impervious_pct": 1.5,
    "land_ownership": 0.5,
    "lat": 35.559,
    "litter_complaint_density": 0.0,
    "lon": -78.2753,
    "navigable_dist_m": null,
    "npdes_points": 0,
    "pixel_col": 565.0,
    "pixel_row": 203.0,
    "population_density": 170.3,
    "position_along": 0.1,
    "protected_area_score": 7.0789,
    "rank": 16,
    "road_access_m": 803.5,
    "road_access_score": 0.6,
    "road_density_km_km2": 1.618,
    "robustness_pct": 0.0,
    "runoff_coeff_C": 0.0635,
    "seasonal_cv": 0.418,
    "segment_id": 1,
    "segment_length_m": 8271.2546,
    "stream_order": 3,
    "superfund_score": 0.0237,
    "tourism_amenity_density": 0.7162,
    "tri_facility_density": 0.0,
    "usgs_mean_q_cfs": 1.206,
    "velocity_feasibility": 0.3,
    "water_intake_score": 1.7753
   },
   "type": "Feature"
  }
 ],
 "note": "GRIME region 'Selma, NC' \u2014 real-data pipeline (DEM\u2192streams\u2192candidates\u2192stream mask (sites confined to \u00b1150 m of mapped OSM/NHD waterways)\u2192region-appropriate real parameters\u2192shipped scoring, math unchanged). Width curve: Bieger et al. 2015 JAWRA Table 3, Atlantic Plain. Flood: SIR 2014-5030 HR4 (I24H50Y: NOAA Atlas 14). NC Coastal Plain (SIR 2014-5030 HR4; I24H50Y from NOAA Atlas 14 at region center)",
 "provenance": {
  "candidates_pre_gate": 16,
  "constant": [
   "bridge_proximity_bonus",
   "channel_width_score",
   "cso_density",
   "litter_complaint_density"
  ],
  "gated_navigable": 0,
  "hard_gate_removed": 0,
  "n_parameters": 27,
  "parameters": {
   "bank_slope_score": {
    "kind": "real",
    "n_3dep_10m_fallback": 0,
    "n_nc_lidar_3_125ft": 16,
    "n_real": 16,
    "n_sites": 16,
    "source": "NC OneMap / NC DPS DEM03 statewide lidar-derived 3.125-ft (0.953 m) elevations (perpendicular 50 m transect; robust 5 m bank-rise metric); unavailable profiles use the region 10 m 3DEP DEM-gradient fallback",
    "source_mosaics": [
     "Johnston_Ground_3ft"
    ]
   },
   "beach_dist_km": {
    "kind": "real",
    "n_real": 16,
    "n_sites": 16,
    "source": "haversine to region ref: Wrightsville Beach (shipped NC reference)"
   },
   "bridge_proximity_bonus": {
    "kind": "real",
    "n_real": 16,
    "n_sites": 16,
    "source": "FHWA/BTS NBI (NTAD), 50 m proximity"
   },
   "catchment_area_km2": {
    "kind": "real",
    "n_real": 16,
    "n_sites": 16,
    "source": "DEM flow accumulation (pipeline)"
   },
   "channel_width_score": {
    "kind": "real",
    "n_real": 16,
    "n_sites": 16,
    "source": "Bieger 2015 APL width curve on DEM drainage area \u2192 shipped width curve"
   },
   "cso_density": {
    "kind": "real",
    "n_real": 16,
    "n_sites": 16,
    "source": "EPA ECHO open CSO/TCS outfall PF coordinates states=NC, Cauchy proximity"
   },
   "ej_index": {
    "kind": "real",
    "n_real": 16,
    "n_sites": 16,
    "source": "Census ACS C17002+B03002 two-component demographic index, percentile-ranked within region"
   },
   "estuary_dist_km": {
    "kind": "real",
    "n_real": 16,
    "n_sites": 16,
    "source": "haversine to region ref: Pamlico Sound (shipped NC reference)"
   },
   "flood_q10_cfs": {
    "impervious_fallback_reason": "StreamCat imperviousness unavailable; the existing regression-input fallback of 0.0% impervious was used and is disclosed here",
    "kind": "real",
    "n_impervious_fallback": 3,
    "n_real": 16,
    "n_sites": 16,
    "source": "USGS SIR 2014-5030 Table 7 HR4 (NC Coastal Plain; I24H50Y from NOAA Atlas 14 at region center)"
   },
   "flow_velocity_ms": {
    "fallback_reason": "EROM/DEM continuity input unavailable; shipped 0.5 m/s default used",
    "kind": "real",
    "n_fallback": 3,
    "n_real": 13,
    "n_sites": 16,
    "source": "Manning (region DEM/D8) blended with EROM continuity (shipped M4 logic)"
   },
   "impervious_pct": {
    "fallback_reason": "NLDI/StreamCat did not return a snap-compatible catchment value; value remains null and is removed by constant-column handling",
    "kind": "real",
    "n_fallback": 3,
    "n_real": 13,
    "n_sites": 16,
    "source": "EPA StreamCat pctimp2019 (per NHDPlus watershed)"
   },
   "land_ownership": {
    "fallback_reason": "no containing parcel owner returned; shipped unknown ownership 0.5 used",
    "kind": "real",
    "n_fallback": 2,
    "n_real": 14,
    "n_sites": 16,
    "source": "NC OneMap statewide parcels (NC Parcels Transformer) ownname"
   },
   "litter_complaint_density": {
    "kind": "fallback",
    "n_real": 0,
    "n_sites": 16,
    "source": "no public machine-readable litter/illegal-dumping feed for this region"
   },
   "navigable_dist_m": {
    "kind": "real",
    "n_real": 16,
    "n_sites": 16,
    "source": "USACE/BTS NWN (NTAD): no navigable segment within this bbox (+2 km) \u2014 computed absence, gate passes all sites"
   },
   "npdes_points": {
    "kind": "real",
    "n_real": 16,
    "n_sites": 16,
    "source": "EPA ECHO active NPDES outfalls states=NC (types NPD/GPC/NGP; statuses ADC/EFF/EXP), per catchment"
   },
   "population_density": {
    "kind": "real",
    "n_real": 16,
    "n_sites": 16,
    "source": "Census ACS 2022 B01003 block groups (bbox, multi-county), area-weighted"
   },
   "protected_area_score": {
    "kind": "real",
    "n_real": 16,
    "n_sites": 16,
    "source": "USGS PAD-US 4.1 state GDB; states=NC; shipped designation-weighted proximity curve"
   },
   "road_access_score": {
    "kind": "real",
    "n_real": 16,
    "n_sites": 16,
    "source": "OSM drive network nearest-node distance"
   },
   "road_density_km_km2": {
    "kind": "real",
    "n_real": 16,
    "n_sites": 16,
    "source": "OSM drive network (osmnx, cached) clipped per catchment"
   },
   "runoff_coeff_C": {
    "fallback_reason": "source impervious_pct was unavailable; derived value remains null",
    "kind": "real",
    "n_fallback": 3,
    "n_real": 13,
    "n_sites": 16,
    "source": "derived from real impervious_pct (C=0.05+0.009*I)"
   },
   "seasonal_cv": {
    "fallback_reason": "NHDPlus monthly EROM was unavailable or failed the drainage-area snap guard; value remains null",
    "kind": "real",
    "n_fallback": 3,
    "n_real": 13,
    "n_sites": 16,
    "source": "CV of NHDPlus EROM monthly flows per COMID"
   },
   "stream_order": {
    "kind": "real",
    "n_real": 16,
    "n_sites": 16,
    "source": "DEM stream-network confluence heuristic (pipeline)"
   },
   "superfund_score": {
    "kind": "real",
    "n_real": 16,
    "n_sites": 16,
    "source": "EPA DataMap SEMS active sites states=NC (non-archived, georeferenced), shipped 500 m inverse-distance curve"
   },
   "tourism_amenity_density": {
    "kind": "real",
    "n_real": 16,
    "n_sites": 16,
    "source": "OSM leisure/tourism features per 2 km radius"
   },
   "tri_facility_density": {
    "kind": "real",
    "n_real": 16,
    "n_sites": 16,
    "source": "EPA DataMap TRI open facilities states=NC (preferred decimal or packed-DMS recovery), per catchment"
   },
   "usgs_mean_q_cfs": {
    "fallback_reason": "NHDPlus EROM was unavailable or failed the drainage-area snap guard; value remains null",
    "kind": "real",
    "n_fallback": 3,
    "n_real": 13,
    "n_sites": 16,
    "source": "NHDPlus EROM qe_ma per COMID (snap-guarded)"
   },
   "velocity_feasibility": {
    "fallback_reason": "derived from the shipped 0.5 m/s velocity fallback",
    "kind": "real",
    "n_fallback": 3,
    "n_real": 13,
    "n_sites": 16,
    "source": "shipped step curve on the computed velocity"
   },
   "velocity_transport_favorability": {
    "fallback_reason": "EROM/DEM continuity input unavailable; shipped 0.5 m/s default used",
    "kind": "derived",
    "n_fallback": 3,
    "n_real": 13,
    "n_sites": 16,
    "source": "scored form of flow_velocity_ms inside the Flow family \u2014 peaked Gaussian exp(-((v-0.9)/0.6)^2), model.json curves.velocity_transport_favorability; construct: transport/delivery favorability, deliberately distinct from velocity_feasibility (device operability)"
   },
   "water_intake_score": {
    "kind": "real",
    "n_real": 16,
    "n_sites": 16,
    "source": "NC OneMap / NC DEQ SWAP public water supply sources (source_typ='Surface Water'), shipped exp(-d/10km) curve"
   }
  },
  "stream_mask": {
   "buffer_m": 150.0,
   "pre_mask": 17,
   "removed": 1,
   "sources": [
    "osm-overpass (all waterway ways)",
    "usgs-nhdplus flowlines"
   ]
  },
  "varying": [
   "bank_slope_score",
   "beach_dist_km",
   "catchment_area_km2",
   "ej_index",
   "estuary_dist_km",
   "flood_q10_cfs",
   "flow_velocity_ms",
   "impervious_pct",
   "land_ownership",
   "npdes_points",
   "population_density",
   "protected_area_score",
   "road_access_score",
   "road_density_km_km2",
   "runoff_coeff_C",
   "seasonal_cv",
   "stream_order",
   "superfund_score",
   "tourism_amenity_density",
   "tri_facility_density",
   "usgs_mean_q_cfs",
   "velocity_feasibility",
   "water_intake_score"
  ]
 },
 "region": {
  "bbox": [
   -78.3373,
   35.5026,
   -78.2462,
   35.5768
  ],
  "beach_ref": {
   "label": "Wrightsville Beach (shipped NC reference)",
   "lat": 34.21,
   "lon": -77.79
  },
  "center": [
   -78.291735,
   35.539726
  ],
  "estuary_ref": {
   "label": "Pamlico Sound (shipped NC reference)",
   "lat": 35.05,
   "lon": -76.05
  },
  "flood_method": "sir2014_hr4",
  "name": "Selma, NC",
  "notes": "NC Coastal Plain (SIR 2014-5030 HR4; I24H50Y from NOAA Atlas 14 at region center)",
  "slug": "selma",
  "state": "NC",
  "utm_epsg": 32617,
  "width_curve": {
   "a": 2.22,
   "b": 0.363,
   "code": "APL",
   "source": "Bieger et al. 2015 JAWRA Table 3, Atlantic Plain"
  }
 },
 "type": "FeatureCollection"
}
