{
 "features": [
  {
   "geometry": {
    "coordinates": [
     -79.46633,
     35.723804
    ],
    "type": "Point"
   },
   "properties": {
    "accumulation": 27836.0,
    "bank_slope_deg": 1.09,
    "bank_slope_score": 1.0,
    "bank_slope_source": "nc-dps-lidar-dem03-cross-section",
    "beach_dist_km": 227.3,
    "bridge_proximity_bonus": 0.0,
    "catchment_area_km2": 2.7783,
    "channel_width_m": 4.77,
    "channel_width_score": 1.0,
    "composite_score": 63.6384,
    "cso_density": 0.0,
    "ej_index": 0.8252,
    "elevation_m": 178.7241,
    "estuary_dist_km": 318.61,
    "feasibility_score": 84.4156,
    "flood_q10_cfs": 599.6,
    "flow_score": 16.4452,
    "flow_velocity_ms": 0.1084,
    "generation_score": 100.0,
    "impact_score": 56.2158,
    "impervious_pct": 22.89,
    "land_ownership": 0.5,
    "lat": 35.7238,
    "litter_complaint_density": 0.0,
    "lon": -79.4663,
    "navigable_dist_m": null,
    "npdes_points": 1,
    "pixel_col": 447.0,
    "pixel_row": 505.0,
    "population_density": 491.4,
    "position_along": 0.5,
    "protected_area_score": 9.6352,
    "rank": 1,
    "road_access_m": 146.9,
    "road_access_score": 1.0,
    "road_density_km_km2": 11.454,
    "robustness_pct": 96.0,
    "runoff_coeff_C": 0.256,
    "seasonal_cv": 0.4318,
    "segment_id": 6,
    "segment_length_m": 711.1585,
    "stream_order": 1,
    "superfund_score": 0.0,
    "tourism_amenity_density": 3.4218,
    "tri_facility_density": 1.0798,
    "usgs_mean_q_cfs": 1.624,
    "velocity_feasibility": 0.7,
    "water_intake_score": 1.1911
   },
   "type": "Feature"
  },
  {
   "geometry": {
    "coordinates": [
     -79.438278,
     35.727476
    ],
    "type": "Point"
   },
   "properties": {
    "accumulation": 48405.0,
    "bank_slope_deg": 2.89,
    "bank_slope_score": 1.0,
    "bank_slope_source": "nc-dps-lidar-dem03-cross-section",
    "beach_dist_km": 225.89,
    "bridge_proximity_bonus": 0.0,
    "catchment_area_km2": 4.8313,
    "channel_width_m": 6.0,
    "channel_width_score": 1.0,
    "composite_score": 53.0238,
    "cso_density": 0.0,
    "ej_index": 0.9497,
    "elevation_m": 163.681,
    "estuary_dist_km": 316.23,
    "feasibility_score": 63.6364,
    "flood_q10_cfs": 757.2,
    "flow_score": 51.6699,
    "flow_velocity_ms": 0.0416,
    "generation_score": 35.6423,
    "impact_score": 66.2272,
    "impervious_pct": 12.4,
    "land_ownership": 0.5,
    "lat": 35.7275,
    "litter_complaint_density": 0.0,
    "lon": -79.4383,
    "navigable_dist_m": null,
    "npdes_points": 0,
    "pixel_col": 700.0,
    "pixel_row": 458.0,
    "population_density": 347.5,
    "position_along": 0.75,
    "protected_area_score": 9.3954,
    "rank": 2,
    "road_access_m": 74.3,
    "road_access_score": 1.0,
    "road_density_km_km2": 5.247,
    "robustness_pct": 100.0,
    "runoff_coeff_C": 0.1616,
    "seasonal_cv": 0.4065,
    "segment_id": 7,
    "segment_length_m": 3458.3122,
    "stream_order": 3,
    "superfund_score": 0.0,
    "tourism_amenity_density": 3.3423,
    "tri_facility_density": 0.0,
    "usgs_mean_q_cfs": 10.681,
    "velocity_feasibility": 0.3,
    "water_intake_score": 1.2147
   },
   "type": "Feature"
  },
  {
   "geometry": {
    "coordinates": [
     -79.455953,
     35.717856
    ],
    "type": "Point"
   },
   "properties": {
    "accumulation": 81584.0,
    "bank_slope_deg": 1.46,
    "bank_slope_score": 1.0,
    "bank_slope_source": "nc-dps-lidar-dem03-cross-section",
    "beach_dist_km": 226.17,
    "bridge_proximity_bonus": 0.0,
    "catchment_area_km2": 8.1428,
    "channel_width_m": 7.45,
    "channel_width_score": 1.0,
    "composite_score": 51.6861,
    "cso_density": 0.0,
    "ej_index": 0.8756,
    "elevation_m": 167.8328,
    "estuary_dist_km": 317.56,
    "feasibility_score": 63.6364,
    "flood_q10_cfs": 1059.01,
    "flow_score": 41.096,
    "flow_velocity_ms": 0.047,
    "generation_score": 47.9552,
    "impact_score": 58.267,
    "impervious_pct": 10.75,
    "land_ownership": 0.5,
    "lat": 35.7179,
    "litter_complaint_density": 0.0,
    "lon": -79.456,
    "navigable_dist_m": null,
    "npdes_points": 0,
    "pixel_col": 542.0,
    "pixel_row": 567.0,
    "population_density": 400.1,
    "position_along": 0.75,
    "protected_area_score": 9.2938,
    "rank": 3,
    "road_access_m": 67.0,
    "road_access_score": 1.0,
    "road_density_km_km2": 6.22,
    "robustness_pct": 98.0,
    "runoff_coeff_C": 0.1467,
    "seasonal_cv": 0.4063,
    "segment_id": 11,
    "segment_length_m": 4383.1144,
    "stream_order": 1,
    "superfund_score": 0.0,
    "tourism_amenity_density": 3.6606,
    "tri_facility_density": 0.4912,
    "usgs_mean_q_cfs": 7.684,
    "velocity_feasibility": 0.3,
    "water_intake_score": 1.1501
   },
   "type": "Feature"
  },
  {
   "geometry": {
    "coordinates": [
     -79.444294,
     35.717879
    ],
    "type": "Point"
   },
   "properties": {
    "accumulation": 28573.0,
    "bank_slope_deg": 2.25,
    "bank_slope_score": 1.0,
    "bank_slope_source": "nc-dps-lidar-dem03-cross-section",
    "beach_dist_km": 225.46,
    "bridge_proximity_bonus": 0.0,
    "catchment_area_km2": 2.8519,
    "channel_width_m": 4.82,
    "channel_width_score": 1.0,
    "composite_score": 45.7623,
    "cso_density": 0.0,
    "ej_index": 0.97,
    "elevation_m": 168.8148,
    "estuary_dist_km": 316.53,
    "feasibility_score": 84.4156,
    "flood_q10_cfs": 439.0,
    "flow_score": 24.0233,
    "flow_velocity_ms": 0.0931,
    "generation_score": 27.1569,
    "impact_score": 63.1568,
    "impervious_pct": 3.95,
    "land_ownership": 0.5,
    "lat": 35.7179,
    "litter_complaint_density": 0.0,
    "lon": -79.4443,
    "navigable_dist_m": null,
    "npdes_points": 0,
    "pixel_col": 646.0,
    "pixel_row": 564.0,
    "population_density": 397.7,
    "position_along": 0.25,
    "protected_area_score": 9.2417,
    "rank": 4,
    "road_access_m": 158.3,
    "road_access_score": 1.0,
    "road_density_km_km2": 4.012,
    "robustness_pct": 60.0,
    "runoff_coeff_C": 0.0856,
    "seasonal_cv": 0.432,
    "segment_id": 7,
    "segment_length_m": 3458.3122,
    "stream_order": 3,
    "superfund_score": 0.0,
    "tourism_amenity_density": 3.3423,
    "tri_facility_density": 0.0,
    "usgs_mean_q_cfs": 1.78,
    "velocity_feasibility": 0.7,
    "water_intake_score": 1.1477
   },
   "type": "Feature"
  },
  {
   "geometry": {
    "coordinates": [
     -79.425002,
     35.749715
    ],
    "type": "Point"
   },
   "properties": {
    "accumulation": 88506.0,
    "bank_slope_deg": 2.92,
    "bank_slope_score": 1.0,
    "bank_slope_source": "nc-dps-lidar-dem03-cross-section",
    "beach_dist_km": 226.93,
    "bridge_proximity_bonus": 0.0,
    "catchment_area_km2": 8.8337,
    "channel_width_m": 7.71,
    "channel_width_score": 1.0,
    "composite_score": 44.2905,
    "cso_density": 0.0,
    "ej_index": 0.6734,
    "elevation_m": 153.6525,
    "estuary_dist_km": 315.63,
    "feasibility_score": 77.2727,
    "flood_q10_cfs": 954.97,
    "flow_score": 60.5115,
    "flow_velocity_ms": 0.5,
    "generation_score": 2.939,
    "impact_score": 55.6335,
    "impervious_pct": null,
    "land_ownership": 0.5,
    "lat": 35.7497,
    "litter_complaint_density": 0.0,
    "lon": -79.425,
    "navigable_dist_m": null,
    "npdes_points": 0,
    "pixel_col": 816.0,
    "pixel_row": 212.0,
    "population_density": 53.8,
    "position_along": 0.5,
    "protected_area_score": 10.2194,
    "rank": 5,
    "road_access_m": 203.1,
    "road_access_score": 0.8,
    "road_density_km_km2": 1.227,
    "robustness_pct": 50.5,
    "runoff_coeff_C": null,
    "seasonal_cv": null,
    "segment_id": 3,
    "segment_length_m": 2986.0424,
    "stream_order": 3,
    "superfund_score": 0.0,
    "tourism_amenity_density": 0.0796,
    "tri_facility_density": 0.0,
    "usgs_mean_q_cfs": null,
    "velocity_feasibility": 1.0,
    "water_intake_score": 1.3225
   },
   "type": "Feature"
  },
  {
   "geometry": {
    "coordinates": [
     -79.488673,
     35.736396
    ],
    "type": "Point"
   },
   "properties": {
    "accumulation": 38616.0,
    "bank_slope_deg": 3.9,
    "bank_slope_score": 1.0,
    "bank_slope_source": "nc-dps-lidar-dem03-cross-section",
    "beach_dist_km": 229.69,
    "bridge_proximity_bonus": 0.0,
    "catchment_area_km2": 3.8542,
    "channel_width_m": 5.46,
    "channel_width_score": 1.0,
    "composite_score": 42.7055,
    "cso_density": 0.0,
    "ej_index": 0.8703,
    "elevation_m": 179.6116,
    "estuary_dist_km": 320.89,
    "feasibility_score": 61.6883,
    "flood_q10_cfs": 603.14,
    "flow_score": 17.24,
    "flow_velocity_ms": 0.1073,
    "generation_score": 47.7517,
    "impact_score": 49.3892,
    "impervious_pct": 9.13,
    "land_ownership": 0.5,
    "lat": 35.7364,
    "litter_complaint_density": 0.0,
    "lon": -79.4887,
    "navigable_dist_m": null,
    "npdes_points": 1,
    "pixel_col": 240.0,
    "pixel_row": 369.0,
    "population_density": 276.9,
    "position_along": 0.1667,
    "protected_area_score": 10.0029,
    "rank": 6,
    "road_access_m": 319.6,
    "road_access_score": 0.8,
    "road_density_km_km2": 3.734,
    "robustness_pct": 34.5,
    "runoff_coeff_C": 0.1322,
    "seasonal_cv": 0.4187,
    "segment_id": 4,
    "segment_length_m": 5368.2754,
    "stream_order": 1,
    "superfund_score": 0.0,
    "tourism_amenity_density": 1.5915,
    "tri_facility_density": 0.2595,
    "usgs_mean_q_cfs": 2.447,
    "velocity_feasibility": 0.7,
    "water_intake_score": 1.2328
   },
   "type": "Feature"
  },
  {
   "geometry": {
    "coordinates": [
     -79.445719,
     35.761967
    ],
    "type": "Point"
   },
   "properties": {
    "accumulation": 32508.0,
    "bank_slope_deg": 8.03,
    "bank_slope_score": 1.0,
    "bank_slope_source": "nc-dps-lidar-dem03-cross-section",
    "beach_dist_km": 229.19,
    "bridge_proximity_bonus": 0.0,
    "catchment_area_km2": 3.2446,
    "channel_width_m": 5.08,
    "channel_width_score": 1.0,
    "composite_score": 42.6151,
    "cso_density": 0.0,
    "ej_index": 0.7161,
    "elevation_m": 155.2475,
    "estuary_dist_km": 317.76,
    "feasibility_score": 77.2727,
    "flood_q10_cfs": 451.52,
    "flow_score": 43.9977,
    "flow_velocity_ms": 0.5,
    "generation_score": 3.6211,
    "impact_score": 63.1282,
    "impervious_pct": null,
    "land_ownership": 0.5,
    "lat": 35.762,
    "litter_complaint_density": 0.0,
    "lon": -79.4457,
    "navigable_dist_m": null,
    "npdes_points": 0,
    "pixel_col": 627.0,
    "pixel_row": 79.0,
    "population_density": 74.3,
    "position_along": 0.5,
    "protected_area_score": 11.0581,
    "rank": 7,
    "road_access_m": 278.1,
    "road_access_score": 0.8,
    "road_density_km_km2": 0.965,
    "robustness_pct": 20.0,
    "runoff_coeff_C": null,
    "seasonal_cv": null,
    "segment_id": 1,
    "segment_length_m": 2611.0095,
    "stream_order": 3,
    "superfund_score": 0.0,
    "tourism_amenity_density": 0.0,
    "tri_facility_density": 0.0,
    "usgs_mean_q_cfs": null,
    "velocity_feasibility": 1.0,
    "water_intake_score": 1.5002
   },
   "type": "Feature"
  },
  {
   "geometry": {
    "coordinates": [
     -79.422519,
     35.729964
    ],
    "type": "Point"
   },
   "properties": {
    "accumulation": 136449.0,
    "bank_slope_deg": 27.3,
    "bank_slope_score": 0.5,
    "bank_slope_source": "nc-dps-lidar-dem03-cross-section",
    "beach_dist_km": 225.14,
    "bridge_proximity_bonus": 0.0,
    "catchment_area_km2": 13.6189,
    "channel_width_m": 9.22,
    "channel_width_score": 1.0,
    "composite_score": 41.6058,
    "cso_density": 0.0,
    "ej_index": 0.7713,
    "elevation_m": 149.6301,
    "estuary_dist_km": 314.91,
    "feasibility_score": 36.3636,
    "flood_q10_cfs": 1213.73,
    "flow_score": 71.9682,
    "flow_velocity_ms": 0.5,
    "generation_score": 7.2077,
    "impact_score": 53.323,
    "impervious_pct": null,
    "land_ownership": 0.5,
    "lat": 35.73,
    "litter_complaint_density": 0.0,
    "lon": -79.4225,
    "navigable_dist_m": null,
    "npdes_points": 0,
    "pixel_col": 842.0,
    "pixel_row": 431.0,
    "population_density": 113.8,
    "position_along": 0.5,
    "protected_area_score": 9.4139,
    "rank": 8,
    "road_access_m": 511.8,
    "road_access_score": 0.6,
    "road_density_km_km2": 2.414,
    "robustness_pct": 35.5,
    "runoff_coeff_C": null,
    "seasonal_cv": null,
    "segment_id": 8,
    "segment_length_m": 2460.1485,
    "stream_order": 3,
    "superfund_score": 0.0,
    "tourism_amenity_density": 0.3183,
    "tri_facility_density": 0.0,
    "usgs_mean_q_cfs": null,
    "velocity_feasibility": 1.0,
    "water_intake_score": 1.199
   },
   "type": "Feature"
  },
  {
   "geometry": {
    "coordinates": [
     -79.437506,
     35.737663
    ],
    "type": "Point"
   },
   "properties": {
    "accumulation": 34321.0,
    "bank_slope_deg": 1.83,
    "bank_slope_score": 1.0,
    "bank_slope_source": "nc-dps-lidar-dem03-cross-section",
    "beach_dist_km": 226.68,
    "bridge_proximity_bonus": 0.0,
    "catchment_area_km2": 3.4256,
    "channel_width_m": 5.2,
    "channel_width_score": 1.0,
    "composite_score": 40.7196,
    "cso_density": 0.0,
    "ej_index": 0.9818,
    "elevation_m": 165.0394,
    "estuary_dist_km": 316.42,
    "feasibility_score": 40.9091,
    "flood_q10_cfs": 574.92,
    "flow_score": 30.7621,
    "flow_velocity_ms": 0.0395,
    "generation_score": 25.9375,
    "impact_score": 63.7051,
    "impervious_pct": 11.47,
    "land_ownership": 0.5,
    "lat": 35.7377,
    "litter_complaint_density": 0.0,
    "lon": -79.4375,
    "navigable_dist_m": null,
    "npdes_points": 0,
    "pixel_col": 705.0,
    "pixel_row": 346.0,
    "population_density": 195.1,
    "position_along": 0.5,
    "protected_area_score": 9.7695,
    "rank": 9,
    "road_access_m": 318.8,
    "road_access_score": 0.8,
    "road_density_km_km2": 4.106,
    "robustness_pct": 5.0,
    "runoff_coeff_C": 0.1532,
    "seasonal_cv": 0.4128,
    "segment_id": 5,
    "segment_length_m": 2724.6268,
    "stream_order": 3,
    "superfund_score": 0.0,
    "tourism_amenity_density": 0.6366,
    "tri_facility_density": 0.0,
    "usgs_mean_q_cfs": 3.153,
    "velocity_feasibility": 0.3,
    "water_intake_score": 1.2929
   },
   "type": "Feature"
  },
  {
   "geometry": {
    "coordinates": [
     -79.498707,
     35.725656
    ],
    "type": "Point"
   },
   "properties": {
    "accumulation": 80460.0,
    "bank_slope_deg": 4.8,
    "bank_slope_score": 1.0,
    "bank_slope_source": "nc-dps-lidar-dem03-cross-section",
    "beach_dist_km": 229.44,
    "bridge_proximity_bonus": 0.0,
    "catchment_area_km2": 8.0307,
    "channel_width_m": 7.41,
    "channel_width_score": 1.0,
    "composite_score": 35.632,
    "cso_density": 0.0,
    "ej_index": 0.7577,
    "elevation_m": 174.5338,
    "estuary_dist_km": 321.51,
    "feasibility_score": 84.4156,
    "flood_q10_cfs": 995.91,
    "flow_score": 33.0429,
    "flow_velocity_ms": 0.0876,
    "generation_score": 17.806,
    "impact_score": 31.2238,
    "impervious_pct": 6.86,
    "land_ownership": 0.5,
    "lat": 35.7257,
    "litter_complaint_density": 0.0,
    "lon": -79.4987,
    "navigable_dist_m": null,
    "npdes_points": 0,
    "pixel_col": 152.0,
    "pixel_row": 489.0,
    "population_density": 173.1,
    "position_along": 0.5,
    "protected_area_score": 9.3316,
    "rank": 10,
    "road_access_m": 107.6,
    "road_access_score": 1.0,
    "road_density_km_km2": 2.465,
    "robustness_pct": 0.5,
    "runoff_coeff_C": 0.1117,
    "seasonal_cv": 0.4075,
    "segment_id": 4,
    "segment_length_m": 5368.2754,
    "stream_order": 1,
    "superfund_score": 0.0,
    "tourism_amenity_density": 0.2387,
    "tri_facility_density": 0.0,
    "usgs_mean_q_cfs": 4.333,
    "velocity_feasibility": 0.7,
    "water_intake_score": 1.1153
   },
   "type": "Feature"
  },
  {
   "geometry": {
    "coordinates": [
     -79.433367,
     35.760635
    ],
    "type": "Point"
   },
   "properties": {
    "accumulation": 20281.0,
    "bank_slope_deg": 16.8,
    "bank_slope_score": 0.5,
    "bank_slope_source": "nc-dps-lidar-dem03-cross-section",
    "beach_dist_km": 228.34,
    "bridge_proximity_bonus": 0.0,
    "catchment_area_km2": 2.0242,
    "channel_width_m": 4.18,
    "channel_width_score": 1.0,
    "composite_score": 32.8889,
    "cso_density": 0.0,
    "ej_index": 0.6105,
    "elevation_m": 154.439,
    "estuary_dist_km": 316.64,
    "feasibility_score": 36.3636,
    "flood_q10_cfs": 316.42,
    "flow_score": 40.0,
    "flow_velocity_ms": 0.5,
    "generation_score": 2.1637,
    "impact_score": 55.9508,
    "impervious_pct": null,
    "land_ownership": 0.5,
    "lat": 35.7606,
    "litter_complaint_density": 0.0,
    "lon": -79.4334,
    "navigable_dist_m": null,
    "npdes_points": 0,
    "pixel_col": 738.0,
    "pixel_row": 92.0,
    "population_density": 44.7,
    "position_along": 0.5,
    "protected_area_score": 10.6625,
    "rank": 11,
    "road_access_m": 573.9,
    "road_access_score": 0.6,
    "road_density_km_km2": 0.937,
    "robustness_pct": 0.0,
    "runoff_coeff_C": null,
    "seasonal_cv": null,
    "segment_id": 2,
    "segment_length_m": 66.505,
    "stream_order": 3,
    "superfund_score": 0.0,
    "tourism_amenity_density": 0.0,
    "tri_facility_density": 0.0,
    "usgs_mean_q_cfs": null,
    "velocity_feasibility": 1.0,
    "water_intake_score": 1.4102
   },
   "type": "Feature"
  },
  {
   "geometry": {
    "coordinates": [
     -79.46329,
     35.7031
    ],
    "type": "Point"
   },
   "properties": {
    "accumulation": 34239.0,
    "bank_slope_deg": 8.87,
    "bank_slope_score": 1.0,
    "bank_slope_source": "nc-dps-lidar-dem03-cross-section",
    "beach_dist_km": 225.42,
    "bridge_proximity_bonus": 0.0,
    "catchment_area_km2": 3.4174,
    "channel_width_m": 5.2,
    "channel_width_score": 1.0,
    "composite_score": 30.9877,
    "cso_density": 0.0,
    "ej_index": 0.7576,
    "elevation_m": 175.1293,
    "estuary_dist_km": 317.85,
    "feasibility_score": 84.4156,
    "flood_q10_cfs": 485.48,
    "flow_score": 14.8795,
    "flow_velocity_ms": 0.105,
    "generation_score": 7.9104,
    "impact_score": 40.7745,
    "impervious_pct": 1.91,
    "land_ownership": 0.5,
    "lat": 35.7031,
    "litter_complaint_density": 0.0,
    "lon": -79.4633,
    "navigable_dist_m": null,
    "npdes_points": 0,
    "pixel_col": 478.0,
    "pixel_row": 731.0,
    "population_density": 89.0,
    "position_along": 0.25,
    "protected_area_score": 8.7524,
    "rank": 12,
    "road_access_m": 196.8,
    "road_access_score": 1.0,
    "road_density_km_km2": 2.205,
    "robustness_pct": 0.0,
    "runoff_coeff_C": 0.0672,
    "seasonal_cv": 0.4181,
    "segment_id": 11,
    "segment_length_m": 4383.1144,
    "stream_order": 1,
    "superfund_score": 0.0,
    "tourism_amenity_density": 1.9894,
    "tri_facility_density": 0.0,
    "usgs_mean_q_cfs": 3.279,
    "velocity_feasibility": 0.7,
    "water_intake_score": 1.0282
   },
   "type": "Feature"
  },
  {
   "geometry": {
    "coordinates": [
     -79.496059,
     35.764889
    ],
    "type": "Point"
   },
   "properties": {
    "accumulation": 35916.0,
    "bank_slope_deg": 2.96,
    "bank_slope_score": 1.0,
    "bank_slope_source": "nc-dps-lidar-dem03-cross-section",
    "beach_dist_km": 232.47,
    "bridge_proximity_bonus": 0.0,
    "catchment_area_km2": 3.5848,
    "channel_width_m": 5.3,
    "channel_width_score": 1.0,
    "composite_score": 28.7555,
    "cso_density": 0.0,
    "ej_index": 0.7125,
    "elevation_m": 186.1687,
    "estuary_dist_km": 322.25,
    "feasibility_score": 84.4156,
    "flood_q10_cfs": 504.79,
    "flow_score": 12.0797,
    "flow_velocity_ms": 0.0838,
    "generation_score": 5.6038,
    "impact_score": 37.9737,
    "impervious_pct": 2.08,
    "land_ownership": 0.5,
    "lat": 35.7649,
    "litter_complaint_density": 0.0,
    "lon": -79.4961,
    "navigable_dist_m": null,
    "npdes_points": 0,
    "pixel_col": 171.0,
    "pixel_row": 50.0,
    "population_density": 69.5,
    "position_along": 0.5,
    "protected_area_score": 10.3532,
    "rank": 13,
    "road_access_m": 159.7,
    "road_access_score": 1.0,
    "road_density_km_km2": 0.865,
    "robustness_pct": 0.0,
    "runoff_coeff_C": 0.0687,
    "seasonal_cv": 0.4254,
    "segment_id": 0,
    "segment_length_m": 769.3872,
    "stream_order": 1,
    "superfund_score": 0.0,
    "tourism_amenity_density": 0.0796,
    "tri_facility_density": 0.0,
    "usgs_mean_q_cfs": 1.949,
    "velocity_feasibility": 0.7,
    "water_intake_score": 1.2977
   },
   "type": "Feature"
  },
  {
   "geometry": {
    "coordinates": [
     -79.506381,
     35.715121
    ],
    "type": "Point"
   },
   "properties": {
    "accumulation": 122120.0,
    "bank_slope_deg": 7.53,
    "bank_slope_score": 1.0,
    "bank_slope_source": "nc-dps-lidar-dem03-cross-section",
    "beach_dist_km": 229.06,
    "bridge_proximity_bonus": 0.0,
    "catchment_area_km2": 12.1887,
    "channel_width_m": 8.81,
    "channel_width_score": 1.0,
    "composite_score": 27.034,
    "cso_density": 0.0,
    "ej_index": 0.6313,
    "elevation_m": 170.7988,
    "estuary_dist_km": 321.94,
    "feasibility_score": 38.961,
    "flood_q10_cfs": 1215.77,
    "flow_score": 50.6412,
    "flow_velocity_ms": 0.1156,
    "generation_score": 8.8493,
    "impact_score": 19.5827,
    "impervious_pct": 4.57,
    "land_ownership": 0.5,
    "lat": 35.7151,
    "litter_complaint_density": 0.0,
    "lon": -79.5064,
    "navigable_dist_m": null,
    "npdes_points": 0,
    "pixel_col": 82.0,
    "pixel_row": 607.0,
    "population_density": 67.6,
    "position_along": 0.8333,
    "protected_area_score": 8.7854,
    "rank": 14,
    "road_access_m": 713.3,
    "road_access_score": 0.6,
    "road_density_km_km2": 1.336,
    "robustness_pct": 0.0,
    "runoff_coeff_C": 0.0911,
    "seasonal_cv": 0.4051,
    "segment_id": 4,
    "segment_length_m": 5368.2754,
    "stream_order": 1,
    "superfund_score": 0.0,
    "tourism_amenity_density": 0.1592,
    "tri_facility_density": 0.0,
    "usgs_mean_q_cfs": 7.969,
    "velocity_feasibility": 0.7,
    "water_intake_score": 1.0436
   },
   "type": "Feature"
  },
  {
   "geometry": {
    "coordinates": [
     -79.416031,
     35.701086
    ],
    "type": "Point"
   },
   "properties": {
    "accumulation": 28380.0,
    "bank_slope_deg": 5.52,
    "bank_slope_score": 1.0,
    "bank_slope_source": "nc-dps-lidar-dem03-cross-section",
    "beach_dist_km": 222.37,
    "bridge_proximity_bonus": 0.0,
    "catchment_area_km2": 2.8326,
    "channel_width_m": 4.81,
    "channel_width_score": 1.0,
    "composite_score": 23.839,
    "cso_density": 0.0,
    "ej_index": 0.8534,
    "elevation_m": 173.1429,
    "estuary_dist_km": 313.63,
    "feasibility_score": 38.961,
    "flood_q10_cfs": 426.49,
    "flow_score": 9.4966,
    "flow_velocity_ms": 0.0932,
    "generation_score": 3.8721,
    "impact_score": 48.1969,
    "impervious_pct": 2.59,
    "land_ownership": 0.5,
    "lat": 35.7011,
    "litter_complaint_density": 0.0,
    "lon": -79.416,
    "navigable_dist_m": null,
    "npdes_points": 0,
    "pixel_col": 906.0,
    "pixel_row": 750.0,
    "population_density": 21.2,
    "position_along": 0.5,
    "protected_area_score": 8.5437,
    "rank": 15,
    "road_access_m": 836.6,
    "road_access_score": 0.6,
    "road_density_km_km2": 0.884,
    "robustness_pct": 0.0,
    "runoff_coeff_C": 0.0733,
    "seasonal_cv": 0.4335,
    "segment_id": 9,
    "segment_length_m": 873.43,
    "stream_order": 1,
    "superfund_score": 0.0,
    "tourism_amenity_density": 0.0,
    "tri_facility_density": 0.0,
    "usgs_mean_q_cfs": 1.789,
    "velocity_feasibility": 0.7,
    "water_intake_score": 1.0197
   },
   "type": "Feature"
  },
  {
   "geometry": {
    "coordinates": [
     -79.444232,
     35.688966
    ],
    "type": "Point"
   },
   "properties": {
    "accumulation": 26766.0,
    "bank_slope_deg": 2.12,
    "bank_slope_score": 1.0,
    "bank_slope_source": "nc-dps-lidar-dem03-cross-section",
    "beach_dist_km": 223.1,
    "bridge_proximity_bonus": 0.0,
    "catchment_area_km2": 2.6715,
    "channel_width_m": 4.69,
    "channel_width_score": 1.0,
    "composite_score": 21.7664,
    "cso_density": 0.0,
    "ej_index": 0.8548,
    "elevation_m": 168.6964,
    "estuary_dist_km": 315.84,
    "feasibility_score": 38.961,
    "flood_q10_cfs": 399.6,
    "flow_score": 13.6427,
    "flow_velocity_ms": 0.0926,
    "generation_score": 2.1877,
    "impact_score": 39.5176,
    "impervious_pct": 1.39,
    "land_ownership": 0.5,
    "lat": 35.689,
    "litter_complaint_density": 0.0,
    "lon": -79.4442,
    "navigable_dist_m": null,
    "npdes_points": 0,
    "pixel_col": 652.0,
    "pixel_row": 889.0,
    "population_density": 25.1,
    "position_along": 0.5,
    "protected_area_score": 8.385,
    "rank": 16,
    "road_access_m": 866.1,
    "road_access_score": 0.6,
    "road_density_km_km2": 0.43,
    "robustness_pct": 0.0,
    "runoff_coeff_C": 0.0625,
    "seasonal_cv": 0.4192,
    "segment_id": 12,
    "segment_length_m": 981.6109,
    "stream_order": 1,
    "superfund_score": 0.0,
    "tourism_amenity_density": 0.0,
    "tri_facility_density": 0.0,
    "usgs_mean_q_cfs": 4.096,
    "velocity_feasibility": 0.7,
    "water_intake_score": 0.9526
   },
   "type": "Feature"
  },
  {
   "geometry": {
    "coordinates": [
     -79.498587,
     35.693768
    ],
    "type": "Point"
   },
   "properties": {
    "accumulation": 58216.0,
    "bank_slope_deg": 1.02,
    "bank_slope_score": 1.0,
    "bank_slope_source": "nc-dps-lidar-dem03-cross-section",
    "beach_dist_km": 226.86,
    "bridge_proximity_bonus": 0.0,
    "catchment_area_km2": 5.8105,
    "channel_width_m": 6.48,
    "channel_width_score": 1.0,
    "composite_score": 15.8873,
    "cso_density": 0.0,
    "ej_index": 0.4569,
    "elevation_m": 165.3046,
    "estuary_dist_km": 320.75,
    "feasibility_score": 38.961,
    "flood_q10_cfs": 715.19,
    "flow_score": 26.6618,
    "flow_velocity_ms": 0.0907,
    "generation_score": 1.3528,
    "impact_score": 9.9061,
    "impervious_pct": 1.19,
    "land_ownership": 0.5,
    "lat": 35.6938,
    "litter_complaint_density": 0.0,
    "lon": -79.4986,
    "navigable_dist_m": null,
    "npdes_points": 0,
    "pixel_col": 156.0,
    "pixel_row": 843.0,
    "population_density": 12.0,
    "position_along": 0.5,
    "protected_area_score": 8.1745,
    "rank": 17,
    "road_access_m": 716.1,
    "road_access_score": 0.6,
    "road_density_km_km2": 0.447,
    "robustness_pct": 0.0,
    "runoff_coeff_C": 0.0607,
    "seasonal_cv": 0.4123,
    "segment_id": 10,
    "segment_length_m": 2370.8225,
    "stream_order": 1,
    "superfund_score": 0.0,
    "tourism_amenity_density": 0.0,
    "tri_facility_density": 0.0,
    "usgs_mean_q_cfs": 5.63,
    "velocity_feasibility": 0.7,
    "water_intake_score": 0.9529
   },
   "type": "Feature"
  }
 ],
 "note": "GRIME region 'Siler City, NC' \u2014 real-data pipeline (DEM\u2192streams\u2192candidates\u2192stream mask (sites confined to \u00b1150 m of mapped OSM/NHD waterways)\u2192region-appropriate real parameters\u2192shipped scoring, math unchanged). Width curve: Bieger et al. 2015 JAWRA Table 3, Appalachian Highlands. Flood: SIR 2014-5030 HR1. NC Piedmont (DEQ physiography polygon)",
 "provenance": {
  "candidates_pre_gate": 17,
  "constant": [
   "bridge_proximity_bonus",
   "channel_width_score",
   "cso_density",
   "land_ownership",
   "litter_complaint_density",
   "superfund_score"
  ],
  "gated_navigable": 0,
  "hard_gate_removed": 0,
  "n_parameters": 27,
  "parameters": {
   "bank_slope_score": {
    "kind": "real",
    "n_3dep_10m_fallback": 0,
    "n_nc_lidar_3_125ft": 17,
    "n_real": 17,
    "n_sites": 17,
    "source": "NC OneMap / NC DPS DEM03 statewide lidar-derived 3.125-ft (0.953 m) elevations (perpendicular 50 m transect; robust 5 m bank-rise metric); unavailable profiles use the region 10 m 3DEP DEM-gradient fallback",
    "source_mosaics": [
     "Chatham_2024_QL1_03ft_CountywideRaster"
    ]
   },
   "beach_dist_km": {
    "kind": "real",
    "n_real": 17,
    "n_sites": 17,
    "source": "haversine to region ref: Wrightsville Beach (shipped NC reference)"
   },
   "bridge_proximity_bonus": {
    "kind": "real",
    "n_real": 17,
    "n_sites": 17,
    "source": "FHWA/BTS NBI (NTAD), 50 m proximity"
   },
   "catchment_area_km2": {
    "kind": "real",
    "n_real": 17,
    "n_sites": 17,
    "source": "DEM flow accumulation (pipeline)"
   },
   "channel_width_score": {
    "kind": "real",
    "n_real": 17,
    "n_sites": 17,
    "source": "Bieger 2015 AHI width curve on DEM drainage area \u2192 shipped width curve"
   },
   "cso_density": {
    "kind": "real",
    "n_real": 17,
    "n_sites": 17,
    "source": "EPA ECHO open CSO/TCS outfall PF coordinates states=NC, Cauchy proximity"
   },
   "ej_index": {
    "kind": "real",
    "n_real": 17,
    "n_sites": 17,
    "source": "Census ACS C17002+B03002 two-component demographic index, percentile-ranked within region"
   },
   "estuary_dist_km": {
    "kind": "real",
    "n_real": 17,
    "n_sites": 17,
    "source": "haversine to region ref: Pamlico Sound (shipped NC reference)"
   },
   "flood_q10_cfs": {
    "impervious_fallback_reason": "StreamCat imperviousness unavailable; the existing regression-input fallback of 0.0% impervious was used and is disclosed here",
    "kind": "real",
    "n_impervious_fallback": 4,
    "n_real": 17,
    "n_sites": 17,
    "source": "USGS SIR 2014-5030 Table 7 HR1 (NC Piedmont)"
   },
   "flow_velocity_ms": {
    "fallback_reason": "EROM/DEM continuity input unavailable; shipped 0.5 m/s default used",
    "kind": "real",
    "n_fallback": 4,
    "n_real": 13,
    "n_sites": 17,
    "source": "Manning (region DEM/D8) blended with EROM continuity (shipped M4 logic)"
   },
   "impervious_pct": {
    "fallback_reason": "NLDI/StreamCat did not return a snap-compatible catchment value; value remains null and is removed by constant-column handling",
    "kind": "real",
    "n_fallback": 4,
    "n_real": 13,
    "n_sites": 17,
    "source": "EPA StreamCat pctimp2019 (per NHDPlus watershed)"
   },
   "land_ownership": {
    "fallback_reason": "no containing parcel owner returned; shipped unknown ownership 0.5 used",
    "kind": "real",
    "n_fallback": 1,
    "n_real": 16,
    "n_sites": 17,
    "source": "NC OneMap statewide parcels (NC Parcels Transformer) ownname"
   },
   "litter_complaint_density": {
    "kind": "fallback",
    "n_real": 0,
    "n_sites": 17,
    "source": "no public machine-readable litter/illegal-dumping feed for this region"
   },
   "navigable_dist_m": {
    "kind": "real",
    "n_real": 17,
    "n_sites": 17,
    "source": "USACE/BTS NWN (NTAD): no navigable segment within this bbox (+2 km) \u2014 computed absence, gate passes all sites"
   },
   "npdes_points": {
    "kind": "real",
    "n_real": 17,
    "n_sites": 17,
    "source": "EPA ECHO active NPDES outfalls states=NC (types NPD/GPC/NGP; statuses ADC/EFF/EXP), per catchment"
   },
   "population_density": {
    "kind": "real",
    "n_real": 17,
    "n_sites": 17,
    "source": "Census ACS 2022 B01003 block groups (bbox, multi-county), area-weighted"
   },
   "protected_area_score": {
    "kind": "real",
    "n_real": 17,
    "n_sites": 17,
    "source": "USGS PAD-US 4.1 state GDB; states=NC; shipped designation-weighted proximity curve"
   },
   "road_access_score": {
    "kind": "real",
    "n_real": 17,
    "n_sites": 17,
    "source": "OSM drive network nearest-node distance"
   },
   "road_density_km_km2": {
    "kind": "real",
    "n_real": 17,
    "n_sites": 17,
    "source": "OSM drive network (osmnx, cached) clipped per catchment"
   },
   "runoff_coeff_C": {
    "fallback_reason": "source impervious_pct was unavailable; derived value remains null",
    "kind": "real",
    "n_fallback": 4,
    "n_real": 13,
    "n_sites": 17,
    "source": "derived from real impervious_pct (C=0.05+0.009*I)"
   },
   "seasonal_cv": {
    "fallback_reason": "NHDPlus monthly EROM was unavailable or failed the drainage-area snap guard; value remains null",
    "kind": "real",
    "n_fallback": 4,
    "n_real": 13,
    "n_sites": 17,
    "source": "CV of NHDPlus EROM monthly flows per COMID"
   },
   "stream_order": {
    "kind": "real",
    "n_real": 17,
    "n_sites": 17,
    "source": "DEM stream-network confluence heuristic (pipeline)"
   },
   "superfund_score": {
    "kind": "real",
    "n_real": 17,
    "n_sites": 17,
    "source": "EPA DataMap SEMS active sites states=NC (non-archived, georeferenced), shipped 500 m inverse-distance curve"
   },
   "tourism_amenity_density": {
    "kind": "real",
    "n_real": 17,
    "n_sites": 17,
    "source": "OSM leisure/tourism features per 2 km radius"
   },
   "tri_facility_density": {
    "kind": "real",
    "n_real": 17,
    "n_sites": 17,
    "source": "EPA DataMap TRI open facilities states=NC (preferred decimal or packed-DMS recovery), per catchment"
   },
   "usgs_mean_q_cfs": {
    "fallback_reason": "NHDPlus EROM was unavailable or failed the drainage-area snap guard; value remains null",
    "kind": "real",
    "n_fallback": 4,
    "n_real": 13,
    "n_sites": 17,
    "source": "NHDPlus EROM qe_ma per COMID (snap-guarded)"
   },
   "velocity_feasibility": {
    "fallback_reason": "derived from the shipped 0.5 m/s velocity fallback",
    "kind": "real",
    "n_fallback": 4,
    "n_real": 13,
    "n_sites": 17,
    "source": "shipped step curve on the computed velocity"
   },
   "velocity_transport_favorability": {
    "fallback_reason": "EROM/DEM continuity input unavailable; shipped 0.5 m/s default used",
    "kind": "derived",
    "n_fallback": 4,
    "n_real": 13,
    "n_sites": 17,
    "source": "scored form of flow_velocity_ms inside the Flow family \u2014 peaked Gaussian exp(-((v-0.9)/0.6)^2), model.json curves.velocity_transport_favorability; construct: transport/delivery favorability, deliberately distinct from velocity_feasibility (device operability)"
   },
   "water_intake_score": {
    "kind": "real",
    "n_real": 17,
    "n_sites": 17,
    "source": "NC OneMap / NC DEQ SWAP public water supply sources (source_typ='Surface Water'), shipped exp(-d/10km) curve"
   }
  },
  "stream_mask": {
   "buffer_m": 150.0,
   "pre_mask": 17,
   "removed": 0,
   "sources": [
    "osm-overpass (all waterway ways)",
    "usgs-nhdplus flowlines"
   ]
  },
  "varying": [
   "bank_slope_score",
   "beach_dist_km",
   "catchment_area_km2",
   "ej_index",
   "estuary_dist_km",
   "flood_q10_cfs",
   "flow_velocity_ms",
   "impervious_pct",
   "npdes_points",
   "population_density",
   "protected_area_score",
   "road_access_score",
   "road_density_km_km2",
   "runoff_coeff_C",
   "seasonal_cv",
   "stream_order",
   "tourism_amenity_density",
   "tri_facility_density",
   "usgs_mean_q_cfs",
   "velocity_feasibility",
   "water_intake_score"
  ]
 },
 "region": {
  "bbox": [
   -79.5147,
   35.6856,
   -79.4126,
   35.7685
  ],
  "beach_ref": {
   "label": "Wrightsville Beach (shipped NC reference)",
   "lat": 34.21,
   "lon": -77.79
  },
  "center": [
   -79.463662,
   35.727067
  ],
  "estuary_ref": {
   "label": "Pamlico Sound (shipped NC reference)",
   "lat": 35.05,
   "lon": -76.05
  },
  "flood_method": "sir2014_hr1",
  "name": "Siler City, NC",
  "notes": "NC Piedmont (DEQ physiography polygon)",
  "slug": "siler-city",
  "state": "NC",
  "utm_epsg": 32617,
  "width_curve": {
   "a": 3.12,
   "b": 0.415,
   "code": "AHI",
   "source": "Bieger et al. 2015 JAWRA Table 3, Appalachian Highlands"
  }
 },
 "type": "FeatureCollection"
}
