{
 "features": [
  {
   "geometry": {
    "coordinates": [
     -81.957872,
     35.359241
    ],
    "type": "Point"
   },
   "properties": {
    "accumulation": 48345.0,
    "bank_slope_deg": 21.88,
    "bank_slope_score": 0.5,
    "bank_slope_source": "nc-dps-lidar-dem03-cross-section",
    "beach_dist_km": 401.47,
    "bridge_proximity_bonus": 0.0,
    "catchment_area_km2": 4.825,
    "channel_width_m": 6.0,
    "channel_width_score": 1.0,
    "composite_score": 50.3827,
    "cso_density": 0.0,
    "ej_index": 0.6803,
    "elevation_m": 259.3401,
    "estuary_dist_km": 537.79,
    "feasibility_score": 35.7143,
    "flood_q10_cfs": 795.42,
    "flow_score": 29.3994,
    "flow_velocity_ms": 0.1436,
    "generation_score": 77.1558,
    "impact_score": 48.4299,
    "impervious_pct": 15.27,
    "land_ownership": 0.5,
    "lat": 35.3592,
    "litter_complaint_density": 0.0,
    "lon": -81.9579,
    "navigable_dist_m": null,
    "npdes_points": 1,
    "pixel_col": 396.0,
    "pixel_row": 462.0,
    "population_density": 221.8,
    "position_along": 0.5,
    "protected_area_score": 3.8164,
    "rank": 1,
    "road_access_m": 172.7,
    "road_access_score": 1.0,
    "road_density_km_km2": 6.479,
    "robustness_pct": 83.5,
    "runoff_coeff_C": 0.1874,
    "seasonal_cv": 0.4652,
    "segment_id": 9,
    "segment_length_m": 2658.0329,
    "stream_order": 3,
    "superfund_score": 0.0037,
    "tourism_amenity_density": 3.1035,
    "tri_facility_density": 0.4145,
    "usgs_mean_q_cfs": 6.414,
    "velocity_feasibility": 0.7,
    "water_intake_score": 1.2152
   },
   "type": "Feature"
  },
  {
   "geometry": {
    "coordinates": [
     -81.887147,
     35.328483
    ],
    "type": "Point"
   },
   "properties": {
    "accumulation": 66152.0,
    "bank_slope_deg": 3.89,
    "bank_slope_score": 1.0,
    "bank_slope_source": "nc-dps-lidar-dem03-cross-section",
    "beach_dist_km": 394.33,
    "bridge_proximity_bonus": 0.0,
    "catchment_area_km2": 6.6021,
    "channel_width_m": 6.83,
    "channel_width_score": 1.0,
    "composite_score": 48.6674,
    "cso_density": 0.0,
    "ej_index": 0.7872,
    "elevation_m": 289.7925,
    "estuary_dist_km": 531.27,
    "feasibility_score": 50.0,
    "flood_q10_cfs": 1108.48,
    "flow_score": 35.2841,
    "flow_velocity_ms": 0.0898,
    "generation_score": 55.0701,
    "impact_score": 52.751,
    "impervious_pct": 20.73,
    "land_ownership": 0.5,
    "lat": 35.3285,
    "litter_complaint_density": 0.0,
    "lon": -81.8871,
    "navigable_dist_m": null,
    "npdes_points": 0,
    "pixel_col": 1039.0,
    "pixel_row": 810.0,
    "population_density": 318.3,
    "position_along": 0.5,
    "protected_area_score": 3.4172,
    "rank": 2,
    "road_access_m": 44.9,
    "road_access_score": 1.0,
    "road_density_km_km2": 3.61,
    "robustness_pct": 95.5,
    "runoff_coeff_C": 0.2366,
    "seasonal_cv": 0.4533,
    "segment_id": 22,
    "segment_length_m": 1480.4963,
    "stream_order": 3,
    "superfund_score": 0.0021,
    "tourism_amenity_density": 0.7958,
    "tri_facility_density": 0.0,
    "usgs_mean_q_cfs": 12.769,
    "velocity_feasibility": 0.7,
    "water_intake_score": 1.1975
   },
   "type": "Feature"
  },
  {
   "geometry": {
    "coordinates": [
     -81.893902,
     35.338026
    ],
    "type": "Point"
   },
   "properties": {
    "accumulation": 27539.0,
    "bank_slope_deg": 2.58,
    "bank_slope_score": 1.0,
    "bank_slope_source": "nc-dps-lidar-dem03-cross-section",
    "beach_dist_km": 395.23,
    "bridge_proximity_bonus": 0.0,
    "catchment_area_km2": 2.7485,
    "channel_width_m": 4.75,
    "channel_width_score": 1.0,
    "composite_score": 46.6989,
    "cso_density": 0.0,
    "ej_index": 0.7642,
    "elevation_m": 291.9945,
    "estuary_dist_km": 531.92,
    "feasibility_score": 50.0,
    "flood_q10_cfs": 572.68,
    "flow_score": 28.304,
    "flow_velocity_ms": 0.098,
    "generation_score": 49.8576,
    "impact_score": 57.2186,
    "impervious_pct": 20.73,
    "land_ownership": 0.5,
    "lat": 35.338,
    "litter_complaint_density": 0.0,
    "lon": -81.8939,
    "navigable_dist_m": null,
    "npdes_points": 0,
    "pixel_col": 979.0,
    "pixel_row": 703.0,
    "population_density": 206.4,
    "position_along": 0.5,
    "protected_area_score": 3.4439,
    "rank": 3,
    "road_access_m": 126.5,
    "road_access_score": 1.0,
    "road_density_km_km2": 5.504,
    "robustness_pct": 82.5,
    "runoff_coeff_C": 0.2366,
    "seasonal_cv": 0.4533,
    "segment_id": 20,
    "segment_length_m": 1197.6388,
    "stream_order": 3,
    "superfund_score": 0.0026,
    "tourism_amenity_density": 1.8303,
    "tri_facility_density": 0.0,
    "usgs_mean_q_cfs": 12.769,
    "velocity_feasibility": 0.7,
    "water_intake_score": 1.2452
   },
   "type": "Feature"
  },
  {
   "geometry": {
    "coordinates": [
     -81.962016,
     35.341088
    ],
    "type": "Point"
   },
   "properties": {
    "accumulation": 197663.0,
    "bank_slope_deg": 14.19,
    "bank_slope_score": 1.0,
    "bank_slope_source": "nc-dps-lidar-dem03-cross-section",
    "beach_dist_km": 401.23,
    "bridge_proximity_bonus": 0.0,
    "catchment_area_km2": 19.7273,
    "channel_width_m": 10.75,
    "channel_width_score": 1.0,
    "composite_score": 46.1894,
    "cso_density": 0.0,
    "ej_index": 0.5527,
    "elevation_m": 240.9743,
    "estuary_dist_km": 538.1,
    "feasibility_score": 50.0,
    "flood_q10_cfs": 1661.41,
    "flow_score": 50.6011,
    "flow_velocity_ms": 0.1495,
    "generation_score": 39.7995,
    "impact_score": 46.9977,
    "impervious_pct": 7.87,
    "land_ownership": 0.5,
    "lat": 35.3411,
    "litter_complaint_density": 0.0,
    "lon": -81.962,
    "navigable_dist_m": null,
    "npdes_points": 2,
    "pixel_col": 356.0,
    "pixel_row": 662.0,
    "population_density": 109.6,
    "position_along": 0.5,
    "protected_area_score": 4.0881,
    "rank": 4,
    "road_access_m": 99.6,
    "road_access_score": 1.0,
    "road_density_km_km2": 3.361,
    "robustness_pct": 76.5,
    "runoff_coeff_C": 0.1208,
    "seasonal_cv": 0.4435,
    "segment_id": 25,
    "segment_length_m": 545.7348,
    "stream_order": 3,
    "superfund_score": 0.0024,
    "tourism_amenity_density": 1.5915,
    "tri_facility_density": 0.0507,
    "usgs_mean_q_cfs": 21.979,
    "velocity_feasibility": 0.7,
    "water_intake_score": 1.2855
   },
   "type": "Feature"
  },
  {
   "geometry": {
    "coordinates": [
     -81.893785,
     35.336235
    ],
    "type": "Point"
   },
   "properties": {
    "accumulation": 25549.0,
    "bank_slope_deg": 17.21,
    "bank_slope_score": 0.5,
    "bank_slope_source": "nc-dps-lidar-dem03-cross-section",
    "beach_dist_km": 395.16,
    "bridge_proximity_bonus": 0.0,
    "catchment_area_km2": 2.5499,
    "channel_width_m": 4.6,
    "channel_width_score": 1.0,
    "composite_score": 44.6907,
    "cso_density": 0.0,
    "ej_index": 0.7568,
    "elevation_m": 295.7589,
    "estuary_dist_km": 531.9,
    "feasibility_score": 35.7143,
    "flood_q10_cfs": 541.21,
    "flow_score": 28.4905,
    "flow_velocity_ms": 0.1219,
    "generation_score": 50.4128,
    "impact_score": 56.957,
    "impervious_pct": 20.73,
    "land_ownership": 0.5,
    "lat": 35.3362,
    "litter_complaint_density": 0.0,
    "lon": -81.8938,
    "navigable_dist_m": null,
    "npdes_points": 0,
    "pixel_col": 980.0,
    "pixel_row": 723.0,
    "population_density": 204.1,
    "position_along": 0.5,
    "protected_area_score": 3.4731,
    "rank": 5,
    "road_access_m": 57.7,
    "road_access_score": 1.0,
    "road_density_km_km2": 5.862,
    "robustness_pct": 50.0,
    "runoff_coeff_C": 0.2366,
    "seasonal_cv": 0.4533,
    "segment_id": 21,
    "segment_length_m": 794.8997,
    "stream_order": 3,
    "superfund_score": 0.0025,
    "tourism_amenity_density": 1.8303,
    "tri_facility_density": 0.0,
    "usgs_mean_q_cfs": 12.769,
    "velocity_feasibility": 0.7,
    "water_intake_score": 1.2374
   },
   "type": "Feature"
  },
  {
   "geometry": {
    "coordinates": [
     -81.956307,
     35.346231
    ],
    "type": "Point"
   },
   "properties": {
    "accumulation": 95241.0,
    "bank_slope_deg": 29.02,
    "bank_slope_score": 0.5,
    "bank_slope_source": "nc-dps-lidar-dem03-cross-section",
    "beach_dist_km": 400.9,
    "bridge_proximity_bonus": 0.0,
    "catchment_area_km2": 9.5053,
    "channel_width_m": 7.94,
    "channel_width_score": 1.0,
    "composite_score": 43.9904,
    "cso_density": 0.0,
    "ej_index": 0.6766,
    "elevation_m": 245.1234,
    "estuary_dist_km": 537.6,
    "feasibility_score": 39.2857,
    "flood_q10_cfs": 1228.1,
    "flow_score": 34.1762,
    "flow_velocity_ms": 0.055,
    "generation_score": 48.9699,
    "impact_score": 49.5419,
    "impervious_pct": 15.27,
    "land_ownership": 1.0,
    "lat": 35.3462,
    "litter_complaint_density": 0.0,
    "lon": -81.9563,
    "navigable_dist_m": null,
    "npdes_points": 2,
    "pixel_col": 412.0,
    "pixel_row": 607.0,
    "population_density": 128.4,
    "position_along": 0.5,
    "protected_area_score": 4.0258,
    "rank": 6,
    "road_access_m": 256.0,
    "road_access_score": 0.8,
    "road_density_km_km2": 3.989,
    "robustness_pct": 22.5,
    "runoff_coeff_C": 0.1874,
    "seasonal_cv": 0.4652,
    "segment_id": 17,
    "segment_length_m": 1533.875,
    "stream_order": 3,
    "superfund_score": 0.0028,
    "tourism_amenity_density": 1.512,
    "tri_facility_density": 0.0,
    "usgs_mean_q_cfs": 6.414,
    "velocity_feasibility": 0.7,
    "water_intake_score": 1.2625
   },
   "type": "Feature"
  },
  {
   "geometry": {
    "coordinates": [
     -81.958651,
     35.340755
    ],
    "type": "Point"
   },
   "properties": {
    "accumulation": 97770.0,
    "bank_slope_deg": 4.56,
    "bank_slope_score": 1.0,
    "bank_slope_source": "nc-dps-lidar-dem03-cross-section",
    "beach_dist_km": 400.93,
    "bridge_proximity_bonus": 0.0,
    "catchment_area_km2": 9.7577,
    "channel_width_m": 8.03,
    "channel_width_score": 1.0,
    "composite_score": 42.9551,
    "cso_density": 0.0,
    "ej_index": 0.6108,
    "elevation_m": 242.3896,
    "estuary_dist_km": 537.8,
    "feasibility_score": 53.5714,
    "flood_q10_cfs": 1149.16,
    "flow_score": 35.0563,
    "flow_velocity_ms": 0.1699,
    "generation_score": 38.0463,
    "impact_score": 49.1379,
    "impervious_pct": 9.41,
    "land_ownership": 1.0,
    "lat": 35.3408,
    "litter_complaint_density": 0.0,
    "lon": -81.9587,
    "navigable_dist_m": null,
    "npdes_points": 2,
    "pixel_col": 387.0,
    "pixel_row": 664.0,
    "population_density": 100.8,
    "position_along": 0.5,
    "protected_area_score": 4.1008,
    "rank": 7,
    "road_access_m": 225.6,
    "road_access_score": 0.8,
    "road_density_km_km2": 3.305,
    "robustness_pct": 20.5,
    "runoff_coeff_C": 0.1347,
    "seasonal_cv": 0.4722,
    "segment_id": 24,
    "segment_length_m": 98.1872,
    "stream_order": 3,
    "superfund_score": 0.0024,
    "tourism_amenity_density": 1.5915,
    "tri_facility_density": 0.0,
    "usgs_mean_q_cfs": 6.35,
    "velocity_feasibility": 0.7,
    "water_intake_score": 1.2761
   },
   "type": "Feature"
  },
  {
   "geometry": {
    "coordinates": [
     -81.966504,
     35.353843
    ],
    "type": "Point"
   },
   "properties": {
    "accumulation": 25697.0,
    "bank_slope_deg": 23.7,
    "bank_slope_score": 0.5,
    "bank_slope_source": "nc-dps-lidar-dem03-cross-section",
    "beach_dist_km": 402.04,
    "bridge_proximity_bonus": 0.0,
    "catchment_area_km2": 2.5646,
    "channel_width_m": 4.61,
    "channel_width_score": 1.0,
    "composite_score": 41.1702,
    "cso_density": 0.0,
    "ej_index": 0.5126,
    "elevation_m": 258.105,
    "estuary_dist_km": 538.56,
    "feasibility_score": 35.7143,
    "flood_q10_cfs": 494.03,
    "flow_score": 24.6769,
    "flow_velocity_ms": 0.1199,
    "generation_score": 55.7683,
    "impact_score": 43.0443,
    "impervious_pct": 15.27,
    "land_ownership": 0.5,
    "lat": 35.3538,
    "litter_complaint_density": 0.0,
    "lon": -81.9665,
    "navigable_dist_m": null,
    "npdes_points": 1,
    "pixel_col": 321.0,
    "pixel_row": 521.0,
    "population_density": 236.2,
    "position_along": 0.5,
    "protected_area_score": 4.0884,
    "rank": 8,
    "road_access_m": 126.3,
    "road_access_score": 1.0,
    "road_density_km_km2": 6.726,
    "robustness_pct": 9.0,
    "runoff_coeff_C": 0.1874,
    "seasonal_cv": 0.4652,
    "segment_id": 16,
    "segment_length_m": 1385.1489,
    "stream_order": 3,
    "superfund_score": 0.003,
    "tourism_amenity_density": 2.1486,
    "tri_facility_density": 0.0,
    "usgs_mean_q_cfs": 6.414,
    "velocity_feasibility": 0.7,
    "water_intake_score": 1.2325
   },
   "type": "Feature"
  },
  {
   "geometry": {
    "coordinates": [
     -81.96531,
     35.341727
    ],
    "type": "Point"
   },
   "properties": {
    "accumulation": 22557.0,
    "bank_slope_deg": 15.64,
    "bank_slope_score": 0.5,
    "bank_slope_source": "nc-dps-lidar-dem03-cross-section",
    "beach_dist_km": 401.54,
    "bridge_proximity_bonus": 0.0,
    "catchment_area_km2": 2.2512,
    "channel_width_m": 4.37,
    "channel_width_score": 1.0,
    "composite_score": 39.7834,
    "cso_density": 0.0,
    "ej_index": 0.4887,
    "elevation_m": 242.2998,
    "estuary_dist_km": 538.4,
    "feasibility_score": 64.2857,
    "flood_q10_cfs": 342.81,
    "flow_score": 40.0043,
    "flow_velocity_ms": 0.5,
    "generation_score": 23.5616,
    "impact_score": 43.57,
    "impervious_pct": null,
    "land_ownership": 0.5,
    "lat": 35.3417,
    "litter_complaint_density": 0.0,
    "lon": -81.9653,
    "navigable_dist_m": null,
    "npdes_points": 1,
    "pixel_col": 330.0,
    "pixel_row": 655.0,
    "population_density": 108.9,
    "position_along": 0.5,
    "protected_area_score": 4.0369,
    "rank": 9,
    "road_access_m": 197.1,
    "road_access_score": 1.0,
    "road_density_km_km2": 5.321,
    "robustness_pct": 9.0,
    "runoff_coeff_C": null,
    "seasonal_cv": null,
    "segment_id": 19,
    "segment_length_m": 508.1983,
    "stream_order": 3,
    "superfund_score": 0.0024,
    "tourism_amenity_density": 1.5915,
    "tri_facility_density": 0.0,
    "usgs_mean_q_cfs": null,
    "velocity_feasibility": 1.0,
    "water_intake_score": 1.2864
   },
   "type": "Feature"
  },
  {
   "geometry": {
    "coordinates": [
     -81.884882,
     35.381852
    ],
    "type": "Point"
   },
   "properties": {
    "accumulation": 243177.0,
    "bank_slope_deg": 21.54,
    "bank_slope_score": 0.5,
    "bank_slope_source": "nc-dps-lidar-dem03-cross-section",
    "beach_dist_km": 395.93,
    "bridge_proximity_bonus": 0.0,
    "catchment_area_km2": 24.2697,
    "channel_width_m": 11.72,
    "channel_width_score": 1.0,
    "composite_score": 38.6369,
    "cso_density": 0.0,
    "ej_index": 0.3542,
    "elevation_m": 251.0762,
    "estuary_dist_km": 531.27,
    "feasibility_score": 17.8571,
    "flood_q10_cfs": 1747.3,
    "flow_score": 70.0101,
    "flow_velocity_ms": 0.1463,
    "generation_score": 10.3873,
    "impact_score": 51.132,
    "impervious_pct": 3.21,
    "land_ownership": 0.5,
    "lat": 35.3819,
    "litter_complaint_density": 0.0,
    "lon": -81.8849,
    "navigable_dist_m": null,
    "npdes_points": 0,
    "pixel_col": 1066.0,
    "pixel_row": 215.0,
    "population_density": 98.7,
    "position_along": 0.5,
    "protected_area_score": 3.4519,
    "rank": 10,
    "road_access_m": 396.2,
    "road_access_score": 0.8,
    "road_density_km_km2": 1.169,
    "robustness_pct": 21.5,
    "runoff_coeff_C": 0.0789,
    "seasonal_cv": 0.3791,
    "segment_id": 14,
    "segment_length_m": 609.8136,
    "stream_order": 3,
    "superfund_score": 0.0082,
    "tourism_amenity_density": 0.0,
    "tri_facility_density": 0.0,
    "usgs_mean_q_cfs": 73.538,
    "velocity_feasibility": 0.7,
    "water_intake_score": 1.3959
   },
   "type": "Feature"
  },
  {
   "geometry": {
    "coordinates": [
     -81.966729,
     35.331773
    ],
    "type": "Point"
   },
   "properties": {
    "accumulation": 233486.0,
    "bank_slope_deg": 23.59,
    "bank_slope_score": 0.5,
    "bank_slope_source": "nc-dps-lidar-dem03-cross-section",
    "beach_dist_km": 401.34,
    "bridge_proximity_bonus": 0.0,
    "catchment_area_km2": 23.3025,
    "channel_width_m": 11.52,
    "channel_width_score": 1.0,
    "composite_score": 38.4032,
    "cso_density": 0.0,
    "ej_index": 0.4582,
    "elevation_m": 236.2387,
    "estuary_dist_km": 538.5,
    "feasibility_score": 17.8571,
    "flood_q10_cfs": 1821.98,
    "flow_score": 54.3921,
    "flow_velocity_ms": 0.1477,
    "generation_score": 31.9086,
    "impact_score": 41.8468,
    "impervious_pct": 7.87,
    "land_ownership": 0.5,
    "lat": 35.3318,
    "litter_complaint_density": 0.0,
    "lon": -81.9667,
    "navigable_dist_m": null,
    "npdes_points": 2,
    "pixel_col": 312.0,
    "pixel_row": 764.0,
    "population_density": 78.9,
    "position_along": 0.5,
    "protected_area_score": 4.15,
    "rank": 11,
    "road_access_m": 249.4,
    "road_access_score": 0.8,
    "road_density_km_km2": 2.128,
    "robustness_pct": 5.5,
    "runoff_coeff_C": 0.1208,
    "seasonal_cv": 0.4435,
    "segment_id": 26,
    "segment_length_m": 2885.5036,
    "stream_order": 3,
    "superfund_score": 0.002,
    "tourism_amenity_density": 0.1592,
    "tri_facility_density": 0.0,
    "usgs_mean_q_cfs": 21.979,
    "velocity_feasibility": 0.7,
    "water_intake_score": 1.3239
   },
   "type": "Feature"
  },
  {
   "geometry": {
    "coordinates": [
     -81.893038,
     35.377161
    ],
    "type": "Point"
   },
   "properties": {
    "accumulation": 165318.0,
    "bank_slope_deg": 4.4,
    "bank_slope_score": 1.0,
    "bank_slope_source": "nc-dps-lidar-dem03-cross-section",
    "beach_dist_km": 396.47,
    "bridge_proximity_bonus": 0.0,
    "catchment_area_km2": 16.4992,
    "channel_width_m": 9.99,
    "channel_width_score": 1.0,
    "composite_score": 38.3003,
    "cso_density": 0.0,
    "ej_index": 0.4271,
    "elevation_m": 253.552,
    "estuary_dist_km": 531.99,
    "feasibility_score": 32.1429,
    "flood_q10_cfs": 1537.21,
    "flow_score": 46.6144,
    "flow_velocity_ms": 0.1674,
    "generation_score": 20.7034,
    "impact_score": 52.0475,
    "impervious_pct": 9.41,
    "land_ownership": 0.5,
    "lat": 35.3772,
    "litter_complaint_density": 0.0,
    "lon": -81.893,
    "navigable_dist_m": null,
    "npdes_points": 0,
    "pixel_col": 991.0,
    "pixel_row": 265.0,
    "population_density": 115.6,
    "position_along": 0.5,
    "protected_area_score": 3.6525,
    "rank": 12,
    "road_access_m": 383.2,
    "road_access_score": 0.8,
    "road_density_km_km2": 1.779,
    "robustness_pct": 0.5,
    "runoff_coeff_C": 0.1347,
    "seasonal_cv": 0.4292,
    "segment_id": 13,
    "segment_length_m": 1590.3876,
    "stream_order": 3,
    "superfund_score": 0.0078,
    "tourism_amenity_density": 0.0,
    "tri_facility_density": 0.0,
    "usgs_mean_q_cfs": 15.864,
    "velocity_feasibility": 0.7,
    "water_intake_score": 1.3556
   },
   "type": "Feature"
  },
  {
   "geometry": {
    "coordinates": [
     -81.907048,
     35.378021
    ],
    "type": "Point"
   },
   "properties": {
    "accumulation": 115023.0,
    "bank_slope_deg": 27.92,
    "bank_slope_score": 0.5,
    "bank_slope_source": "nc-dps-lidar-dem03-cross-section",
    "beach_dist_km": 397.71,
    "bridge_proximity_bonus": 0.0,
    "catchment_area_km2": 11.4796,
    "channel_width_m": 8.59,
    "channel_width_score": 1.0,
    "composite_score": 37.0472,
    "cso_density": 0.0,
    "ej_index": 0.5916,
    "elevation_m": 258.4591,
    "estuary_dist_km": 533.26,
    "feasibility_score": 17.8571,
    "flood_q10_cfs": 1257.4,
    "flow_score": 39.2854,
    "flow_velocity_ms": 0.1124,
    "generation_score": 29.5023,
    "impact_score": 52.3221,
    "impervious_pct": 9.41,
    "land_ownership": 0.5,
    "lat": 35.378,
    "litter_complaint_density": 0.0,
    "lon": -81.907,
    "navigable_dist_m": null,
    "npdes_points": 0,
    "pixel_col": 864.0,
    "pixel_row": 255.0,
    "population_density": 147.6,
    "position_along": 0.5,
    "protected_area_score": 3.7547,
    "rank": 13,
    "road_access_m": 347.8,
    "road_access_score": 0.8,
    "road_density_km_km2": 2.422,
    "robustness_pct": 0.0,
    "runoff_coeff_C": 0.1347,
    "seasonal_cv": 0.4292,
    "segment_id": 8,
    "segment_length_m": 1979.7085,
    "stream_order": 3,
    "superfund_score": 0.009,
    "tourism_amenity_density": 0.0796,
    "tri_facility_density": 0.0871,
    "usgs_mean_q_cfs": 15.864,
    "velocity_feasibility": 0.7,
    "water_intake_score": 1.2867
   },
   "type": "Feature"
  },
  {
   "geometry": {
    "coordinates": [
     -81.917591,
     35.380953
    ],
    "type": "Point"
   },
   "properties": {
    "accumulation": 75686.0,
    "bank_slope_deg": 8.73,
    "bank_slope_score": 1.0,
    "bank_slope_source": "nc-dps-lidar-dem03-cross-section",
    "beach_dist_km": 398.72,
    "bridge_proximity_bonus": 0.0,
    "catchment_area_km2": 7.5537,
    "channel_width_m": 7.22,
    "channel_width_score": 1.0,
    "composite_score": 36.9321,
    "cso_density": 0.0,
    "ej_index": 0.6447,
    "elevation_m": 268.8146,
    "estuary_dist_km": 534.23,
    "feasibility_score": 32.1429,
    "flood_q10_cfs": 1020.03,
    "flow_score": 33.6118,
    "flow_velocity_ms": 0.1503,
    "generation_score": 28.3103,
    "impact_score": 50.7156,
    "impervious_pct": 10.18,
    "land_ownership": 0.5,
    "lat": 35.381,
    "litter_complaint_density": 0.0,
    "lon": -81.9176,
    "navigable_dist_m": null,
    "npdes_points": 0,
    "pixel_col": 766.0,
    "pixel_row": 225.0,
    "population_density": 177.6,
    "position_along": 0.5,
    "protected_area_score": 3.8477,
    "rank": 14,
    "road_access_m": 276.3,
    "road_access_score": 0.8,
    "road_density_km_km2": 2.544,
    "robustness_pct": 0.0,
    "runoff_coeff_C": 0.1416,
    "seasonal_cv": 0.4373,
    "segment_id": 6,
    "segment_length_m": 1221.7571,
    "stream_order": 3,
    "superfund_score": 0.0105,
    "tourism_amenity_density": 0.0796,
    "tri_facility_density": 0.0,
    "usgs_mean_q_cfs": 9.311,
    "velocity_feasibility": 0.7,
    "water_intake_score": 1.2374
   },
   "type": "Feature"
  },
  {
   "geometry": {
    "coordinates": [
     -81.898604,
     35.367444
    ],
    "type": "Point"
   },
   "properties": {
    "accumulation": 27481.0,
    "bank_slope_deg": 2.89,
    "bank_slope_score": 1.0,
    "bank_slope_source": "nc-dps-lidar-dem03-cross-section",
    "beach_dist_km": 396.62,
    "bridge_proximity_bonus": 0.0,
    "catchment_area_km2": 2.7427,
    "channel_width_m": 4.74,
    "channel_width_score": 1.0,
    "composite_score": 36.906,
    "cso_density": 0.0,
    "ej_index": 0.4958,
    "elevation_m": 263.6082,
    "estuary_dist_km": 532.45,
    "feasibility_score": 50.0,
    "flood_q10_cfs": 469.02,
    "flow_score": 26.844,
    "flow_velocity_ms": 0.1225,
    "generation_score": 23.2073,
    "impact_score": 52.4427,
    "impervious_pct": 9.41,
    "land_ownership": 0.5,
    "lat": 35.3674,
    "litter_complaint_density": 0.0,
    "lon": -81.8986,
    "navigable_dist_m": null,
    "npdes_points": 0,
    "pixel_col": 938.0,
    "pixel_row": 372.0,
    "population_density": 134.2,
    "position_along": 0.5,
    "protected_area_score": 3.7452,
    "rank": 15,
    "road_access_m": 76.2,
    "road_access_score": 1.0,
    "road_density_km_km2": 2.253,
    "robustness_pct": 0.0,
    "runoff_coeff_C": 0.1347,
    "seasonal_cv": 0.4292,
    "segment_id": 12,
    "segment_length_m": 2064.4775,
    "stream_order": 3,
    "superfund_score": 0.0058,
    "tourism_amenity_density": 0.1592,
    "tri_facility_density": 0.0,
    "usgs_mean_q_cfs": 15.864,
    "velocity_feasibility": 0.7,
    "water_intake_score": 1.3276
   },
   "type": "Feature"
  },
  {
   "geometry": {
    "coordinates": [
     -81.880045,
     35.382067
    ],
    "type": "Point"
   },
   "properties": {
    "accumulation": 275831.0,
    "bank_slope_deg": 20.65,
    "bank_slope_score": 0.5,
    "bank_slope_source": "nc-dps-lidar-dem03-cross-section",
    "beach_dist_km": 395.52,
    "bridge_proximity_bonus": 0.0,
    "catchment_area_km2": 27.5287,
    "channel_width_m": 12.35,
    "channel_width_score": 1.0,
    "composite_score": 36.8426,
    "cso_density": 0.0,
    "ej_index": 0.3492,
    "elevation_m": 249.9225,
    "estuary_dist_km": 530.84,
    "feasibility_score": 0.0,
    "flood_q10_cfs": 1873.6,
    "flow_score": 71.4443,
    "flow_velocity_ms": 0.0686,
    "generation_score": 10.0755,
    "impact_score": 53.1963,
    "impervious_pct": 3.21,
    "land_ownership": 0.5,
    "lat": 35.3821,
    "litter_complaint_density": 0.0,
    "lon": -81.88,
    "navigable_dist_m": null,
    "npdes_points": 0,
    "pixel_col": 1110.0,
    "pixel_row": 214.0,
    "population_density": 100.6,
    "position_along": 0.5,
    "protected_area_score": 3.4258,
    "rank": 16,
    "road_access_m": 802.1,
    "road_access_score": 0.6,
    "road_density_km_km2": 0.944,
    "robustness_pct": 19.0,
    "runoff_coeff_C": 0.0789,
    "seasonal_cv": 0.3791,
    "segment_id": 15,
    "segment_length_m": 465.1038,
    "stream_order": 3,
    "superfund_score": 0.0076,
    "tourism_amenity_density": 0.0,
    "tri_facility_density": 0.0,
    "usgs_mean_q_cfs": 73.538,
    "velocity_feasibility": 0.7,
    "water_intake_score": 1.4265
   },
   "type": "Feature"
  },
  {
   "geometry": {
    "coordinates": [
     -81.91638,
     35.373734
    ],
    "type": "Point"
   },
   "properties": {
    "accumulation": 28092.0,
    "bank_slope_deg": 25.68,
    "bank_slope_score": 0.5,
    "bank_slope_source": "nc-dps-lidar-dem03-cross-section",
    "beach_dist_km": 398.37,
    "bridge_proximity_bonus": 0.0,
    "catchment_area_km2": 2.8037,
    "channel_width_m": 4.79,
    "channel_width_score": 1.0,
    "composite_score": 36.3998,
    "cso_density": 0.0,
    "ej_index": 0.7611,
    "elevation_m": 269.8985,
    "estuary_dist_km": 534.09,
    "feasibility_score": 17.8571,
    "flood_q10_cfs": 534.77,
    "flow_score": 23.525,
    "flow_velocity_ms": 0.1372,
    "generation_score": 37.8764,
    "impact_score": 54.9236,
    "impervious_pct": 15.96,
    "land_ownership": 0.5,
    "lat": 35.3737,
    "litter_complaint_density": 0.0,
    "lon": -81.9164,
    "navigable_dist_m": null,
    "npdes_points": 0,
    "pixel_col": 777.0,
    "pixel_row": 301.0,
    "population_density": 199.3,
    "position_along": 0.5,
    "protected_area_score": 3.8885,
    "rank": 17,
    "road_access_m": 313.0,
    "road_access_score": 0.8,
    "road_density_km_km2": 2.854,
    "robustness_pct": 0.0,
    "runoff_coeff_C": 0.1936,
    "seasonal_cv": 0.5182,
    "segment_id": 7,
    "segment_length_m": 1505.6186,
    "stream_order": 3,
    "superfund_score": 0.0078,
    "tourism_amenity_density": 0.0796,
    "tri_facility_density": 0.0,
    "usgs_mean_q_cfs": 2.253,
    "velocity_feasibility": 0.7,
    "water_intake_score": 1.2511
   },
   "type": "Feature"
  },
  {
   "geometry": {
    "coordinates": [
     -81.97605,
     35.32415
    ],
    "type": "Point"
   },
   "properties": {
    "accumulation": 280613.0,
    "bank_slope_deg": 21.24,
    "bank_slope_score": 0.5,
    "bank_slope_source": "nc-dps-lidar-dem03-cross-section",
    "beach_dist_km": 401.9,
    "bridge_proximity_bonus": 0.0,
    "catchment_area_km2": 28.0059,
    "channel_width_m": 12.44,
    "channel_width_score": 1.0,
    "composite_score": 36.1747,
    "cso_density": 0.0,
    "ej_index": 0.3755,
    "elevation_m": 231.9856,
    "estuary_dist_km": 539.32,
    "feasibility_score": 17.8571,
    "flood_q10_cfs": 2017.3,
    "flow_score": 57.3484,
    "flow_velocity_ms": 0.0674,
    "generation_score": 21.0771,
    "impact_score": 42.7863,
    "impervious_pct": 7.87,
    "land_ownership": 0.5,
    "lat": 35.3242,
    "litter_complaint_density": 0.0,
    "lon": -81.9761,
    "navigable_dist_m": null,
    "npdes_points": 1,
    "pixel_col": 229.0,
    "pixel_row": 850.0,
    "population_density": 61.9,
    "position_along": 0.5,
    "protected_area_score": 4.284,
    "rank": 18,
    "road_access_m": 244.2,
    "road_access_score": 0.8,
    "road_density_km_km2": 1.285,
    "robustness_pct": 4.0,
    "runoff_coeff_C": 0.1208,
    "seasonal_cv": 0.4435,
    "segment_id": 28,
    "segment_length_m": 316.9659,
    "stream_order": 3,
    "superfund_score": 0.0016,
    "tourism_amenity_density": 0.1592,
    "tri_facility_density": 0.0,
    "usgs_mean_q_cfs": 21.979,
    "velocity_feasibility": 0.7,
    "water_intake_score": 1.3796
   },
   "type": "Feature"
  },
  {
   "geometry": {
    "coordinates": [
     -81.92654,
     35.379468
    ],
    "type": "Point"
   },
   "properties": {
    "accumulation": 30892.0,
    "bank_slope_deg": 6.3,
    "bank_slope_score": 1.0,
    "bank_slope_source": "nc-dps-lidar-dem03-cross-section",
    "beach_dist_km": 399.44,
    "bridge_proximity_bonus": 0.0,
    "catchment_area_km2": 3.0831,
    "channel_width_m": 4.98,
    "channel_width_score": 1.0,
    "composite_score": 35.6402,
    "cso_density": 0.0,
    "ej_index": 0.6168,
    "elevation_m": 279.3278,
    "estuary_dist_km": 535.04,
    "feasibility_score": 32.1429,
    "flood_q10_cfs": 519.2,
    "flow_score": 25.7067,
    "flow_velocity_ms": 0.1282,
    "generation_score": 33.5527,
    "impact_score": 47.7542,
    "impervious_pct": 10.18,
    "land_ownership": 0.5,
    "lat": 35.3795,
    "litter_complaint_density": 0.0,
    "lon": -81.9265,
    "navigable_dist_m": null,
    "npdes_points": 0,
    "pixel_col": 687.0,
    "pixel_row": 239.0,
    "population_density": 222.6,
    "position_along": 0.5,
    "protected_area_score": 3.9107,
    "rank": 19,
    "road_access_m": 261.5,
    "road_access_score": 0.8,
    "road_density_km_km2": 3.298,
    "robustness_pct": 0.0,
    "runoff_coeff_C": 0.1416,
    "seasonal_cv": 0.4373,
    "segment_id": 5,
    "segment_length_m": 1845.4047,
    "stream_order": 3,
    "superfund_score": 0.0095,
    "tourism_amenity_density": 0.3979,
    "tri_facility_density": 0.0,
    "usgs_mean_q_cfs": 9.311,
    "velocity_feasibility": 0.7,
    "water_intake_score": 1.2115
   },
   "type": "Feature"
  },
  {
   "geometry": {
    "coordinates": [
     -81.896952,
     35.383294
    ],
    "type": "Point"
   },
   "properties": {
    "accumulation": 46337.0,
    "bank_slope_deg": 18.15,
    "bank_slope_score": 0.5,
    "bank_slope_source": "nc-dps-lidar-dem03-cross-section",
    "beach_dist_km": 397.02,
    "bridge_proximity_bonus": 0.0,
    "catchment_area_km2": 4.6246,
    "channel_width_m": 5.89,
    "channel_width_score": 1.0,
    "composite_score": 35.5022,
    "cso_density": 0.0,
    "ej_index": 0.4731,
    "elevation_m": 252.7091,
    "estuary_dist_km": 532.37,
    "feasibility_score": 46.4286,
    "flood_q10_cfs": 589.74,
    "flow_score": 43.727,
    "flow_velocity_ms": 0.5,
    "generation_score": 7.8454,
    "impact_score": 50.8417,
    "impervious_pct": null,
    "land_ownership": 0.5,
    "lat": 35.3833,
    "litter_complaint_density": 0.0,
    "lon": -81.897,
    "navigable_dist_m": null,
    "npdes_points": 0,
    "pixel_col": 956.0,
    "pixel_row": 199.0,
    "population_density": 98.4,
    "position_along": 0.75,
    "protected_area_score": 3.5893,
    "rank": 20,
    "road_access_m": 331.4,
    "road_access_score": 0.8,
    "road_density_km_km2": 1.869,
    "robustness_pct": 0.5,
    "runoff_coeff_C": null,
    "seasonal_cv": null,
    "segment_id": 1,
    "segment_length_m": 3978.6872,
    "stream_order": 3,
    "superfund_score": 0.0103,
    "tourism_amenity_density": 0.0,
    "tri_facility_density": 0.0,
    "usgs_mean_q_cfs": null,
    "velocity_feasibility": 1.0,
    "water_intake_score": 1.3231
   },
   "type": "Feature"
  },
  {
   "geometry": {
    "coordinates": [
     -81.954776,
     35.337365
    ],
    "type": "Point"
   },
   "properties": {
    "accumulation": 27479.0,
    "bank_slope_deg": 23.71,
    "bank_slope_score": 0.5,
    "bank_slope_source": "nc-dps-lidar-dem03-cross-section",
    "beach_dist_km": 400.48,
    "bridge_proximity_bonus": 0.0,
    "catchment_area_km2": 2.7425,
    "channel_width_m": 4.74,
    "channel_width_score": 1.0,
    "composite_score": 35.1075,
    "cso_density": 0.0,
    "ej_index": 0.7487,
    "elevation_m": 247.6186,
    "estuary_dist_km": 537.43,
    "feasibility_score": 39.2857,
    "flood_q10_cfs": 468.99,
    "flow_score": 23.9507,
    "flow_velocity_ms": 0.1518,
    "generation_score": 26.9183,
    "impact_score": 50.505,
    "impervious_pct": 9.41,
    "land_ownership": 1.0,
    "lat": 35.3374,
    "litter_complaint_density": 0.0,
    "lon": -81.9548,
    "navigable_dist_m": null,
    "npdes_points": 1,
    "pixel_col": 422.0,
    "pixel_row": 701.0,
    "population_density": 78.9,
    "position_along": 0.5,
    "protected_area_score": 4.0748,
    "rank": 21,
    "road_access_m": 374.1,
    "road_access_score": 0.8,
    "road_density_km_km2": 2.512,
    "robustness_pct": 0.0,
    "runoff_coeff_C": 0.1347,
    "seasonal_cv": 0.4722,
    "segment_id": 23,
    "segment_length_m": 1030.2306,
    "stream_order": 3,
    "superfund_score": 0.0023,
    "tourism_amenity_density": 0.3979,
    "tri_facility_density": 0.0,
    "usgs_mean_q_cfs": 6.35,
    "velocity_feasibility": 0.7,
    "water_intake_score": 1.281
   },
   "type": "Feature"
  },
  {
   "geometry": {
    "coordinates": [
     -81.90845,
     35.389964
    ],
    "type": "Point"
   },
   "properties": {
    "accumulation": 30850.0,
    "bank_slope_deg": 24.73,
    "bank_slope_score": 0.5,
    "bank_slope_source": "nc-dps-lidar-dem03-cross-section",
    "beach_dist_km": 398.24,
    "bridge_proximity_bonus": 0.0,
    "catchment_area_km2": 3.0789,
    "channel_width_m": 4.98,
    "channel_width_score": 1.0,
    "composite_score": 34.3269,
    "cso_density": 0.0,
    "ej_index": 0.4088,
    "elevation_m": 255.8828,
    "estuary_dist_km": 533.44,
    "feasibility_score": 46.4286,
    "flood_q10_cfs": 434.03,
    "flow_score": 41.3452,
    "flow_velocity_ms": 0.5,
    "generation_score": 9.7204,
    "impact_score": 47.0338,
    "impervious_pct": null,
    "land_ownership": 0.5,
    "lat": 35.39,
    "litter_complaint_density": 0.0,
    "lon": -81.9085,
    "navigable_dist_m": null,
    "npdes_points": 0,
    "pixel_col": 852.0,
    "pixel_row": 124.0,
    "population_density": 110.6,
    "position_along": 0.25,
    "protected_area_score": 3.7461,
    "rank": 22,
    "road_access_m": 340.6,
    "road_access_score": 0.8,
    "road_density_km_km2": 2.292,
    "robustness_pct": 0.0,
    "runoff_coeff_C": null,
    "seasonal_cv": null,
    "segment_id": 1,
    "segment_length_m": 3978.6872,
    "stream_order": 3,
    "superfund_score": 0.0161,
    "tourism_amenity_density": 0.0,
    "tri_facility_density": 0.0,
    "usgs_mean_q_cfs": null,
    "velocity_feasibility": 1.0,
    "water_intake_score": 1.2514
   },
   "type": "Feature"
  },
  {
   "geometry": {
    "coordinates": [
     -81.881944,
     35.384502
    ],
    "type": "Point"
   },
   "properties": {
    "accumulation": 25225.0,
    "bank_slope_deg": 5.77,
    "bank_slope_score": 1.0,
    "bank_slope_source": "nc-dps-lidar-dem03-cross-section",
    "beach_dist_km": 395.77,
    "bridge_proximity_bonus": 0.0,
    "catchment_area_km2": 2.5175,
    "channel_width_m": 4.58,
    "channel_width_score": 1.0,
    "composite_score": 32.1928,
    "cso_density": 0.0,
    "ej_index": 0.2531,
    "elevation_m": 252.5556,
    "estuary_dist_km": 531.02,
    "feasibility_score": 42.8571,
    "flood_q10_cfs": 372.94,
    "flow_score": 40.4422,
    "flow_velocity_ms": 0.5,
    "generation_score": 2.9091,
    "impact_score": 49.2698,
    "impervious_pct": null,
    "land_ownership": 0.5,
    "lat": 35.3845,
    "litter_complaint_density": 0.0,
    "lon": -81.8819,
    "navigable_dist_m": null,
    "npdes_points": 0,
    "pixel_col": 1091.0,
    "pixel_row": 188.0,
    "population_density": 71.5,
    "position_along": 0.5,
    "protected_area_score": 3.4545,
    "rank": 23,
    "road_access_m": 789.0,
    "road_access_score": 0.6,
    "road_density_km_km2": 0.55,
    "robustness_pct": 0.0,
    "runoff_coeff_C": null,
    "seasonal_cv": null,
    "segment_id": 2,
    "segment_length_m": 720.4149,
    "stream_order": 3,
    "superfund_score": 0.0085,
    "tourism_amenity_density": 0.0,
    "tri_facility_density": 0.0,
    "usgs_mean_q_cfs": null,
    "velocity_feasibility": 1.0,
    "water_intake_score": 1.4061
   },
   "type": "Feature"
  },
  {
   "geometry": {
    "coordinates": [
     -81.94724,
     35.346339
    ],
    "type": "Point"
   },
   "properties": {
    "accumulation": 42020.0,
    "bank_slope_deg": 16.06,
    "bank_slope_score": 0.5,
    "bank_slope_source": "nc-dps-lidar-dem03-cross-section",
    "beach_dist_km": 400.12,
    "bridge_proximity_bonus": 0.0,
    "catchment_area_km2": 4.1937,
    "channel_width_m": 5.66,
    "channel_width_score": 1.0,
    "composite_score": 32.1518,
    "cso_density": 0.0,
    "ej_index": 0.8211,
    "elevation_m": 253.1219,
    "estuary_dist_km": 536.78,
    "feasibility_score": 17.8571,
    "flood_q10_cfs": 645.91,
    "flow_score": 26.9906,
    "flow_velocity_ms": 0.1709,
    "generation_score": 22.0452,
    "impact_score": 53.7067,
    "impervious_pct": 9.41,
    "land_ownership": 0.5,
    "lat": 35.3463,
    "litter_complaint_density": 0.0,
    "lon": -81.9472,
    "navigable_dist_m": null,
    "npdes_points": 0,
    "pixel_col": 491.0,
    "pixel_row": 605.0,
    "population_density": 111.8,
    "position_along": 0.5,
    "protected_area_score": 3.8711,
    "rank": 24,
    "road_access_m": 251.7,
    "road_access_score": 0.8,
    "road_density_km_km2": 2.575,
    "robustness_pct": 0.0,
    "runoff_coeff_C": 0.1347,
    "seasonal_cv": 0.4722,
    "segment_id": 18,
    "segment_length_m": 2682.5671,
    "stream_order": 3,
    "superfund_score": 0.003,
    "tourism_amenity_density": 1.6711,
    "tri_facility_density": 0.0,
    "usgs_mean_q_cfs": 6.35,
    "velocity_feasibility": 0.7,
    "water_intake_score": 1.2512
   },
   "type": "Feature"
  },
  {
   "geometry": {
    "coordinates": [
     -81.928079,
     35.385671
    ],
    "type": "Point"
   },
   "properties": {
    "accumulation": 30901.0,
    "bank_slope_deg": 11.27,
    "bank_slope_score": 1.0,
    "bank_slope_source": "nc-dps-lidar-dem03-cross-section",
    "beach_dist_km": 399.78,
    "bridge_proximity_bonus": 0.0,
    "catchment_area_km2": 3.084,
    "channel_width_m": 4.98,
    "channel_width_score": 1.0,
    "composite_score": 29.2752,
    "cso_density": 0.0,
    "ej_index": 0.5177,
    "elevation_m": 273.7685,
    "estuary_dist_km": 535.2,
    "feasibility_score": 14.2857,
    "flood_q10_cfs": 519.31,
    "flow_score": 25.1812,
    "flow_velocity_ms": 0.1073,
    "generation_score": 24.5891,
    "impact_score": 44.8679,
    "impervious_pct": 10.18,
    "land_ownership": 0.5,
    "lat": 35.3857,
    "litter_complaint_density": 0.0,
    "lon": -81.9281,
    "navigable_dist_m": null,
    "npdes_points": 0,
    "pixel_col": 673.0,
    "pixel_row": 169.0,
    "population_density": 143.9,
    "position_along": 0.5,
    "protected_area_score": 4.0416,
    "rank": 25,
    "road_access_m": 556.0,
    "road_access_score": 0.6,
    "road_density_km_km2": 2.078,
    "robustness_pct": 0.0,
    "runoff_coeff_C": 0.1416,
    "seasonal_cv": 0.4373,
    "segment_id": 3,
    "segment_length_m": 1609.6579,
    "stream_order": 3,
    "superfund_score": 0.0123,
    "tourism_amenity_density": 0.0796,
    "tri_facility_density": 0.0,
    "usgs_mean_q_cfs": 9.311,
    "velocity_feasibility": 0.7,
    "water_intake_score": 1.1866
   },
   "type": "Feature"
  },
  {
   "geometry": {
    "coordinates": [
     -81.975719,
     35.329139
    ],
    "type": "Point"
   },
   "properties": {
    "accumulation": 22531.0,
    "bank_slope_deg": 18.79,
    "bank_slope_score": 0.5,
    "bank_slope_source": "nc-dps-lidar-dem03-cross-section",
    "beach_dist_km": 402.03,
    "bridge_proximity_bonus": 0.0,
    "catchment_area_km2": 2.2487,
    "channel_width_m": 4.37,
    "channel_width_score": 1.0,
    "composite_score": 29.2295,
    "cso_density": 0.0,
    "ej_index": 0.2895,
    "elevation_m": 238.6666,
    "estuary_dist_km": 539.31,
    "feasibility_score": 46.4286,
    "flood_q10_cfs": 342.51,
    "flow_score": 40.0,
    "flow_velocity_ms": 0.5,
    "generation_score": 2.0011,
    "impact_score": 38.8828,
    "impervious_pct": null,
    "land_ownership": 0.5,
    "lat": 35.3291,
    "litter_complaint_density": 0.0,
    "lon": -81.9757,
    "navigable_dist_m": null,
    "npdes_points": 0,
    "pixel_col": 232.0,
    "pixel_row": 795.0,
    "population_density": 35.9,
    "position_along": 0.5,
    "protected_area_score": 4.2968,
    "rank": 26,
    "road_access_m": 378.5,
    "road_access_score": 0.8,
    "road_density_km_km2": 1.514,
    "robustness_pct": 0.0,
    "runoff_coeff_C": null,
    "seasonal_cv": null,
    "segment_id": 27,
    "segment_length_m": 1007.4105,
    "stream_order": 3,
    "superfund_score": 0.0018,
    "tourism_amenity_density": 0.1592,
    "tri_facility_density": 0.0,
    "usgs_mean_q_cfs": null,
    "velocity_feasibility": 1.0,
    "water_intake_score": 1.3583
   },
   "type": "Feature"
  },
  {
   "geometry": {
    "coordinates": [
     -81.999727,
     35.36812
    ],
    "type": "Point"
   },
   "properties": {
    "accumulation": 90241.0,
    "bank_slope_deg": 12.81,
    "bank_slope_score": 1.0,
    "bank_slope_source": "nc-dps-lidar-dem03-cross-section",
    "beach_dist_km": 405.39,
    "bridge_proximity_bonus": 0.0,
    "catchment_area_km2": 9.0063,
    "channel_width_m": 7.77,
    "channel_width_score": 1.0,
    "composite_score": 23.5325,
    "cso_density": 0.0,
    "ej_index": 0.2814,
    "elevation_m": 254.6648,
    "estuary_dist_km": 541.62,
    "feasibility_score": 50.0,
    "flood_q10_cfs": 995.32,
    "flow_score": 30.5223,
    "flow_velocity_ms": 0.1051,
    "generation_score": 8.2449,
    "impact_score": 19.7615,
    "impervious_pct": 2.22,
    "land_ownership": 0.5,
    "lat": 35.3681,
    "litter_complaint_density": 0.0,
    "lon": -81.9997,
    "navigable_dist_m": null,
    "npdes_points": 0,
    "pixel_col": 16.0,
    "pixel_row": 357.0,
    "population_density": 89.5,
    "position_along": 0.5,
    "protected_area_score": 4.5312,
    "rank": 27,
    "road_access_m": 97.0,
    "road_access_score": 1.0,
    "road_density_km_km2": 1.089,
    "robustness_pct": 0.0,
    "runoff_coeff_C": 0.07,
    "seasonal_cv": 0.452,
    "segment_id": 10,
    "segment_length_m": 62.3648,
    "stream_order": 3,
    "superfund_score": 0.0026,
    "tourism_amenity_density": 0.0,
    "tri_facility_density": 0.0,
    "usgs_mean_q_cfs": 7.226,
    "velocity_feasibility": 0.7,
    "water_intake_score": 1.1119
   },
   "type": "Feature"
  },
  {
   "geometry": {
    "coordinates": [
     -81.96299,
     35.391692
    ],
    "type": "Point"
   },
   "properties": {
    "accumulation": 22885.0,
    "bank_slope_deg": 3.05,
    "bank_slope_score": 1.0,
    "bank_slope_source": "nc-dps-lidar-dem03-cross-section",
    "beach_dist_km": 403.0,
    "bridge_proximity_bonus": 0.0,
    "catchment_area_km2": 2.284,
    "channel_width_m": 4.4,
    "channel_width_score": 1.0,
    "composite_score": 21.9579,
    "cso_density": 0.0,
    "ej_index": 0.3426,
    "elevation_m": 294.5176,
    "estuary_dist_km": 538.39,
    "feasibility_score": 32.1429,
    "flood_q10_cfs": 414.14,
    "flow_score": 11.5443,
    "flow_velocity_ms": 0.174,
    "generation_score": 22.9805,
    "impact_score": 24.5206,
    "impervious_pct": 10.18,
    "land_ownership": 0.5,
    "lat": 35.3917,
    "litter_complaint_density": 0.0,
    "lon": -81.963,
    "navigable_dist_m": null,
    "npdes_points": 0,
    "pixel_col": 357.0,
    "pixel_row": 102.0,
    "population_density": 91.7,
    "position_along": 0.5,
    "protected_area_score": 4.1535,
    "rank": 28,
    "road_access_m": 201.6,
    "road_access_score": 0.8,
    "road_density_km_km2": 3.358,
    "robustness_pct": 0.0,
    "runoff_coeff_C": 0.1416,
    "seasonal_cv": 0.4373,
    "segment_id": 0,
    "segment_length_m": 749.7971,
    "stream_order": 1,
    "superfund_score": 0.0078,
    "tourism_amenity_density": 0.2387,
    "tri_facility_density": 0.0,
    "usgs_mean_q_cfs": 9.311,
    "velocity_feasibility": 0.7,
    "water_intake_score": 1.0781
   },
   "type": "Feature"
  },
  {
   "geometry": {
    "coordinates": [
     -82.000607,
     35.368068
    ],
    "type": "Point"
   },
   "properties": {
    "accumulation": 90372.0,
    "bank_slope_deg": 17.21,
    "bank_slope_score": 0.5,
    "bank_slope_source": "nc-dps-lidar-dem03-cross-section",
    "beach_dist_km": 405.46,
    "bridge_proximity_bonus": 0.0,
    "catchment_area_km2": 9.0194,
    "channel_width_m": 7.77,
    "channel_width_score": 1.0,
    "composite_score": 20.9189,
    "cso_density": 0.0,
    "ej_index": 0.2826,
    "elevation_m": 254.4439,
    "estuary_dist_km": 541.7,
    "feasibility_score": 35.7143,
    "flood_q10_cfs": 996.12,
    "flow_score": 29.4097,
    "flow_velocity_ms": 0.0546,
    "generation_score": 7.9408,
    "impact_score": 19.4236,
    "impervious_pct": 2.22,
    "land_ownership": 0.5,
    "lat": 35.3681,
    "litter_complaint_density": 0.0,
    "lon": -82.0006,
    "navigable_dist_m": null,
    "npdes_points": 0,
    "pixel_col": 8.0,
    "pixel_row": 359.0,
    "population_density": 88.7,
    "position_along": 0.5,
    "protected_area_score": 4.5279,
    "rank": 29,
    "road_access_m": 76.1,
    "road_access_score": 1.0,
    "road_density_km_km2": 0.974,
    "robustness_pct": 0.0,
    "runoff_coeff_C": 0.07,
    "seasonal_cv": 0.452,
    "segment_id": 11,
    "segment_length_m": 126.4436,
    "stream_order": 3,
    "superfund_score": 0.0025,
    "tourism_amenity_density": 0.0,
    "tri_facility_density": 0.0,
    "usgs_mean_q_cfs": 7.226,
    "velocity_feasibility": 0.7,
    "water_intake_score": 1.1104
   },
   "type": "Feature"
  },
  {
   "geometry": {
    "coordinates": [
     -81.993738,
     35.375511
    ],
    "type": "Point"
   },
   "properties": {
    "accumulation": 41420.0,
    "bank_slope_deg": 10.11,
    "bank_slope_score": 1.0,
    "bank_slope_source": "nc-dps-lidar-dem03-cross-section",
    "beach_dist_km": 405.11,
    "bridge_proximity_bonus": 0.0,
    "catchment_area_km2": 4.1338,
    "channel_width_m": 5.62,
    "channel_width_score": 1.0,
    "composite_score": 18.6788,
    "cso_density": 0.0,
    "ej_index": 0.2807,
    "elevation_m": 261.4647,
    "estuary_dist_km": 541.11,
    "feasibility_score": 32.1429,
    "flood_q10_cfs": 563.4,
    "flow_score": 24.2025,
    "flow_velocity_ms": 0.1326,
    "generation_score": 10.1064,
    "impact_score": 15.9162,
    "impervious_pct": 2.22,
    "land_ownership": 0.5,
    "lat": 35.3755,
    "litter_complaint_density": 0.0,
    "lon": -81.9937,
    "navigable_dist_m": null,
    "npdes_points": 0,
    "pixel_col": 71.0,
    "pixel_row": 275.0,
    "population_density": 89.9,
    "position_along": 0.5,
    "protected_area_score": 4.2964,
    "rank": 30,
    "road_access_m": 202.7,
    "road_access_score": 0.8,
    "road_density_km_km2": 1.97,
    "robustness_pct": 0.0,
    "runoff_coeff_C": 0.07,
    "seasonal_cv": 0.452,
    "segment_id": 4,
    "segment_length_m": 2774.1923,
    "stream_order": 3,
    "superfund_score": 0.0031,
    "tourism_amenity_density": 0.0,
    "tri_facility_density": 0.0,
    "usgs_mean_q_cfs": 7.226,
    "velocity_feasibility": 0.7,
    "water_intake_score": 1.0852
   },
   "type": "Feature"
  }
 ],
 "note": "GRIME region 'Spindale, NC' \u2014 real-data pipeline (DEM\u2192streams\u2192candidates\u2192stream mask (sites confined to \u00b1150 m of mapped OSM/NHD waterways)\u2192region-appropriate real parameters\u2192shipped scoring, math unchanged). Width curve: Bieger et al. 2015 JAWRA Table 3, Appalachian Highlands. Flood: SIR 2014-5030 HR1. NC Piedmont (DEQ physiography polygon); merged nearby towns: Rutherfordton, Ruth",
 "provenance": {
  "candidates_pre_gate": 30,
  "constant": [
   "bridge_proximity_bonus",
   "channel_width_score",
   "cso_density",
   "litter_complaint_density"
  ],
  "gated_navigable": 0,
  "hard_gate_removed": 0,
  "n_parameters": 27,
  "parameters": {
   "bank_slope_score": {
    "kind": "real",
    "n_3dep_10m_fallback": 0,
    "n_nc_lidar_3_125ft": 30,
    "n_real": 30,
    "n_sites": 30,
    "source": "NC OneMap / NC DPS DEM03 statewide lidar-derived 3.125-ft (0.953 m) elevations (perpendicular 50 m transect; robust 5 m bank-rise metric); unavailable profiles use the region 10 m 3DEP DEM-gradient fallback",
    "source_mosaics": [
     "Rutherford_QL1_2025_03ft_CountywideRaster"
    ]
   },
   "beach_dist_km": {
    "kind": "real",
    "n_real": 30,
    "n_sites": 30,
    "source": "haversine to region ref: Wrightsville Beach (shipped NC reference)"
   },
   "bridge_proximity_bonus": {
    "kind": "real",
    "n_real": 30,
    "n_sites": 30,
    "source": "FHWA/BTS NBI (NTAD), 50 m proximity"
   },
   "catchment_area_km2": {
    "kind": "real",
    "n_real": 30,
    "n_sites": 30,
    "source": "DEM flow accumulation (pipeline)"
   },
   "channel_width_score": {
    "kind": "real",
    "n_real": 30,
    "n_sites": 30,
    "source": "Bieger 2015 AHI width curve on DEM drainage area \u2192 shipped width curve"
   },
   "cso_density": {
    "kind": "real",
    "n_real": 30,
    "n_sites": 30,
    "source": "EPA ECHO open CSO/TCS outfall PF coordinates states=NC, Cauchy proximity"
   },
   "ej_index": {
    "kind": "real",
    "n_real": 30,
    "n_sites": 30,
    "source": "Census ACS C17002+B03002 two-component demographic index, percentile-ranked within region"
   },
   "estuary_dist_km": {
    "kind": "real",
    "n_real": 30,
    "n_sites": 30,
    "source": "haversine to region ref: Pamlico Sound (shipped NC reference)"
   },
   "flood_q10_cfs": {
    "impervious_fallback_reason": "StreamCat imperviousness unavailable; the existing regression-input fallback of 0.0% impervious was used and is disclosed here",
    "kind": "real",
    "n_impervious_fallback": 5,
    "n_real": 30,
    "n_sites": 30,
    "source": "USGS SIR 2014-5030 Table 7 HR1 (NC Piedmont)"
   },
   "flow_velocity_ms": {
    "fallback_reason": "EROM/DEM continuity input unavailable; shipped 0.5 m/s default used",
    "kind": "real",
    "n_fallback": 5,
    "n_real": 25,
    "n_sites": 30,
    "source": "Manning (region DEM/D8) blended with EROM continuity (shipped M4 logic)"
   },
   "impervious_pct": {
    "fallback_reason": "NLDI/StreamCat did not return a snap-compatible catchment value; value remains null and is removed by constant-column handling",
    "kind": "real",
    "n_fallback": 5,
    "n_real": 25,
    "n_sites": 30,
    "source": "EPA StreamCat pctimp2019 (per NHDPlus watershed)"
   },
   "land_ownership": {
    "fallback_reason": "no containing parcel owner returned; shipped unknown ownership 0.5 used",
    "kind": "real",
    "n_fallback": 2,
    "n_real": 28,
    "n_sites": 30,
    "source": "NC OneMap statewide parcels (NC Parcels Transformer) ownname"
   },
   "litter_complaint_density": {
    "kind": "fallback",
    "n_real": 0,
    "n_sites": 30,
    "source": "no public machine-readable litter/illegal-dumping feed for this region"
   },
   "navigable_dist_m": {
    "kind": "real",
    "n_real": 30,
    "n_sites": 30,
    "source": "USACE/BTS NWN (NTAD): no navigable segment within this bbox (+2 km) \u2014 computed absence, gate passes all sites"
   },
   "npdes_points": {
    "kind": "real",
    "n_real": 30,
    "n_sites": 30,
    "source": "EPA ECHO active NPDES outfalls states=NC (types NPD/GPC/NGP; statuses ADC/EFF/EXP), per catchment"
   },
   "population_density": {
    "kind": "real",
    "n_real": 30,
    "n_sites": 30,
    "source": "Census ACS 2022 B01003 block groups (bbox, multi-county), area-weighted"
   },
   "protected_area_score": {
    "kind": "real",
    "n_real": 30,
    "n_sites": 30,
    "source": "USGS PAD-US 4.1 state GDB; states=NC; shipped designation-weighted proximity curve"
   },
   "road_access_score": {
    "kind": "real",
    "n_real": 30,
    "n_sites": 30,
    "source": "OSM drive network nearest-node distance"
   },
   "road_density_km_km2": {
    "kind": "real",
    "n_real": 30,
    "n_sites": 30,
    "source": "OSM drive network (osmnx, cached) clipped per catchment"
   },
   "runoff_coeff_C": {
    "fallback_reason": "source impervious_pct was unavailable; derived value remains null",
    "kind": "real",
    "n_fallback": 5,
    "n_real": 25,
    "n_sites": 30,
    "source": "derived from real impervious_pct (C=0.05+0.009*I)"
   },
   "seasonal_cv": {
    "fallback_reason": "NHDPlus monthly EROM was unavailable or failed the drainage-area snap guard; value remains null",
    "kind": "real",
    "n_fallback": 5,
    "n_real": 25,
    "n_sites": 30,
    "source": "CV of NHDPlus EROM monthly flows per COMID"
   },
   "stream_order": {
    "kind": "real",
    "n_real": 30,
    "n_sites": 30,
    "source": "DEM stream-network confluence heuristic (pipeline)"
   },
   "superfund_score": {
    "kind": "real",
    "n_real": 30,
    "n_sites": 30,
    "source": "EPA DataMap SEMS active sites states=NC (non-archived, georeferenced), shipped 500 m inverse-distance curve"
   },
   "tourism_amenity_density": {
    "kind": "real",
    "n_real": 30,
    "n_sites": 30,
    "source": "OSM leisure/tourism features per 2 km radius"
   },
   "tri_facility_density": {
    "kind": "real",
    "n_real": 30,
    "n_sites": 30,
    "source": "EPA DataMap TRI open facilities states=NC (preferred decimal or packed-DMS recovery), per catchment"
   },
   "usgs_mean_q_cfs": {
    "fallback_reason": "NHDPlus EROM was unavailable or failed the drainage-area snap guard; value remains null",
    "kind": "real",
    "n_fallback": 5,
    "n_real": 25,
    "n_sites": 30,
    "source": "NHDPlus EROM qe_ma per COMID (snap-guarded)"
   },
   "velocity_feasibility": {
    "fallback_reason": "derived from the shipped 0.5 m/s velocity fallback",
    "kind": "real",
    "n_fallback": 5,
    "n_real": 25,
    "n_sites": 30,
    "source": "shipped step curve on the computed velocity"
   },
   "velocity_transport_favorability": {
    "fallback_reason": "EROM/DEM continuity input unavailable; shipped 0.5 m/s default used",
    "kind": "derived",
    "n_fallback": 5,
    "n_real": 25,
    "n_sites": 30,
    "source": "scored form of flow_velocity_ms inside the Flow family \u2014 peaked Gaussian exp(-((v-0.9)/0.6)^2), model.json curves.velocity_transport_favorability; construct: transport/delivery favorability, deliberately distinct from velocity_feasibility (device operability)"
   },
   "water_intake_score": {
    "kind": "real",
    "n_real": 30,
    "n_sites": 30,
    "source": "NC OneMap / NC DEQ SWAP public water supply sources (source_typ='Surface Water'), shipped exp(-d/10km) curve"
   }
  },
  "stream_mask": {
   "buffer_m": 150.0,
   "pre_mask": 30,
   "removed": 0,
   "sources": [
    "osm-overpass (all waterway ways)",
    "usgs-nhdplus flowlines"
   ]
  },
  "varying": [
   "bank_slope_score",
   "beach_dist_km",
   "catchment_area_km2",
   "ej_index",
   "estuary_dist_km",
   "flood_q10_cfs",
   "flow_velocity_ms",
   "impervious_pct",
   "land_ownership",
   "npdes_points",
   "population_density",
   "protected_area_score",
   "road_access_score",
   "road_density_km_km2",
   "runoff_coeff_C",
   "seasonal_cv",
   "stream_order",
   "superfund_score",
   "tourism_amenity_density",
   "tri_facility_density",
   "usgs_mean_q_cfs",
   "velocity_feasibility",
   "water_intake_score"
  ]
 },
 "region": {
  "bbox": [
   -82.0012,
   35.3226,
   -81.8777,
   35.4004
  ],
  "beach_ref": {
   "label": "Wrightsville Beach (shipped NC reference)",
   "lat": 34.21,
   "lon": -77.79
  },
  "center": [
   -81.923198,
   35.359716
  ],
  "estuary_ref": {
   "label": "Pamlico Sound (shipped NC reference)",
   "lat": 35.05,
   "lon": -76.05
  },
  "flood_method": "sir2014_hr1",
  "name": "Spindale, NC",
  "notes": "NC Piedmont (DEQ physiography polygon); merged nearby towns: Rutherfordton, Ruth",
  "slug": "spindale",
  "state": "NC",
  "utm_epsg": 32617,
  "width_curve": {
   "a": 3.12,
   "b": 0.415,
   "code": "AHI",
   "source": "Bieger et al. 2015 JAWRA Table 3, Appalachian Highlands"
  }
 },
 "type": "FeatureCollection"
}
