{
 "features": [
  {
   "geometry": {
    "coordinates": [
     -78.092442,
     35.937171
    ],
    "type": "Point"
   },
   "properties": {
    "accumulation": 31164.0,
    "bank_slope_deg": 1.44,
    "bank_slope_score": 1.0,
    "bank_slope_source": "nc-dps-lidar-dem03-cross-section",
    "beach_dist_km": 194.01,
    "bridge_proximity_bonus": 0.0,
    "catchment_area_km2": 3.116,
    "channel_width_m": 5.0,
    "channel_width_score": 1.0,
    "composite_score": 61.3201,
    "cso_density": 0.0,
    "ej_index": 0.7093,
    "elevation_m": 64.4648,
    "estuary_dist_km": 209.57,
    "feasibility_score": 50.0,
    "flood_q10_cfs": 480.86,
    "flow_score": 35.8184,
    "flow_velocity_ms": 0.087,
    "generation_score": 78.7729,
    "impact_score": 70.7788,
    "impervious_pct": 5.34,
    "land_ownership": 0.5,
    "lat": 35.9372,
    "litter_complaint_density": 0.0,
    "lon": -78.0924,
    "navigable_dist_m": null,
    "npdes_points": 0,
    "pixel_col": 378.0,
    "pixel_row": 298.0,
    "population_density": 55.0,
    "position_along": 0.5,
    "protected_area_score": 5.6188,
    "rank": 1,
    "road_access_m": 658.3,
    "road_access_score": 0.6,
    "road_density_km_km2": 1.508,
    "robustness_pct": 100.0,
    "runoff_coeff_C": 0.0981,
    "seasonal_cv": 0.4173,
    "segment_id": 2,
    "segment_length_m": 2001.5245,
    "stream_order": 1,
    "superfund_score": 0.0518,
    "tourism_amenity_density": 0.0,
    "tri_facility_density": 0.3209,
    "usgs_mean_q_cfs": 2.708,
    "velocity_feasibility": 0.7,
    "water_intake_score": 0.5
   },
   "type": "Feature"
  },
  {
   "geometry": {
    "coordinates": [
     -78.090605,
     35.949355
    ],
    "type": "Point"
   },
   "properties": {
    "accumulation": 43099.0,
    "bank_slope_deg": 5.78,
    "bank_slope_score": 1.0,
    "bank_slope_source": "nc-dps-lidar-dem03-cross-section",
    "beach_dist_km": 195.33,
    "bridge_proximity_bonus": 0.0,
    "catchment_area_km2": 4.3093,
    "channel_width_m": 5.72,
    "channel_width_score": 1.0,
    "composite_score": 59.6937,
    "cso_density": 0.0,
    "ej_index": 0.7361,
    "elevation_m": 63.5063,
    "estuary_dist_km": 210.05,
    "feasibility_score": 50.0,
    "flood_q10_cfs": 587.67,
    "flow_score": 62.7907,
    "flow_velocity_ms": 0.0829,
    "generation_score": 38.4615,
    "impact_score": 83.1919,
    "impervious_pct": 2.84,
    "land_ownership": 0.5,
    "lat": 35.9494,
    "litter_complaint_density": 0.0,
    "lon": -78.0906,
    "navigable_dist_m": null,
    "npdes_points": 2,
    "pixel_col": 389.0,
    "pixel_row": 162.0,
    "population_density": 56.2,
    "position_along": 0.5,
    "protected_area_score": 5.9383,
    "rank": 2,
    "road_access_m": 607.2,
    "road_access_score": 0.6,
    "road_density_km_km2": 0.382,
    "robustness_pct": 100.0,
    "runoff_coeff_C": 0.0756,
    "seasonal_cv": 0.4295,
    "segment_id": 0,
    "segment_length_m": 1917.0939,
    "stream_order": 1,
    "superfund_score": 0.1051,
    "tourism_amenity_density": 0.1592,
    "tri_facility_density": 0.0,
    "usgs_mean_q_cfs": 5.3,
    "velocity_feasibility": 0.7,
    "water_intake_score": 0.4939
   },
   "type": "Feature"
  },
  {
   "geometry": {
    "coordinates": [
     -78.129558,
     35.942266
    ],
    "type": "Point"
   },
   "properties": {
    "accumulation": 26047.0,
    "bank_slope_deg": 12.27,
    "bank_slope_score": 1.0,
    "bank_slope_source": "nc-dps-lidar-dem03-cross-section",
    "beach_dist_km": 195.08,
    "bridge_proximity_bonus": 0.0,
    "catchment_area_km2": 2.6043,
    "channel_width_m": 4.64,
    "channel_width_score": 1.0,
    "composite_score": 28.7605,
    "cso_density": 0.0,
    "ej_index": 0.5208,
    "elevation_m": 59.9359,
    "estuary_dist_km": 212.8,
    "feasibility_score": 50.0,
    "flood_q10_cfs": 423.91,
    "flow_score": 37.2093,
    "flow_velocity_ms": 0.0999,
    "generation_score": 27.588,
    "impact_score": 12.2727,
    "impervious_pct": 5.86,
    "land_ownership": 0.5,
    "lat": 35.9423,
    "litter_complaint_density": 0.0,
    "lon": -78.1296,
    "navigable_dist_m": null,
    "npdes_points": 0,
    "pixel_col": 37.0,
    "pixel_row": 249.0,
    "population_density": 36.8,
    "position_along": 0.5,
    "protected_area_score": 5.5297,
    "rank": 3,
    "road_access_m": 625.2,
    "road_access_score": 0.6,
    "road_density_km_km2": 0.553,
    "robustness_pct": 100.0,
    "runoff_coeff_C": 0.1027,
    "seasonal_cv": 0.4166,
    "segment_id": 1,
    "segment_length_m": 900.0586,
    "stream_order": 1,
    "superfund_score": 0.0097,
    "tourism_amenity_density": 0.1592,
    "tri_facility_density": 0.0,
    "usgs_mean_q_cfs": 2.403,
    "velocity_feasibility": 0.7,
    "water_intake_score": 0.4508
   },
   "type": "Feature"
  }
 ],
 "note": "GRIME region 'Spring Hope, NC' \u2014 real-data pipeline (DEM\u2192streams\u2192candidates\u2192stream mask (sites confined to \u00b1150 m of mapped OSM/NHD waterways)\u2192region-appropriate real parameters\u2192shipped scoring, math unchanged). Width curve: Bieger et al. 2015 JAWRA Table 3, Appalachian Highlands. Flood: SIR 2014-5030 HR1. NC Piedmont (DEQ physiography polygon)",
 "provenance": {
  "candidates_pre_gate": 3,
  "constant": [
   "bank_slope_score",
   "bridge_proximity_bonus",
   "channel_width_score",
   "cso_density",
   "land_ownership",
   "litter_complaint_density",
   "road_access_score",
   "stream_order",
   "velocity_feasibility"
  ],
  "gated_navigable": 0,
  "hard_gate_removed": 0,
  "n_parameters": 27,
  "parameters": {
   "bank_slope_score": {
    "kind": "real",
    "n_3dep_10m_fallback": 0,
    "n_nc_lidar_3_125ft": 3,
    "n_real": 3,
    "n_sites": 3,
    "source": "NC OneMap / NC DPS DEM03 statewide lidar-derived 3.125-ft (0.953 m) elevations (perpendicular 50 m transect; robust 5 m bank-rise metric); unavailable profiles use the region 10 m 3DEP DEM-gradient fallback",
    "source_mosaics": [
     "Nash_Ground_3ft"
    ]
   },
   "beach_dist_km": {
    "kind": "real",
    "n_real": 3,
    "n_sites": 3,
    "source": "haversine to region ref: Wrightsville Beach (shipped NC reference)"
   },
   "bridge_proximity_bonus": {
    "kind": "real",
    "n_real": 3,
    "n_sites": 3,
    "source": "FHWA/BTS NBI (NTAD), 50 m proximity"
   },
   "catchment_area_km2": {
    "kind": "real",
    "n_real": 3,
    "n_sites": 3,
    "source": "DEM flow accumulation (pipeline)"
   },
   "channel_width_score": {
    "kind": "real",
    "n_real": 3,
    "n_sites": 3,
    "source": "Bieger 2015 AHI width curve on DEM drainage area \u2192 shipped width curve"
   },
   "cso_density": {
    "kind": "real",
    "n_real": 3,
    "n_sites": 3,
    "source": "EPA ECHO open CSO/TCS outfall PF coordinates states=NC, Cauchy proximity"
   },
   "ej_index": {
    "kind": "real",
    "n_real": 3,
    "n_sites": 3,
    "source": "Census ACS C17002+B03002 two-component demographic index, percentile-ranked within region"
   },
   "estuary_dist_km": {
    "kind": "real",
    "n_real": 3,
    "n_sites": 3,
    "source": "haversine to region ref: Pamlico Sound (shipped NC reference)"
   },
   "flood_q10_cfs": {
    "kind": "real",
    "n_real": 3,
    "n_sites": 3,
    "source": "USGS SIR 2014-5030 Table 7 HR1 (NC Piedmont)"
   },
   "flow_velocity_ms": {
    "kind": "real",
    "n_fallback": 0,
    "n_real": 3,
    "n_sites": 3,
    "source": "Manning (region DEM/D8) blended with EROM continuity (shipped M4 logic)"
   },
   "impervious_pct": {
    "kind": "real",
    "n_real": 3,
    "n_sites": 3,
    "source": "EPA StreamCat pctimp2019 (per NHDPlus watershed)"
   },
   "land_ownership": {
    "kind": "real",
    "n_fallback": 0,
    "n_real": 3,
    "n_sites": 3,
    "source": "NC OneMap statewide parcels (NC Parcels Transformer) ownname"
   },
   "litter_complaint_density": {
    "kind": "fallback",
    "n_real": 0,
    "n_sites": 3,
    "source": "no public machine-readable litter/illegal-dumping feed for this region"
   },
   "navigable_dist_m": {
    "kind": "real",
    "n_real": 3,
    "n_sites": 3,
    "source": "USACE/BTS NWN (NTAD): no navigable segment within this bbox (+2 km) \u2014 computed absence, gate passes all sites"
   },
   "npdes_points": {
    "kind": "real",
    "n_real": 3,
    "n_sites": 3,
    "source": "EPA ECHO active NPDES outfalls states=NC (types NPD/GPC/NGP; statuses ADC/EFF/EXP), per catchment"
   },
   "population_density": {
    "kind": "real",
    "n_real": 3,
    "n_sites": 3,
    "source": "Census ACS 2022 B01003 block groups (bbox, multi-county), area-weighted"
   },
   "protected_area_score": {
    "kind": "real",
    "n_real": 3,
    "n_sites": 3,
    "source": "USGS PAD-US 4.1 state GDB; states=NC; shipped designation-weighted proximity curve"
   },
   "road_access_score": {
    "kind": "real",
    "n_real": 3,
    "n_sites": 3,
    "source": "OSM drive network nearest-node distance"
   },
   "road_density_km_km2": {
    "kind": "real",
    "n_real": 3,
    "n_sites": 3,
    "source": "OSM drive network (osmnx, cached) clipped per catchment"
   },
   "runoff_coeff_C": {
    "kind": "real",
    "n_real": 3,
    "n_sites": 3,
    "source": "derived from real impervious_pct (C=0.05+0.009*I)"
   },
   "seasonal_cv": {
    "kind": "real",
    "n_real": 3,
    "n_sites": 3,
    "source": "CV of NHDPlus EROM monthly flows per COMID"
   },
   "stream_order": {
    "kind": "real",
    "n_real": 3,
    "n_sites": 3,
    "source": "DEM stream-network confluence heuristic (pipeline)"
   },
   "superfund_score": {
    "kind": "real",
    "n_real": 3,
    "n_sites": 3,
    "source": "EPA DataMap SEMS active sites states=NC (non-archived, georeferenced), shipped 500 m inverse-distance curve"
   },
   "tourism_amenity_density": {
    "kind": "real",
    "n_real": 3,
    "n_sites": 3,
    "source": "OSM leisure/tourism features per 2 km radius"
   },
   "tri_facility_density": {
    "kind": "real",
    "n_real": 3,
    "n_sites": 3,
    "source": "EPA DataMap TRI open facilities states=NC (preferred decimal or packed-DMS recovery), per catchment"
   },
   "usgs_mean_q_cfs": {
    "kind": "real",
    "n_real": 3,
    "n_sites": 3,
    "source": "NHDPlus EROM qe_ma per COMID (snap-guarded)"
   },
   "velocity_feasibility": {
    "kind": "real",
    "n_fallback": 0,
    "n_real": 3,
    "n_sites": 3,
    "source": "shipped step curve on the computed velocity"
   },
   "velocity_transport_favorability": {
    "kind": "derived",
    "n_real": 3,
    "n_sites": 3,
    "source": "scored form of flow_velocity_ms inside the Flow family \u2014 peaked Gaussian exp(-((v-0.9)/0.6)^2), model.json curves.velocity_transport_favorability; construct: transport/delivery favorability, deliberately distinct from velocity_feasibility (device operability)"
   },
   "water_intake_score": {
    "kind": "real",
    "n_real": 3,
    "n_sites": 3,
    "source": "NC OneMap / NC DEQ SWAP public water supply sources (source_typ='Surface Water'), shipped exp(-d/10km) curve"
   }
  },
  "stream_mask": {
   "buffer_m": 150.0,
   "pre_mask": 3,
   "removed": 0,
   "sources": [
    "osm-overpass (all waterway ways)",
    "usgs-nhdplus flowlines"
   ]
  },
  "varying": [
   "beach_dist_km",
   "catchment_area_km2",
   "ej_index",
   "estuary_dist_km",
   "flood_q10_cfs",
   "flow_velocity_ms",
   "impervious_pct",
   "npdes_points",
   "population_density",
   "protected_area_score",
   "road_density_km_km2",
   "runoff_coeff_C",
   "seasonal_cv",
   "superfund_score",
   "tourism_amenity_density",
   "tri_facility_density",
   "usgs_mean_q_cfs",
   "water_intake_score"
  ]
 },
 "region": {
  "bbox": [
   -78.1332,
   35.9245,
   -78.0847,
   35.9637
  ],
  "beach_ref": {
   "label": "Wrightsville Beach (shipped NC reference)",
   "lat": 34.21,
   "lon": -77.79
  },
  "center": [
   -78.108966,
   35.944126
  ],
  "estuary_ref": {
   "label": "Pamlico Sound (shipped NC reference)",
   "lat": 35.05,
   "lon": -76.05
  },
  "flood_method": "sir2014_hr1",
  "name": "Spring Hope, NC",
  "notes": "NC Piedmont (DEQ physiography polygon)",
  "slug": "spring-hope",
  "state": "NC",
  "utm_epsg": 32617,
  "width_curve": {
   "a": 3.12,
   "b": 0.415,
   "code": "AHI",
   "source": "Bieger et al. 2015 JAWRA Table 3, Appalachian Highlands"
  }
 },
 "type": "FeatureCollection"
}
