{
 "features": [
  {
   "geometry": {
    "coordinates": [
     -77.924306,
     34.556306
    ],
    "type": "Point"
   },
   "properties": {
    "accumulation": 63055.0,
    "bank_slope_deg": 11.16,
    "bank_slope_score": 1.0,
    "bank_slope_source": "nc-dps-lidar-dem03-cross-section",
    "beach_dist_km": 40.43,
    "bridge_proximity_bonus": 0.0,
    "catchment_area_km2": 6.3031,
    "channel_width_m": 4.33,
    "channel_width_score": 1.0,
    "composite_score": 56.2563,
    "cso_density": 0.0,
    "ej_index": 0.6576,
    "elevation_m": 9.8679,
    "estuary_dist_km": 179.72,
    "feasibility_score": 71.4286,
    "flood_q10_cfs": 484.36,
    "flow_score": 35.242,
    "flow_velocity_ms": 0.1333,
    "generation_score": 66.5519,
    "impact_score": 55.8863,
    "impervious_pct": 7.88,
    "land_ownership": 1.0,
    "lat": 34.5563,
    "litter_complaint_density": 0.0,
    "lon": -77.9243,
    "navigable_dist_m": null,
    "npdes_points": 2,
    "pixel_col": 399.0,
    "pixel_row": 340.0,
    "population_density": 87.5,
    "position_along": 0.5,
    "protected_area_score": 4.5817,
    "rank": 1,
    "road_access_m": 107.2,
    "road_access_score": 1.0,
    "road_density_km_km2": 6.289,
    "robustness_pct": 100.0,
    "runoff_coeff_C": 0.1209,
    "seasonal_cv": 0.6254,
    "segment_id": 11,
    "segment_length_m": 2439.9029,
    "stream_order": 3,
    "superfund_score": 0.0,
    "tourism_amenity_density": 1.6711,
    "tri_facility_density": 0.0,
    "usgs_mean_q_cfs": 4.453,
    "velocity_feasibility": 0.7,
    "water_intake_score": 0.1224
   },
   "type": "Feature"
  },
  {
   "geometry": {
    "coordinates": [
     -77.935552,
     34.552694
    ],
    "type": "Point"
   },
   "properties": {
    "accumulation": 27457.0,
    "bank_slope_deg": 14.45,
    "bank_slope_score": 1.0,
    "bank_slope_source": "nc-dps-lidar-dem03-cross-section",
    "beach_dist_km": 40.38,
    "bridge_proximity_bonus": 0.0,
    "catchment_area_km2": 2.7447,
    "channel_width_m": 3.2,
    "channel_width_score": 1.0,
    "composite_score": 52.2152,
    "cso_density": 0.0,
    "ej_index": 0.6218,
    "elevation_m": 12.5783,
    "estuary_dist_km": 180.82,
    "feasibility_score": 71.4286,
    "flood_q10_cfs": 322.69,
    "flow_score": 23.5879,
    "flow_velocity_ms": 0.0537,
    "generation_score": 69.2324,
    "impact_score": 49.4473,
    "impervious_pct": 11.88,
    "land_ownership": 1.0,
    "lat": 34.5527,
    "litter_complaint_density": 0.0,
    "lon": -77.9356,
    "navigable_dist_m": null,
    "npdes_points": 1,
    "pixel_col": 298.0,
    "pixel_row": 378.0,
    "population_density": 91.8,
    "position_along": 0.25,
    "protected_area_score": 4.3401,
    "rank": 2,
    "road_access_m": 183.3,
    "road_access_score": 1.0,
    "road_density_km_km2": 7.058,
    "robustness_pct": 96.5,
    "runoff_coeff_C": 0.1569,
    "seasonal_cv": 0.7287,
    "segment_id": 5,
    "segment_length_m": 3094.0429,
    "stream_order": 3,
    "superfund_score": 0.0,
    "tourism_amenity_density": 1.5915,
    "tri_facility_density": 0.0,
    "usgs_mean_q_cfs": 1.193,
    "velocity_feasibility": 0.7,
    "water_intake_score": 0.1365
   },
   "type": "Feature"
  },
  {
   "geometry": {
    "coordinates": [
     -77.91701,
     34.564588
    ],
    "type": "Point"
   },
   "properties": {
    "accumulation": 178415.0,
    "bank_slope_deg": 2.69,
    "bank_slope_score": 1.0,
    "bank_slope_source": "nc-dps-lidar-dem03-cross-section",
    "beach_dist_km": 41.11,
    "bridge_proximity_bonus": 0.0,
    "catchment_area_km2": 17.8347,
    "channel_width_m": 6.32,
    "channel_width_score": 1.0,
    "composite_score": 49.064,
    "cso_density": 0.0,
    "ej_index": 0.581,
    "elevation_m": 7.6096,
    "estuary_dist_km": 178.8,
    "feasibility_score": 39.7959,
    "flood_q10_cfs": 853.34,
    "flow_score": 62.5485,
    "flow_velocity_ms": 0.1396,
    "generation_score": 49.7532,
    "impact_score": 41.7717,
    "impervious_pct": 5.38,
    "land_ownership": 0.5,
    "lat": 34.5646,
    "litter_complaint_density": 0.0,
    "lon": -77.917,
    "navigable_dist_m": null,
    "npdes_points": 2,
    "pixel_col": 472.0,
    "pixel_row": 252.0,
    "population_density": 68.8,
    "position_along": 0.5,
    "protected_area_score": 4.4937,
    "rank": 3,
    "road_access_m": 223.4,
    "road_access_score": 0.8,
    "road_density_km_km2": 3.032,
    "robustness_pct": 96.0,
    "runoff_coeff_C": 0.0984,
    "seasonal_cv": 0.551,
    "segment_id": 12,
    "segment_length_m": 1882.7294,
    "stream_order": 3,
    "superfund_score": 0.0,
    "tourism_amenity_density": 0.6366,
    "tri_facility_density": 0.0,
    "usgs_mean_q_cfs": 13.381,
    "velocity_feasibility": 0.7,
    "water_intake_score": 0.1104
   },
   "type": "Feature"
  },
  {
   "geometry": {
    "coordinates": [
     -77.934747,
     34.562968
    ],
    "type": "Point"
   },
   "properties": {
    "accumulation": 58276.0,
    "bank_slope_deg": 2.2,
    "bank_slope_score": 1.0,
    "bank_slope_source": "nc-dps-lidar-dem03-cross-section",
    "beach_dist_km": 41.43,
    "bridge_proximity_bonus": 0.0,
    "catchment_area_km2": 5.8254,
    "channel_width_m": 4.21,
    "channel_width_score": 1.0,
    "composite_score": 46.3048,
    "cso_density": 0.0,
    "ej_index": 0.7024,
    "elevation_m": 10.9801,
    "estuary_dist_km": 180.4,
    "feasibility_score": 29.5918,
    "flood_q10_cfs": 520.39,
    "flow_score": 35.8712,
    "flow_velocity_ms": 0.1688,
    "generation_score": 66.0344,
    "impact_score": 43.6262,
    "impervious_pct": 13.0,
    "land_ownership": 0.5,
    "lat": 34.563,
    "litter_complaint_density": 0.0,
    "lon": -77.9347,
    "navigable_dist_m": null,
    "npdes_points": 0,
    "pixel_col": 304.0,
    "pixel_row": 263.0,
    "population_density": 137.6,
    "position_along": 0.75,
    "protected_area_score": 4.237,
    "rank": 4,
    "road_access_m": 527.8,
    "road_access_score": 0.6,
    "road_density_km_km2": 2.788,
    "robustness_pct": 78.0,
    "runoff_coeff_C": 0.167,
    "seasonal_cv": 0.6824,
    "segment_id": 5,
    "segment_length_m": 3094.0429,
    "stream_order": 3,
    "superfund_score": 0.0,
    "tourism_amenity_density": 0.6366,
    "tri_facility_density": 0.0,
    "usgs_mean_q_cfs": 2.111,
    "velocity_feasibility": 0.7,
    "water_intake_score": 0.128
   },
   "type": "Feature"
  },
  {
   "geometry": {
    "coordinates": [
     -77.92501,
     34.546364
    ],
    "type": "Point"
   },
   "properties": {
    "accumulation": 20645.0,
    "bank_slope_deg": 10.05,
    "bank_slope_score": 1.0,
    "bank_slope_source": "nc-dps-lidar-dem03-cross-section",
    "beach_dist_km": 39.4,
    "bridge_proximity_bonus": 0.0,
    "catchment_area_km2": 2.0637,
    "channel_width_m": 2.89,
    "channel_width_score": 1.0,
    "composite_score": 44.0675,
    "cso_density": 0.0,
    "ej_index": 0.6452,
    "elevation_m": 12.85,
    "estuary_dist_km": 180.13,
    "feasibility_score": 50.0,
    "flood_q10_cfs": 232.46,
    "flow_score": 20.3894,
    "flow_velocity_ms": 0.1345,
    "generation_score": 45.1623,
    "impact_score": 59.7382,
    "impervious_pct": 5.14,
    "land_ownership": 0.5,
    "lat": 34.5464,
    "litter_complaint_density": 0.0,
    "lon": -77.925,
    "navigable_dist_m": null,
    "npdes_points": 1,
    "pixel_col": 392.0,
    "pixel_row": 451.0,
    "population_density": 47.5,
    "position_along": 0.5,
    "protected_area_score": 4.7184,
    "rank": 5,
    "road_access_m": 31.6,
    "road_access_score": 1.0,
    "road_density_km_km2": 9.488,
    "robustness_pct": 77.0,
    "runoff_coeff_C": 0.0963,
    "seasonal_cv": 0.7349,
    "segment_id": 9,
    "segment_length_m": 415.1904,
    "stream_order": 3,
    "superfund_score": 0.0,
    "tourism_amenity_density": 1.6711,
    "tri_facility_density": 0.0,
    "usgs_mean_q_cfs": 1.088,
    "velocity_feasibility": 0.7,
    "water_intake_score": 0.1298
   },
   "type": "Feature"
  },
  {
   "geometry": {
    "coordinates": [
     -77.923544,
     34.544928
    ],
    "type": "Point"
   },
   "properties": {
    "accumulation": 28207.0,
    "bank_slope_deg": 8.68,
    "bank_slope_score": 1.0,
    "bank_slope_source": "nc-dps-lidar-dem03-cross-section",
    "beach_dist_km": 39.21,
    "bridge_proximity_bonus": 0.0,
    "catchment_area_km2": 2.8196,
    "channel_width_m": 3.23,
    "channel_width_score": 1.0,
    "composite_score": 41.4508,
    "cso_density": 0.0,
    "ej_index": 0.6429,
    "elevation_m": 12.6602,
    "estuary_dist_km": 180.05,
    "feasibility_score": 50.0,
    "flood_q10_cfs": 265.52,
    "flow_score": 22.176,
    "flow_velocity_ms": 0.1007,
    "generation_score": 36.5908,
    "impact_score": 58.0986,
    "impervious_pct": 2.8,
    "land_ownership": 0.5,
    "lat": 34.5449,
    "litter_complaint_density": 0.0,
    "lon": -77.9235,
    "navigable_dist_m": null,
    "npdes_points": 1,
    "pixel_col": 404.0,
    "pixel_row": 467.0,
    "population_density": 44.2,
    "position_along": 0.5,
    "protected_area_score": 4.6252,
    "rank": 6,
    "road_access_m": 161.0,
    "road_access_score": 1.0,
    "road_density_km_km2": 8.493,
    "robustness_pct": 22.0,
    "runoff_coeff_C": 0.0752,
    "seasonal_cv": 0.6681,
    "segment_id": 10,
    "segment_length_m": 733.4143,
    "stream_order": 3,
    "superfund_score": 0.0,
    "tourism_amenity_density": 1.6711,
    "tri_facility_density": 0.0,
    "usgs_mean_q_cfs": 2.503,
    "velocity_feasibility": 0.7,
    "water_intake_score": 0.1292
   },
   "type": "Feature"
  },
  {
   "geometry": {
    "coordinates": [
     -77.927504,
     34.565784
    ],
    "type": "Point"
   },
   "properties": {
    "accumulation": 101826.0,
    "bank_slope_deg": 0.66,
    "bank_slope_score": 1.0,
    "bank_slope_source": "nc-dps-lidar-dem03-cross-section",
    "beach_dist_km": 41.52,
    "bridge_proximity_bonus": 0.0,
    "catchment_area_km2": 10.1787,
    "channel_width_m": 5.15,
    "channel_width_score": 1.0,
    "composite_score": 40.021,
    "cso_density": 0.0,
    "ej_index": 0.6344,
    "elevation_m": 8.9801,
    "estuary_dist_km": 179.67,
    "feasibility_score": 39.7959,
    "flood_q10_cfs": 598.84,
    "flow_score": 44.3855,
    "flow_velocity_ms": 0.1791,
    "generation_score": 36.193,
    "impact_score": 40.3245,
    "impervious_pct": 4.63,
    "land_ownership": 0.5,
    "lat": 34.5658,
    "litter_complaint_density": 0.0,
    "lon": -77.9275,
    "navigable_dist_m": null,
    "npdes_points": 0,
    "pixel_col": 376.0,
    "pixel_row": 236.0,
    "population_density": 102.8,
    "position_along": 0.5,
    "protected_area_score": 4.2871,
    "rank": 7,
    "road_access_m": 458.6,
    "road_access_score": 0.8,
    "road_density_km_km2": 2.962,
    "robustness_pct": 18.0,
    "runoff_coeff_C": 0.0917,
    "seasonal_cv": 0.596,
    "segment_id": 6,
    "segment_length_m": 894.0945,
    "stream_order": 3,
    "superfund_score": 0.0,
    "tourism_amenity_density": 0.6366,
    "tri_facility_density": 0.0,
    "usgs_mean_q_cfs": 6.915,
    "velocity_feasibility": 0.7,
    "water_intake_score": 0.119
   },
   "type": "Feature"
  },
  {
   "geometry": {
    "coordinates": [
     -77.88023,
     34.552742
    ],
    "type": "Point"
   },
   "properties": {
    "accumulation": 105345.0,
    "bank_slope_deg": 1.95,
    "bank_slope_score": 1.0,
    "bank_slope_source": "nc-dps-lidar-dem03-cross-section",
    "beach_dist_km": 39.0,
    "bridge_proximity_bonus": 0.0,
    "catchment_area_km2": 10.5305,
    "channel_width_m": 5.22,
    "channel_width_score": 1.0,
    "composite_score": 35.6562,
    "cso_density": 0.0,
    "ej_index": 0.5009,
    "elevation_m": 2.5952,
    "estuary_dist_km": 176.02,
    "feasibility_score": 29.5918,
    "flood_q10_cfs": 596.16,
    "flow_score": 60.6043,
    "flow_velocity_ms": 0.0711,
    "generation_score": 9.6784,
    "impact_score": 43.8761,
    "impervious_pct": 3.56,
    "land_ownership": 0.5,
    "lat": 34.5527,
    "litter_complaint_density": 0.0,
    "lon": -77.8802,
    "navigable_dist_m": null,
    "npdes_points": 0,
    "pixel_col": 806.0,
    "pixel_row": 392.0,
    "population_density": 26.3,
    "position_along": 0.5,
    "protected_area_score": 4.8536,
    "rank": 8,
    "road_access_m": 649.1,
    "road_access_score": 0.6,
    "road_density_km_km2": 0.299,
    "robustness_pct": 12.5,
    "runoff_coeff_C": 0.082,
    "seasonal_cv": 0.4936,
    "segment_id": 3,
    "segment_length_m": 2632.7091,
    "stream_order": 3,
    "superfund_score": 0.0,
    "tourism_amenity_density": 0.0796,
    "tri_facility_density": 0.0,
    "usgs_mean_q_cfs": 34.699,
    "velocity_feasibility": 0.7,
    "water_intake_score": 0.0874
   },
   "type": "Feature"
  },
  {
   "geometry": {
    "coordinates": [
     -77.896859,
     34.555987
    ],
    "type": "Point"
   },
   "properties": {
    "accumulation": 47322.0,
    "bank_slope_deg": 2.52,
    "bank_slope_score": 1.0,
    "bank_slope_source": "nc-dps-lidar-dem03-cross-section",
    "beach_dist_km": 39.7,
    "bridge_proximity_bonus": 0.0,
    "catchment_area_km2": 4.7304,
    "channel_width_m": 3.9,
    "channel_width_score": 1.0,
    "composite_score": 35.1372,
    "cso_density": 0.0,
    "ej_index": 0.6295,
    "elevation_m": 6.7047,
    "estuary_dist_km": 177.34,
    "feasibility_score": 39.7959,
    "flood_q10_cfs": 397.76,
    "flow_score": 30.2796,
    "flow_velocity_ms": 0.1276,
    "generation_score": 24.8147,
    "impact_score": 47.1782,
    "impervious_pct": 6.82,
    "land_ownership": 0.5,
    "lat": 34.556,
    "litter_complaint_density": 0.0,
    "lon": -77.8969,
    "navigable_dist_m": null,
    "npdes_points": 0,
    "pixel_col": 654.0,
    "pixel_row": 352.0,
    "population_density": 48.0,
    "position_along": 0.5,
    "protected_area_score": 4.7128,
    "rank": 9,
    "road_access_m": 211.4,
    "road_access_score": 0.8,
    "road_density_km_km2": 1.074,
    "robustness_pct": 0.0,
    "runoff_coeff_C": 0.1114,
    "seasonal_cv": 0.6411,
    "segment_id": 2,
    "segment_length_m": 2836.8125,
    "stream_order": 3,
    "superfund_score": 0.0,
    "tourism_amenity_density": 0.0796,
    "tri_facility_density": 0.0,
    "usgs_mean_q_cfs": 3.571,
    "velocity_feasibility": 0.7,
    "water_intake_score": 0.0984
   },
   "type": "Feature"
  },
  {
   "geometry": {
    "coordinates": [
     -77.9361,
     34.56814
    ],
    "type": "Point"
   },
   "properties": {
    "accumulation": 31154.0,
    "bank_slope_deg": 2.3,
    "bank_slope_score": 1.0,
    "bank_slope_source": "nc-dps-lidar-dem03-cross-section",
    "beach_dist_km": 42.02,
    "bridge_proximity_bonus": 0.0,
    "catchment_area_km2": 3.1142,
    "channel_width_m": 3.35,
    "channel_width_score": 1.0,
    "composite_score": 33.2581,
    "cso_density": 0.0,
    "ej_index": 0.7286,
    "elevation_m": 10.5599,
    "estuary_dist_km": 180.34,
    "feasibility_score": 39.7959,
    "flood_q10_cfs": 270.92,
    "flow_score": 21.0714,
    "flow_velocity_ms": 0.1088,
    "generation_score": 34.9056,
    "impact_score": 38.4973,
    "impervious_pct": 1.1,
    "land_ownership": 0.5,
    "lat": 34.5681,
    "litter_complaint_density": 0.0,
    "lon": -77.9361,
    "navigable_dist_m": null,
    "npdes_points": 0,
    "pixel_col": 298.0,
    "pixel_row": 210.0,
    "population_density": 146.4,
    "position_along": 0.5,
    "protected_area_score": 3.9767,
    "rank": 10,
    "road_access_m": 495.1,
    "road_access_score": 0.8,
    "road_density_km_km2": 1.187,
    "robustness_pct": 0.0,
    "runoff_coeff_C": 0.0599,
    "seasonal_cv": 0.711,
    "segment_id": 0,
    "segment_length_m": 1061.0476,
    "stream_order": 3,
    "superfund_score": 0.0,
    "tourism_amenity_density": 0.557,
    "tri_facility_density": 0.0,
    "usgs_mean_q_cfs": 1.522,
    "velocity_feasibility": 0.7,
    "water_intake_score": 0.1255
   },
   "type": "Feature"
  },
  {
   "geometry": {
    "coordinates": [
     -77.890661,
     34.559551
    ],
    "type": "Point"
   },
   "properties": {
    "accumulation": 22394.0,
    "bank_slope_deg": 9.03,
    "bank_slope_score": 1.0,
    "bank_slope_source": "nc-dps-lidar-dem03-cross-section",
    "beach_dist_km": 39.95,
    "bridge_proximity_bonus": 0.0,
    "catchment_area_km2": 2.2386,
    "channel_width_m": 2.97,
    "channel_width_score": 1.0,
    "composite_score": 31.1086,
    "cso_density": 0.0,
    "ej_index": 0.5125,
    "elevation_m": 3.7652,
    "estuary_dist_km": 176.68,
    "feasibility_score": 58.1633,
    "flood_q10_cfs": 216.59,
    "flow_score": 40.1996,
    "flow_velocity_ms": 0.5,
    "generation_score": 2.6831,
    "impact_score": 38.431,
    "impervious_pct": null,
    "land_ownership": 0.5,
    "lat": 34.5596,
    "litter_complaint_density": 0.0,
    "lon": -77.8907,
    "navigable_dist_m": null,
    "npdes_points": 0,
    "pixel_col": 712.0,
    "pixel_row": 317.0,
    "population_density": 29.3,
    "position_along": 0.5,
    "protected_area_score": 4.615,
    "rank": 11,
    "road_access_m": 573.8,
    "road_access_score": 0.6,
    "road_density_km_km2": 1.087,
    "robustness_pct": 0.0,
    "runoff_coeff_C": null,
    "seasonal_cv": null,
    "segment_id": 1,
    "segment_length_m": 526.8849,
    "stream_order": 3,
    "superfund_score": 0.0,
    "tourism_amenity_density": 0.0796,
    "tri_facility_density": 0.0,
    "usgs_mean_q_cfs": null,
    "velocity_feasibility": 1.0,
    "water_intake_score": 0.0919
   },
   "type": "Feature"
  },
  {
   "geometry": {
    "coordinates": [
     -77.897304,
     34.516908
    ],
    "type": "Point"
   },
   "properties": {
    "accumulation": 58604.0,
    "bank_slope_deg": 3.59,
    "bank_slope_score": 1.0,
    "bank_slope_source": "nc-dps-lidar-dem03-cross-section",
    "beach_dist_km": 35.52,
    "bridge_proximity_bonus": 0.0,
    "catchment_area_km2": 5.8582,
    "channel_width_m": 4.22,
    "channel_width_score": 1.0,
    "composite_score": 28.9954,
    "cso_density": 0.0,
    "ej_index": 0.6788,
    "elevation_m": 10.8165,
    "estuary_dist_km": 178.81,
    "feasibility_score": 39.7959,
    "flood_q10_cfs": 396.84,
    "flow_score": 20.3581,
    "flow_velocity_ms": 0.1682,
    "generation_score": 12.2243,
    "impact_score": 47.564,
    "impervious_pct": 1.2,
    "land_ownership": 0.5,
    "lat": 34.5169,
    "litter_complaint_density": 0.0,
    "lon": -77.8973,
    "navigable_dist_m": null,
    "npdes_points": 0,
    "pixel_col": 636.0,
    "pixel_row": 784.0,
    "population_density": 55.2,
    "position_along": 0.375,
    "protected_area_score": 4.2801,
    "rank": 12,
    "road_access_m": 434.6,
    "road_access_score": 0.8,
    "road_density_km_km2": 1.087,
    "robustness_pct": 0.0,
    "runoff_coeff_C": 0.0608,
    "seasonal_cv": 0.5876,
    "segment_id": 14,
    "segment_length_m": 6184.3607,
    "stream_order": 1,
    "superfund_score": 0.0,
    "tourism_amenity_density": 0.0,
    "tri_facility_density": 0.0,
    "usgs_mean_q_cfs": 7.961,
    "velocity_feasibility": 0.7,
    "water_intake_score": 0.1186
   },
   "type": "Feature"
  },
  {
   "geometry": {
    "coordinates": [
     -77.887708,
     34.499241
    ],
    "type": "Point"
   },
   "properties": {
    "accumulation": 39023.0,
    "bank_slope_deg": 3.98,
    "bank_slope_score": 1.0,
    "bank_slope_source": "nc-dps-lidar-dem03-cross-section",
    "beach_dist_km": 33.39,
    "bridge_proximity_bonus": 0.0,
    "catchment_area_km2": 3.9008,
    "channel_width_m": 3.64,
    "channel_width_score": 1.0,
    "composite_score": 28.5107,
    "cso_density": 0.0,
    "ej_index": 0.6299,
    "elevation_m": 7.2569,
    "estuary_dist_km": 178.67,
    "feasibility_score": 39.7959,
    "flood_q10_cfs": 314.07,
    "flow_score": 20.6004,
    "flow_velocity_ms": 0.1335,
    "generation_score": 9.5988,
    "impact_score": 48.3719,
    "impervious_pct": 1.64,
    "land_ownership": 0.5,
    "lat": 34.4992,
    "litter_complaint_density": 0.0,
    "lon": -77.8877,
    "navigable_dist_m": null,
    "npdes_points": 0,
    "pixel_col": 720.0,
    "pixel_row": 987.0,
    "population_density": 39.4,
    "position_along": 0.25,
    "protected_area_score": 4.3245,
    "rank": 13,
    "road_access_m": 436.9,
    "road_access_score": 0.8,
    "road_density_km_km2": 1.195,
    "robustness_pct": 0.0,
    "runoff_coeff_C": 0.0648,
    "seasonal_cv": 0.558,
    "segment_id": 15,
    "segment_length_m": 3709.784,
    "stream_order": 1,
    "superfund_score": 0.0,
    "tourism_amenity_density": 0.0,
    "tri_facility_density": 0.0,
    "usgs_mean_q_cfs": 15.395,
    "velocity_feasibility": 0.7,
    "water_intake_score": 0.117
   },
   "type": "Feature"
  },
  {
   "geometry": {
    "coordinates": [
     -77.958808,
     34.502679
    ],
    "type": "Point"
   },
   "properties": {
    "accumulation": 44268.0,
    "bank_slope_deg": 2.29,
    "bank_slope_score": 1.0,
    "bank_slope_source": "nc-dps-lidar-dem03-cross-section",
    "beach_dist_km": 36.05,
    "bridge_proximity_bonus": 0.0,
    "catchment_area_km2": 4.4251,
    "channel_width_m": 3.81,
    "channel_width_score": 1.0,
    "composite_score": 26.7112,
    "cso_density": 0.0,
    "ej_index": 0.6312,
    "elevation_m": 11.6454,
    "estuary_dist_km": 184.65,
    "feasibility_score": 50.0,
    "flood_q10_cfs": 328.76,
    "flow_score": 19.3399,
    "flow_velocity_ms": 0.1493,
    "generation_score": 3.0122,
    "impact_score": 44.9084,
    "impervious_pct": 0.35,
    "land_ownership": 0.5,
    "lat": 34.5027,
    "litter_complaint_density": 0.0,
    "lon": -77.9588,
    "navigable_dist_m": null,
    "npdes_points": 0,
    "pixel_col": 66.0,
    "pixel_row": 930.0,
    "population_density": 32.4,
    "position_along": 0.5,
    "protected_area_score": 3.9764,
    "rank": 14,
    "road_access_m": 159.6,
    "road_access_score": 1.0,
    "road_density_km_km2": 0.323,
    "robustness_pct": 0.0,
    "runoff_coeff_C": 0.0532,
    "seasonal_cv": 0.5611,
    "segment_id": 13,
    "segment_length_m": 2932.3579,
    "stream_order": 1,
    "superfund_score": 0.0,
    "tourism_amenity_density": 0.0,
    "tri_facility_density": 0.0,
    "usgs_mean_q_cfs": 12.004,
    "velocity_feasibility": 0.7,
    "water_intake_score": 0.2115
   },
   "type": "Feature"
  },
  {
   "geometry": {
    "coordinates": [
     -77.877285,
     34.520083
    ],
    "type": "Point"
   },
   "properties": {
    "accumulation": 92091.0,
    "bank_slope_deg": 4.04,
    "bank_slope_score": 1.0,
    "bank_slope_source": "nc-dps-lidar-dem03-cross-section",
    "beach_dist_km": 35.4,
    "bridge_proximity_bonus": 0.0,
    "catchment_area_km2": 9.2056,
    "channel_width_m": 4.97,
    "channel_width_score": 1.0,
    "composite_score": 25.6726,
    "cso_density": 0.0,
    "ej_index": 0.6677,
    "elevation_m": 5.8852,
    "estuary_dist_km": 176.97,
    "feasibility_score": 14.2857,
    "flood_q10_cfs": 520.55,
    "flow_score": 25.6363,
    "flow_velocity_ms": 0.122,
    "generation_score": 7.7441,
    "impact_score": 49.3247,
    "impervious_pct": 1.2,
    "land_ownership": 0.5,
    "lat": 34.5201,
    "litter_complaint_density": 0.0,
    "lon": -77.8773,
    "navigable_dist_m": null,
    "npdes_points": 0,
    "pixel_col": 822.0,
    "pixel_row": 757.0,
    "population_density": 44.9,
    "position_along": 0.875,
    "protected_area_score": 4.4172,
    "rank": 15,
    "road_access_m": 1835.5,
    "road_access_score": 0.3,
    "road_density_km_km2": 0.0,
    "robustness_pct": 0.0,
    "runoff_coeff_C": 0.0608,
    "seasonal_cv": 0.5876,
    "segment_id": 14,
    "segment_length_m": 6184.3607,
    "stream_order": 1,
    "superfund_score": 0.0,
    "tourism_amenity_density": 0.0,
    "tri_facility_density": 0.0,
    "usgs_mean_q_cfs": 7.961,
    "velocity_feasibility": 0.7,
    "water_intake_score": 0.0988
   },
   "type": "Feature"
  },
  {
   "geometry": {
    "coordinates": [
     -77.887017,
     34.52518
    ],
    "type": "Point"
   },
   "properties": {
    "accumulation": 83521.0,
    "bank_slope_deg": 4.48,
    "bank_slope_score": 1.0,
    "bank_slope_source": "nc-dps-lidar-dem03-cross-section",
    "beach_dist_km": 36.16,
    "bridge_proximity_bonus": 0.0,
    "catchment_area_km2": 8.3489,
    "channel_width_m": 4.8,
    "channel_width_score": 1.0,
    "composite_score": 25.5025,
    "cso_density": 0.0,
    "ej_index": 0.6762,
    "elevation_m": 7.6431,
    "estuary_dist_km": 177.62,
    "feasibility_score": 14.2857,
    "flood_q10_cfs": 490.9,
    "flow_score": 23.381,
    "flow_velocity_ms": 0.0965,
    "generation_score": 9.0475,
    "impact_score": 49.3337,
    "impervious_pct": 1.2,
    "land_ownership": 0.5,
    "lat": 34.5252,
    "litter_complaint_density": 0.0,
    "lon": -77.887,
    "navigable_dist_m": null,
    "npdes_points": 0,
    "pixel_col": 735.0,
    "pixel_row": 697.0,
    "population_density": 49.7,
    "position_along": 0.625,
    "protected_area_score": 4.4437,
    "rank": 16,
    "road_access_m": 1130.7,
    "road_access_score": 0.3,
    "road_density_km_km2": 0.06,
    "robustness_pct": 0.0,
    "runoff_coeff_C": 0.0608,
    "seasonal_cv": 0.5876,
    "segment_id": 14,
    "segment_length_m": 6184.3607,
    "stream_order": 1,
    "superfund_score": 0.0,
    "tourism_amenity_density": 0.0,
    "tri_facility_density": 0.0,
    "usgs_mean_q_cfs": 7.961,
    "velocity_feasibility": 0.7,
    "water_intake_score": 0.105
   },
   "type": "Feature"
  },
  {
   "geometry": {
    "coordinates": [
     -77.88025,
     34.48644
    ],
    "type": "Point"
   },
   "properties": {
    "accumulation": 59412.0,
    "bank_slope_deg": 2.29,
    "bank_slope_score": 1.0,
    "bank_slope_source": "nc-dps-lidar-dem03-cross-section",
    "beach_dist_km": 31.84,
    "bridge_proximity_bonus": 0.0,
    "catchment_area_km2": 5.9389,
    "channel_width_m": 4.24,
    "channel_width_score": 1.0,
    "composite_score": 25.4251,
    "cso_density": 0.0,
    "ej_index": 0.6534,
    "elevation_m": 4.5206,
    "estuary_dist_km": 178.54,
    "feasibility_score": 14.2857,
    "flood_q10_cfs": 404.23,
    "flow_score": 24.0962,
    "flow_velocity_ms": 0.1012,
    "generation_score": 7.0304,
    "impact_score": 50.4968,
    "impervious_pct": 1.64,
    "land_ownership": 0.5,
    "lat": 34.4864,
    "litter_complaint_density": 0.0,
    "lon": -77.8802,
    "navigable_dist_m": null,
    "npdes_points": 0,
    "pixel_col": 783.0,
    "pixel_row": 1131.0,
    "population_density": 35.5,
    "position_along": 0.75,
    "protected_area_score": 4.2748,
    "rank": 17,
    "road_access_m": 1066.9,
    "road_access_score": 0.3,
    "road_density_km_km2": 0.287,
    "robustness_pct": 0.0,
    "runoff_coeff_C": 0.0648,
    "seasonal_cv": 0.558,
    "segment_id": 15,
    "segment_length_m": 3709.784,
    "stream_order": 1,
    "superfund_score": 0.0,
    "tourism_amenity_density": 0.0,
    "tri_facility_density": 0.0,
    "usgs_mean_q_cfs": 15.395,
    "velocity_feasibility": 0.7,
    "water_intake_score": 0.1145
   },
   "type": "Feature"
  },
  {
   "geometry": {
    "coordinates": [
     -77.95867,
     34.487496
    ],
    "type": "Point"
   },
   "properties": {
    "accumulation": 51126.0,
    "bank_slope_deg": 4.46,
    "bank_slope_score": 1.0,
    "bank_slope_source": "nc-dps-lidar-dem03-cross-section",
    "beach_dist_km": 34.52,
    "bridge_proximity_bonus": 0.0,
    "catchment_area_km2": 5.1107,
    "channel_width_m": 4.01,
    "channel_width_score": 1.0,
    "composite_score": 24.2265,
    "cso_density": 0.0,
    "ej_index": 0.697,
    "elevation_m": 10.0959,
    "estuary_dist_km": 185.22,
    "feasibility_score": 14.2857,
    "flood_q10_cfs": 358.45,
    "flow_score": 18.6263,
    "flow_velocity_ms": 0.0606,
    "generation_score": 2.4698,
    "impact_score": 55.6203,
    "impervious_pct": 0.35,
    "land_ownership": 0.5,
    "lat": 34.4875,
    "litter_complaint_density": 0.0,
    "lon": -77.9587,
    "navigable_dist_m": null,
    "npdes_points": 0,
    "pixel_col": 60.0,
    "pixel_row": 1098.0,
    "population_density": 32.5,
    "position_along": 0.75,
    "protected_area_score": 4.1689,
    "rank": 18,
    "road_access_m": 1722.5,
    "road_access_score": 0.3,
    "road_density_km_km2": 0.0,
    "robustness_pct": 0.0,
    "runoff_coeff_C": 0.0532,
    "seasonal_cv": 0.5611,
    "segment_id": 16,
    "segment_length_m": 3341.9858,
    "stream_order": 1,
    "superfund_score": 0.0,
    "tourism_amenity_density": 0.0,
    "tri_facility_density": 0.0,
    "usgs_mean_q_cfs": 12.004,
    "velocity_feasibility": 0.7,
    "water_intake_score": 0.225
   },
   "type": "Feature"
  },
  {
   "geometry": {
    "coordinates": [
     -77.909566,
     34.515172
    ],
    "type": "Point"
   },
   "properties": {
    "accumulation": 41779.0,
    "bank_slope_deg": 15.1,
    "bank_slope_score": 0.5,
    "bank_slope_source": "nc-dps-lidar-dem03-cross-section",
    "beach_dist_km": 35.66,
    "bridge_proximity_bonus": 0.0,
    "catchment_area_km2": 4.1763,
    "channel_width_m": 3.73,
    "channel_width_score": 1.0,
    "composite_score": 23.1256,
    "cso_density": 0.0,
    "ej_index": 0.6355,
    "elevation_m": 13.1273,
    "estuary_dist_km": 179.94,
    "feasibility_score": 25.5102,
    "flood_q10_cfs": 323.87,
    "flow_score": 14.0966,
    "flow_velocity_ms": 0.0581,
    "generation_score": 10.9094,
    "impact_score": 41.6738,
    "impervious_pct": 1.2,
    "land_ownership": 0.5,
    "lat": 34.5152,
    "litter_complaint_density": 0.0,
    "lon": -77.9096,
    "navigable_dist_m": null,
    "npdes_points": 0,
    "pixel_col": 524.0,
    "pixel_row": 803.0,
    "population_density": 41.5,
    "position_along": 0.125,
    "protected_area_score": 4.0791,
    "rank": 19,
    "road_access_m": 499.0,
    "road_access_score": 0.8,
    "road_density_km_km2": 2.285,
    "robustness_pct": 0.0,
    "runoff_coeff_C": 0.0608,
    "seasonal_cv": 0.5876,
    "segment_id": 14,
    "segment_length_m": 6184.3607,
    "stream_order": 1,
    "superfund_score": 0.0,
    "tourism_amenity_density": 0.0,
    "tri_facility_density": 0.0,
    "usgs_mean_q_cfs": 7.961,
    "velocity_feasibility": 0.7,
    "water_intake_score": 0.1325
   },
   "type": "Feature"
  },
  {
   "geometry": {
    "coordinates": [
     -77.964425,
     34.548625
    ],
    "type": "Point"
   },
   "properties": {
    "accumulation": 43342.0,
    "bank_slope_deg": 4.57,
    "bank_slope_score": 1.0,
    "bank_slope_source": "nc-dps-lidar-dem03-cross-section",
    "beach_dist_km": 40.91,
    "bridge_proximity_bonus": 0.0,
    "catchment_area_km2": 4.3326,
    "channel_width_m": 3.78,
    "channel_width_score": 1.0,
    "composite_score": 22.2857,
    "cso_density": 0.0,
    "ej_index": 0.3787,
    "elevation_m": 12.0459,
    "estuary_dist_km": 183.47,
    "feasibility_score": 29.5918,
    "flood_q10_cfs": 334.96,
    "flow_score": 28.6698,
    "flow_velocity_ms": 0.1545,
    "generation_score": 15.968,
    "impact_score": 19.6304,
    "impervious_pct": 1.7,
    "land_ownership": 0.5,
    "lat": 34.5486,
    "litter_complaint_density": 0.0,
    "lon": -77.9644,
    "navigable_dist_m": null,
    "npdes_points": 1,
    "pixel_col": 27.0,
    "pixel_row": 418.0,
    "population_density": 26.2,
    "position_along": 0.5,
    "protected_area_score": 3.9445,
    "rank": 20,
    "road_access_m": 569.9,
    "road_access_score": 0.6,
    "road_density_km_km2": 0.916,
    "robustness_pct": 0.0,
    "runoff_coeff_C": 0.0653,
    "seasonal_cv": 0.6209,
    "segment_id": 8,
    "segment_length_m": 168.9629,
    "stream_order": 3,
    "superfund_score": 0.0,
    "tourism_amenity_density": 0.0,
    "tri_facility_density": 0.0,
    "usgs_mean_q_cfs": 4.959,
    "velocity_feasibility": 0.7,
    "water_intake_score": 0.1751
   },
   "type": "Feature"
  },
  {
   "geometry": {
    "coordinates": [
     -77.963567,
     34.549007
    ],
    "type": "Point"
   },
   "properties": {
    "accumulation": 43242.0,
    "bank_slope_deg": 5.89,
    "bank_slope_score": 1.0,
    "bank_slope_source": "nc-dps-lidar-dem03-cross-section",
    "beach_dist_km": 40.92,
    "bridge_proximity_bonus": 0.0,
    "catchment_area_km2": 4.3226,
    "channel_width_m": 3.78,
    "channel_width_score": 1.0,
    "composite_score": 22.2036,
    "cso_density": 0.0,
    "ej_index": 0.3774,
    "elevation_m": 12.1559,
    "estuary_dist_km": 183.39,
    "feasibility_score": 29.5918,
    "flood_q10_cfs": 334.5,
    "flow_score": 28.0553,
    "flow_velocity_ms": 0.1327,
    "generation_score": 16.156,
    "impact_score": 19.6808,
    "impervious_pct": 1.7,
    "land_ownership": 0.5,
    "lat": 34.549,
    "litter_complaint_density": 0.0,
    "lon": -77.9636,
    "navigable_dist_m": null,
    "npdes_points": 1,
    "pixel_col": 35.0,
    "pixel_row": 414.0,
    "population_density": 26.2,
    "position_along": 0.5,
    "protected_area_score": 3.9583,
    "rank": 21,
    "road_access_m": 545.4,
    "road_access_score": 0.6,
    "road_density_km_km2": 1.023,
    "robustness_pct": 0.0,
    "runoff_coeff_C": 0.0653,
    "seasonal_cv": 0.6209,
    "segment_id": 4,
    "segment_length_m": 24.1376,
    "stream_order": 3,
    "superfund_score": 0.0,
    "tourism_amenity_density": 0.0,
    "tri_facility_density": 0.0,
    "usgs_mean_q_cfs": 4.959,
    "velocity_feasibility": 0.7,
    "water_intake_score": 0.1736
   },
   "type": "Feature"
  },
  {
   "geometry": {
    "coordinates": [
     -77.945566,
     34.487784
    ],
    "type": "Point"
   },
   "properties": {
    "accumulation": 25807.0,
    "bank_slope_deg": 1.14,
    "bank_slope_score": 1.0,
    "bank_slope_source": "nc-dps-lidar-dem03-cross-section",
    "beach_dist_km": 34.03,
    "bridge_proximity_bonus": 0.0,
    "catchment_area_km2": 2.5797,
    "channel_width_m": 3.13,
    "channel_width_score": 1.0,
    "composite_score": 21.9091,
    "cso_density": 0.0,
    "ej_index": 0.6143,
    "elevation_m": 13.4599,
    "estuary_dist_km": 184.08,
    "feasibility_score": 14.2857,
    "flood_q10_cfs": 237.78,
    "flow_score": 14.4138,
    "flow_velocity_ms": 0.1183,
    "generation_score": 2.969,
    "impact_score": 50.907,
    "impervious_pct": 0.35,
    "land_ownership": 0.5,
    "lat": 34.4878,
    "litter_complaint_density": 0.0,
    "lon": -77.9456,
    "navigable_dist_m": null,
    "npdes_points": 0,
    "pixel_col": 182.0,
    "pixel_row": 1095.0,
    "population_density": 34.5,
    "position_along": 0.25,
    "protected_area_score": 4.2509,
    "rank": 22,
    "road_access_m": 1322.4,
    "road_access_score": 0.3,
    "road_density_km_km2": 0.0,
    "robustness_pct": 0.0,
    "runoff_coeff_C": 0.0532,
    "seasonal_cv": 0.5611,
    "segment_id": 16,
    "segment_length_m": 3341.9858,
    "stream_order": 1,
    "superfund_score": 0.0,
    "tourism_amenity_density": 0.0,
    "tri_facility_density": 0.0,
    "usgs_mean_q_cfs": 12.004,
    "velocity_feasibility": 0.7,
    "water_intake_score": 0.2009
   },
   "type": "Feature"
  },
  {
   "geometry": {
    "coordinates": [
     -77.962933,
     34.546918
    ],
    "type": "Point"
   },
   "properties": {
    "accumulation": 21787.0,
    "bank_slope_deg": 2.89,
    "bank_slope_score": 1.0,
    "bank_slope_source": "nc-dps-lidar-dem03-cross-section",
    "beach_dist_km": 40.69,
    "bridge_proximity_bonus": 0.0,
    "catchment_area_km2": 2.1779,
    "channel_width_m": 2.94,
    "channel_width_score": 1.0,
    "composite_score": 19.8236,
    "cso_density": 0.0,
    "ej_index": 0.3818,
    "elevation_m": 13.2279,
    "estuary_dist_km": 183.4,
    "feasibility_score": 39.7959,
    "flood_q10_cfs": 221.64,
    "flow_score": 22.8716,
    "flow_velocity_ms": 0.1229,
    "generation_score": 6.6127,
    "impact_score": 20.5082,
    "impervious_pct": 1.7,
    "land_ownership": 0.5,
    "lat": 34.5469,
    "litter_complaint_density": 0.0,
    "lon": -77.9629,
    "navigable_dist_m": null,
    "npdes_points": 0,
    "pixel_col": 42.0,
    "pixel_row": 434.0,
    "population_density": 26.2,
    "position_along": 0.5,
    "protected_area_score": 3.9633,
    "rank": 23,
    "road_access_m": 345.5,
    "road_access_score": 0.8,
    "road_density_km_km2": 1.283,
    "robustness_pct": 0.0,
    "runoff_coeff_C": 0.0653,
    "seasonal_cv": 0.6209,
    "segment_id": 7,
    "segment_length_m": 544.4552,
    "stream_order": 3,
    "superfund_score": 0.0,
    "tourism_amenity_density": 0.0,
    "tri_facility_density": 0.0,
    "usgs_mean_q_cfs": 4.959,
    "velocity_feasibility": 0.7,
    "water_intake_score": 0.1748
   },
   "type": "Feature"
  }
 ],
 "note": "GRIME region 'St. Helena, NC' \u2014 real-data pipeline (DEM\u2192streams\u2192candidates\u2192stream mask (sites confined to \u00b1150 m of mapped OSM/NHD waterways)\u2192region-appropriate real parameters\u2192shipped scoring, math unchanged). Width curve: Bieger et al. 2015 JAWRA Table 3, Atlantic Plain. Flood: SIR 2014-5030 HR4 (I24H50Y: NOAA Atlas 14). NC Coastal Plain (SIR 2014-5030 HR4; I24H50Y from NOAA Atlas 14 at region center); merged nearby towns: Burgaw",
 "provenance": {
  "candidates_pre_gate": 23,
  "constant": [
   "bridge_proximity_bonus",
   "channel_width_score",
   "cso_density",
   "litter_complaint_density",
   "superfund_score",
   "tri_facility_density"
  ],
  "gated_navigable": 0,
  "hard_gate_removed": 0,
  "n_parameters": 27,
  "parameters": {
   "bank_slope_score": {
    "kind": "real",
    "n_3dep_10m_fallback": 0,
    "n_nc_lidar_3_125ft": 23,
    "n_real": 23,
    "n_sites": 23,
    "source": "NC OneMap / NC DPS DEM03 statewide lidar-derived 3.125-ft (0.953 m) elevations (perpendicular 50 m transect; robust 5 m bank-rise metric); unavailable profiles use the region 10 m 3DEP DEM-gradient fallback",
    "source_mosaics": [
     "Pender_Ground_3ft"
    ]
   },
   "beach_dist_km": {
    "kind": "real",
    "n_real": 23,
    "n_sites": 23,
    "source": "haversine to region ref: Wrightsville Beach (shipped NC reference)"
   },
   "bridge_proximity_bonus": {
    "kind": "real",
    "n_real": 23,
    "n_sites": 23,
    "source": "FHWA/BTS NBI (NTAD), 50 m proximity"
   },
   "catchment_area_km2": {
    "kind": "real",
    "n_real": 23,
    "n_sites": 23,
    "source": "DEM flow accumulation (pipeline)"
   },
   "channel_width_score": {
    "kind": "real",
    "n_real": 23,
    "n_sites": 23,
    "source": "Bieger 2015 APL width curve on DEM drainage area \u2192 shipped width curve"
   },
   "cso_density": {
    "kind": "real",
    "n_real": 23,
    "n_sites": 23,
    "source": "EPA ECHO open CSO/TCS outfall PF coordinates states=NC, Cauchy proximity"
   },
   "ej_index": {
    "kind": "real",
    "n_real": 23,
    "n_sites": 23,
    "source": "Census ACS C17002+B03002 two-component demographic index, percentile-ranked within region"
   },
   "estuary_dist_km": {
    "kind": "real",
    "n_real": 23,
    "n_sites": 23,
    "source": "haversine to region ref: Pamlico Sound (shipped NC reference)"
   },
   "flood_q10_cfs": {
    "impervious_fallback_reason": "StreamCat imperviousness unavailable; the existing regression-input fallback of 0.0% impervious was used and is disclosed here",
    "kind": "real",
    "n_impervious_fallback": 1,
    "n_real": 23,
    "n_sites": 23,
    "source": "USGS SIR 2014-5030 Table 7 HR4 (NC Coastal Plain; I24H50Y from NOAA Atlas 14 at region center)"
   },
   "flow_velocity_ms": {
    "fallback_reason": "EROM/DEM continuity input unavailable; shipped 0.5 m/s default used",
    "kind": "real",
    "n_fallback": 1,
    "n_real": 22,
    "n_sites": 23,
    "source": "Manning (region DEM/D8) blended with EROM continuity (shipped M4 logic)"
   },
   "impervious_pct": {
    "fallback_reason": "NLDI/StreamCat did not return a snap-compatible catchment value; value remains null and is removed by constant-column handling",
    "kind": "real",
    "n_fallback": 1,
    "n_real": 22,
    "n_sites": 23,
    "source": "EPA StreamCat pctimp2019 (per NHDPlus watershed)"
   },
   "land_ownership": {
    "fallback_reason": "no containing parcel owner returned; shipped unknown ownership 0.5 used",
    "kind": "real",
    "n_fallback": 1,
    "n_real": 22,
    "n_sites": 23,
    "source": "NC OneMap statewide parcels (NC Parcels Transformer) ownname"
   },
   "litter_complaint_density": {
    "kind": "fallback",
    "n_real": 0,
    "n_sites": 23,
    "source": "no public machine-readable litter/illegal-dumping feed for this region"
   },
   "navigable_dist_m": {
    "kind": "real",
    "n_real": 23,
    "n_sites": 23,
    "source": "USACE/BTS NWN (NTAD): no navigable segment within this bbox (+2 km) \u2014 computed absence, gate passes all sites"
   },
   "npdes_points": {
    "kind": "real",
    "n_real": 23,
    "n_sites": 23,
    "source": "EPA ECHO active NPDES outfalls states=NC (types NPD/GPC/NGP; statuses ADC/EFF/EXP), per catchment"
   },
   "population_density": {
    "kind": "real",
    "n_real": 23,
    "n_sites": 23,
    "source": "Census ACS 2022 B01003 block groups (bbox, multi-county), area-weighted"
   },
   "protected_area_score": {
    "kind": "real",
    "n_real": 23,
    "n_sites": 23,
    "source": "USGS PAD-US 4.1 state GDB; states=NC; shipped designation-weighted proximity curve"
   },
   "road_access_score": {
    "kind": "real",
    "n_real": 23,
    "n_sites": 23,
    "source": "OSM drive network nearest-node distance"
   },
   "road_density_km_km2": {
    "kind": "real",
    "n_real": 23,
    "n_sites": 23,
    "source": "OSM drive network (osmnx, cached) clipped per catchment"
   },
   "runoff_coeff_C": {
    "fallback_reason": "source impervious_pct was unavailable; derived value remains null",
    "kind": "real",
    "n_fallback": 1,
    "n_real": 22,
    "n_sites": 23,
    "source": "derived from real impervious_pct (C=0.05+0.009*I)"
   },
   "seasonal_cv": {
    "fallback_reason": "NHDPlus monthly EROM was unavailable or failed the drainage-area snap guard; value remains null",
    "kind": "real",
    "n_fallback": 1,
    "n_real": 22,
    "n_sites": 23,
    "source": "CV of NHDPlus EROM monthly flows per COMID"
   },
   "stream_order": {
    "kind": "real",
    "n_real": 23,
    "n_sites": 23,
    "source": "DEM stream-network confluence heuristic (pipeline)"
   },
   "superfund_score": {
    "kind": "real",
    "n_real": 23,
    "n_sites": 23,
    "source": "EPA DataMap SEMS active sites states=NC (non-archived, georeferenced), shipped 500 m inverse-distance curve"
   },
   "tourism_amenity_density": {
    "kind": "real",
    "n_real": 23,
    "n_sites": 23,
    "source": "OSM leisure/tourism features per 2 km radius"
   },
   "tri_facility_density": {
    "kind": "real",
    "n_real": 23,
    "n_sites": 23,
    "source": "EPA DataMap TRI open facilities states=NC (preferred decimal or packed-DMS recovery), per catchment"
   },
   "usgs_mean_q_cfs": {
    "fallback_reason": "NHDPlus EROM was unavailable or failed the drainage-area snap guard; value remains null",
    "kind": "real",
    "n_fallback": 1,
    "n_real": 22,
    "n_sites": 23,
    "source": "NHDPlus EROM qe_ma per COMID (snap-guarded)"
   },
   "velocity_feasibility": {
    "fallback_reason": "derived from the shipped 0.5 m/s velocity fallback",
    "kind": "real",
    "n_fallback": 1,
    "n_real": 22,
    "n_sites": 23,
    "source": "shipped step curve on the computed velocity"
   },
   "velocity_transport_favorability": {
    "fallback_reason": "EROM/DEM continuity input unavailable; shipped 0.5 m/s default used",
    "kind": "derived",
    "n_fallback": 1,
    "n_real": 22,
    "n_sites": 23,
    "source": "scored form of flow_velocity_ms inside the Flow family \u2014 peaked Gaussian exp(-((v-0.9)/0.6)^2), model.json curves.velocity_transport_favorability; construct: transport/delivery favorability, deliberately distinct from velocity_feasibility (device operability)"
   },
   "water_intake_score": {
    "kind": "real",
    "n_real": 23,
    "n_sites": 23,
    "source": "NC OneMap / NC DEQ SWAP public water supply sources (source_typ='Surface Water'), shipped exp(-d/10km) curve"
   }
  },
  "stream_mask": {
   "buffer_m": 150.0,
   "pre_mask": 23,
   "removed": 0,
   "sources": [
    "osm-overpass (all waterway ways)",
    "usgs-nhdplus flowlines"
   ]
  },
  "varying": [
   "bank_slope_score",
   "beach_dist_km",
   "catchment_area_km2",
   "ej_index",
   "estuary_dist_km",
   "flood_q10_cfs",
   "flow_velocity_ms",
   "impervious_pct",
   "land_ownership",
   "npdes_points",
   "population_density",
   "protected_area_score",
   "road_access_score",
   "road_density_km_km2",
   "runoff_coeff_C",
   "seasonal_cv",
   "stream_order",
   "tourism_amenity_density",
   "usgs_mean_q_cfs",
   "velocity_feasibility",
   "water_intake_score"
  ]
 },
 "region": {
  "bbox": [
   -77.9652,
   34.4788,
   -77.8714,
   34.5862
  ],
  "beach_ref": {
   "label": "Wrightsville Beach (shipped NC reference)",
   "lat": 34.21,
   "lon": -77.79
  },
  "center": [
   -77.917394,
   34.516623
  ],
  "estuary_ref": {
   "label": "Pamlico Sound (shipped NC reference)",
   "lat": 35.05,
   "lon": -76.05
  },
  "flood_method": "sir2014_hr4",
  "name": "St. Helena, NC",
  "notes": "NC Coastal Plain (SIR 2014-5030 HR4; I24H50Y from NOAA Atlas 14 at region center); merged nearby towns: Burgaw",
  "slug": "st-helena",
  "state": "NC",
  "utm_epsg": 32618,
  "width_curve": {
   "a": 2.22,
   "b": 0.363,
   "code": "APL",
   "source": "Bieger et al. 2015 JAWRA Table 3, Atlantic Plain"
  }
 },
 "type": "FeatureCollection"
}
