{
 "features": [
  {
   "geometry": {
    "coordinates": [
     -78.979817,
     34.797403
    ],
    "type": "Point"
   },
   "properties": {
    "accumulation": 59500.0,
    "bank_slope_deg": 1.29,
    "bank_slope_score": 1.0,
    "bank_slope_source": "nc-dps-lidar-dem03-cross-section",
    "beach_dist_km": 127.09,
    "bridge_proximity_bonus": 0.0,
    "catchment_area_km2": 5.9297,
    "channel_width_m": 4.24,
    "channel_width_score": 1.0,
    "composite_score": 55.4789,
    "cso_density": 0.0,
    "ej_index": 0.4145,
    "elevation_m": 42.1466,
    "estuary_dist_km": 268.58,
    "feasibility_score": 50.0,
    "flood_q10_cfs": 278.27,
    "flow_score": 100.0,
    "flow_velocity_ms": 0.5,
    "generation_score": 27.9651,
    "impact_score": 48.6314,
    "impervious_pct": null,
    "land_ownership": 0.5,
    "lat": 34.7974,
    "litter_complaint_density": 0.0,
    "lon": -78.9798,
    "navigable_dist_m": null,
    "npdes_points": 0,
    "pixel_col": 204.0,
    "pixel_row": 363.0,
    "population_density": 140.9,
    "position_along": 0.75,
    "protected_area_score": 5.6069,
    "rank": 1,
    "road_access_m": 407.2,
    "road_access_score": 0.8,
    "road_density_km_km2": 3.71,
    "robustness_pct": 100.0,
    "runoff_coeff_C": null,
    "seasonal_cv": null,
    "segment_id": 0,
    "segment_length_m": 3646.8108,
    "stream_order": 1,
    "superfund_score": 0.0,
    "tourism_amenity_density": 1.2732,
    "tri_facility_density": 0.3373,
    "usgs_mean_q_cfs": null,
    "velocity_feasibility": 1.0,
    "water_intake_score": 0.4141
   },
   "type": "Feature"
  },
  {
   "geometry": {
    "coordinates": [
     -78.960001,
     34.792196
    ],
    "type": "Point"
   },
   "properties": {
    "accumulation": 21795.0,
    "bank_slope_deg": 1.87,
    "bank_slope_score": 1.0,
    "bank_slope_source": "nc-dps-lidar-dem03-cross-section",
    "beach_dist_km": 125.24,
    "bridge_proximity_bonus": 0.0,
    "catchment_area_km2": 2.1721,
    "channel_width_m": 2.94,
    "channel_width_score": 1.0,
    "composite_score": 45.0,
    "cso_density": 0.0,
    "ej_index": 0.5132,
    "elevation_m": 41.0646,
    "estuary_dist_km": 266.85,
    "feasibility_score": 0.0,
    "flood_q10_cfs": 152.26,
    "flow_score": 0.0,
    "flow_velocity_ms": 0.5,
    "generation_score": 78.2609,
    "impact_score": 71.7391,
    "impervious_pct": null,
    "land_ownership": 0.5,
    "lat": 34.7922,
    "litter_complaint_density": 0.0,
    "lon": -78.96,
    "navigable_dist_m": null,
    "npdes_points": 0,
    "pixel_col": 388.0,
    "pixel_row": 416.0,
    "population_density": 188.7,
    "position_along": 0.5,
    "protected_area_score": 5.165,
    "rank": 2,
    "road_access_m": 919.6,
    "road_access_score": 0.6,
    "road_density_km_km2": 0.0,
    "robustness_pct": 100.0,
    "runoff_coeff_C": null,
    "seasonal_cv": null,
    "segment_id": 1,
    "segment_length_m": 589.4101,
    "stream_order": 1,
    "superfund_score": 0.0,
    "tourism_amenity_density": 0.2387,
    "tri_facility_density": 0.4604,
    "usgs_mean_q_cfs": null,
    "velocity_feasibility": 1.0,
    "water_intake_score": 0.4506
   },
   "type": "Feature"
  },
  {
   "geometry": {
    "coordinates": [
     -78.983758,
     34.805823
    ],
    "type": "Point"
   },
   "properties": {
    "accumulation": 28092.0,
    "bank_slope_deg": 3.25,
    "bank_slope_score": 1.0,
    "bank_slope_source": "nc-dps-lidar-dem03-cross-section",
    "beach_dist_km": 127.88,
    "bridge_proximity_bonus": 0.0,
    "catchment_area_km2": 2.7996,
    "channel_width_m": 3.23,
    "channel_width_score": 1.0,
    "composite_score": 36.4221,
    "cso_density": 0.0,
    "ej_index": 0.2626,
    "elevation_m": 45.1937,
    "estuary_dist_km": 268.82,
    "feasibility_score": 100.0,
    "flood_q10_cfs": 177.33,
    "flow_score": 18.0976,
    "flow_velocity_ms": 0.5,
    "generation_score": 28.0648,
    "impact_score": 28.2609,
    "impervious_pct": null,
    "land_ownership": 0.5,
    "lat": 34.8058,
    "litter_complaint_density": 0.0,
    "lon": -78.9838,
    "navigable_dist_m": null,
    "npdes_points": 0,
    "pixel_col": 163.0,
    "pixel_row": 270.0,
    "population_density": 106.9,
    "position_along": 0.25,
    "protected_area_score": 5.6276,
    "rank": 3,
    "road_access_m": 139.9,
    "road_access_score": 1.0,
    "road_density_km_km2": 6.893,
    "robustness_pct": 100.0,
    "runoff_coeff_C": null,
    "seasonal_cv": null,
    "segment_id": 0,
    "segment_length_m": 3646.8108,
    "stream_order": 1,
    "superfund_score": 0.0,
    "tourism_amenity_density": 1.7507,
    "tri_facility_density": 0.3572,
    "usgs_mean_q_cfs": null,
    "velocity_feasibility": 1.0,
    "water_intake_score": 0.3991
   },
   "type": "Feature"
  }
 ],
 "note": "GRIME region 'St. Pauls, NC' \u2014 real-data pipeline (DEM\u2192streams\u2192candidates\u2192stream mask (sites confined to \u00b1150 m of mapped OSM/NHD waterways)\u2192region-appropriate real parameters\u2192shipped scoring, math unchanged). Width curve: Bieger et al. 2015 JAWRA Table 3, Atlantic Plain. Flood: SIR 2014-5030 HR4 (I24H50Y: NOAA Atlas 14). NC Coastal Plain (SIR 2014-5030 HR4; I24H50Y from NOAA Atlas 14 at region center)",
 "provenance": {
  "candidates_pre_gate": 3,
  "constant": [
   "bank_slope_score",
   "bridge_proximity_bonus",
   "channel_width_score",
   "cso_density",
   "flow_velocity_ms",
   "impervious_pct",
   "land_ownership",
   "litter_complaint_density",
   "npdes_points",
   "runoff_coeff_C",
   "seasonal_cv",
   "stream_order",
   "superfund_score",
   "usgs_mean_q_cfs",
   "velocity_feasibility"
  ],
  "gated_navigable": 0,
  "hard_gate_removed": 0,
  "n_parameters": 27,
  "parameters": {
   "bank_slope_score": {
    "kind": "real",
    "n_3dep_10m_fallback": 0,
    "n_nc_lidar_3_125ft": 3,
    "n_real": 3,
    "n_sites": 3,
    "source": "NC OneMap / NC DPS DEM03 statewide lidar-derived 3.125-ft (0.953 m) elevations (perpendicular 50 m transect; robust 5 m bank-rise metric); unavailable profiles use the region 10 m 3DEP DEM-gradient fallback",
    "source_mosaics": [
     "Robeson_Ground_3ft"
    ]
   },
   "beach_dist_km": {
    "kind": "real",
    "n_real": 3,
    "n_sites": 3,
    "source": "haversine to region ref: Wrightsville Beach (shipped NC reference)"
   },
   "bridge_proximity_bonus": {
    "kind": "real",
    "n_real": 3,
    "n_sites": 3,
    "source": "FHWA/BTS NBI (NTAD), 50 m proximity"
   },
   "catchment_area_km2": {
    "kind": "real",
    "n_real": 3,
    "n_sites": 3,
    "source": "DEM flow accumulation (pipeline)"
   },
   "channel_width_score": {
    "kind": "real",
    "n_real": 3,
    "n_sites": 3,
    "source": "Bieger 2015 APL width curve on DEM drainage area \u2192 shipped width curve"
   },
   "cso_density": {
    "kind": "real",
    "n_real": 3,
    "n_sites": 3,
    "source": "EPA ECHO open CSO/TCS outfall PF coordinates states=NC, Cauchy proximity"
   },
   "ej_index": {
    "kind": "real",
    "n_real": 3,
    "n_sites": 3,
    "source": "Census ACS C17002+B03002 two-component demographic index, percentile-ranked within region"
   },
   "estuary_dist_km": {
    "kind": "real",
    "n_real": 3,
    "n_sites": 3,
    "source": "haversine to region ref: Pamlico Sound (shipped NC reference)"
   },
   "flood_q10_cfs": {
    "impervious_fallback_reason": "StreamCat imperviousness unavailable; the existing regression-input fallback of 0.0% impervious was used and is disclosed here",
    "kind": "real",
    "n_impervious_fallback": 3,
    "n_real": 3,
    "n_sites": 3,
    "source": "USGS SIR 2014-5030 Table 7 HR4 (NC Coastal Plain; I24H50Y from NOAA Atlas 14 at region center)"
   },
   "flow_velocity_ms": {
    "kind": "fallback",
    "n_fallback": 3,
    "n_real": 0,
    "n_sites": 3,
    "reason": "EROM/DEM continuity input unavailable; shipped 0.5 m/s default used",
    "source": "Manning (region DEM/D8) blended with EROM continuity (shipped M4 logic)"
   },
   "impervious_pct": {
    "kind": "fallback",
    "n_fallback": 3,
    "n_real": 0,
    "n_sites": 3,
    "reason": "NLDI/StreamCat did not return a snap-compatible catchment value; value remains null and is removed by constant-column handling",
    "source": "EPA StreamCat pctimp2019 (per NHDPlus watershed)"
   },
   "land_ownership": {
    "kind": "real",
    "n_fallback": 0,
    "n_real": 3,
    "n_sites": 3,
    "source": "NC OneMap statewide parcels (NC Parcels Transformer) ownname"
   },
   "litter_complaint_density": {
    "kind": "fallback",
    "n_real": 0,
    "n_sites": 3,
    "source": "no public machine-readable litter/illegal-dumping feed for this region"
   },
   "navigable_dist_m": {
    "kind": "real",
    "n_real": 3,
    "n_sites": 3,
    "source": "USACE/BTS NWN (NTAD): no navigable segment within this bbox (+2 km) \u2014 computed absence, gate passes all sites"
   },
   "npdes_points": {
    "kind": "real",
    "n_real": 3,
    "n_sites": 3,
    "source": "EPA ECHO active NPDES outfalls states=NC (types NPD/GPC/NGP; statuses ADC/EFF/EXP), per catchment"
   },
   "population_density": {
    "kind": "real",
    "n_real": 3,
    "n_sites": 3,
    "source": "Census ACS 2022 B01003 block groups (bbox, multi-county), area-weighted"
   },
   "protected_area_score": {
    "kind": "real",
    "n_real": 3,
    "n_sites": 3,
    "source": "USGS PAD-US 4.1 state GDB; states=NC; shipped designation-weighted proximity curve"
   },
   "road_access_score": {
    "kind": "real",
    "n_real": 3,
    "n_sites": 3,
    "source": "OSM drive network nearest-node distance"
   },
   "road_density_km_km2": {
    "kind": "real",
    "n_real": 3,
    "n_sites": 3,
    "source": "OSM drive network (osmnx, cached) clipped per catchment"
   },
   "runoff_coeff_C": {
    "kind": "fallback",
    "n_fallback": 3,
    "n_real": 0,
    "n_sites": 3,
    "reason": "source impervious_pct was unavailable; derived value remains null",
    "source": "derived from real impervious_pct (C=0.05+0.009*I)"
   },
   "seasonal_cv": {
    "kind": "fallback",
    "n_fallback": 3,
    "n_real": 0,
    "n_sites": 3,
    "reason": "NHDPlus monthly EROM was unavailable or failed the drainage-area snap guard; value remains null",
    "source": "CV of NHDPlus EROM monthly flows per COMID"
   },
   "stream_order": {
    "kind": "real",
    "n_real": 3,
    "n_sites": 3,
    "source": "DEM stream-network confluence heuristic (pipeline)"
   },
   "superfund_score": {
    "kind": "real",
    "n_real": 3,
    "n_sites": 3,
    "source": "EPA DataMap SEMS active sites states=NC (non-archived, georeferenced), shipped 500 m inverse-distance curve"
   },
   "tourism_amenity_density": {
    "kind": "real",
    "n_real": 3,
    "n_sites": 3,
    "source": "OSM leisure/tourism features per 2 km radius"
   },
   "tri_facility_density": {
    "kind": "real",
    "n_real": 3,
    "n_sites": 3,
    "source": "EPA DataMap TRI open facilities states=NC (preferred decimal or packed-DMS recovery), per catchment"
   },
   "usgs_mean_q_cfs": {
    "kind": "fallback",
    "n_fallback": 3,
    "n_real": 0,
    "n_sites": 3,
    "reason": "NHDPlus EROM was unavailable or failed the drainage-area snap guard; value remains null",
    "source": "NHDPlus EROM qe_ma per COMID (snap-guarded)"
   },
   "velocity_feasibility": {
    "kind": "fallback",
    "n_fallback": 3,
    "n_real": 0,
    "n_sites": 3,
    "reason": "derived from the shipped 0.5 m/s velocity fallback",
    "source": "shipped step curve on the computed velocity"
   },
   "velocity_transport_favorability": {
    "fallback_reason": "EROM/DEM continuity input unavailable; shipped 0.5 m/s default used",
    "kind": "derived",
    "n_fallback": 3,
    "n_real": 0,
    "n_sites": 3,
    "source": "scored form of flow_velocity_ms inside the Flow family \u2014 peaked Gaussian exp(-((v-0.9)/0.6)^2), model.json curves.velocity_transport_favorability; construct: transport/delivery favorability, deliberately distinct from velocity_feasibility (device operability)"
   },
   "water_intake_score": {
    "kind": "real",
    "n_real": 3,
    "n_sites": 3,
    "source": "NC OneMap / NC DEQ SWAP public water supply sources (source_typ='Surface Water'), shipped exp(-d/10km) curve"
   }
  },
  "stream_mask": {
   "buffer_m": 150.0,
   "pre_mask": 3,
   "removed": 0,
   "sources": [
    "osm-overpass (all waterway ways)",
    "usgs-nhdplus flowlines"
   ]
  },
  "varying": [
   "beach_dist_km",
   "catchment_area_km2",
   "ej_index",
   "estuary_dist_km",
   "flood_q10_cfs",
   "population_density",
   "protected_area_score",
   "road_access_score",
   "road_density_km_km2",
   "tourism_amenity_density",
   "tri_facility_density",
   "water_intake_score"
  ]
 },
 "region": {
  "bbox": [
   -79.0013,
   34.7888,
   -78.9518,
   34.8295
  ],
  "beach_ref": {
   "label": "Wrightsville Beach (shipped NC reference)",
   "lat": 34.21,
   "lon": -77.79
  },
  "center": [
   -78.976559,
   34.809197
  ],
  "estuary_ref": {
   "label": "Pamlico Sound (shipped NC reference)",
   "lat": 35.05,
   "lon": -76.05
  },
  "flood_method": "sir2014_hr4",
  "name": "St. Pauls, NC",
  "notes": "NC Coastal Plain (SIR 2014-5030 HR4; I24H50Y from NOAA Atlas 14 at region center)",
  "slug": "st-pauls",
  "state": "NC",
  "utm_epsg": 32617,
  "width_curve": {
   "a": 2.22,
   "b": 0.363,
   "code": "APL",
   "source": "Bieger et al. 2015 JAWRA Table 3, Atlantic Plain"
  }
 },
 "type": "FeatureCollection"
}
