{
 "features": [
  {
   "geometry": {
    "coordinates": [
     -78.686601,
     35.00515
    ],
    "type": "Point"
   },
   "properties": {
    "accumulation": 37203.0,
    "bank_slope_deg": 6.26,
    "bank_slope_score": 1.0,
    "bank_slope_source": "nc-dps-lidar-dem03-cross-section",
    "beach_dist_km": 120.63,
    "bridge_proximity_bonus": 0.0,
    "catchment_area_km2": 3.7146,
    "channel_width_m": 3.57,
    "channel_width_score": 1.0,
    "composite_score": 66.2057,
    "cso_density": 0.0,
    "ej_index": 0.1359,
    "elevation_m": 33.2617,
    "estuary_dist_km": 240.12,
    "feasibility_score": 100.0,
    "flood_q10_cfs": 228.52,
    "flow_score": 69.7674,
    "flow_velocity_ms": 0.0636,
    "generation_score": 69.1632,
    "impact_score": 43.3828,
    "impervious_pct": 2.22,
    "land_ownership": 0.5,
    "lat": 35.0051,
    "litter_complaint_density": 0.0,
    "lon": -78.6866,
    "navigable_dist_m": null,
    "npdes_points": 0,
    "pixel_col": 364.0,
    "pixel_row": 326.0,
    "population_density": 58.5,
    "position_along": 0.5,
    "protected_area_score": 5.7736,
    "rank": 1,
    "road_access_m": 299.3,
    "road_access_score": 0.8,
    "road_density_km_km2": 3.068,
    "robustness_pct": 100.0,
    "runoff_coeff_C": 0.07,
    "seasonal_cv": 0.4314,
    "segment_id": 2,
    "segment_length_m": 2955.3797,
    "stream_order": 1,
    "superfund_score": 0.0778,
    "tourism_amenity_density": 0.8754,
    "tri_facility_density": 0.0,
    "usgs_mean_q_cfs": 9.722,
    "velocity_feasibility": 0.7,
    "water_intake_score": 0.3855
   },
   "type": "Feature"
  },
  {
   "geometry": {
    "coordinates": [
     -78.70333,
     35.025773
    ],
    "type": "Point"
   },
   "properties": {
    "accumulation": 28499.0,
    "bank_slope_deg": 1.74,
    "bank_slope_score": 1.0,
    "bank_slope_source": "nc-dps-lidar-dem03-cross-section",
    "beach_dist_km": 123.34,
    "bridge_proximity_bonus": 0.0,
    "catchment_area_km2": 2.8455,
    "channel_width_m": 3.24,
    "channel_width_score": 1.0,
    "composite_score": 65.2444,
    "cso_density": 0.0,
    "ej_index": 0.2725,
    "elevation_m": 35.6239,
    "estuary_dist_km": 241.58,
    "feasibility_score": 100.0,
    "flood_q10_cfs": 192.25,
    "flow_score": 40.067,
    "flow_velocity_ms": 0.0765,
    "generation_score": 64.5966,
    "impact_score": 69.4955,
    "impervious_pct": 1.67,
    "land_ownership": 0.5,
    "lat": 35.0258,
    "litter_complaint_density": 0.0,
    "lon": -78.7033,
    "navigable_dist_m": null,
    "npdes_points": 0,
    "pixel_col": 206.0,
    "pixel_row": 100.0,
    "population_density": 74.0,
    "position_along": 0.5,
    "protected_area_score": 6.4983,
    "rank": 2,
    "road_access_m": 332.8,
    "road_access_score": 0.8,
    "road_density_km_km2": 2.868,
    "robustness_pct": 100.0,
    "runoff_coeff_C": 0.065,
    "seasonal_cv": 0.4266,
    "segment_id": 1,
    "segment_length_m": 1572.1759,
    "stream_order": 1,
    "superfund_score": 0.1098,
    "tourism_amenity_density": 0.7958,
    "tri_facility_density": 0.0,
    "usgs_mean_q_cfs": 7.436,
    "velocity_feasibility": 0.7,
    "water_intake_score": 0.4605
   },
   "type": "Feature"
  },
  {
   "geometry": {
    "coordinates": [
     -78.686866,
     35.032152
    ],
    "type": "Point"
   },
   "properties": {
    "accumulation": 22208.0,
    "bank_slope_deg": 4.6,
    "bank_slope_score": 1.0,
    "bank_slope_source": "nc-dps-lidar-dem03-cross-section",
    "beach_dist_km": 122.85,
    "bridge_proximity_bonus": 0.0,
    "catchment_area_km2": 2.2174,
    "channel_width_m": 2.96,
    "channel_width_score": 1.0,
    "composite_score": 39.2017,
    "cso_density": 0.0,
    "ej_index": 0.3179,
    "elevation_m": 32.5923,
    "estuary_dist_km": 240.06,
    "feasibility_score": 0.0,
    "flood_q10_cfs": 165.51,
    "flow_score": 32.6789,
    "flow_velocity_ms": 0.0865,
    "generation_score": 52.2059,
    "impact_score": 51.2339,
    "impervious_pct": 1.67,
    "land_ownership": 0.5,
    "lat": 35.0322,
    "litter_complaint_density": 0.0,
    "lon": -78.6869,
    "navigable_dist_m": null,
    "npdes_points": 0,
    "pixel_col": 353.0,
    "pixel_row": 23.0,
    "population_density": 78.4,
    "position_along": 0.5,
    "protected_area_score": 6.1333,
    "rank": 3,
    "road_access_m": 711.8,
    "road_access_score": 0.6,
    "road_density_km_km2": 0.503,
    "robustness_pct": 100.0,
    "runoff_coeff_C": 0.065,
    "seasonal_cv": 0.4266,
    "segment_id": 0,
    "segment_length_m": 562.4116,
    "stream_order": 1,
    "superfund_score": 0.0397,
    "tourism_amenity_density": 0.0,
    "tri_facility_density": 0.0,
    "usgs_mean_q_cfs": 7.436,
    "velocity_feasibility": 0.7,
    "water_intake_score": 0.4166
   },
   "type": "Feature"
  },
  {
   "geometry": {
    "coordinates": [
     -78.700642,
     34.996138
    ],
    "type": "Point"
   },
   "properties": {
    "accumulation": 31143.0,
    "bank_slope_deg": 1.74,
    "bank_slope_score": 1.0,
    "bank_slope_source": "nc-dps-lidar-dem03-cross-section",
    "beach_dist_km": 120.78,
    "bridge_proximity_bonus": 0.0,
    "catchment_area_km2": 3.1095,
    "channel_width_m": 3.35,
    "channel_width_score": 1.0,
    "composite_score": 23.7835,
    "cso_density": 0.0,
    "ej_index": 0.0906,
    "elevation_m": 35.4236,
    "estuary_dist_km": 241.43,
    "feasibility_score": 0.0,
    "flood_q10_cfs": 201.36,
    "flow_score": 36.6021,
    "flow_velocity_ms": 0.0659,
    "generation_score": 4.8977,
    "impact_score": 43.8788,
    "impervious_pct": 1.37,
    "land_ownership": 0.5,
    "lat": 34.9961,
    "litter_complaint_density": 0.0,
    "lon": -78.7006,
    "navigable_dist_m": null,
    "npdes_points": 0,
    "pixel_col": 238.0,
    "pixel_row": 428.0,
    "population_density": 54.2,
    "position_along": 0.5,
    "protected_area_score": 6.1578,
    "rank": 4,
    "road_access_m": 549.3,
    "road_access_score": 0.6,
    "road_density_km_km2": 1.106,
    "robustness_pct": 100.0,
    "runoff_coeff_C": 0.0623,
    "seasonal_cv": 0.427,
    "segment_id": 3,
    "segment_length_m": 2333.4301,
    "stream_order": 1,
    "superfund_score": 0.0832,
    "tourism_amenity_density": 0.8754,
    "tri_facility_density": 0.0,
    "usgs_mean_q_cfs": 7.651,
    "velocity_feasibility": 0.7,
    "water_intake_score": 0.4118
   },
   "type": "Feature"
  }
 ],
 "note": "GRIME region 'Stedman, NC' \u2014 real-data pipeline (DEM\u2192streams\u2192candidates\u2192stream mask (sites confined to \u00b1150 m of mapped OSM/NHD waterways)\u2192region-appropriate real parameters\u2192shipped scoring, math unchanged). Width curve: Bieger et al. 2015 JAWRA Table 3, Atlantic Plain. Flood: SIR 2014-5030 HR4 (I24H50Y: NOAA Atlas 14). NC Coastal Plain (SIR 2014-5030 HR4; I24H50Y from NOAA Atlas 14 at region center)",
 "provenance": {
  "candidates_pre_gate": 4,
  "constant": [
   "bank_slope_score",
   "bridge_proximity_bonus",
   "channel_width_score",
   "cso_density",
   "land_ownership",
   "litter_complaint_density",
   "npdes_points",
   "stream_order",
   "tri_facility_density",
   "velocity_feasibility"
  ],
  "gated_navigable": 0,
  "hard_gate_removed": 0,
  "n_parameters": 27,
  "parameters": {
   "bank_slope_score": {
    "kind": "real",
    "n_3dep_10m_fallback": 0,
    "n_nc_lidar_3_125ft": 4,
    "n_real": 4,
    "n_sites": 4,
    "source": "NC OneMap / NC DPS DEM03 statewide lidar-derived 3.125-ft (0.953 m) elevations (perpendicular 50 m transect; robust 5 m bank-rise metric); unavailable profiles use the region 10 m 3DEP DEM-gradient fallback",
    "source_mosaics": [
     "Cumberland_2024_QL1_03ft_CountywideRaster"
    ]
   },
   "beach_dist_km": {
    "kind": "real",
    "n_real": 4,
    "n_sites": 4,
    "source": "haversine to region ref: Wrightsville Beach (shipped NC reference)"
   },
   "bridge_proximity_bonus": {
    "kind": "real",
    "n_real": 4,
    "n_sites": 4,
    "source": "FHWA/BTS NBI (NTAD), 50 m proximity"
   },
   "catchment_area_km2": {
    "kind": "real",
    "n_real": 4,
    "n_sites": 4,
    "source": "DEM flow accumulation (pipeline)"
   },
   "channel_width_score": {
    "kind": "real",
    "n_real": 4,
    "n_sites": 4,
    "source": "Bieger 2015 APL width curve on DEM drainage area \u2192 shipped width curve"
   },
   "cso_density": {
    "kind": "real",
    "n_real": 4,
    "n_sites": 4,
    "source": "EPA ECHO open CSO/TCS outfall PF coordinates states=NC, Cauchy proximity"
   },
   "ej_index": {
    "kind": "real",
    "n_real": 4,
    "n_sites": 4,
    "source": "Census ACS C17002+B03002 two-component demographic index, percentile-ranked within region"
   },
   "estuary_dist_km": {
    "kind": "real",
    "n_real": 4,
    "n_sites": 4,
    "source": "haversine to region ref: Pamlico Sound (shipped NC reference)"
   },
   "flood_q10_cfs": {
    "kind": "real",
    "n_real": 4,
    "n_sites": 4,
    "source": "USGS SIR 2014-5030 Table 7 HR4 (NC Coastal Plain; I24H50Y from NOAA Atlas 14 at region center)"
   },
   "flow_velocity_ms": {
    "kind": "real",
    "n_fallback": 0,
    "n_real": 4,
    "n_sites": 4,
    "source": "Manning (region DEM/D8) blended with EROM continuity (shipped M4 logic)"
   },
   "impervious_pct": {
    "kind": "real",
    "n_real": 4,
    "n_sites": 4,
    "source": "EPA StreamCat pctimp2019 (per NHDPlus watershed)"
   },
   "land_ownership": {
    "kind": "real",
    "n_fallback": 0,
    "n_real": 4,
    "n_sites": 4,
    "source": "NC OneMap statewide parcels (NC Parcels Transformer) ownname"
   },
   "litter_complaint_density": {
    "kind": "fallback",
    "n_real": 0,
    "n_sites": 4,
    "source": "no public machine-readable litter/illegal-dumping feed for this region"
   },
   "navigable_dist_m": {
    "kind": "real",
    "n_real": 4,
    "n_sites": 4,
    "source": "USACE/BTS NWN (NTAD): no navigable segment within this bbox (+2 km) \u2014 computed absence, gate passes all sites"
   },
   "npdes_points": {
    "kind": "real",
    "n_real": 4,
    "n_sites": 4,
    "source": "EPA ECHO active NPDES outfalls states=NC (types NPD/GPC/NGP; statuses ADC/EFF/EXP), per catchment"
   },
   "population_density": {
    "kind": "real",
    "n_real": 4,
    "n_sites": 4,
    "source": "Census ACS 2022 B01003 block groups (bbox, multi-county), area-weighted"
   },
   "protected_area_score": {
    "kind": "real",
    "n_real": 4,
    "n_sites": 4,
    "source": "USGS PAD-US 4.1 state GDB; states=NC; shipped designation-weighted proximity curve"
   },
   "road_access_score": {
    "kind": "real",
    "n_real": 4,
    "n_sites": 4,
    "source": "OSM drive network nearest-node distance"
   },
   "road_density_km_km2": {
    "kind": "real",
    "n_real": 4,
    "n_sites": 4,
    "source": "OSM drive network (osmnx, cached) clipped per catchment"
   },
   "runoff_coeff_C": {
    "kind": "real",
    "n_real": 4,
    "n_sites": 4,
    "source": "derived from real impervious_pct (C=0.05+0.009*I)"
   },
   "seasonal_cv": {
    "kind": "real",
    "n_real": 4,
    "n_sites": 4,
    "source": "CV of NHDPlus EROM monthly flows per COMID"
   },
   "stream_order": {
    "kind": "real",
    "n_real": 4,
    "n_sites": 4,
    "source": "DEM stream-network confluence heuristic (pipeline)"
   },
   "superfund_score": {
    "kind": "real",
    "n_real": 4,
    "n_sites": 4,
    "source": "EPA DataMap SEMS active sites states=NC (non-archived, georeferenced), shipped 500 m inverse-distance curve"
   },
   "tourism_amenity_density": {
    "kind": "real",
    "n_real": 4,
    "n_sites": 4,
    "source": "OSM leisure/tourism features per 2 km radius"
   },
   "tri_facility_density": {
    "kind": "real",
    "n_real": 4,
    "n_sites": 4,
    "source": "EPA DataMap TRI open facilities states=NC (preferred decimal or packed-DMS recovery), per catchment"
   },
   "usgs_mean_q_cfs": {
    "kind": "real",
    "n_real": 4,
    "n_sites": 4,
    "source": "NHDPlus EROM qe_ma per COMID (snap-guarded)"
   },
   "velocity_feasibility": {
    "kind": "real",
    "n_fallback": 0,
    "n_real": 4,
    "n_sites": 4,
    "source": "shipped step curve on the computed velocity"
   },
   "velocity_transport_favorability": {
    "kind": "derived",
    "n_real": 4,
    "n_sites": 4,
    "source": "scored form of flow_velocity_ms inside the Flow family \u2014 peaked Gaussian exp(-((v-0.9)/0.6)^2), model.json curves.velocity_transport_favorability; construct: transport/delivery favorability, deliberately distinct from velocity_feasibility (device operability)"
   },
   "water_intake_score": {
    "kind": "real",
    "n_real": 4,
    "n_sites": 4,
    "source": "NC OneMap / NC DEQ SWAP public water supply sources (source_typ='Surface Water'), shipped exp(-d/10km) curve"
   }
  },
  "stream_mask": {
   "buffer_m": 150.0,
   "pre_mask": 4,
   "removed": 0,
   "sources": [
    "osm-overpass (all waterway ways)",
    "usgs-nhdplus flowlines"
   ]
  },
  "varying": [
   "beach_dist_km",
   "catchment_area_km2",
   "ej_index",
   "estuary_dist_km",
   "flood_q10_cfs",
   "flow_velocity_ms",
   "impervious_pct",
   "population_density",
   "protected_area_score",
   "road_access_score",
   "road_density_km_km2",
   "runoff_coeff_C",
   "seasonal_cv",
   "superfund_score",
   "tourism_amenity_density",
   "usgs_mean_q_cfs",
   "water_intake_score"
  ]
 },
 "region": {
  "bbox": [
   -78.7255,
   34.9927,
   -78.6748,
   35.0342
  ],
  "beach_ref": {
   "label": "Wrightsville Beach (shipped NC reference)",
   "lat": 34.21,
   "lon": -77.79
  },
  "center": [
   -78.700121,
   35.013483
  ],
  "estuary_ref": {
   "label": "Pamlico Sound (shipped NC reference)",
   "lat": 35.05,
   "lon": -76.05
  },
  "flood_method": "sir2014_hr4",
  "name": "Stedman, NC",
  "notes": "NC Coastal Plain (SIR 2014-5030 HR4; I24H50Y from NOAA Atlas 14 at region center)",
  "slug": "stedman",
  "state": "NC",
  "utm_epsg": 32617,
  "width_curve": {
   "a": 2.22,
   "b": 0.363,
   "code": "APL",
   "source": "Bieger et al. 2015 JAWRA Table 3, Atlantic Plain"
  }
 },
 "type": "FeatureCollection"
}
