{
 "features": [
  {
   "geometry": {
    "coordinates": [
     -79.92347,
     36.460043
    ],
    "type": "Point"
   },
   "properties": {
    "accumulation": 48947.0,
    "bank_slope_deg": 13.62,
    "bank_slope_score": 1.0,
    "bank_slope_source": "nc-dps-lidar-dem03-cross-section",
    "beach_dist_km": 316.29,
    "bridge_proximity_bonus": 0.0,
    "catchment_area_km2": 4.8878,
    "channel_width_m": 6.03,
    "channel_width_score": 1.0,
    "composite_score": 72.9066,
    "cso_density": 0.0,
    "ej_index": 0.691,
    "elevation_m": 203.5209,
    "estuary_dist_km": 383.05,
    "feasibility_score": 100.0,
    "flood_q10_cfs": 664.55,
    "flow_score": 62.0045,
    "flow_velocity_ms": 0.117,
    "generation_score": 67.8379,
    "impact_score": 73.5138,
    "impervious_pct": 4.44,
    "land_ownership": 1.0,
    "lat": 36.46,
    "litter_complaint_density": 0.0,
    "lon": -79.9235,
    "navigable_dist_m": null,
    "npdes_points": 1,
    "pixel_col": 61.0,
    "pixel_row": 276.0,
    "population_density": 48.2,
    "position_along": 0.75,
    "protected_area_score": 3.9538,
    "rank": 1,
    "road_access_m": 147.5,
    "road_access_score": 1.0,
    "road_density_km_km2": 3.117,
    "robustness_pct": 100.0,
    "runoff_coeff_C": 0.09,
    "seasonal_cv": 0.3937,
    "segment_id": 1,
    "segment_length_m": 3106.5932,
    "stream_order": 1,
    "superfund_score": 0.0,
    "tourism_amenity_density": 1.1141,
    "tri_facility_density": 0.4092,
    "usgs_mean_q_cfs": 5.096,
    "velocity_feasibility": 0.7,
    "water_intake_score": 1.2419
   },
   "type": "Feature"
  },
  {
   "geometry": {
    "coordinates": [
     -79.901376,
     36.449879
    ],
    "type": "Point"
   },
   "properties": {
    "accumulation": 28858.0,
    "bank_slope_deg": 14.11,
    "bank_slope_score": 1.0,
    "bank_slope_source": "nc-dps-lidar-dem03-cross-section",
    "beach_dist_km": 314.18,
    "bridge_proximity_bonus": 0.0,
    "catchment_area_km2": 2.8818,
    "channel_width_m": 4.84,
    "channel_width_score": 1.0,
    "composite_score": 53.3652,
    "cso_density": 0.0,
    "ej_index": 0.574,
    "elevation_m": 213.3501,
    "estuary_dist_km": 380.78,
    "feasibility_score": 20.0,
    "flood_q10_cfs": 448.94,
    "flow_score": 50.4653,
    "flow_velocity_ms": 0.0872,
    "generation_score": 50.8839,
    "impact_score": 74.9457,
    "impervious_pct": 4.78,
    "land_ownership": 0.5,
    "lat": 36.4499,
    "litter_complaint_density": 0.0,
    "lon": -79.9014,
    "navigable_dist_m": null,
    "npdes_points": 0,
    "pixel_col": 259.0,
    "pixel_row": 387.0,
    "population_density": 61.4,
    "position_along": 0.5,
    "protected_area_score": 3.8092,
    "rank": 2,
    "road_access_m": 318.7,
    "road_access_score": 0.8,
    "road_density_km_km2": 1.45,
    "robustness_pct": 100.0,
    "runoff_coeff_C": 0.093,
    "seasonal_cv": 0.3911,
    "segment_id": 2,
    "segment_length_m": 1403.4017,
    "stream_order": 1,
    "superfund_score": 0.0,
    "tourism_amenity_density": 0.7958,
    "tri_facility_density": 0.0,
    "usgs_mean_q_cfs": 5.783,
    "velocity_feasibility": 0.7,
    "water_intake_score": 1.2566
   },
   "type": "Feature"
  },
  {
   "geometry": {
    "coordinates": [
     -79.919133,
     36.470135
    ],
    "type": "Point"
   },
   "properties": {
    "accumulation": 25058.0,
    "bank_slope_deg": 18.87,
    "bank_slope_score": 0.5,
    "bank_slope_source": "nc-dps-lidar-dem03-cross-section",
    "beach_dist_km": 316.93,
    "bridge_proximity_bonus": 0.0,
    "catchment_area_km2": 2.5023,
    "channel_width_m": 4.57,
    "channel_width_score": 1.0,
    "composite_score": 45.7819,
    "cso_density": 0.0,
    "ej_index": 0.5793,
    "elevation_m": 216.8046,
    "estuary_dist_km": 383.13,
    "feasibility_score": 50.0,
    "flood_q10_cfs": 401.23,
    "flow_score": 31.401,
    "flow_velocity_ms": 0.1323,
    "generation_score": 65.6835,
    "impact_score": 35.7553,
    "impervious_pct": 4.44,
    "land_ownership": 0.5,
    "lat": 36.4701,
    "litter_complaint_density": 0.0,
    "lon": -79.9191,
    "navigable_dist_m": null,
    "npdes_points": 0,
    "pixel_col": 98.0,
    "pixel_row": 162.0,
    "population_density": 53.2,
    "position_along": 0.25,
    "protected_area_score": 3.7405,
    "rank": 3,
    "road_access_m": 192.5,
    "road_access_score": 1.0,
    "road_density_km_km2": 4.608,
    "robustness_pct": 100.0,
    "runoff_coeff_C": 0.09,
    "seasonal_cv": 0.3937,
    "segment_id": 1,
    "segment_length_m": 3106.5932,
    "stream_order": 1,
    "superfund_score": 0.0,
    "tourism_amenity_density": 1.1141,
    "tri_facility_density": 0.3996,
    "usgs_mean_q_cfs": 5.096,
    "velocity_feasibility": 0.7,
    "water_intake_score": 1.1502
   },
   "type": "Feature"
  },
  {
   "geometry": {
    "coordinates": [
     -79.887042,
     36.476869
    ],
    "type": "Point"
   },
   "properties": {
    "accumulation": 31115.0,
    "bank_slope_deg": 8.61,
    "bank_slope_score": 1.0,
    "bank_slope_source": "nc-dps-lidar-dem03-cross-section",
    "beach_dist_km": 315.76,
    "bridge_proximity_bonus": 0.0,
    "catchment_area_km2": 3.1071,
    "channel_width_m": 4.99,
    "channel_width_score": 1.0,
    "composite_score": 27.4601,
    "cso_density": 0.0,
    "ej_index": 0.5574,
    "elevation_m": 210.4328,
    "estuary_dist_km": 380.79,
    "feasibility_score": 70.0,
    "flood_q10_cfs": 457.61,
    "flow_score": 18.2427,
    "flow_velocity_ms": 0.105,
    "generation_score": 20.6294,
    "impact_score": 20.702,
    "impervious_pct": 2.63,
    "land_ownership": 0.5,
    "lat": 36.4769,
    "litter_complaint_density": 0.0,
    "lon": -79.887,
    "navigable_dist_m": null,
    "npdes_points": 0,
    "pixel_col": 388.0,
    "pixel_row": 83.0,
    "population_density": 60.0,
    "position_along": 0.5,
    "protected_area_score": 3.4042,
    "rank": 4,
    "road_access_m": 190.4,
    "road_access_score": 1.0,
    "road_density_km_km2": 0.808,
    "robustness_pct": 100.0,
    "runoff_coeff_C": 0.0737,
    "seasonal_cv": 0.3975,
    "segment_id": 0,
    "segment_length_m": 1412.6845,
    "stream_order": 1,
    "superfund_score": 0.0,
    "tourism_amenity_density": 0.0796,
    "tri_facility_density": 0.0,
    "usgs_mean_q_cfs": 5.161,
    "velocity_feasibility": 0.7,
    "water_intake_score": 1.059
   },
   "type": "Feature"
  }
 ],
 "note": "GRIME region 'Stoneville, NC' \u2014 real-data pipeline (DEM\u2192streams\u2192candidates\u2192stream mask (sites confined to \u00b1150 m of mapped OSM/NHD waterways)\u2192region-appropriate real parameters\u2192shipped scoring, math unchanged). Width curve: Bieger et al. 2015 JAWRA Table 3, Appalachian Highlands. Flood: SIR 2014-5030 HR1. NC Piedmont (DEQ physiography polygon)",
 "provenance": {
  "candidates_pre_gate": 4,
  "constant": [
   "bridge_proximity_bonus",
   "channel_width_score",
   "cso_density",
   "litter_complaint_density",
   "stream_order",
   "superfund_score",
   "velocity_feasibility"
  ],
  "gated_navigable": 0,
  "hard_gate_removed": 0,
  "n_parameters": 27,
  "parameters": {
   "bank_slope_score": {
    "kind": "real",
    "n_3dep_10m_fallback": 0,
    "n_nc_lidar_3_125ft": 4,
    "n_real": 4,
    "n_sites": 4,
    "source": "NC OneMap / NC DPS DEM03 statewide lidar-derived 3.125-ft (0.953 m) elevations (perpendicular 50 m transect; robust 5 m bank-rise metric); unavailable profiles use the region 10 m 3DEP DEM-gradient fallback",
    "source_mosaics": [
     "Rockingham_Countywide_DEM03"
    ]
   },
   "beach_dist_km": {
    "kind": "real",
    "n_real": 4,
    "n_sites": 4,
    "source": "haversine to region ref: Wrightsville Beach (shipped NC reference)"
   },
   "bridge_proximity_bonus": {
    "kind": "real",
    "n_real": 4,
    "n_sites": 4,
    "source": "FHWA/BTS NBI (NTAD), 50 m proximity"
   },
   "catchment_area_km2": {
    "kind": "real",
    "n_real": 4,
    "n_sites": 4,
    "source": "DEM flow accumulation (pipeline)"
   },
   "channel_width_score": {
    "kind": "real",
    "n_real": 4,
    "n_sites": 4,
    "source": "Bieger 2015 AHI width curve on DEM drainage area \u2192 shipped width curve"
   },
   "cso_density": {
    "kind": "real",
    "n_real": 4,
    "n_sites": 4,
    "source": "EPA ECHO open CSO/TCS outfall PF coordinates states=NC, Cauchy proximity"
   },
   "ej_index": {
    "kind": "real",
    "n_real": 4,
    "n_sites": 4,
    "source": "Census ACS C17002+B03002 two-component demographic index, percentile-ranked within region"
   },
   "estuary_dist_km": {
    "kind": "real",
    "n_real": 4,
    "n_sites": 4,
    "source": "haversine to region ref: Pamlico Sound (shipped NC reference)"
   },
   "flood_q10_cfs": {
    "kind": "real",
    "n_real": 4,
    "n_sites": 4,
    "source": "USGS SIR 2014-5030 Table 7 HR1 (NC Piedmont)"
   },
   "flow_velocity_ms": {
    "kind": "real",
    "n_fallback": 0,
    "n_real": 4,
    "n_sites": 4,
    "source": "Manning (region DEM/D8) blended with EROM continuity (shipped M4 logic)"
   },
   "impervious_pct": {
    "kind": "real",
    "n_real": 4,
    "n_sites": 4,
    "source": "EPA StreamCat pctimp2019 (per NHDPlus watershed)"
   },
   "land_ownership": {
    "kind": "real",
    "n_fallback": 0,
    "n_real": 4,
    "n_sites": 4,
    "source": "NC OneMap statewide parcels (NC Parcels Transformer) ownname"
   },
   "litter_complaint_density": {
    "kind": "fallback",
    "n_real": 0,
    "n_sites": 4,
    "source": "no public machine-readable litter/illegal-dumping feed for this region"
   },
   "navigable_dist_m": {
    "kind": "real",
    "n_real": 4,
    "n_sites": 4,
    "source": "USACE/BTS NWN (NTAD): no navigable segment within this bbox (+2 km) \u2014 computed absence, gate passes all sites"
   },
   "npdes_points": {
    "kind": "real",
    "n_real": 4,
    "n_sites": 4,
    "source": "EPA ECHO active NPDES outfalls states=NC (types NPD/GPC/NGP; statuses ADC/EFF/EXP), per catchment"
   },
   "population_density": {
    "kind": "real",
    "n_real": 4,
    "n_sites": 4,
    "source": "Census ACS 2022 B01003 block groups (bbox, multi-county), area-weighted"
   },
   "protected_area_score": {
    "kind": "real",
    "n_real": 4,
    "n_sites": 4,
    "source": "USGS PAD-US 4.1 state GDB; states=NC; shipped designation-weighted proximity curve"
   },
   "road_access_score": {
    "kind": "real",
    "n_real": 4,
    "n_sites": 4,
    "source": "OSM drive network nearest-node distance"
   },
   "road_density_km_km2": {
    "kind": "real",
    "n_real": 4,
    "n_sites": 4,
    "source": "OSM drive network (osmnx, cached) clipped per catchment"
   },
   "runoff_coeff_C": {
    "kind": "real",
    "n_real": 4,
    "n_sites": 4,
    "source": "derived from real impervious_pct (C=0.05+0.009*I)"
   },
   "seasonal_cv": {
    "kind": "real",
    "n_real": 4,
    "n_sites": 4,
    "source": "CV of NHDPlus EROM monthly flows per COMID"
   },
   "stream_order": {
    "kind": "real",
    "n_real": 4,
    "n_sites": 4,
    "source": "DEM stream-network confluence heuristic (pipeline)"
   },
   "superfund_score": {
    "kind": "real",
    "n_real": 4,
    "n_sites": 4,
    "source": "EPA DataMap SEMS active sites states=NC (non-archived, georeferenced), shipped 500 m inverse-distance curve"
   },
   "tourism_amenity_density": {
    "kind": "real",
    "n_real": 4,
    "n_sites": 4,
    "source": "OSM leisure/tourism features per 2 km radius"
   },
   "tri_facility_density": {
    "kind": "real",
    "n_real": 4,
    "n_sites": 4,
    "source": "EPA DataMap TRI open facilities states=NC (preferred decimal or packed-DMS recovery), per catchment"
   },
   "usgs_mean_q_cfs": {
    "kind": "real",
    "n_real": 4,
    "n_sites": 4,
    "source": "NHDPlus EROM qe_ma per COMID (snap-guarded)"
   },
   "velocity_feasibility": {
    "kind": "real",
    "n_fallback": 0,
    "n_real": 4,
    "n_sites": 4,
    "source": "shipped step curve on the computed velocity"
   },
   "velocity_transport_favorability": {
    "kind": "derived",
    "n_real": 4,
    "n_sites": 4,
    "source": "scored form of flow_velocity_ms inside the Flow family \u2014 peaked Gaussian exp(-((v-0.9)/0.6)^2), model.json curves.velocity_transport_favorability; construct: transport/delivery favorability, deliberately distinct from velocity_feasibility (device operability)"
   },
   "water_intake_score": {
    "kind": "real",
    "n_real": 4,
    "n_sites": 4,
    "source": "NC OneMap / NC DEQ SWAP public water supply sources (source_typ='Surface Water'), shipped exp(-d/10km) curve"
   }
  },
  "stream_mask": {
   "buffer_m": 150.0,
   "pre_mask": 4,
   "removed": 0,
   "sources": [
    "osm-overpass (all waterway ways)",
    "usgs-nhdplus flowlines"
   ]
  },
  "varying": [
   "bank_slope_score",
   "beach_dist_km",
   "catchment_area_km2",
   "ej_index",
   "estuary_dist_km",
   "flood_q10_cfs",
   "flow_velocity_ms",
   "impervious_pct",
   "land_ownership",
   "npdes_points",
   "population_density",
   "protected_area_score",
   "road_access_score",
   "road_density_km_km2",
   "runoff_coeff_C",
   "seasonal_cv",
   "tourism_amenity_density",
   "tri_facility_density",
   "usgs_mean_q_cfs",
   "water_intake_score"
  ]
 },
 "region": {
  "bbox": [
   -79.9301,
   36.4462,
   -79.8826,
   36.4844
  ],
  "beach_ref": {
   "label": "Wrightsville Beach (shipped NC reference)",
   "lat": 34.21,
   "lon": -77.79
  },
  "center": [
   -79.906351,
   36.465314
  ],
  "estuary_ref": {
   "label": "Pamlico Sound (shipped NC reference)",
   "lat": 35.05,
   "lon": -76.05
  },
  "flood_method": "sir2014_hr1",
  "name": "Stoneville, NC",
  "notes": "NC Piedmont (DEQ physiography polygon)",
  "slug": "stoneville",
  "state": "NC",
  "utm_epsg": 32617,
  "width_curve": {
   "a": 3.12,
   "b": 0.415,
   "code": "AHI",
   "source": "Bieger et al. 2015 JAWRA Table 3, Appalachian Highlands"
  }
 },
 "type": "FeatureCollection"
}
