{
 "features": [
  {
   "geometry": {
    "coordinates": [
     -83.222007,
     35.374165
    ],
    "type": "Point"
   },
   "properties": {
    "accumulation": 146984.0,
    "bank_slope_deg": 9.84,
    "bank_slope_score": 1.0,
    "bank_slope_source": "nc-dps-lidar-dem03-cross-section",
    "beach_dist_km": 512.57,
    "bridge_proximity_bonus": 0.0,
    "catchment_area_km2": 14.6741,
    "channel_width_m": 9.51,
    "channel_width_score": 1.0,
    "composite_score": 54.0824,
    "cso_density": 0.0,
    "ej_index": 0.6427,
    "elevation_m": 617.5714,
    "estuary_dist_km": 652.42,
    "feasibility_score": 66.4286,
    "flood_q10_cfs": null,
    "flow_score": 48.8505,
    "flow_velocity_ms": 0.2044,
    "generation_score": 48.3285,
    "impact_score": 58.0233,
    "impervious_pct": 1.81,
    "land_ownership": 0.5,
    "lat": 35.3742,
    "litter_complaint_density": 0.0,
    "lon": -83.222,
    "navigable_dist_m": null,
    "npdes_points": 2,
    "pixel_col": 487.0,
    "pixel_row": 338.0,
    "population_density": 188.9,
    "position_along": 0.5,
    "protected_area_score": 8.7543,
    "rank": 1,
    "road_access_m": 78.2,
    "road_access_score": 1.0,
    "road_density_km_km2": 5.422,
    "robustness_pct": 100.0,
    "runoff_coeff_C": 0.0663,
    "seasonal_cv": 0.4186,
    "segment_id": 6,
    "segment_length_m": 1357.2831,
    "stream_order": 3,
    "superfund_score": 0.0299,
    "tourism_amenity_density": 4.7746,
    "tri_facility_density": 0.0,
    "usgs_mean_q_cfs": 138.432,
    "velocity_feasibility": 0.7,
    "water_intake_score": 1.6326
   },
   "type": "Feature"
  },
  {
   "geometry": {
    "coordinates": [
     -83.215502,
     35.379352
    ],
    "type": "Point"
   },
   "properties": {
    "accumulation": 81434.0,
    "bank_slope_deg": 17.58,
    "bank_slope_score": 0.5,
    "bank_slope_source": "nc-dps-lidar-dem03-cross-section",
    "beach_dist_km": 512.12,
    "bridge_proximity_bonus": 0.0,
    "catchment_area_km2": 8.1299,
    "channel_width_m": 7.44,
    "channel_width_score": 1.0,
    "composite_score": 51.3387,
    "cso_density": 0.0,
    "ej_index": 0.6108,
    "elevation_m": 624.6187,
    "estuary_dist_km": 651.84,
    "feasibility_score": 68.75,
    "flood_q10_cfs": null,
    "flow_score": 39.1293,
    "flow_velocity_ms": 0.5,
    "generation_score": 47.155,
    "impact_score": 56.9913,
    "impervious_pct": null,
    "land_ownership": 0.5,
    "lat": 35.3794,
    "litter_complaint_density": 0.0,
    "lon": -83.2155,
    "navigable_dist_m": null,
    "npdes_points": 2,
    "pixel_col": 550.0,
    "pixel_row": 285.0,
    "population_density": 203.6,
    "position_along": 0.5,
    "protected_area_score": 8.4488,
    "rank": 2,
    "road_access_m": 78.8,
    "road_access_score": 1.0,
    "road_density_km_km2": 6.702,
    "robustness_pct": 98.5,
    "runoff_coeff_C": null,
    "seasonal_cv": null,
    "segment_id": 3,
    "segment_length_m": 1165.0158,
    "stream_order": 3,
    "superfund_score": 0.0182,
    "tourism_amenity_density": 4.6155,
    "tri_facility_density": 0.0,
    "usgs_mean_q_cfs": null,
    "velocity_feasibility": 1.0,
    "water_intake_score": 1.6467
   },
   "type": "Feature"
  },
  {
   "geometry": {
    "coordinates": [
     -83.204385,
     35.35147
    ],
    "type": "Point"
   },
   "properties": {
    "accumulation": 41100.0,
    "bank_slope_deg": 22.27,
    "bank_slope_score": 0.5,
    "bank_slope_source": "nc-dps-lidar-dem03-cross-section",
    "beach_dist_km": 510.44,
    "bridge_proximity_bonus": 0.0,
    "catchment_area_km2": 4.1032,
    "channel_width_m": 5.61,
    "channel_width_score": 1.0,
    "composite_score": 50.8503,
    "cso_density": 0.0,
    "ej_index": 0.4483,
    "elevation_m": 641.2077,
    "estuary_dist_km": 650.78,
    "feasibility_score": 63.75,
    "flood_q10_cfs": null,
    "flow_score": 10.373,
    "flow_velocity_ms": 0.0468,
    "generation_score": 63.0503,
    "impact_score": 65.9316,
    "impervious_pct": 8.34,
    "land_ownership": 1.0,
    "lat": 35.3515,
    "litter_complaint_density": 0.0,
    "lon": -83.2044,
    "navigable_dist_m": null,
    "npdes_points": 0,
    "pixel_col": 643.0,
    "pixel_row": 597.0,
    "population_density": 98.8,
    "position_along": 0.25,
    "protected_area_score": 9.3964,
    "rank": 3,
    "road_access_m": 88.0,
    "road_access_score": 1.0,
    "road_density_km_km2": 5.244,
    "robustness_pct": 70.0,
    "runoff_coeff_C": 0.1251,
    "seasonal_cv": 0.5425,
    "segment_id": 8,
    "segment_length_m": 3287.4731,
    "stream_order": 3,
    "superfund_score": 0.016,
    "tourism_amenity_density": 1.4324,
    "tri_facility_density": 0.2437,
    "usgs_mean_q_cfs": 5.322,
    "velocity_feasibility": 0.3,
    "water_intake_score": 1.9378
   },
   "type": "Feature"
  },
  {
   "geometry": {
    "coordinates": [
     -83.236594,
     35.374428
    ],
    "type": "Point"
   },
   "properties": {
    "accumulation": 201761.0,
    "bank_slope_deg": 30.63,
    "bank_slope_score": 0.2,
    "bank_slope_source": "nc-dps-lidar-dem03-cross-section",
    "beach_dist_km": 513.86,
    "bridge_proximity_bonus": 0.0,
    "catchment_area_km2": 20.1428,
    "channel_width_m": 10.85,
    "channel_width_score": 1.0,
    "composite_score": 49.9394,
    "cso_density": 0.0,
    "ej_index": 0.6243,
    "elevation_m": 609.7007,
    "estuary_dist_km": 653.75,
    "feasibility_score": 56.4286,
    "flood_q10_cfs": null,
    "flow_score": 53.306,
    "flow_velocity_ms": 0.2192,
    "generation_score": 42.877,
    "impact_score": 50.9518,
    "impervious_pct": 1.97,
    "land_ownership": 0.5,
    "lat": 35.3744,
    "litter_complaint_density": 0.0,
    "lon": -83.2366,
    "navigable_dist_m": null,
    "npdes_points": 2,
    "pixel_col": 355.0,
    "pixel_row": 335.0,
    "population_density": 143.5,
    "position_along": 0.25,
    "protected_area_score": 8.5226,
    "rank": 4,
    "road_access_m": 147.9,
    "road_access_score": 1.0,
    "road_density_km_km2": 5.681,
    "robustness_pct": 72.5,
    "runoff_coeff_C": 0.0677,
    "seasonal_cv": 0.4244,
    "segment_id": 7,
    "segment_length_m": 3145.7527,
    "stream_order": 3,
    "superfund_score": 0.0584,
    "tourism_amenity_density": 6.7641,
    "tri_facility_density": 0.0,
    "usgs_mean_q_cfs": 143.137,
    "velocity_feasibility": 0.7,
    "water_intake_score": 1.5312
   },
   "type": "Feature"
  },
  {
   "geometry": {
    "coordinates": [
     -83.247193,
     35.369983
    ],
    "type": "Point"
   },
   "properties": {
    "accumulation": 239648.0,
    "bank_slope_deg": 22.83,
    "bank_slope_score": 0.5,
    "bank_slope_source": "nc-dps-lidar-dem03-cross-section",
    "beach_dist_km": 514.69,
    "bridge_proximity_bonus": 0.0,
    "catchment_area_km2": 23.9252,
    "channel_width_m": 11.65,
    "channel_width_score": 1.0,
    "composite_score": 47.3138,
    "cso_density": 0.0,
    "ej_index": 0.577,
    "elevation_m": 600.748,
    "estuary_dist_km": 654.7,
    "feasibility_score": 75.1786,
    "flood_q10_cfs": null,
    "flow_score": 55.5497,
    "flow_velocity_ms": 0.2178,
    "generation_score": 29.5707,
    "impact_score": 44.2615,
    "impervious_pct": 2.05,
    "land_ownership": 1.0,
    "lat": 35.37,
    "litter_complaint_density": 0.0,
    "lon": -83.2472,
    "navigable_dist_m": null,
    "npdes_points": 1,
    "pixel_col": 258.0,
    "pixel_row": 383.0,
    "population_density": 109.0,
    "position_along": 0.75,
    "protected_area_score": 8.7808,
    "rank": 5,
    "road_access_m": 17.9,
    "road_access_score": 1.0,
    "road_density_km_km2": 5.135,
    "robustness_pct": 49.5,
    "runoff_coeff_C": 0.0684,
    "seasonal_cv": 0.4266,
    "segment_id": 7,
    "segment_length_m": 3145.7527,
    "stream_order": 3,
    "superfund_score": 0.13,
    "tourism_amenity_density": 5.0134,
    "tri_facility_density": 0.0,
    "usgs_mean_q_cfs": 144.761,
    "velocity_feasibility": 0.7,
    "water_intake_score": 1.4835
   },
   "type": "Feature"
  },
  {
   "geometry": {
    "coordinates": [
     -83.214366,
     35.384656
    ],
    "type": "Point"
   },
   "properties": {
    "accumulation": 23516.0,
    "bank_slope_deg": 1.62,
    "bank_slope_score": 1.0,
    "bank_slope_source": "nc-dps-lidar-dem03-cross-section",
    "beach_dist_km": 512.16,
    "bridge_proximity_bonus": 0.0,
    "catchment_area_km2": 2.3477,
    "channel_width_m": 4.45,
    "channel_width_score": 1.0,
    "composite_score": 47.1121,
    "cso_density": 0.0,
    "ej_index": 0.5898,
    "elevation_m": 629.8246,
    "estuary_dist_km": 651.75,
    "feasibility_score": 75.0,
    "flood_q10_cfs": null,
    "flow_score": 36.1111,
    "flow_velocity_ms": 0.5,
    "generation_score": 35.5524,
    "impact_score": 53.8952,
    "impervious_pct": null,
    "land_ownership": 0.5,
    "lat": 35.3847,
    "litter_complaint_density": 0.0,
    "lon": -83.2144,
    "navigable_dist_m": null,
    "npdes_points": 1,
    "pixel_col": 562.0,
    "pixel_row": 227.0,
    "population_density": 172.8,
    "position_along": 0.5,
    "protected_area_score": 8.2763,
    "rank": 6,
    "road_access_m": 4.2,
    "road_access_score": 1.0,
    "road_density_km_km2": 6.945,
    "robustness_pct": 18.0,
    "runoff_coeff_C": null,
    "seasonal_cv": null,
    "segment_id": 2,
    "segment_length_m": 136.4556,
    "stream_order": 3,
    "superfund_score": 0.0144,
    "tourism_amenity_density": 4.2972,
    "tri_facility_density": 0.0,
    "usgs_mean_q_cfs": null,
    "velocity_feasibility": 1.0,
    "water_intake_score": 1.6209
   },
   "type": "Feature"
  },
  {
   "geometry": {
    "coordinates": [
     -83.20587,
     35.389167
    ],
    "type": "Point"
   },
   "properties": {
    "accumulation": 42989.0,
    "bank_slope_deg": 17.19,
    "bank_slope_score": 0.5,
    "bank_slope_source": "nc-dps-lidar-dem03-cross-section",
    "beach_dist_km": 511.52,
    "bridge_proximity_bonus": 0.2,
    "catchment_area_km2": 4.2918,
    "channel_width_m": 5.71,
    "channel_width_score": 1.0,
    "composite_score": 47.048,
    "cso_density": 0.0,
    "ej_index": 0.4183,
    "elevation_m": 634.4065,
    "estuary_dist_km": 650.99,
    "feasibility_score": 78.75,
    "flood_q10_cfs": null,
    "flow_score": 37.1259,
    "flow_velocity_ms": 0.5,
    "generation_score": 41.9621,
    "impact_score": 44.5515,
    "impervious_pct": null,
    "land_ownership": 0.5,
    "lat": 35.3892,
    "litter_complaint_density": 0.0,
    "lon": -83.2059,
    "navigable_dist_m": null,
    "npdes_points": 2,
    "pixel_col": 639.0,
    "pixel_row": 178.0,
    "population_density": 164.5,
    "position_along": 0.5,
    "protected_area_score": 8.2877,
    "rank": 7,
    "road_access_m": 45.1,
    "road_access_score": 1.0,
    "road_density_km_km2": 6.884,
    "robustness_pct": 34.5,
    "runoff_coeff_C": null,
    "seasonal_cv": null,
    "segment_id": 1,
    "segment_length_m": 2011.1281,
    "stream_order": 3,
    "superfund_score": 0.0097,
    "tourism_amenity_density": 0.3183,
    "tri_facility_density": 0.0,
    "usgs_mean_q_cfs": null,
    "velocity_feasibility": 1.0,
    "water_intake_score": 1.6396
   },
   "type": "Feature"
  },
  {
   "geometry": {
    "coordinates": [
     -83.210173,
     35.341768
    ],
    "type": "Point"
   },
   "properties": {
    "accumulation": 31902.0,
    "bank_slope_deg": 7.45,
    "bank_slope_score": 1.0,
    "bank_slope_source": "nc-dps-lidar-dem03-cross-section",
    "beach_dist_km": 510.72,
    "bridge_proximity_bonus": 0.0,
    "catchment_area_km2": 3.1849,
    "channel_width_m": 5.05,
    "channel_width_score": 1.0,
    "composite_score": 45.1375,
    "cso_density": 0.0,
    "ej_index": 0.4105,
    "elevation_m": 609.7587,
    "estuary_dist_km": 651.29,
    "feasibility_score": 75.0,
    "flood_q10_cfs": null,
    "flow_score": 36.5481,
    "flow_velocity_ms": 0.5,
    "generation_score": 20.1074,
    "impact_score": 62.3942,
    "impervious_pct": null,
    "land_ownership": 0.5,
    "lat": 35.3418,
    "litter_complaint_density": 0.0,
    "lon": -83.2102,
    "navigable_dist_m": null,
    "npdes_points": 0,
    "pixel_col": 588.0,
    "pixel_row": 703.0,
    "population_density": 129.1,
    "position_along": 0.5,
    "protected_area_score": 9.279,
    "rank": 8,
    "road_access_m": 60.8,
    "road_access_score": 1.0,
    "road_density_km_km2": 6.071,
    "robustness_pct": 18.0,
    "runoff_coeff_C": null,
    "seasonal_cv": null,
    "segment_id": 10,
    "segment_length_m": 2158.4578,
    "stream_order": 3,
    "superfund_score": 0.0171,
    "tourism_amenity_density": 0.8754,
    "tri_facility_density": 0.0,
    "usgs_mean_q_cfs": null,
    "velocity_feasibility": 1.0,
    "water_intake_score": 1.9725
   },
   "type": "Feature"
  },
  {
   "geometry": {
    "coordinates": [
     -83.2471,
     35.363307
    ],
    "type": "Point"
   },
   "properties": {
    "accumulation": 151145.0,
    "bank_slope_deg": 0.34,
    "bank_slope_score": 1.0,
    "bank_slope_source": "nc-dps-lidar-dem03-cross-section",
    "beach_dist_km": 514.51,
    "bridge_proximity_bonus": 0.0,
    "catchment_area_km2": 15.0895,
    "channel_width_m": 9.62,
    "channel_width_score": 1.0,
    "composite_score": 44.9762,
    "cso_density": 0.0,
    "ej_index": 0.5506,
    "elevation_m": 595.6516,
    "estuary_dist_km": 654.68,
    "feasibility_score": 75.0,
    "flood_q10_cfs": null,
    "flow_score": 42.762,
    "flow_velocity_ms": 0.5,
    "generation_score": 24.0567,
    "impact_score": 52.7289,
    "impervious_pct": null,
    "land_ownership": 0.5,
    "lat": 35.3633,
    "litter_complaint_density": 0.0,
    "lon": -83.2471,
    "navigable_dist_m": null,
    "npdes_points": 1,
    "pixel_col": 258.0,
    "pixel_row": 453.0,
    "population_density": 109.0,
    "position_along": 0.75,
    "protected_area_score": 9.4518,
    "rank": 9,
    "road_access_m": 139.0,
    "road_access_score": 1.0,
    "road_density_km_km2": 5.571,
    "robustness_pct": 4.0,
    "runoff_coeff_C": null,
    "seasonal_cv": null,
    "segment_id": 13,
    "segment_length_m": 3494.0432,
    "stream_order": 3,
    "superfund_score": 0.4496,
    "tourism_amenity_density": 3.8993,
    "tri_facility_density": 0.0,
    "usgs_mean_q_cfs": null,
    "velocity_feasibility": 1.0,
    "water_intake_score": 1.5144
   },
   "type": "Feature"
  },
  {
   "geometry": {
    "coordinates": [
     -83.227588,
     35.377533
    ],
    "type": "Point"
   },
   "properties": {
    "accumulation": 25474.0,
    "bank_slope_deg": 3.1,
    "bank_slope_score": 1.0,
    "bank_slope_source": "nc-dps-lidar-dem03-cross-section",
    "beach_dist_km": 513.14,
    "bridge_proximity_bonus": 0.0,
    "catchment_area_km2": 2.5432,
    "channel_width_m": 4.6,
    "channel_width_score": 1.0,
    "composite_score": 44.6606,
    "cso_density": 0.0,
    "ej_index": 0.7715,
    "elevation_m": 620.2523,
    "estuary_dist_km": 652.94,
    "feasibility_score": 66.4286,
    "flood_q10_cfs": null,
    "flow_score": 12.1809,
    "flow_velocity_ms": 0.1885,
    "generation_score": 47.5804,
    "impact_score": 57.9233,
    "impervious_pct": 3.8,
    "land_ownership": 0.5,
    "lat": 35.3775,
    "litter_complaint_density": 0.0,
    "lon": -83.2276,
    "navigable_dist_m": null,
    "npdes_points": 0,
    "pixel_col": 440.0,
    "pixel_row": 303.0,
    "population_density": 204.8,
    "position_along": 0.5,
    "protected_area_score": 8.498,
    "rank": 10,
    "road_access_m": 15.3,
    "road_access_score": 1.0,
    "road_density_km_km2": 8.89,
    "robustness_pct": 17.5,
    "runoff_coeff_C": 0.0842,
    "seasonal_cv": 0.5038,
    "segment_id": 4,
    "segment_length_m": 802.889,
    "stream_order": 3,
    "superfund_score": 0.0321,
    "tourism_amenity_density": 5.0134,
    "tri_facility_density": 0.0,
    "usgs_mean_q_cfs": 2.64,
    "velocity_feasibility": 0.7,
    "water_intake_score": 1.5711
   },
   "type": "Feature"
  },
  {
   "geometry": {
    "coordinates": [
     -83.206785,
     35.371318
    ],
    "type": "Point"
   },
   "properties": {
    "accumulation": 34791.0,
    "bank_slope_deg": 18.89,
    "bank_slope_score": 0.5,
    "bank_slope_source": "nc-dps-lidar-dem03-cross-section",
    "beach_dist_km": 511.15,
    "bridge_proximity_bonus": 0.0,
    "catchment_area_km2": 3.4733,
    "channel_width_m": 5.23,
    "channel_width_score": 1.0,
    "composite_score": 43.853,
    "cso_density": 0.0,
    "ej_index": 0.4635,
    "elevation_m": 632.3444,
    "estuary_dist_km": 651.04,
    "feasibility_score": 63.75,
    "flood_q10_cfs": null,
    "flow_score": 9.0778,
    "flow_velocity_ms": 0.0474,
    "generation_score": 47.377,
    "impact_score": 59.36,
    "impervious_pct": 4.13,
    "land_ownership": 1.0,
    "lat": 35.3713,
    "litter_complaint_density": 0.0,
    "lon": -83.2068,
    "navigable_dist_m": null,
    "npdes_points": 1,
    "pixel_col": 625.0,
    "pixel_row": 372.0,
    "population_density": 173.1,
    "position_along": 0.5,
    "protected_area_score": 8.7869,
    "rank": 11,
    "road_access_m": 78.8,
    "road_access_score": 1.0,
    "road_density_km_km2": 6.439,
    "robustness_pct": 9.0,
    "runoff_coeff_C": 0.0872,
    "seasonal_cv": 0.4972,
    "segment_id": 5,
    "segment_length_m": 1972.1654,
    "stream_order": 3,
    "superfund_score": 0.0162,
    "tourism_amenity_density": 4.2176,
    "tri_facility_density": 0.0,
    "usgs_mean_q_cfs": 7.132,
    "velocity_feasibility": 0.3,
    "water_intake_score": 1.7534
   },
   "type": "Feature"
  },
  {
   "geometry": {
    "coordinates": [
     -83.217092,
     35.344163
    ],
    "type": "Point"
   },
   "properties": {
    "accumulation": 61665.0,
    "bank_slope_deg": 24.74,
    "bank_slope_score": 0.5,
    "bank_slope_source": "nc-dps-lidar-dem03-cross-section",
    "beach_dist_km": 511.39,
    "bridge_proximity_bonus": 0.0,
    "catchment_area_km2": 6.1563,
    "channel_width_m": 6.63,
    "channel_width_score": 1.0,
    "composite_score": 43.7071,
    "cso_density": 0.0,
    "ej_index": 0.4359,
    "elevation_m": 621.1506,
    "estuary_dist_km": 651.92,
    "feasibility_score": 60.1786,
    "flood_q10_cfs": null,
    "flow_score": 16.9958,
    "flow_velocity_ms": 0.2031,
    "generation_score": 42.7119,
    "impact_score": 58.7261,
    "impervious_pct": 8.34,
    "land_ownership": 0.5,
    "lat": 35.3442,
    "litter_complaint_density": 0.0,
    "lon": -83.2171,
    "navigable_dist_m": null,
    "npdes_points": 0,
    "pixel_col": 525.0,
    "pixel_row": 674.0,
    "population_density": 119.1,
    "position_along": 0.75,
    "protected_area_score": 9.4732,
    "rank": 12,
    "road_access_m": 99.7,
    "road_access_score": 1.0,
    "road_density_km_km2": 5.173,
    "robustness_pct": 0.0,
    "runoff_coeff_C": 0.1251,
    "seasonal_cv": 0.5425,
    "segment_id": 8,
    "segment_length_m": 3287.4731,
    "stream_order": 3,
    "superfund_score": 0.0251,
    "tourism_amenity_density": 0.3979,
    "tri_facility_density": 0.0,
    "usgs_mean_q_cfs": 5.322,
    "velocity_feasibility": 0.7,
    "water_intake_score": 1.8866
   },
   "type": "Feature"
  },
  {
   "geometry": {
    "coordinates": [
     -83.241214,
     35.355203
    ],
    "type": "Point"
   },
   "properties": {
    "accumulation": 105899.0,
    "bank_slope_deg": 5.6,
    "bank_slope_score": 1.0,
    "bank_slope_source": "nc-dps-lidar-dem03-cross-section",
    "beach_dist_km": 513.79,
    "bridge_proximity_bonus": 0.0,
    "catchment_area_km2": 10.5724,
    "channel_width_m": 8.3,
    "channel_width_score": 1.0,
    "composite_score": 41.5387,
    "cso_density": 0.0,
    "ej_index": 0.4961,
    "elevation_m": 598.9951,
    "estuary_dist_km": 654.13,
    "feasibility_score": 75.0,
    "flood_q10_cfs": null,
    "flow_score": 40.4042,
    "flow_velocity_ms": 0.5,
    "generation_score": 14.0369,
    "impact_score": 53.2552,
    "impervious_pct": null,
    "land_ownership": 0.5,
    "lat": 35.3552,
    "litter_complaint_density": 0.0,
    "lon": -83.2412,
    "navigable_dist_m": null,
    "npdes_points": 0,
    "pixel_col": 308.0,
    "pixel_row": 545.0,
    "population_density": 106.8,
    "position_along": 0.25,
    "protected_area_score": 9.5998,
    "rank": 13,
    "road_access_m": 162.9,
    "road_access_score": 1.0,
    "road_density_km_km2": 4.456,
    "robustness_pct": 0.0,
    "runoff_coeff_C": null,
    "seasonal_cv": null,
    "segment_id": 13,
    "segment_length_m": 3494.0432,
    "stream_order": 3,
    "superfund_score": 0.4057,
    "tourism_amenity_density": 2.2282,
    "tri_facility_density": 0.0,
    "usgs_mean_q_cfs": null,
    "velocity_feasibility": 1.0,
    "water_intake_score": 1.5968
   },
   "type": "Feature"
  },
  {
   "geometry": {
    "coordinates": [
     -83.228035,
     35.34099
    ],
    "type": "Point"
   },
   "properties": {
    "accumulation": 118188.0,
    "bank_slope_deg": 9.64,
    "bank_slope_score": 1.0,
    "bank_slope_source": "nc-dps-lidar-dem03-cross-section",
    "beach_dist_km": 512.28,
    "bridge_proximity_bonus": 0.0,
    "catchment_area_km2": 11.7993,
    "channel_width_m": 8.69,
    "channel_width_score": 1.0,
    "composite_score": 40.1604,
    "cso_density": 0.0,
    "ej_index": 0.3743,
    "elevation_m": 606.4302,
    "estuary_dist_km": 652.91,
    "feasibility_score": 75.0,
    "flood_q10_cfs": null,
    "flow_score": 41.0446,
    "flow_velocity_ms": 0.5,
    "generation_score": 11.4939,
    "impact_score": 50.6703,
    "impervious_pct": null,
    "land_ownership": 0.5,
    "lat": 35.341,
    "litter_complaint_density": 0.0,
    "lon": -83.228,
    "navigable_dist_m": null,
    "npdes_points": 0,
    "pixel_col": 424.0,
    "pixel_row": 707.0,
    "population_density": 100.5,
    "position_along": 0.5,
    "protected_area_score": 9.6784,
    "rank": 14,
    "road_access_m": 52.3,
    "road_access_score": 1.0,
    "road_density_km_km2": 3.542,
    "robustness_pct": 0.0,
    "runoff_coeff_C": null,
    "seasonal_cv": null,
    "segment_id": 11,
    "segment_length_m": 1398.6702,
    "stream_order": 3,
    "superfund_score": 0.0366,
    "tourism_amenity_density": 0.3183,
    "tri_facility_density": 0.0,
    "usgs_mean_q_cfs": null,
    "velocity_feasibility": 1.0,
    "water_intake_score": 1.7864
   },
   "type": "Feature"
  },
  {
   "geometry": {
    "coordinates": [
     -83.262078,
     35.368011
    ],
    "type": "Point"
   },
   "properties": {
    "accumulation": 428358.0,
    "bank_slope_deg": 6.23,
    "bank_slope_score": 1.0,
    "bank_slope_source": "nc-dps-lidar-dem03-cross-section",
    "beach_dist_km": 515.95,
    "bridge_proximity_bonus": 0.0,
    "catchment_area_km2": 42.765,
    "channel_width_m": 14.83,
    "channel_width_score": 1.0,
    "composite_score": 39.4406,
    "cso_density": 0.0,
    "ej_index": 0.5296,
    "elevation_m": 592.1489,
    "estuary_dist_km": 656.04,
    "feasibility_score": 75.0,
    "flood_q10_cfs": null,
    "flow_score": 57.2079,
    "flow_velocity_ms": 0.5,
    "generation_score": 14.6216,
    "impact_score": 31.6737,
    "impervious_pct": null,
    "land_ownership": 0.5,
    "lat": 35.368,
    "litter_complaint_density": 0.0,
    "lon": -83.2621,
    "navigable_dist_m": null,
    "npdes_points": 1,
    "pixel_col": 121.0,
    "pixel_row": 397.0,
    "population_density": 73.2,
    "position_along": 0.25,
    "protected_area_score": 9.0854,
    "rank": 15,
    "road_access_m": 145.4,
    "road_access_score": 1.0,
    "road_density_km_km2": 3.15,
    "robustness_pct": 7.0,
    "runoff_coeff_C": null,
    "seasonal_cv": null,
    "segment_id": 14,
    "segment_length_m": 3672.0078,
    "stream_order": 3,
    "superfund_score": 0.0743,
    "tourism_amenity_density": 2.6261,
    "tri_facility_density": 0.0,
    "usgs_mean_q_cfs": null,
    "velocity_feasibility": 1.0,
    "water_intake_score": 1.3947
   },
   "type": "Feature"
  },
  {
   "geometry": {
    "coordinates": [
     -83.23306,
     35.348621
    ],
    "type": "Point"
   },
   "properties": {
    "accumulation": 25926.0,
    "bank_slope_deg": 2.48,
    "bank_slope_score": 1.0,
    "bank_slope_source": "nc-dps-lidar-dem03-cross-section",
    "beach_dist_km": 512.91,
    "bridge_proximity_bonus": 0.0,
    "catchment_area_km2": 2.5883,
    "channel_width_m": 4.63,
    "channel_width_score": 1.0,
    "composite_score": 37.3939,
    "cso_density": 0.0,
    "ej_index": 0.4447,
    "elevation_m": 602.1121,
    "estuary_dist_km": 653.38,
    "feasibility_score": 75.0,
    "flood_q10_cfs": null,
    "flow_score": 36.2367,
    "flow_velocity_ms": 0.5,
    "generation_score": 7.5607,
    "impact_score": 49.3883,
    "impervious_pct": null,
    "land_ownership": 0.5,
    "lat": 35.3486,
    "litter_complaint_density": 0.0,
    "lon": -83.2331,
    "navigable_dist_m": null,
    "npdes_points": 0,
    "pixel_col": 382.0,
    "pixel_row": 623.0,
    "population_density": 74.2,
    "position_along": 0.5,
    "protected_area_score": 9.6306,
    "rank": 16,
    "road_access_m": 74.9,
    "road_access_score": 1.0,
    "road_density_km_km2": 3.421,
    "robustness_pct": 0.0,
    "runoff_coeff_C": null,
    "seasonal_cv": null,
    "segment_id": 9,
    "segment_length_m": 1389.3886,
    "stream_order": 3,
    "superfund_score": 0.085,
    "tourism_amenity_density": 0.4775,
    "tri_facility_density": 0.0,
    "usgs_mean_q_cfs": null,
    "velocity_feasibility": 1.0,
    "water_intake_score": 1.6986
   },
   "type": "Feature"
  },
  {
   "geometry": {
    "coordinates": [
     -83.235982,
     35.342921
    ],
    "type": "Point"
   },
   "properties": {
    "accumulation": 64407.0,
    "bank_slope_deg": 17.94,
    "bank_slope_score": 0.5,
    "bank_slope_source": "nc-dps-lidar-dem03-cross-section",
    "beach_dist_km": 513.03,
    "bridge_proximity_bonus": 0.0,
    "catchment_area_km2": 6.4301,
    "channel_width_m": 6.75,
    "channel_width_score": 1.0,
    "composite_score": 35.7933,
    "cso_density": 0.0,
    "ej_index": 0.365,
    "elevation_m": 612.6987,
    "estuary_dist_km": 653.63,
    "feasibility_score": 68.75,
    "flood_q10_cfs": null,
    "flow_score": 38.242,
    "flow_velocity_ms": 0.5,
    "generation_score": 8.2174,
    "impact_score": 44.8501,
    "impervious_pct": null,
    "land_ownership": 0.5,
    "lat": 35.3429,
    "litter_complaint_density": 0.0,
    "lon": -83.236,
    "navigable_dist_m": null,
    "npdes_points": 0,
    "pixel_col": 354.0,
    "pixel_row": 681.0,
    "population_density": 72.6,
    "position_along": 0.8333,
    "protected_area_score": 9.5929,
    "rank": 17,
    "road_access_m": 199.5,
    "road_access_score": 1.0,
    "road_density_km_km2": 3.909,
    "robustness_pct": 0.0,
    "runoff_coeff_C": null,
    "seasonal_cv": null,
    "segment_id": 12,
    "segment_length_m": 4802.3214,
    "stream_order": 3,
    "superfund_score": 0.0607,
    "tourism_amenity_density": 0.4775,
    "tri_facility_density": 0.0,
    "usgs_mean_q_cfs": null,
    "velocity_feasibility": 1.0,
    "water_intake_score": 1.7009
   },
   "type": "Feature"
  },
  {
   "geometry": {
    "coordinates": [
     -83.267178,
     35.381414
    ],
    "type": "Point"
   },
   "properties": {
    "accumulation": 459373.0,
    "bank_slope_deg": 6.24,
    "bank_slope_score": 1.0,
    "bank_slope_source": "nc-dps-lidar-dem03-cross-section",
    "beach_dist_km": 516.74,
    "bridge_proximity_bonus": 0.0,
    "catchment_area_km2": 45.8614,
    "channel_width_m": 15.26,
    "channel_width_score": 0.5,
    "composite_score": 32.1733,
    "cso_density": 0.0,
    "ej_index": 0.5363,
    "elevation_m": 588.5488,
    "estuary_dist_km": 656.53,
    "feasibility_score": 55.0,
    "flood_q10_cfs": null,
    "flow_score": 58.8241,
    "flow_velocity_ms": 0.5,
    "generation_score": 12.0715,
    "impact_score": 18.6526,
    "impervious_pct": null,
    "land_ownership": 0.5,
    "lat": 35.3814,
    "litter_complaint_density": 0.0,
    "lon": -83.2672,
    "navigable_dist_m": null,
    "npdes_points": 1,
    "pixel_col": 80.0,
    "pixel_row": 248.0,
    "population_density": 64.8,
    "position_along": 0.75,
    "protected_area_score": 8.1454,
    "rank": 18,
    "road_access_m": 131.2,
    "road_access_score": 1.0,
    "road_density_km_km2": 2.396,
    "robustness_pct": 0.0,
    "runoff_coeff_C": null,
    "seasonal_cv": null,
    "segment_id": 14,
    "segment_length_m": 3672.0078,
    "stream_order": 3,
    "superfund_score": 0.0243,
    "tourism_amenity_density": 1.1937,
    "tri_facility_density": 0.0,
    "usgs_mean_q_cfs": null,
    "velocity_feasibility": 1.0,
    "water_intake_score": 1.3262
   },
   "type": "Feature"
  },
  {
   "geometry": {
    "coordinates": [
     -83.251604,
     35.335049
    ],
    "type": "Point"
   },
   "properties": {
    "accumulation": 34554.0,
    "bank_slope_deg": 21.19,
    "bank_slope_score": 0.5,
    "bank_slope_source": "nc-dps-lidar-dem03-cross-section",
    "beach_dist_km": 514.22,
    "bridge_proximity_bonus": 0.0,
    "catchment_area_km2": 3.4497,
    "channel_width_m": 5.22,
    "channel_width_score": 1.0,
    "composite_score": 31.5297,
    "cso_density": 0.0,
    "ej_index": 0.367,
    "elevation_m": 630.8341,
    "estuary_dist_km": 655.04,
    "feasibility_score": 68.75,
    "flood_q10_cfs": null,
    "flow_score": 36.6863,
    "flow_velocity_ms": 0.5,
    "generation_score": 2.0825,
    "impact_score": 38.0694,
    "impervious_pct": null,
    "land_ownership": 0.5,
    "lat": 35.335,
    "litter_complaint_density": 0.0,
    "lon": -83.2516,
    "navigable_dist_m": null,
    "npdes_points": 0,
    "pixel_col": 212.0,
    "pixel_row": 767.0,
    "population_density": 43.3,
    "position_along": 0.1667,
    "protected_area_score": 10.1164,
    "rank": 19,
    "road_access_m": 119.5,
    "road_access_score": 1.0,
    "road_density_km_km2": 2.805,
    "robustness_pct": 0.0,
    "runoff_coeff_C": null,
    "seasonal_cv": null,
    "segment_id": 12,
    "segment_length_m": 4802.3214,
    "stream_order": 3,
    "superfund_score": 0.0351,
    "tourism_amenity_density": 0.0,
    "tri_facility_density": 0.0,
    "usgs_mean_q_cfs": null,
    "velocity_feasibility": 1.0,
    "water_intake_score": 1.5865
   },
   "type": "Feature"
  },
  {
   "geometry": {
    "coordinates": [
     -83.241351,
     35.338852
    ],
    "type": "Point"
   },
   "properties": {
    "accumulation": 48789.0,
    "bank_slope_deg": 13.64,
    "bank_slope_score": 1.0,
    "bank_slope_source": "nc-dps-lidar-dem03-cross-section",
    "beach_dist_km": 513.41,
    "bridge_proximity_bonus": 0.0,
    "catchment_area_km2": 4.8708,
    "channel_width_m": 6.02,
    "channel_width_score": 1.0,
    "composite_score": 30.7467,
    "cso_density": 0.0,
    "ej_index": 0.3201,
    "elevation_m": 620.006,
    "estuary_dist_km": 654.11,
    "feasibility_score": 50.0,
    "flood_q10_cfs": null,
    "flow_score": 37.4281,
    "flow_velocity_ms": 0.5,
    "generation_score": 5.3397,
    "impact_score": 40.9593,
    "impervious_pct": null,
    "land_ownership": 0.5,
    "lat": 35.3389,
    "litter_complaint_density": 0.0,
    "lon": -83.2414,
    "navigable_dist_m": null,
    "npdes_points": 0,
    "pixel_col": 307.0,
    "pixel_row": 728.0,
    "population_density": 52.8,
    "position_along": 0.5,
    "protected_area_score": 9.7411,
    "rank": 20,
    "road_access_m": 255.8,
    "road_access_score": 0.8,
    "road_density_km_km2": 3.864,
    "robustness_pct": 0.0,
    "runoff_coeff_C": null,
    "seasonal_cv": null,
    "segment_id": 12,
    "segment_length_m": 4802.3214,
    "stream_order": 3,
    "superfund_score": 0.0485,
    "tourism_amenity_density": 0.4775,
    "tri_facility_density": 0.0,
    "usgs_mean_q_cfs": null,
    "velocity_feasibility": 1.0,
    "water_intake_score": 1.6681
   },
   "type": "Feature"
  },
  {
   "geometry": {
    "coordinates": [
     -83.272886,
     35.386541
    ],
    "type": "Point"
   },
   "properties": {
    "accumulation": 503260.0,
    "bank_slope_deg": 21.44,
    "bank_slope_score": 0.5,
    "bank_slope_source": "nc-dps-lidar-dem03-cross-section",
    "beach_dist_km": 517.37,
    "bridge_proximity_bonus": 0.0,
    "catchment_area_km2": 50.2428,
    "channel_width_m": 15.85,
    "channel_width_score": 0.5,
    "composite_score": 29.0307,
    "cso_density": 0.0,
    "ej_index": 0.5293,
    "elevation_m": 584.3608,
    "estuary_dist_km": 657.06,
    "feasibility_score": 48.75,
    "flood_q10_cfs": null,
    "flow_score": 61.1111,
    "flow_velocity_ms": 0.5,
    "generation_score": 9.8531,
    "impact_score": 11.615,
    "impervious_pct": null,
    "land_ownership": 0.5,
    "lat": 35.3865,
    "litter_complaint_density": 0.0,
    "lon": -83.2729,
    "navigable_dist_m": null,
    "npdes_points": 1,
    "pixel_col": 28.0,
    "pixel_row": 193.0,
    "population_density": 56.7,
    "position_along": 0.5,
    "protected_area_score": 7.7592,
    "rank": 21,
    "road_access_m": 51.3,
    "road_access_score": 1.0,
    "road_density_km_km2": 1.802,
    "robustness_pct": 1.5,
    "runoff_coeff_C": null,
    "seasonal_cv": null,
    "segment_id": 15,
    "segment_length_m": 394.2322,
    "stream_order": 3,
    "superfund_score": 0.0159,
    "tourism_amenity_density": 0.7958,
    "tri_facility_density": 0.0,
    "usgs_mean_q_cfs": null,
    "velocity_feasibility": 1.0,
    "water_intake_score": 1.281
   },
   "type": "Feature"
  },
  {
   "geometry": {
    "coordinates": [
     -83.271562,
     35.389927
    ],
    "type": "Point"
   },
   "properties": {
    "accumulation": 27265.0,
    "bank_slope_deg": 21.08,
    "bank_slope_score": 0.5,
    "bank_slope_source": "nc-dps-lidar-dem03-cross-section",
    "beach_dist_km": 517.34,
    "bridge_proximity_bonus": 0.0,
    "catchment_area_km2": 2.722,
    "channel_width_m": 4.73,
    "channel_width_score": 1.0,
    "composite_score": 13.0204,
    "cso_density": 0.0,
    "ej_index": 0.4767,
    "elevation_m": 594.1227,
    "estuary_dist_km": 656.95,
    "feasibility_score": 48.75,
    "flood_q10_cfs": null,
    "flow_score": 11.0583,
    "flow_velocity_ms": 0.0493,
    "generation_score": 2.5991,
    "impact_score": 7.2118,
    "impervious_pct": 0.14,
    "land_ownership": 0.5,
    "lat": 35.3899,
    "litter_complaint_density": 0.0,
    "lon": -83.2716,
    "navigable_dist_m": null,
    "npdes_points": 0,
    "pixel_col": 43.0,
    "pixel_row": 156.0,
    "population_density": 41.4,
    "position_along": 0.5,
    "protected_area_score": 7.4461,
    "rank": 22,
    "road_access_m": 29.8,
    "road_access_score": 1.0,
    "road_density_km_km2": 3.001,
    "robustness_pct": 0.0,
    "runoff_coeff_C": 0.0513,
    "seasonal_cv": 0.425,
    "segment_id": 0,
    "segment_length_m": 957.3197,
    "stream_order": 3,
    "superfund_score": 0.0142,
    "tourism_amenity_density": 0.3979,
    "tri_facility_density": 0.0,
    "usgs_mean_q_cfs": 20.697,
    "velocity_feasibility": 0.3,
    "water_intake_score": 1.2776
   },
   "type": "Feature"
  }
 ],
 "note": "GRIME region 'Sylva, NC' \u2014 real-data pipeline (DEM\u2192streams\u2192candidates\u2192stream mask (sites confined to \u00b1150 m of mapped OSM/NHD waterways)\u2192region-appropriate real parameters\u2192shipped scoring, math unchanged). Width curve: Bieger et al. 2015 JAWRA Table 3, Appalachian Highlands. Flood: not applicable here (documented fallback). NC Blue Ridge (outside SIR 2014-5030 urban coverage); merged nearby towns: Webster, Dillsboro",
 "provenance": {
  "candidates_pre_gate": 22,
  "constant": [
   "cso_density",
   "flood_q10_cfs",
   "litter_complaint_density",
   "stream_order"
  ],
  "gated_navigable": 0,
  "hard_gate_removed": 0,
  "n_parameters": 27,
  "parameters": {
   "bank_slope_score": {
    "kind": "real",
    "n_3dep_10m_fallback": 0,
    "n_nc_lidar_3_125ft": 22,
    "n_real": 22,
    "n_sites": 22,
    "source": "NC OneMap / NC DPS DEM03 statewide lidar-derived 3.125-ft (0.953 m) elevations (perpendicular 50 m transect; robust 5 m bank-rise metric); unavailable profiles use the region 10 m 3DEP DEM-gradient fallback",
    "source_mosaics": [
     "Jackson_QL1_2025_03ft_CountywideRaster"
    ]
   },
   "beach_dist_km": {
    "kind": "real",
    "n_real": 22,
    "n_sites": 22,
    "source": "haversine to region ref: Wrightsville Beach (shipped NC reference)"
   },
   "bridge_proximity_bonus": {
    "kind": "real",
    "n_real": 22,
    "n_sites": 22,
    "source": "FHWA/BTS NBI (NTAD), 50 m proximity"
   },
   "catchment_area_km2": {
    "kind": "real",
    "n_real": 22,
    "n_sites": 22,
    "source": "DEM flow accumulation (pipeline)"
   },
   "channel_width_score": {
    "kind": "real",
    "n_real": 22,
    "n_sites": 22,
    "source": "Bieger 2015 AHI width curve on DEM drainage area \u2192 shipped width curve"
   },
   "cso_density": {
    "kind": "real",
    "n_real": 22,
    "n_sites": 22,
    "source": "EPA ECHO open CSO/TCS outfall PF coordinates states=NC, Cauchy proximity"
   },
   "ej_index": {
    "kind": "real",
    "n_real": 22,
    "n_sites": 22,
    "source": "Census ACS C17002+B03002 two-component demographic index, percentile-ranked within region"
   },
   "estuary_dist_km": {
    "kind": "real",
    "n_real": 22,
    "n_sites": 22,
    "source": "haversine to region ref: Pamlico Sound (shipped NC reference)"
   },
   "flood_q10_cfs": {
    "impervious_fallback_reason": "StreamCat imperviousness unavailable; the existing regression-input fallback of 0.0% impervious was used and is disclosed here",
    "kind": "fallback",
    "n_impervious_fallback": 14,
    "n_real": 0,
    "n_sites": 22,
    "source": "flood regression not valid here (NC Blue Ridge (outside SIR 2014-5030 urban coverage); merged...) \u2014 NaN, dropped by constant-column handling"
   },
   "flow_velocity_ms": {
    "fallback_reason": "EROM/DEM continuity input unavailable; shipped 0.5 m/s default used",
    "kind": "real",
    "n_fallback": 14,
    "n_real": 8,
    "n_sites": 22,
    "source": "Manning (region DEM/D8) blended with EROM continuity (shipped M4 logic)"
   },
   "impervious_pct": {
    "fallback_reason": "NLDI/StreamCat did not return a snap-compatible catchment value; value remains null and is removed by constant-column handling",
    "kind": "real",
    "n_fallback": 14,
    "n_real": 8,
    "n_sites": 22,
    "source": "EPA StreamCat pctimp2019 (per NHDPlus watershed)"
   },
   "land_ownership": {
    "fallback_reason": "no containing parcel owner returned; shipped unknown ownership 0.5 used",
    "kind": "real",
    "n_fallback": 2,
    "n_real": 20,
    "n_sites": 22,
    "source": "NC OneMap statewide parcels (NC Parcels Transformer) ownname"
   },
   "litter_complaint_density": {
    "kind": "fallback",
    "n_real": 0,
    "n_sites": 22,
    "source": "no public machine-readable litter/illegal-dumping feed for this region"
   },
   "navigable_dist_m": {
    "kind": "real",
    "n_real": 22,
    "n_sites": 22,
    "source": "USACE/BTS NWN (NTAD): no navigable segment within this bbox (+2 km) \u2014 computed absence, gate passes all sites"
   },
   "npdes_points": {
    "kind": "real",
    "n_real": 22,
    "n_sites": 22,
    "source": "EPA ECHO active NPDES outfalls states=NC (types NPD/GPC/NGP; statuses ADC/EFF/EXP), per catchment"
   },
   "population_density": {
    "kind": "real",
    "n_real": 22,
    "n_sites": 22,
    "source": "Census ACS 2022 B01003 block groups (bbox, multi-county), area-weighted"
   },
   "protected_area_score": {
    "kind": "real",
    "n_real": 22,
    "n_sites": 22,
    "source": "USGS PAD-US 4.1 state GDB; states=NC; shipped designation-weighted proximity curve"
   },
   "road_access_score": {
    "kind": "real",
    "n_real": 22,
    "n_sites": 22,
    "source": "OSM drive network nearest-node distance"
   },
   "road_density_km_km2": {
    "kind": "real",
    "n_real": 22,
    "n_sites": 22,
    "source": "OSM drive network (osmnx, cached) clipped per catchment"
   },
   "runoff_coeff_C": {
    "fallback_reason": "source impervious_pct was unavailable; derived value remains null",
    "kind": "real",
    "n_fallback": 14,
    "n_real": 8,
    "n_sites": 22,
    "source": "derived from real impervious_pct (C=0.05+0.009*I)"
   },
   "seasonal_cv": {
    "fallback_reason": "NHDPlus monthly EROM was unavailable or failed the drainage-area snap guard; value remains null",
    "kind": "real",
    "n_fallback": 14,
    "n_real": 8,
    "n_sites": 22,
    "source": "CV of NHDPlus EROM monthly flows per COMID"
   },
   "stream_order": {
    "kind": "real",
    "n_real": 22,
    "n_sites": 22,
    "source": "DEM stream-network confluence heuristic (pipeline)"
   },
   "superfund_score": {
    "kind": "real",
    "n_real": 22,
    "n_sites": 22,
    "source": "EPA DataMap SEMS active sites states=NC (non-archived, georeferenced), shipped 500 m inverse-distance curve"
   },
   "tourism_amenity_density": {
    "kind": "real",
    "n_real": 22,
    "n_sites": 22,
    "source": "OSM leisure/tourism features per 2 km radius"
   },
   "tri_facility_density": {
    "kind": "real",
    "n_real": 22,
    "n_sites": 22,
    "source": "EPA DataMap TRI open facilities states=NC (preferred decimal or packed-DMS recovery), per catchment"
   },
   "usgs_mean_q_cfs": {
    "fallback_reason": "NHDPlus EROM was unavailable or failed the drainage-area snap guard; value remains null",
    "kind": "real",
    "n_fallback": 14,
    "n_real": 8,
    "n_sites": 22,
    "source": "NHDPlus EROM qe_ma per COMID (snap-guarded)"
   },
   "velocity_feasibility": {
    "fallback_reason": "derived from the shipped 0.5 m/s velocity fallback",
    "kind": "real",
    "n_fallback": 14,
    "n_real": 8,
    "n_sites": 22,
    "source": "shipped step curve on the computed velocity"
   },
   "velocity_transport_favorability": {
    "fallback_reason": "EROM/DEM continuity input unavailable; shipped 0.5 m/s default used",
    "kind": "derived",
    "n_fallback": 14,
    "n_real": 8,
    "n_sites": 22,
    "source": "scored form of flow_velocity_ms inside the Flow family \u2014 peaked Gaussian exp(-((v-0.9)/0.6)^2), model.json curves.velocity_transport_favorability; construct: transport/delivery favorability, deliberately distinct from velocity_feasibility (device operability)"
   },
   "water_intake_score": {
    "kind": "real",
    "n_real": 22,
    "n_sites": 22,
    "source": "NC OneMap / NC DEQ SWAP public water supply sources (source_typ='Surface Water'), shipped exp(-d/10km) curve"
   }
  },
  "stream_mask": {
   "buffer_m": 150.0,
   "pre_mask": 22,
   "removed": 0,
   "sources": [
    "osm-overpass (all waterway ways)",
    "usgs-nhdplus flowlines"
   ]
  },
  "varying": [
   "bank_slope_score",
   "beach_dist_km",
   "bridge_proximity_bonus",
   "catchment_area_km2",
   "channel_width_score",
   "ej_index",
   "estuary_dist_km",
   "flow_velocity_ms",
   "impervious_pct",
   "land_ownership",
   "npdes_points",
   "population_density",
   "protected_area_score",
   "road_access_score",
   "road_density_km_km2",
   "runoff_coeff_C",
   "seasonal_cv",
   "superfund_score",
   "tourism_amenity_density",
   "tri_facility_density",
   "usgs_mean_q_cfs",
   "velocity_feasibility",
   "water_intake_score"
  ]
 },
 "region": {
  "bbox": [
   -83.2747,
   35.332,
   -83.1836,
   35.4038
  ],
  "beach_ref": {
   "label": "Wrightsville Beach (shipped NC reference)",
   "lat": 34.21,
   "lon": -77.79
  },
  "center": [
   -83.218481,
   35.375434
  ],
  "estuary_ref": {
   "label": "Pamlico Sound (shipped NC reference)",
   "lat": 35.05,
   "lon": -76.05
  },
  "flood_method": "none",
  "name": "Sylva, NC",
  "notes": "NC Blue Ridge (outside SIR 2014-5030 urban coverage); merged nearby towns: Webster, Dillsboro",
  "slug": "sylva",
  "state": "NC",
  "utm_epsg": 32617,
  "width_curve": {
   "a": 3.12,
   "b": 0.415,
   "code": "AHI",
   "source": "Bieger et al. 2015 JAWRA Table 3, Appalachian Highlands"
  }
 },
 "type": "FeatureCollection"
}
