{
 "features": [
  {
   "geometry": {
    "coordinates": [
     -77.539447,
     35.897103
    ],
    "type": "Point"
   },
   "properties": {
    "accumulation": 194101.0,
    "bank_slope_deg": 34.69,
    "bank_slope_score": 0.2,
    "bank_slope_source": "nc-dps-lidar-dem03-cross-section",
    "beach_dist_km": 188.98,
    "bridge_proximity_bonus": 0.0,
    "catchment_area_km2": 19.3832,
    "channel_width_m": 6.51,
    "channel_width_score": 1.0,
    "composite_score": 65.9375,
    "cso_density": 0.0,
    "ej_index": 0.4696,
    "elevation_m": 8.1634,
    "estuary_dist_km": 164.51,
    "feasibility_score": 52.0408,
    "flood_q10_cfs": 834.42,
    "flow_score": 80.0227,
    "flow_velocity_ms": 0.2622,
    "generation_score": 69.6356,
    "impact_score": 57.45,
    "impervious_pct": 15.85,
    "land_ownership": 0.5,
    "lat": 35.8971,
    "litter_complaint_density": 0.0,
    "lon": -77.5394,
    "navigable_dist_m": null,
    "npdes_points": 1,
    "pixel_col": 772.0,
    "pixel_row": 707.0,
    "population_density": 316.3,
    "position_along": 0.5,
    "protected_area_score": 22.256,
    "rank": 1,
    "road_access_m": 106.3,
    "road_access_score": 1.0,
    "road_density_km_km2": 6.801,
    "robustness_pct": 100.0,
    "runoff_coeff_C": 0.1926,
    "seasonal_cv": 0.4854,
    "segment_id": 21,
    "segment_length_m": 1882.492,
    "stream_order": 3,
    "superfund_score": 0.0019,
    "tourism_amenity_density": 2.5465,
    "tri_facility_density": 0.258,
    "usgs_mean_q_cfs": 9.039,
    "velocity_feasibility": 0.7,
    "water_intake_score": 0.947
   },
   "type": "Feature"
  },
  {
   "geometry": {
    "coordinates": [
     -77.551164,
     35.899933
    ],
    "type": "Point"
   },
   "properties": {
    "accumulation": 109420.0,
    "bank_slope_deg": 13.23,
    "bank_slope_score": 1.0,
    "bank_slope_source": "nc-dps-lidar-dem03-cross-section",
    "beach_dist_km": 189.17,
    "bridge_proximity_bonus": 0.0,
    "catchment_area_km2": 10.9268,
    "channel_width_m": 5.29,
    "channel_width_score": 1.0,
    "composite_score": 65.7479,
    "cso_density": 0.0,
    "ej_index": 0.4112,
    "elevation_m": 10.4823,
    "estuary_dist_km": 165.56,
    "feasibility_score": 87.7551,
    "flood_q10_cfs": 583.54,
    "flow_score": 53.7318,
    "flow_velocity_ms": 0.1419,
    "generation_score": 78.7034,
    "impact_score": 51.8023,
    "impervious_pct": 15.27,
    "land_ownership": 1.0,
    "lat": 35.8999,
    "litter_complaint_density": 0.0,
    "lon": -77.5512,
    "navigable_dist_m": null,
    "npdes_points": 1,
    "pixel_col": 667.0,
    "pixel_row": 672.0,
    "population_density": 416.3,
    "position_along": 0.5,
    "protected_area_score": 21.7813,
    "rank": 2,
    "road_access_m": 140.0,
    "road_access_score": 1.0,
    "road_density_km_km2": 8.853,
    "robustness_pct": 100.0,
    "runoff_coeff_C": 0.1874,
    "seasonal_cv": 0.4723,
    "segment_id": 16,
    "segment_length_m": 708.9197,
    "stream_order": 3,
    "superfund_score": 0.0021,
    "tourism_amenity_density": 2.7056,
    "tri_facility_density": 0.3661,
    "usgs_mean_q_cfs": 5.533,
    "velocity_feasibility": 0.7,
    "water_intake_score": 0.9181
   },
   "type": "Feature"
  },
  {
   "geometry": {
    "coordinates": [
     -77.553698,
     35.90802
    ],
    "type": "Point"
   },
   "properties": {
    "accumulation": 80337.0,
    "bank_slope_deg": 4.88,
    "bank_slope_score": 1.0,
    "bank_slope_source": "nc-dps-lidar-dem03-cross-section",
    "beach_dist_km": 190.03,
    "bridge_proximity_bonus": 0.0,
    "catchment_area_km2": 8.0226,
    "channel_width_m": 4.73,
    "channel_width_score": 1.0,
    "composite_score": 56.2338,
    "cso_density": 0.0,
    "ej_index": 0.4225,
    "elevation_m": 14.5023,
    "estuary_dist_km": 166.25,
    "feasibility_score": 66.3265,
    "flood_q10_cfs": 484.74,
    "flow_score": 49.9653,
    "flow_velocity_ms": 0.1886,
    "generation_score": 60.8859,
    "impact_score": 51.759,
    "impervious_pct": 15.27,
    "land_ownership": 0.5,
    "lat": 35.908,
    "litter_complaint_density": 0.0,
    "lon": -77.5537,
    "navigable_dist_m": null,
    "npdes_points": 0,
    "pixel_col": 647.0,
    "pixel_row": 582.0,
    "population_density": 392.4,
    "position_along": 0.75,
    "protected_area_score": 22.0831,
    "rank": 3,
    "road_access_m": 60.0,
    "road_access_score": 1.0,
    "road_density_km_km2": 7.617,
    "robustness_pct": 99.5,
    "runoff_coeff_C": 0.1874,
    "seasonal_cv": 0.4723,
    "segment_id": 9,
    "segment_length_m": 3006.3931,
    "stream_order": 3,
    "superfund_score": 0.0025,
    "tourism_amenity_density": 2.5465,
    "tri_facility_density": 0.3739,
    "usgs_mean_q_cfs": 5.533,
    "velocity_feasibility": 0.7,
    "water_intake_score": 0.9328
   },
   "type": "Feature"
  },
  {
   "geometry": {
    "coordinates": [
     -77.53625,
     35.89171
    ],
    "type": "Point"
   },
   "properties": {
    "accumulation": 112549.0,
    "bank_slope_deg": 0.11,
    "bank_slope_score": 1.0,
    "bank_slope_source": "nc-dps-lidar-dem03-cross-section",
    "beach_dist_km": 188.42,
    "bridge_proximity_bonus": 0.0,
    "catchment_area_km2": 11.2393,
    "channel_width_m": 5.34,
    "channel_width_score": 1.0,
    "composite_score": 54.3209,
    "cso_density": 0.0,
    "ej_index": 0.4538,
    "elevation_m": 3.899,
    "estuary_dist_km": 163.93,
    "feasibility_score": 78.5714,
    "flood_q10_cfs": 416.1,
    "flow_score": 54.7632,
    "flow_velocity_ms": 0.5,
    "generation_score": 43.5609,
    "impact_score": 52.5869,
    "impervious_pct": null,
    "land_ownership": 0.5,
    "lat": 35.8917,
    "litter_complaint_density": 0.0,
    "lon": -77.5363,
    "navigable_dist_m": null,
    "npdes_points": 1,
    "pixel_col": 797.0,
    "pixel_row": 767.0,
    "population_density": 341.4,
    "position_along": 0.5,
    "protected_area_score": 21.6473,
    "rank": 4,
    "road_access_m": 175.6,
    "road_access_score": 1.0,
    "road_density_km_km2": 7.568,
    "robustness_pct": 58.5,
    "runoff_coeff_C": null,
    "seasonal_cv": null,
    "segment_id": 23,
    "segment_length_m": 38.2577,
    "stream_order": 3,
    "superfund_score": 0.0017,
    "tourism_amenity_density": 1.6711,
    "tri_facility_density": 0.1779,
    "usgs_mean_q_cfs": null,
    "velocity_feasibility": 1.0,
    "water_intake_score": 0.9259
   },
   "type": "Feature"
  },
  {
   "geometry": {
    "coordinates": [
     -77.550174,
     35.893208
    ],
    "type": "Point"
   },
   "properties": {
    "accumulation": 61359.0,
    "bank_slope_deg": 31.51,
    "bank_slope_score": 0.2,
    "bank_slope_source": "nc-dps-lidar-dem03-cross-section",
    "beach_dist_km": 188.43,
    "bridge_proximity_bonus": 0.0,
    "catchment_area_km2": 6.1274,
    "channel_width_m": 4.29,
    "channel_width_score": 1.0,
    "composite_score": 53.9141,
    "cso_density": 0.0,
    "ej_index": 0.3778,
    "elevation_m": 13.818,
    "estuary_dist_km": 165.06,
    "feasibility_score": 52.0408,
    "flood_q10_cfs": 382.49,
    "flow_score": 38.9711,
    "flow_velocity_ms": 0.1764,
    "generation_score": 72.7279,
    "impact_score": 48.4895,
    "impervious_pct": 12.04,
    "land_ownership": 0.5,
    "lat": 35.8932,
    "litter_complaint_density": 0.0,
    "lon": -77.5502,
    "navigable_dist_m": null,
    "npdes_points": 1,
    "pixel_col": 672.0,
    "pixel_row": 743.0,
    "population_density": 476.7,
    "position_along": 0.75,
    "protected_area_score": 21.2946,
    "rank": 5,
    "road_access_m": 95.3,
    "road_access_score": 1.0,
    "road_density_km_km2": 7.639,
    "robustness_pct": 71.0,
    "runoff_coeff_C": 0.1584,
    "seasonal_cv": 0.4579,
    "segment_id": 20,
    "segment_length_m": 3506.4627,
    "stream_order": 3,
    "superfund_score": 0.0018,
    "tourism_amenity_density": 2.4669,
    "tri_facility_density": 0.3264,
    "usgs_mean_q_cfs": 3.105,
    "velocity_feasibility": 0.7,
    "water_intake_score": 0.8939
   },
   "type": "Feature"
  },
  {
   "geometry": {
    "coordinates": [
     -77.554261,
     35.902285
    ],
    "type": "Point"
   },
   "properties": {
    "accumulation": 22962.0,
    "bank_slope_deg": 25.91,
    "bank_slope_score": 0.5,
    "bank_slope_source": "nc-dps-lidar-dem03-cross-section",
    "beach_dist_km": 189.39,
    "bridge_proximity_bonus": 0.0,
    "catchment_area_km2": 2.293,
    "channel_width_m": 3.0,
    "channel_width_score": 1.0,
    "composite_score": 53.6938,
    "cso_density": 0.0,
    "ej_index": 0.2958,
    "elevation_m": 11.8607,
    "estuary_dist_km": 165.94,
    "feasibility_score": 57.398,
    "flood_q10_cfs": 228.53,
    "flow_score": 36.5881,
    "flow_velocity_ms": 0.1144,
    "generation_score": 73.4057,
    "impact_score": 46.3847,
    "impervious_pct": 15.27,
    "land_ownership": 0.5,
    "lat": 35.9023,
    "litter_complaint_density": 0.0,
    "lon": -77.5543,
    "navigable_dist_m": null,
    "npdes_points": 0,
    "pixel_col": 640.0,
    "pixel_row": 644.0,
    "population_density": 648.4,
    "position_along": 0.5,
    "protected_area_score": 21.7075,
    "rank": 6,
    "road_access_m": 49.0,
    "road_access_score": 1.0,
    "road_density_km_km2": 8.4,
    "robustness_pct": 59.5,
    "runoff_coeff_C": 0.1874,
    "seasonal_cv": 0.4723,
    "segment_id": 15,
    "segment_length_m": 178.8709,
    "stream_order": 3,
    "superfund_score": 0.0022,
    "tourism_amenity_density": 2.7056,
    "tri_facility_density": 0.4361,
    "usgs_mean_q_cfs": 5.533,
    "velocity_feasibility": 0.7,
    "water_intake_score": 0.9147
   },
   "type": "Feature"
  },
  {
   "geometry": {
    "coordinates": [
     -77.560932,
     35.883499
    ],
    "type": "Point"
   },
   "properties": {
    "accumulation": 40182.0,
    "bank_slope_deg": 13.35,
    "bank_slope_score": 1.0,
    "bank_slope_source": "nc-dps-lidar-dem03-cross-section",
    "beach_dist_km": 187.25,
    "bridge_proximity_bonus": 0.0,
    "catchment_area_km2": 4.0126,
    "channel_width_m": 3.68,
    "channel_width_score": 1.0,
    "composite_score": 48.6065,
    "cso_density": 0.0,
    "ej_index": 0.3957,
    "elevation_m": 23.245,
    "estuary_dist_km": 165.26,
    "feasibility_score": 66.3265,
    "flood_q10_cfs": 292.53,
    "flow_score": 32.2072,
    "flow_velocity_ms": 0.1657,
    "generation_score": 65.9428,
    "impact_score": 36.0764,
    "impervious_pct": 11.44,
    "land_ownership": 0.5,
    "lat": 35.8835,
    "litter_complaint_density": 0.0,
    "lon": -77.5609,
    "navigable_dist_m": null,
    "npdes_points": 1,
    "pixel_col": 574.0,
    "pixel_row": 850.0,
    "population_density": 134.2,
    "position_along": 0.25,
    "protected_area_score": 19.9888,
    "rank": 7,
    "road_access_m": 73.2,
    "road_access_score": 1.0,
    "road_density_km_km2": 3.391,
    "robustness_pct": 1.0,
    "runoff_coeff_C": 0.153,
    "seasonal_cv": 0.4491,
    "segment_id": 20,
    "segment_length_m": 3506.4627,
    "stream_order": 3,
    "superfund_score": 0.0016,
    "tourism_amenity_density": 0.2387,
    "tri_facility_density": 0.7476,
    "usgs_mean_q_cfs": 2.128,
    "velocity_feasibility": 0.7,
    "water_intake_score": 0.8245
   },
   "type": "Feature"
  },
  {
   "geometry": {
    "coordinates": [
     -77.563784,
     35.917561
    ],
    "type": "Point"
   },
   "properties": {
    "accumulation": 34101.0,
    "bank_slope_deg": 0.46,
    "bank_slope_score": 1.0,
    "bank_slope_source": "nc-dps-lidar-dem03-cross-section",
    "beach_dist_km": 190.99,
    "bridge_proximity_bonus": 0.0,
    "catchment_area_km2": 3.4054,
    "channel_width_m": 3.46,
    "channel_width_score": 1.0,
    "composite_score": 44.5767,
    "cso_density": 0.0,
    "ej_index": 0.6795,
    "elevation_m": 19.9697,
    "estuary_dist_km": 167.61,
    "feasibility_score": 66.3265,
    "flood_q10_cfs": 242.27,
    "flow_score": 27.1416,
    "flow_velocity_ms": 0.1604,
    "generation_score": 31.414,
    "impact_score": 61.3939,
    "impervious_pct": 7.57,
    "land_ownership": 0.5,
    "lat": 35.9176,
    "litter_complaint_density": 0.0,
    "lon": -77.5638,
    "navigable_dist_m": null,
    "npdes_points": 0,
    "pixel_col": 559.0,
    "pixel_row": 474.0,
    "population_density": 169.0,
    "position_along": 0.25,
    "protected_area_score": 22.7916,
    "rank": 8,
    "road_access_m": 120.1,
    "road_access_score": 1.0,
    "road_density_km_km2": 3.281,
    "robustness_pct": 8.5,
    "runoff_coeff_C": 0.1181,
    "seasonal_cv": 0.4354,
    "segment_id": 9,
    "segment_length_m": 3006.3931,
    "stream_order": 3,
    "superfund_score": 0.0032,
    "tourism_amenity_density": 3.0239,
    "tri_facility_density": 0.2937,
    "usgs_mean_q_cfs": 1.13,
    "velocity_feasibility": 0.7,
    "water_intake_score": 0.9039
   },
   "type": "Feature"
  },
  {
   "geometry": {
    "coordinates": [
     -77.52752,
     35.897904
    ],
    "type": "Point"
   },
   "properties": {
    "accumulation": 30565.0,
    "bank_slope_deg": 31.88,
    "bank_slope_score": 0.2,
    "bank_slope_source": "nc-dps-lidar-dem03-cross-section",
    "beach_dist_km": 189.2,
    "bridge_proximity_bonus": 0.0,
    "catchment_area_km2": 3.0523,
    "channel_width_m": 3.33,
    "channel_width_score": 1.0,
    "composite_score": 43.2061,
    "cso_density": 0.0,
    "ej_index": 0.5798,
    "elevation_m": 7.7844,
    "estuary_dist_km": 163.68,
    "feasibility_score": 35.7143,
    "flood_q10_cfs": 254.06,
    "flow_score": 29.5798,
    "flow_velocity_ms": 0.0446,
    "generation_score": 39.443,
    "impact_score": 62.0704,
    "impervious_pct": 12.44,
    "land_ownership": 0.5,
    "lat": 35.8979,
    "litter_complaint_density": 0.0,
    "lon": -77.5275,
    "navigable_dist_m": null,
    "npdes_points": 0,
    "pixel_col": 879.0,
    "pixel_row": 700.0,
    "population_density": 228.7,
    "position_along": 0.5,
    "protected_area_score": 22.5258,
    "rank": 9,
    "road_access_m": 148.0,
    "road_access_score": 1.0,
    "road_density_km_km2": 8.121,
    "robustness_pct": 2.0,
    "runoff_coeff_C": 0.162,
    "seasonal_cv": 0.4558,
    "segment_id": 12,
    "segment_length_m": 2840.5283,
    "stream_order": 3,
    "superfund_score": 0.0019,
    "tourism_amenity_density": 1.5915,
    "tri_facility_density": 0.0,
    "usgs_mean_q_cfs": 2.926,
    "velocity_feasibility": 0.3,
    "water_intake_score": 0.988
   },
   "type": "Feature"
  },
  {
   "geometry": {
    "coordinates": [
     -77.563732,
     35.930686
    ],
    "type": "Point"
   },
   "properties": {
    "accumulation": 63891.0,
    "bank_slope_deg": 11.43,
    "bank_slope_score": 1.0,
    "bank_slope_source": "nc-dps-lidar-dem03-cross-section",
    "beach_dist_km": 192.44,
    "bridge_proximity_bonus": 0.0,
    "catchment_area_km2": 6.3802,
    "channel_width_m": 4.35,
    "channel_width_score": 1.0,
    "composite_score": 36.5316,
    "cso_density": 0.0,
    "ej_index": 0.6319,
    "elevation_m": 7.3393,
    "estuary_dist_km": 168.44,
    "feasibility_score": 58.1633,
    "flood_q10_cfs": 296.18,
    "flow_score": 33.1709,
    "flow_velocity_ms": 0.5,
    "generation_score": 10.1309,
    "impact_score": 54.9172,
    "impervious_pct": null,
    "land_ownership": 0.5,
    "lat": 35.9307,
    "litter_complaint_density": 0.0,
    "lon": -77.5637,
    "navigable_dist_m": null,
    "npdes_points": 0,
    "pixel_col": 563.0,
    "pixel_row": 327.0,
    "population_density": 92.9,
    "position_along": 0.8333,
    "protected_area_score": 23.8375,
    "rank": 10,
    "road_access_m": 655.7,
    "road_access_score": 0.6,
    "road_density_km_km2": 1.904,
    "robustness_pct": 0.0,
    "runoff_coeff_C": null,
    "seasonal_cv": null,
    "segment_id": 6,
    "segment_length_m": 5340.582,
    "stream_order": 1,
    "superfund_score": 0.0045,
    "tourism_amenity_density": 1.3528,
    "tri_facility_density": 0.1567,
    "usgs_mean_q_cfs": null,
    "velocity_feasibility": 1.0,
    "water_intake_score": 0.8965
   },
   "type": "Feature"
  },
  {
   "geometry": {
    "coordinates": [
     -77.570921,
     35.94597
    ],
    "type": "Point"
   },
   "properties": {
    "accumulation": 54298.0,
    "bank_slope_deg": 7.6,
    "bank_slope_score": 1.0,
    "bank_slope_source": "nc-dps-lidar-dem03-cross-section",
    "beach_dist_km": 194.06,
    "bridge_proximity_bonus": 0.0,
    "catchment_area_km2": 5.4223,
    "channel_width_m": 4.1,
    "channel_width_score": 1.0,
    "composite_score": 35.6312,
    "cso_density": 0.0,
    "ej_index": 0.5952,
    "elevation_m": 7.9856,
    "estuary_dist_km": 169.95,
    "feasibility_score": 58.1633,
    "flood_q10_cfs": 268.62,
    "flow_score": 45.5928,
    "flow_velocity_ms": 0.5,
    "generation_score": 3.3374,
    "impact_score": 48.3577,
    "impervious_pct": null,
    "land_ownership": 0.5,
    "lat": 35.946,
    "litter_complaint_density": 0.0,
    "lon": -77.5709,
    "navigable_dist_m": null,
    "npdes_points": 0,
    "pixel_col": 501.0,
    "pixel_row": 157.0,
    "population_density": 62.9,
    "position_along": 0.5,
    "protected_area_score": 24.8277,
    "rank": 11,
    "road_access_m": 568.7,
    "road_access_score": 0.6,
    "road_density_km_km2": 1.319,
    "robustness_pct": 0.0,
    "runoff_coeff_C": null,
    "seasonal_cv": null,
    "segment_id": 3,
    "segment_length_m": 1173.8665,
    "stream_order": 3,
    "superfund_score": 0.0075,
    "tourism_amenity_density": 0.0,
    "tri_facility_density": 0.0,
    "usgs_mean_q_cfs": null,
    "velocity_feasibility": 1.0,
    "water_intake_score": 0.8416
   },
   "type": "Feature"
  },
  {
   "geometry": {
    "coordinates": [
     -77.495903,
     35.907296
    ],
    "type": "Point"
   },
   "properties": {
    "accumulation": 22925.0,
    "bank_slope_deg": 6.02,
    "bank_slope_score": 1.0,
    "bank_slope_source": "nc-dps-lidar-dem03-cross-section",
    "beach_dist_km": 190.62,
    "bridge_proximity_bonus": 0.0,
    "catchment_area_km2": 2.2893,
    "channel_width_m": 3.0,
    "channel_width_score": 1.0,
    "composite_score": 35.1661,
    "cso_density": 0.0,
    "ej_index": 0.5595,
    "elevation_m": 4.1057,
    "estuary_dist_km": 161.95,
    "feasibility_score": 68.3673,
    "flood_q10_cfs": 160.07,
    "flow_score": 26.0491,
    "flow_velocity_ms": 0.5,
    "generation_score": 3.7742,
    "impact_score": 57.5547,
    "impervious_pct": null,
    "land_ownership": 0.5,
    "lat": 35.9073,
    "litter_complaint_density": 0.0,
    "lon": -77.4959,
    "navigable_dist_m": null,
    "npdes_points": 0,
    "pixel_col": 1165.0,
    "pixel_row": 601.0,
    "population_density": 73.5,
    "position_along": 0.5,
    "protected_area_score": 22.0732,
    "rank": 12,
    "road_access_m": 289.7,
    "road_access_score": 0.8,
    "road_density_km_km2": 1.35,
    "robustness_pct": 0.0,
    "runoff_coeff_C": null,
    "seasonal_cv": null,
    "segment_id": 11,
    "segment_length_m": 1438.5358,
    "stream_order": 1,
    "superfund_score": 0.0018,
    "tourism_amenity_density": 0.0,
    "tri_facility_density": 0.0,
    "usgs_mean_q_cfs": null,
    "velocity_feasibility": 1.0,
    "water_intake_score": 1.0317
   },
   "type": "Feature"
  },
  {
   "geometry": {
    "coordinates": [
     -77.580039,
     35.946761
    ],
    "type": "Point"
   },
   "properties": {
    "accumulation": 25934.0,
    "bank_slope_deg": 9.72,
    "bank_slope_score": 1.0,
    "bank_slope_source": "nc-dps-lidar-dem03-cross-section",
    "beach_dist_km": 194.06,
    "bridge_proximity_bonus": 0.0,
    "catchment_area_km2": 2.5898,
    "channel_width_m": 3.14,
    "channel_width_score": 1.0,
    "composite_score": 33.4399,
    "cso_density": 0.0,
    "ej_index": 0.6425,
    "elevation_m": 8.3769,
    "estuary_dist_km": 170.67,
    "feasibility_score": 58.1633,
    "flood_q10_cfs": 172.37,
    "flow_score": 40.6201,
    "flow_velocity_ms": 0.5,
    "generation_score": 1.4196,
    "impact_score": 47.1152,
    "impervious_pct": null,
    "land_ownership": 0.5,
    "lat": 35.9468,
    "litter_complaint_density": 0.0,
    "lon": -77.58,
    "navigable_dist_m": null,
    "npdes_points": 0,
    "pixel_col": 420.0,
    "pixel_row": 145.0,
    "population_density": 61.4,
    "position_along": 0.5,
    "protected_area_score": 24.4556,
    "rank": 13,
    "road_access_m": 859.5,
    "road_access_score": 0.6,
    "road_density_km_km2": 0.033,
    "robustness_pct": 0.0,
    "runoff_coeff_C": null,
    "seasonal_cv": null,
    "segment_id": 0,
    "segment_length_m": 1315.484,
    "stream_order": 3,
    "superfund_score": 0.0074,
    "tourism_amenity_density": 0.0,
    "tri_facility_density": 0.0,
    "usgs_mean_q_cfs": null,
    "velocity_feasibility": 1.0,
    "water_intake_score": 0.8193
   },
   "type": "Feature"
  },
  {
   "geometry": {
    "coordinates": [
     -77.522812,
     35.938688
    ],
    "type": "Point"
   },
   "properties": {
    "accumulation": 46743.0,
    "bank_slope_deg": 4.88,
    "bank_slope_score": 1.0,
    "bank_slope_source": "nc-dps-lidar-dem03-cross-section",
    "beach_dist_km": 193.75,
    "bridge_proximity_bonus": 0.0,
    "catchment_area_km2": 4.6678,
    "channel_width_m": 3.88,
    "channel_width_score": 1.0,
    "composite_score": 32.5497,
    "cso_density": 0.0,
    "ej_index": 0.3541,
    "elevation_m": 5.5643,
    "estuary_dist_km": 165.96,
    "feasibility_score": 68.3673,
    "flood_q10_cfs": 245.51,
    "flow_score": 30.3207,
    "flow_velocity_ms": 0.5,
    "generation_score": 2.544,
    "impact_score": 46.504,
    "impervious_pct": null,
    "land_ownership": 0.5,
    "lat": 35.9387,
    "litter_complaint_density": 0.0,
    "lon": -77.5228,
    "navigable_dist_m": null,
    "npdes_points": 0,
    "pixel_col": 935.0,
    "pixel_row": 249.0,
    "population_density": 77.2,
    "position_along": 0.5,
    "protected_area_score": 23.5655,
    "rank": 14,
    "road_access_m": 461.0,
    "road_access_score": 0.8,
    "road_density_km_km2": 0.406,
    "robustness_pct": 0.0,
    "runoff_coeff_C": null,
    "seasonal_cv": null,
    "segment_id": 1,
    "segment_length_m": 2942.1736,
    "stream_order": 1,
    "superfund_score": 0.0043,
    "tourism_amenity_density": 0.0,
    "tri_facility_density": 0.0,
    "usgs_mean_q_cfs": null,
    "velocity_feasibility": 1.0,
    "water_intake_score": 1.0147
   },
   "type": "Feature"
  },
  {
   "geometry": {
    "coordinates": [
     -77.563205,
     35.941005
    ],
    "type": "Point"
   },
   "properties": {
    "accumulation": 47725.0,
    "bank_slope_deg": 0.82,
    "bank_slope_score": 1.0,
    "bank_slope_source": "nc-dps-lidar-dem03-cross-section",
    "beach_dist_km": 193.58,
    "bridge_proximity_bonus": 0.0,
    "catchment_area_km2": 4.7659,
    "channel_width_m": 3.91,
    "channel_width_score": 1.0,
    "composite_score": 32.4556,
    "cso_density": 0.0,
    "ej_index": 0.5629,
    "elevation_m": 7.9383,
    "estuary_dist_km": 169.06,
    "feasibility_score": 58.1633,
    "flood_q10_cfs": 248.59,
    "flow_score": 30.4876,
    "flow_velocity_ms": 0.5,
    "generation_score": 3.292,
    "impact_score": 50.4051,
    "impervious_pct": null,
    "land_ownership": 0.5,
    "lat": 35.941,
    "litter_complaint_density": 0.0,
    "lon": -77.5632,
    "navigable_dist_m": null,
    "npdes_points": 0,
    "pixel_col": 571.0,
    "pixel_row": 212.0,
    "population_density": 72.6,
    "position_along": 0.5,
    "protected_area_score": 24.2649,
    "rank": 15,
    "road_access_m": 571.9,
    "road_access_score": 0.6,
    "road_density_km_km2": 1.04,
    "robustness_pct": 0.0,
    "runoff_coeff_C": null,
    "seasonal_cv": null,
    "segment_id": 6,
    "segment_length_m": 5340.582,
    "stream_order": 1,
    "superfund_score": 0.0063,
    "tourism_amenity_density": 0.7958,
    "tri_facility_density": 0.0,
    "usgs_mean_q_cfs": null,
    "velocity_feasibility": 1.0,
    "water_intake_score": 0.8757
   },
   "type": "Feature"
  },
  {
   "geometry": {
    "coordinates": [
     -77.606154,
     35.88892
    ],
    "type": "Point"
   },
   "properties": {
    "accumulation": 52457.0,
    "bank_slope_deg": 4.69,
    "bank_slope_score": 1.0,
    "bank_slope_source": "nc-dps-lidar-dem03-cross-section",
    "beach_dist_km": 187.44,
    "bridge_proximity_bonus": 0.0,
    "catchment_area_km2": 5.2384,
    "channel_width_m": 4.05,
    "channel_width_score": 1.0,
    "composite_score": 31.9635,
    "cso_density": 0.0,
    "ej_index": 0.3333,
    "elevation_m": 27.9764,
    "estuary_dist_km": 169.0,
    "feasibility_score": 68.3673,
    "flood_q10_cfs": 263.11,
    "flow_score": 45.2853,
    "flow_velocity_ms": 0.5,
    "generation_score": 9.9624,
    "impact_score": 24.6611,
    "impervious_pct": null,
    "land_ownership": 0.5,
    "lat": 35.8889,
    "litter_complaint_density": 0.0,
    "lon": -77.6062,
    "navigable_dist_m": null,
    "npdes_points": 0,
    "pixel_col": 168.0,
    "pixel_row": 778.0,
    "population_density": 91.4,
    "position_along": 0.5,
    "protected_area_score": 20.2133,
    "rank": 16,
    "road_access_m": 384.7,
    "road_access_score": 0.8,
    "road_density_km_km2": 1.097,
    "robustness_pct": 0.0,
    "runoff_coeff_C": null,
    "seasonal_cv": null,
    "segment_id": 17,
    "segment_length_m": 28.2647,
    "stream_order": 3,
    "superfund_score": 0.0016,
    "tourism_amenity_density": 0.0,
    "tri_facility_density": 0.1909,
    "usgs_mean_q_cfs": null,
    "velocity_feasibility": 1.0,
    "water_intake_score": 0.751
   },
   "type": "Feature"
  },
  {
   "geometry": {
    "coordinates": [
     -77.536508,
     35.932732
    ],
    "type": "Point"
   },
   "properties": {
    "accumulation": 29669.0,
    "bank_slope_deg": 0.38,
    "bank_slope_score": 1.0,
    "bank_slope_source": "nc-dps-lidar-dem03-cross-section",
    "beach_dist_km": 192.94,
    "bridge_proximity_bonus": 0.0,
    "catchment_area_km2": 2.9628,
    "channel_width_m": 3.29,
    "channel_width_score": 1.0,
    "composite_score": 30.7586,
    "cso_density": 0.0,
    "ej_index": 0.3511,
    "elevation_m": 6.5377,
    "estuary_dist_km": 166.57,
    "feasibility_score": 58.1633,
    "flood_q10_cfs": 186.87,
    "flow_score": 27.3128,
    "flow_velocity_ms": 0.5,
    "generation_score": 4.217,
    "impact_score": 46.4693,
    "impervious_pct": null,
    "land_ownership": 0.5,
    "lat": 35.9327,
    "litter_complaint_density": 0.0,
    "lon": -77.5365,
    "navigable_dist_m": null,
    "npdes_points": 0,
    "pixel_col": 809.0,
    "pixel_row": 308.0,
    "population_density": 105.8,
    "position_along": 0.5,
    "protected_area_score": 23.4625,
    "rank": 17,
    "road_access_m": 745.1,
    "road_access_score": 0.6,
    "road_density_km_km2": 0.831,
    "robustness_pct": 0.0,
    "runoff_coeff_C": null,
    "seasonal_cv": null,
    "segment_id": 7,
    "segment_length_m": 112.3485,
    "stream_order": 1,
    "superfund_score": 0.0042,
    "tourism_amenity_density": 0.2387,
    "tri_facility_density": 0.0,
    "usgs_mean_q_cfs": null,
    "velocity_feasibility": 1.0,
    "water_intake_score": 1.004
   },
   "type": "Feature"
  },
  {
   "geometry": {
    "coordinates": [
     -77.507121,
     35.92739
    ],
    "type": "Point"
   },
   "properties": {
    "accumulation": 35867.0,
    "bank_slope_deg": 0.02,
    "bank_slope_score": 1.0,
    "bank_slope_source": "nc-dps-lidar-dem03-cross-section",
    "beach_dist_km": 192.69,
    "bridge_proximity_bonus": 0.0,
    "catchment_area_km2": 3.5817,
    "channel_width_m": 3.53,
    "channel_width_score": 1.0,
    "composite_score": 30.6082,
    "cso_density": 0.0,
    "ej_index": 0.4369,
    "elevation_m": 4.8114,
    "estuary_dist_km": 164.08,
    "feasibility_score": 42.8571,
    "flood_q10_cfs": 209.41,
    "flow_score": 28.4307,
    "flow_velocity_ms": 0.5,
    "generation_score": 1.8617,
    "impact_score": 55.0448,
    "impervious_pct": null,
    "land_ownership": 0.5,
    "lat": 35.9274,
    "litter_complaint_density": 0.0,
    "lon": -77.5071,
    "navigable_dist_m": null,
    "npdes_points": 0,
    "pixel_col": 1072.0,
    "pixel_row": 378.0,
    "population_density": 43.2,
    "position_along": 0.5,
    "protected_area_score": 22.7137,
    "rank": 18,
    "road_access_m": 1022.1,
    "road_access_score": 0.3,
    "road_density_km_km2": 0.803,
    "robustness_pct": 0.0,
    "runoff_coeff_C": null,
    "seasonal_cv": null,
    "segment_id": 8,
    "segment_length_m": 2222.2564,
    "stream_order": 1,
    "superfund_score": 0.0028,
    "tourism_amenity_density": 0.0,
    "tri_facility_density": 0.0,
    "usgs_mean_q_cfs": null,
    "velocity_feasibility": 1.0,
    "water_intake_score": 1.1223
   },
   "type": "Feature"
  },
  {
   "geometry": {
    "coordinates": [
     -77.598022,
     35.887565
    ],
    "type": "Point"
   },
   "properties": {
    "accumulation": 23995.0,
    "bank_slope_deg": 9.31,
    "bank_slope_score": 1.0,
    "bank_slope_source": "nc-dps-lidar-dem03-cross-section",
    "beach_dist_km": 187.35,
    "bridge_proximity_bonus": 0.0,
    "catchment_area_km2": 2.3962,
    "channel_width_m": 3.05,
    "channel_width_score": 1.0,
    "composite_score": 30.5689,
    "cso_density": 0.0,
    "ej_index": 0.3943,
    "elevation_m": 29.3058,
    "estuary_dist_km": 168.3,
    "feasibility_score": 56.1224,
    "flood_q10_cfs": 182.24,
    "flow_score": 24.2971,
    "flow_velocity_ms": 0.13,
    "generation_score": 25.5613,
    "impact_score": 28.0262,
    "impervious_pct": 4.4,
    "land_ownership": 0.5,
    "lat": 35.8876,
    "litter_complaint_density": 0.0,
    "lon": -77.598,
    "navigable_dist_m": null,
    "npdes_points": 0,
    "pixel_col": 237.0,
    "pixel_row": 797.0,
    "population_density": 118.6,
    "position_along": 0.5,
    "protected_area_score": 20.0696,
    "rank": 19,
    "road_access_m": 350.0,
    "road_access_score": 0.8,
    "road_density_km_km2": 1.433,
    "robustness_pct": 0.0,
    "runoff_coeff_C": 0.0896,
    "seasonal_cv": 0.4387,
    "segment_id": 18,
    "segment_length_m": 1589.4362,
    "stream_order": 3,
    "superfund_score": 0.0016,
    "tourism_amenity_density": 0.0,
    "tri_facility_density": 0.4173,
    "usgs_mean_q_cfs": 1.639,
    "velocity_feasibility": 0.7,
    "water_intake_score": 0.758
   },
   "type": "Feature"
  },
  {
   "geometry": {
    "coordinates": [
     -77.620268,
     35.912875
    ],
    "type": "Point"
   },
   "properties": {
    "accumulation": 74967.0,
    "bank_slope_deg": 1.63,
    "bank_slope_score": 1.0,
    "bank_slope_source": "nc-dps-lidar-dem03-cross-section",
    "beach_dist_km": 189.98,
    "bridge_proximity_bonus": 0.0,
    "catchment_area_km2": 7.4863,
    "channel_width_m": 4.61,
    "channel_width_score": 1.0,
    "composite_score": 27.1234,
    "cso_density": 0.0,
    "ej_index": 0.339,
    "elevation_m": 18.9953,
    "estuary_dist_km": 171.52,
    "feasibility_score": 45.9184,
    "flood_q10_cfs": 341.78,
    "flow_score": 45.2681,
    "flow_velocity_ms": 0.1362,
    "generation_score": 5.6578,
    "impact_score": 24.0707,
    "impervious_pct": 2.03,
    "land_ownership": 0.5,
    "lat": 35.9129,
    "litter_complaint_density": 0.0,
    "lon": -77.6203,
    "navigable_dist_m": null,
    "npdes_points": 0,
    "pixel_col": 43.0,
    "pixel_row": 508.0,
    "population_density": 59.4,
    "position_along": 0.5,
    "protected_area_score": 21.8112,
    "rank": 20,
    "road_access_m": 626.3,
    "road_access_score": 0.6,
    "road_density_km_km2": 0.743,
    "robustness_pct": 0.0,
    "runoff_coeff_C": 0.0683,
    "seasonal_cv": 0.4676,
    "segment_id": 14,
    "segment_length_m": 726.187,
    "stream_order": 3,
    "superfund_score": 0.0022,
    "tourism_amenity_density": 0.0,
    "tri_facility_density": 0.0,
    "usgs_mean_q_cfs": 7.149,
    "velocity_feasibility": 0.7,
    "water_intake_score": 0.7693
   },
   "type": "Feature"
  },
  {
   "geometry": {
    "coordinates": [
     -77.539958,
     35.938757
    ],
    "type": "Point"
   },
   "properties": {
    "accumulation": 22456.0,
    "bank_slope_deg": 2.77,
    "bank_slope_score": 1.0,
    "bank_slope_source": "nc-dps-lidar-dem03-cross-section",
    "beach_dist_km": 193.57,
    "bridge_proximity_bonus": 0.0,
    "catchment_area_km2": 2.2425,
    "channel_width_m": 2.98,
    "channel_width_score": 1.0,
    "composite_score": 26.8967,
    "cso_density": 0.0,
    "ej_index": 0.3511,
    "elevation_m": 11.2662,
    "estuary_dist_km": 167.21,
    "feasibility_score": 67.3469,
    "flood_q10_cfs": 162.34,
    "flow_score": 7.1826,
    "flow_velocity_ms": 0.0813,
    "generation_score": 5.7962,
    "impact_score": 44.2006,
    "impervious_pct": 1.14,
    "land_ownership": 1.0,
    "lat": 35.9388,
    "litter_complaint_density": 0.0,
    "lon": -77.54,
    "navigable_dist_m": null,
    "npdes_points": 0,
    "pixel_col": 777.0,
    "pixel_row": 240.0,
    "population_density": 105.8,
    "position_along": 0.5,
    "protected_area_score": 23.8342,
    "rank": 21,
    "road_access_m": 500.0,
    "road_access_score": 0.6,
    "road_density_km_km2": 0.648,
    "robustness_pct": 0.0,
    "runoff_coeff_C": 0.0603,
    "seasonal_cv": 0.4403,
    "segment_id": 5,
    "segment_length_m": 1238.9685,
    "stream_order": 1,
    "superfund_score": 0.0051,
    "tourism_amenity_density": 0.0796,
    "tri_facility_density": 0.0,
    "usgs_mean_q_cfs": 1.464,
    "velocity_feasibility": 0.7,
    "water_intake_score": 0.9622
   },
   "type": "Feature"
  },
  {
   "geometry": {
    "coordinates": [
     -77.609937,
     35.892872
    ],
    "type": "Point"
   },
   "properties": {
    "accumulation": 57753.0,
    "bank_slope_deg": 1.5,
    "bank_slope_score": 1.0,
    "bank_slope_source": "nc-dps-lidar-dem03-cross-section",
    "beach_dist_km": 187.84,
    "bridge_proximity_bonus": 0.0,
    "catchment_area_km2": 5.7673,
    "channel_width_m": 4.19,
    "channel_width_score": 1.0,
    "composite_score": 26.4624,
    "cso_density": 0.0,
    "ej_index": 0.2953,
    "elevation_m": 23.8547,
    "estuary_dist_km": 169.52,
    "feasibility_score": 45.9184,
    "flood_q10_cfs": 296.89,
    "flow_score": 33.9081,
    "flow_velocity_ms": 0.1033,
    "generation_score": 14.0581,
    "impact_score": 22.9341,
    "impervious_pct": 2.71,
    "land_ownership": 0.5,
    "lat": 35.8929,
    "litter_complaint_density": 0.0,
    "lon": -77.6099,
    "navigable_dist_m": null,
    "npdes_points": 0,
    "pixel_col": 133.0,
    "pixel_row": 733.0,
    "population_density": 91.2,
    "position_along": 0.5,
    "protected_area_score": 20.4612,
    "rank": 22,
    "road_access_m": 629.3,
    "road_access_score": 0.6,
    "road_density_km_km2": 1.276,
    "robustness_pct": 0.0,
    "runoff_coeff_C": 0.0744,
    "seasonal_cv": 0.4512,
    "segment_id": 19,
    "segment_length_m": 1652.9455,
    "stream_order": 3,
    "superfund_score": 0.0017,
    "tourism_amenity_density": 0.0,
    "tri_facility_density": 0.1734,
    "usgs_mean_q_cfs": 3.728,
    "velocity_feasibility": 0.7,
    "water_intake_score": 0.7543
   },
   "type": "Feature"
  },
  {
   "geometry": {
    "coordinates": [
     -77.518893,
     35.85786
    ],
    "type": "Point"
   },
   "properties": {
    "accumulation": 27714.0,
    "bank_slope_deg": 7.97,
    "bank_slope_score": 1.0,
    "bank_slope_source": "nc-dps-lidar-dem03-cross-section",
    "beach_dist_km": 184.89,
    "bridge_proximity_bonus": 0.0,
    "catchment_area_km2": 2.7676,
    "channel_width_m": 3.21,
    "channel_width_score": 1.0,
    "composite_score": 25.03,
    "cso_density": 0.0,
    "ej_index": 0.5103,
    "elevation_m": 11.3339,
    "estuary_dist_km": 160.53,
    "feasibility_score": 45.9184,
    "flood_q10_cfs": 185.31,
    "flow_score": 19.7119,
    "flow_velocity_ms": 0.0907,
    "generation_score": 3.1539,
    "impact_score": 40.8935,
    "impervious_pct": 1.4,
    "land_ownership": 0.5,
    "lat": 35.8579,
    "litter_complaint_density": 0.0,
    "lon": -77.5189,
    "navigable_dist_m": null,
    "npdes_points": 0,
    "pixel_col": 943.0,
    "pixel_row": 1147.0,
    "population_density": 33.5,
    "position_along": 0.5,
    "protected_area_score": 18.7468,
    "rank": 23,
    "road_access_m": 603.6,
    "road_access_score": 0.6,
    "road_density_km_km2": 0.379,
    "robustness_pct": 0.0,
    "runoff_coeff_C": 0.0626,
    "seasonal_cv": 0.4735,
    "segment_id": 26,
    "segment_length_m": 2927.8689,
    "stream_order": 1,
    "superfund_score": 0.001,
    "tourism_amenity_density": 0.1592,
    "tri_facility_density": 0.0,
    "usgs_mean_q_cfs": 6.354,
    "velocity_feasibility": 0.7,
    "water_intake_score": 0.7371
   },
   "type": "Feature"
  },
  {
   "geometry": {
    "coordinates": [
     -77.611412,
     35.9118
    ],
    "type": "Point"
   },
   "properties": {
    "accumulation": 37032.0,
    "bank_slope_deg": 3.41,
    "bank_slope_score": 1.0,
    "bank_slope_source": "nc-dps-lidar-dem03-cross-section",
    "beach_dist_km": 189.93,
    "bridge_proximity_bonus": 0.0,
    "catchment_area_km2": 3.6981,
    "channel_width_m": 3.57,
    "channel_width_score": 1.0,
    "composite_score": 24.9007,
    "cso_density": 0.0,
    "ej_index": 0.3345,
    "elevation_m": 21.5816,
    "estuary_dist_km": 170.79,
    "feasibility_score": 56.1224,
    "flood_q10_cfs": 222.81,
    "flow_score": 25.6821,
    "flow_velocity_ms": 0.1078,
    "generation_score": 6.6292,
    "impact_score": 26.9103,
    "impervious_pct": 1.84,
    "land_ownership": 0.5,
    "lat": 35.9118,
    "litter_complaint_density": 0.0,
    "lon": -77.6114,
    "navigable_dist_m": null,
    "npdes_points": 0,
    "pixel_col": 124.0,
    "pixel_row": 526.0,
    "population_density": 95.0,
    "position_along": 0.5,
    "protected_area_score": 22.4645,
    "rank": 24,
    "road_access_m": 219.1,
    "road_access_score": 0.8,
    "road_density_km_km2": 0.717,
    "robustness_pct": 0.0,
    "runoff_coeff_C": 0.0666,
    "seasonal_cv": 0.4365,
    "segment_id": 10,
    "segment_length_m": 1317.9087,
    "stream_order": 3,
    "superfund_score": 0.0023,
    "tourism_amenity_density": 0.0,
    "tri_facility_density": 0.0,
    "usgs_mean_q_cfs": 1.804,
    "velocity_feasibility": 0.7,
    "water_intake_score": 0.7763
   },
   "type": "Feature"
  },
  {
   "geometry": {
    "coordinates": [
     -77.599165,
     35.939166
    ],
    "type": "Point"
   },
   "properties": {
    "accumulation": 25941.0,
    "bank_slope_deg": 10.26,
    "bank_slope_score": 1.0,
    "bank_slope_source": "nc-dps-lidar-dem03-cross-section",
    "beach_dist_km": 193.06,
    "bridge_proximity_bonus": 0.0,
    "catchment_area_km2": 2.5905,
    "channel_width_m": 3.14,
    "channel_width_score": 1.0,
    "composite_score": 24.4892,
    "cso_density": 0.0,
    "ej_index": 0.5154,
    "elevation_m": 12.6178,
    "estuary_dist_km": 171.59,
    "feasibility_score": 42.8571,
    "flood_q10_cfs": 172.4,
    "flow_score": 26.6214,
    "flow_velocity_ms": 0.5,
    "generation_score": 0.991,
    "impact_score": 37.0265,
    "impervious_pct": null,
    "land_ownership": 0.5,
    "lat": 35.9392,
    "litter_complaint_density": 0.0,
    "lon": -77.5992,
    "navigable_dist_m": null,
    "npdes_points": 0,
    "pixel_col": 244.0,
    "pixel_row": 221.0,
    "population_density": 51.1,
    "position_along": 0.5,
    "protected_area_score": 24.1698,
    "rank": 25,
    "road_access_m": 1441.0,
    "road_access_score": 0.3,
    "road_density_km_km2": 0.0,
    "robustness_pct": 0.0,
    "runoff_coeff_C": null,
    "seasonal_cv": null,
    "segment_id": 4,
    "segment_length_m": 938.7604,
    "stream_order": 1,
    "superfund_score": 0.0049,
    "tourism_amenity_density": 0.0,
    "tri_facility_density": 0.0,
    "usgs_mean_q_cfs": null,
    "velocity_feasibility": 1.0,
    "water_intake_score": 0.7904
   },
   "type": "Feature"
  },
  {
   "geometry": {
    "coordinates": [
     -77.575366,
     35.93615
    ],
    "type": "Point"
   },
   "properties": {
    "accumulation": 33975.0,
    "bank_slope_deg": 1.83,
    "bank_slope_score": 1.0,
    "bank_slope_source": "nc-dps-lidar-dem03-cross-section",
    "beach_dist_km": 192.93,
    "bridge_proximity_bonus": 0.0,
    "catchment_area_km2": 3.3928,
    "channel_width_m": 3.46,
    "channel_width_score": 1.0,
    "composite_score": 24.3642,
    "cso_density": 0.0,
    "ej_index": 0.6383,
    "elevation_m": 11.4198,
    "estuary_dist_km": 169.64,
    "feasibility_score": 30.6122,
    "flood_q10_cfs": 209.57,
    "flow_score": 12.4624,
    "flow_velocity_ms": 0.1034,
    "generation_score": 3.8775,
    "impact_score": 51.6451,
    "impervious_pct": 1.43,
    "land_ownership": 0.5,
    "lat": 35.9361,
    "litter_complaint_density": 0.0,
    "lon": -77.5754,
    "navigable_dist_m": null,
    "npdes_points": 0,
    "pixel_col": 459.0,
    "pixel_row": 261.0,
    "population_density": 66.6,
    "position_along": 0.1667,
    "protected_area_score": 24.1549,
    "rank": 26,
    "road_access_m": 1047.0,
    "road_access_score": 0.3,
    "road_density_km_km2": 0.0,
    "robustness_pct": 0.0,
    "runoff_coeff_C": 0.0629,
    "seasonal_cv": 0.4469,
    "segment_id": 6,
    "segment_length_m": 5340.582,
    "stream_order": 1,
    "superfund_score": 0.0053,
    "tourism_amenity_density": 1.1141,
    "tri_facility_density": 0.0,
    "usgs_mean_q_cfs": 2.548,
    "velocity_feasibility": 0.7,
    "water_intake_score": 0.8509
   },
   "type": "Feature"
  },
  {
   "geometry": {
    "coordinates": [
     -77.618044,
     35.907115
    ],
    "type": "Point"
   },
   "properties": {
    "accumulation": 26313.0,
    "bank_slope_deg": 5.08,
    "bank_slope_score": 1.0,
    "bank_slope_source": "nc-dps-lidar-dem03-cross-section",
    "beach_dist_km": 189.36,
    "bridge_proximity_bonus": 0.0,
    "catchment_area_km2": 2.6277,
    "channel_width_m": 3.15,
    "channel_width_score": 1.0,
    "composite_score": 22.6095,
    "cso_density": 0.0,
    "ej_index": 0.212,
    "elevation_m": 20.596,
    "estuary_dist_km": 171.0,
    "feasibility_score": 45.9184,
    "flood_q10_cfs": 182.92,
    "flow_score": 31.5496,
    "flow_velocity_ms": 0.0978,
    "generation_score": 6.6657,
    "impact_score": 19.4489,
    "impervious_pct": 2.18,
    "land_ownership": 0.5,
    "lat": 35.9071,
    "litter_complaint_density": 0.0,
    "lon": -77.618,
    "navigable_dist_m": null,
    "npdes_points": 0,
    "pixel_col": 65.0,
    "pixel_row": 573.0,
    "population_density": 77.0,
    "position_along": 0.5,
    "protected_area_score": 21.5021,
    "rank": 27,
    "road_access_m": 575.6,
    "road_access_score": 0.6,
    "road_density_km_km2": 0.822,
    "robustness_pct": 0.0,
    "runoff_coeff_C": 0.0696,
    "seasonal_cv": 0.4587,
    "segment_id": 13,
    "segment_length_m": 986.0068,
    "stream_order": 3,
    "superfund_score": 0.002,
    "tourism_amenity_density": 0.0,
    "tri_facility_density": 0.0,
    "usgs_mean_q_cfs": 5.264,
    "velocity_feasibility": 0.7,
    "water_intake_score": 0.7661
   },
   "type": "Feature"
  },
  {
   "geometry": {
    "coordinates": [
     -77.539257,
     35.853438
    ],
    "type": "Point"
   },
   "properties": {
    "accumulation": 24592.0,
    "bank_slope_deg": 16.88,
    "bank_slope_score": 0.5,
    "bank_slope_source": "nc-dps-lidar-dem03-cross-section",
    "beach_dist_km": 184.16,
    "bridge_proximity_bonus": 0.0,
    "catchment_area_km2": 2.4558,
    "channel_width_m": 3.08,
    "channel_width_score": 1.0,
    "composite_score": 21.0356,
    "cso_density": 0.0,
    "ej_index": 0.3466,
    "elevation_m": 3.2132,
    "estuary_dist_km": 161.79,
    "feasibility_score": 33.9286,
    "flood_q10_cfs": 166.96,
    "flow_score": 26.367,
    "flow_velocity_ms": 0.5,
    "generation_score": 0.1294,
    "impact_score": 31.0524,
    "impervious_pct": null,
    "land_ownership": 0.5,
    "lat": 35.8534,
    "litter_complaint_density": 0.0,
    "lon": -77.5393,
    "navigable_dist_m": null,
    "npdes_points": 0,
    "pixel_col": 760.0,
    "pixel_row": 1191.0,
    "population_density": 27.8,
    "position_along": 0.5,
    "protected_area_score": 18.0585,
    "rank": 28,
    "road_access_m": 1211.3,
    "road_access_score": 0.3,
    "road_density_km_km2": 0.0,
    "robustness_pct": 0.0,
    "runoff_coeff_C": null,
    "seasonal_cv": null,
    "segment_id": 27,
    "segment_length_m": 44.1116,
    "stream_order": 1,
    "superfund_score": 0.001,
    "tourism_amenity_density": 0.1592,
    "tri_facility_density": 0.0,
    "usgs_mean_q_cfs": null,
    "velocity_feasibility": 1.0,
    "water_intake_score": 0.7138
   },
   "type": "Feature"
  },
  {
   "geometry": {
    "coordinates": [
     -77.539767,
     35.870478
    ],
    "type": "Point"
   },
   "properties": {
    "accumulation": 28875.0,
    "bank_slope_deg": 15.17,
    "bank_slope_score": 0.5,
    "bank_slope_source": "nc-dps-lidar-dem03-cross-section",
    "beach_dist_km": 186.04,
    "bridge_proximity_bonus": 0.0,
    "catchment_area_km2": 2.8835,
    "channel_width_m": 3.26,
    "channel_width_score": 1.0,
    "composite_score": 18.2139,
    "cso_density": 0.0,
    "ej_index": 0.2772,
    "elevation_m": 9.3474,
    "estuary_dist_km": 162.87,
    "feasibility_score": 21.6837,
    "flood_q10_cfs": 205.52,
    "flow_score": 11.606,
    "flow_velocity_ms": 0.0973,
    "generation_score": 7.7711,
    "impact_score": 32.4284,
    "impervious_pct": 4.79,
    "land_ownership": 0.5,
    "lat": 35.8705,
    "litter_complaint_density": 0.0,
    "lon": -77.5398,
    "navigable_dist_m": null,
    "npdes_points": 0,
    "pixel_col": 762.0,
    "pixel_row": 999.0,
    "population_density": 24.9,
    "position_along": 0.5,
    "protected_area_score": 19.2529,
    "rank": 29,
    "road_access_m": 1013.4,
    "road_access_score": 0.3,
    "road_density_km_km2": 0.0,
    "robustness_pct": 0.0,
    "runoff_coeff_C": 0.0931,
    "seasonal_cv": 0.4482,
    "segment_id": 24,
    "segment_length_m": 2237.0989,
    "stream_order": 1,
    "superfund_score": 0.0012,
    "tourism_amenity_density": 0.2387,
    "tri_facility_density": 0.0,
    "usgs_mean_q_cfs": 2.134,
    "velocity_feasibility": 0.7,
    "water_intake_score": 0.7984
   },
   "type": "Feature"
  },
  {
   "geometry": {
    "coordinates": [
     -77.618417,
     35.866496
    ],
    "type": "Point"
   },
   "properties": {
    "accumulation": 32960.0,
    "bank_slope_deg": 4.47,
    "bank_slope_score": 1.0,
    "bank_slope_source": "nc-dps-lidar-dem03-cross-section",
    "beach_dist_km": 184.86,
    "bridge_proximity_bonus": 0.0,
    "catchment_area_km2": 3.2914,
    "channel_width_m": 3.42,
    "channel_width_score": 1.0,
    "composite_score": 16.0499,
    "cso_density": 0.0,
    "ej_index": 0.2766,
    "elevation_m": 23.7328,
    "estuary_dist_km": 168.59,
    "feasibility_score": 45.9184,
    "flood_q10_cfs": 201.24,
    "flow_score": 12.5789,
    "flow_velocity_ms": 0.1144,
    "generation_score": 1.8407,
    "impact_score": 18.2174,
    "impervious_pct": 0.47,
    "land_ownership": 0.5,
    "lat": 35.8665,
    "litter_complaint_density": 0.0,
    "lon": -77.6184,
    "navigable_dist_m": null,
    "npdes_points": 0,
    "pixel_col": 46.0,
    "pixel_row": 1026.0,
    "population_density": 24.3,
    "position_along": 0.5,
    "protected_area_score": 18.3369,
    "rank": 30,
    "road_access_m": 513.2,
    "road_access_score": 0.6,
    "road_density_km_km2": 0.746,
    "robustness_pct": 0.0,
    "runoff_coeff_C": 0.0542,
    "seasonal_cv": 0.4368,
    "segment_id": 25,
    "segment_length_m": 1436.8212,
    "stream_order": 1,
    "superfund_score": 0.0011,
    "tourism_amenity_density": 0.0,
    "tri_facility_density": 0.0,
    "usgs_mean_q_cfs": 2.627,
    "velocity_feasibility": 0.7,
    "water_intake_score": 0.6956
   },
   "type": "Feature"
  }
 ],
 "note": "GRIME region 'Tarboro, NC' \u2014 real-data pipeline (DEM\u2192streams\u2192candidates\u2192stream mask (sites confined to \u00b1150 m of mapped OSM/NHD waterways)\u2192region-appropriate real parameters\u2192shipped scoring, math unchanged). Width curve: Bieger et al. 2015 JAWRA Table 3, Atlantic Plain. Flood: SIR 2014-5030 HR4 (I24H50Y: NOAA Atlas 14). NC Coastal Plain (SIR 2014-5030 HR4; I24H50Y from NOAA Atlas 14 at region center); merged nearby towns: Princeville",
 "provenance": {
  "candidates_pre_gate": 30,
  "constant": [
   "bridge_proximity_bonus",
   "channel_width_score",
   "cso_density",
   "litter_complaint_density"
  ],
  "gated_navigable": 0,
  "hard_gate_removed": 0,
  "n_parameters": 27,
  "parameters": {
   "bank_slope_score": {
    "kind": "real",
    "n_3dep_10m_fallback": 0,
    "n_nc_lidar_3_125ft": 30,
    "n_real": 30,
    "n_sites": 30,
    "source": "NC OneMap / NC DPS DEM03 statewide lidar-derived 3.125-ft (0.953 m) elevations (perpendicular 50 m transect; robust 5 m bank-rise metric); unavailable profiles use the region 10 m 3DEP DEM-gradient fallback",
    "source_mosaics": [
     "Edgecombe_Ground_3ft"
    ]
   },
   "beach_dist_km": {
    "kind": "real",
    "n_real": 30,
    "n_sites": 30,
    "source": "haversine to region ref: Wrightsville Beach (shipped NC reference)"
   },
   "bridge_proximity_bonus": {
    "kind": "real",
    "n_real": 30,
    "n_sites": 30,
    "source": "FHWA/BTS NBI (NTAD), 50 m proximity"
   },
   "catchment_area_km2": {
    "kind": "real",
    "n_real": 30,
    "n_sites": 30,
    "source": "DEM flow accumulation (pipeline)"
   },
   "channel_width_score": {
    "kind": "real",
    "n_real": 30,
    "n_sites": 30,
    "source": "Bieger 2015 APL width curve on DEM drainage area \u2192 shipped width curve"
   },
   "cso_density": {
    "kind": "real",
    "n_real": 30,
    "n_sites": 30,
    "source": "EPA ECHO open CSO/TCS outfall PF coordinates states=NC, Cauchy proximity"
   },
   "ej_index": {
    "kind": "real",
    "n_real": 30,
    "n_sites": 30,
    "source": "Census ACS C17002+B03002 two-component demographic index, percentile-ranked within region"
   },
   "estuary_dist_km": {
    "kind": "real",
    "n_real": 30,
    "n_sites": 30,
    "source": "haversine to region ref: Pamlico Sound (shipped NC reference)"
   },
   "flood_q10_cfs": {
    "impervious_fallback_reason": "StreamCat imperviousness unavailable; the existing regression-input fallback of 0.0% impervious was used and is disclosed here",
    "kind": "real",
    "n_impervious_fallback": 12,
    "n_real": 30,
    "n_sites": 30,
    "source": "USGS SIR 2014-5030 Table 7 HR4 (NC Coastal Plain; I24H50Y from NOAA Atlas 14 at region center)"
   },
   "flow_velocity_ms": {
    "fallback_reason": "EROM/DEM continuity input unavailable; shipped 0.5 m/s default used",
    "kind": "real",
    "n_fallback": 12,
    "n_real": 18,
    "n_sites": 30,
    "source": "Manning (region DEM/D8) blended with EROM continuity (shipped M4 logic)"
   },
   "impervious_pct": {
    "fallback_reason": "NLDI/StreamCat did not return a snap-compatible catchment value; value remains null and is removed by constant-column handling",
    "kind": "real",
    "n_fallback": 12,
    "n_real": 18,
    "n_sites": 30,
    "source": "EPA StreamCat pctimp2019 (per NHDPlus watershed)"
   },
   "land_ownership": {
    "fallback_reason": "no containing parcel owner returned; shipped unknown ownership 0.5 used",
    "kind": "real",
    "n_fallback": 14,
    "n_real": 16,
    "n_sites": 30,
    "source": "NC OneMap statewide parcels (NC Parcels Transformer) ownname"
   },
   "litter_complaint_density": {
    "kind": "fallback",
    "n_real": 0,
    "n_sites": 30,
    "source": "no public machine-readable litter/illegal-dumping feed for this region"
   },
   "navigable_dist_m": {
    "kind": "real",
    "n_real": 30,
    "n_sites": 30,
    "source": "USACE/BTS NWN (NTAD): no navigable segment within this bbox (+2 km) \u2014 computed absence, gate passes all sites"
   },
   "npdes_points": {
    "kind": "real",
    "n_real": 30,
    "n_sites": 30,
    "source": "EPA ECHO active NPDES outfalls states=NC (types NPD/GPC/NGP; statuses ADC/EFF/EXP), per catchment"
   },
   "population_density": {
    "kind": "real",
    "n_real": 30,
    "n_sites": 30,
    "source": "Census ACS 2022 B01003 block groups (bbox, multi-county), area-weighted"
   },
   "protected_area_score": {
    "kind": "real",
    "n_real": 30,
    "n_sites": 30,
    "source": "USGS PAD-US 4.1 state GDB; states=NC; shipped designation-weighted proximity curve"
   },
   "road_access_score": {
    "kind": "real",
    "n_real": 30,
    "n_sites": 30,
    "source": "OSM drive network nearest-node distance"
   },
   "road_density_km_km2": {
    "kind": "real",
    "n_real": 30,
    "n_sites": 30,
    "source": "OSM drive network (osmnx, cached) clipped per catchment"
   },
   "runoff_coeff_C": {
    "fallback_reason": "source impervious_pct was unavailable; derived value remains null",
    "kind": "real",
    "n_fallback": 12,
    "n_real": 18,
    "n_sites": 30,
    "source": "derived from real impervious_pct (C=0.05+0.009*I)"
   },
   "seasonal_cv": {
    "fallback_reason": "NHDPlus monthly EROM was unavailable or failed the drainage-area snap guard; value remains null",
    "kind": "real",
    "n_fallback": 12,
    "n_real": 18,
    "n_sites": 30,
    "source": "CV of NHDPlus EROM monthly flows per COMID"
   },
   "stream_order": {
    "kind": "real",
    "n_real": 30,
    "n_sites": 30,
    "source": "DEM stream-network confluence heuristic (pipeline)"
   },
   "superfund_score": {
    "kind": "real",
    "n_real": 30,
    "n_sites": 30,
    "source": "EPA DataMap SEMS active sites states=NC (non-archived, georeferenced), shipped 500 m inverse-distance curve"
   },
   "tourism_amenity_density": {
    "kind": "real",
    "n_real": 30,
    "n_sites": 30,
    "source": "OSM leisure/tourism features per 2 km radius"
   },
   "tri_facility_density": {
    "kind": "real",
    "n_real": 30,
    "n_sites": 30,
    "source": "EPA DataMap TRI open facilities states=NC (preferred decimal or packed-DMS recovery), per catchment"
   },
   "usgs_mean_q_cfs": {
    "fallback_reason": "NHDPlus EROM was unavailable or failed the drainage-area snap guard; value remains null",
    "kind": "real",
    "n_fallback": 12,
    "n_real": 18,
    "n_sites": 30,
    "source": "NHDPlus EROM qe_ma per COMID (snap-guarded)"
   },
   "velocity_feasibility": {
    "fallback_reason": "derived from the shipped 0.5 m/s velocity fallback",
    "kind": "real",
    "n_fallback": 12,
    "n_real": 18,
    "n_sites": 30,
    "source": "shipped step curve on the computed velocity"
   },
   "velocity_transport_favorability": {
    "fallback_reason": "EROM/DEM continuity input unavailable; shipped 0.5 m/s default used",
    "kind": "derived",
    "n_fallback": 12,
    "n_real": 18,
    "n_sites": 30,
    "source": "scored form of flow_velocity_ms inside the Flow family \u2014 peaked Gaussian exp(-((v-0.9)/0.6)^2), model.json curves.velocity_transport_favorability; construct: transport/delivery favorability, deliberately distinct from velocity_feasibility (device operability)"
   },
   "water_intake_score": {
    "kind": "real",
    "n_real": 30,
    "n_sites": 30,
    "source": "NC OneMap / NC DEQ SWAP public water supply sources (source_typ='Surface Water'), shipped exp(-d/10km) curve"
   }
  },
  "stream_mask": {
   "buffer_m": 150.0,
   "pre_mask": 34,
   "removed": 4,
   "sources": [
    "osm-overpass (all waterway ways)",
    "usgs-nhdplus flowlines"
   ]
  },
  "varying": [
   "bank_slope_score",
   "beach_dist_km",
   "catchment_area_km2",
   "ej_index",
   "estuary_dist_km",
   "flood_q10_cfs",
   "flow_velocity_ms",
   "impervious_pct",
   "land_ownership",
   "npdes_points",
   "population_density",
   "protected_area_score",
   "road_access_score",
   "road_density_km_km2",
   "runoff_coeff_C",
   "seasonal_cv",
   "stream_order",
   "superfund_score",
   "tourism_amenity_density",
   "tri_facility_density",
   "usgs_mean_q_cfs",
   "velocity_feasibility",
   "water_intake_score"
  ]
 },
 "region": {
  "bbox": [
   -77.6233,
   35.8517,
   -77.4911,
   35.9588
  ],
  "beach_ref": {
   "label": "Wrightsville Beach (shipped NC reference)",
   "lat": 34.21,
   "lon": -77.79
  },
  "center": [
   -77.557211,
   35.905219
  ],
  "estuary_ref": {
   "label": "Pamlico Sound (shipped NC reference)",
   "lat": 35.05,
   "lon": -76.05
  },
  "flood_method": "sir2014_hr4",
  "name": "Tarboro, NC",
  "notes": "NC Coastal Plain (SIR 2014-5030 HR4; I24H50Y from NOAA Atlas 14 at region center); merged nearby towns: Princeville",
  "slug": "tarboro",
  "state": "NC",
  "utm_epsg": 32618,
  "width_curve": {
   "a": 2.22,
   "b": 0.363,
   "code": "APL",
   "source": "Bieger et al. 2015 JAWRA Table 3, Atlantic Plain"
  }
 },
 "type": "FeatureCollection"
}
