{
 "features": [
  {
   "geometry": {
    "coordinates": [
     -77.991199,
     34.757118
    ],
    "type": "Point"
   },
   "properties": {
    "accumulation": 83976.0,
    "bank_slope_deg": 3.83,
    "bank_slope_score": 1.0,
    "bank_slope_source": "nc-dps-lidar-dem03-cross-section",
    "beach_dist_km": 63.57,
    "bridge_proximity_bonus": 0.0,
    "catchment_area_km2": 8.3713,
    "channel_width_m": 4.8,
    "channel_width_score": 1.0,
    "composite_score": 67.962,
    "cso_density": 0.0,
    "ej_index": 0.4735,
    "elevation_m": 14.1133,
    "estuary_dist_km": 179.99,
    "feasibility_score": 0.0,
    "flood_q10_cfs": 473.28,
    "flow_score": 97.2318,
    "flow_velocity_ms": 0.1399,
    "generation_score": 70.833,
    "impact_score": 74.6805,
    "impervious_pct": 3.45,
    "land_ownership": 0.5,
    "lat": 34.7571,
    "litter_complaint_density": 0.0,
    "lon": -77.9912,
    "navigable_dist_m": null,
    "npdes_points": 1,
    "pixel_col": 347.0,
    "pixel_row": 355.0,
    "population_density": 112.1,
    "position_along": 0.5,
    "protected_area_score": 4.207,
    "rank": 1,
    "road_access_m": 555.0,
    "road_access_score": 0.6,
    "road_density_km_km2": 0.821,
    "robustness_pct": 100.0,
    "runoff_coeff_C": 0.081,
    "seasonal_cv": 0.4471,
    "segment_id": 3,
    "segment_length_m": 1435.9823,
    "stream_order": 3,
    "superfund_score": 0.0,
    "tourism_amenity_density": 0.4775,
    "tri_facility_density": 0.0,
    "usgs_mean_q_cfs": 7.146,
    "velocity_feasibility": 0.7,
    "water_intake_score": 0.0408
   },
   "type": "Feature"
  },
  {
   "geometry": {
    "coordinates": [
     -77.997563,
     34.764457
    ],
    "type": "Point"
   },
   "properties": {
    "accumulation": 32519.0,
    "bank_slope_deg": 1.79,
    "bank_slope_score": 1.0,
    "bank_slope_source": "nc-dps-lidar-dem03-cross-section",
    "beach_dist_km": 64.52,
    "bridge_proximity_bonus": 0.0,
    "catchment_area_km2": 3.2417,
    "channel_width_m": 3.4,
    "channel_width_score": 1.0,
    "composite_score": 65.8984,
    "cso_density": 0.0,
    "ej_index": 0.6538,
    "elevation_m": 16.0599,
    "estuary_dist_km": 180.41,
    "feasibility_score": 100.0,
    "flood_q10_cfs": 283.0,
    "flow_score": 26.768,
    "flow_velocity_ms": 0.1086,
    "generation_score": 73.5545,
    "impact_score": 73.8002,
    "impervious_pct": 5.83,
    "land_ownership": 0.5,
    "lat": 34.7645,
    "litter_complaint_density": 0.0,
    "lon": -77.9976,
    "navigable_dist_m": null,
    "npdes_points": 1,
    "pixel_col": 288.0,
    "pixel_row": 275.0,
    "population_density": 56.3,
    "position_along": 0.5,
    "protected_area_score": 4.3303,
    "rank": 2,
    "road_access_m": 314.5,
    "road_access_score": 0.8,
    "road_density_km_km2": 2.745,
    "robustness_pct": 100.0,
    "runoff_coeff_C": 0.1025,
    "seasonal_cv": 0.6532,
    "segment_id": 2,
    "segment_length_m": 1019.9442,
    "stream_order": 3,
    "superfund_score": 0.0,
    "tourism_amenity_density": 0.4775,
    "tri_facility_density": 0.0,
    "usgs_mean_q_cfs": 1.667,
    "velocity_feasibility": 0.7,
    "water_intake_score": 0.0393
   },
   "type": "Feature"
  },
  {
   "geometry": {
    "coordinates": [
     -77.993008,
     34.77038
    ],
    "type": "Point"
   },
   "properties": {
    "accumulation": 28872.0,
    "bank_slope_deg": 7.67,
    "bank_slope_score": 1.0,
    "bank_slope_source": "nc-dps-lidar-dem03-cross-section",
    "beach_dist_km": 65.03,
    "bridge_proximity_bonus": 0.0,
    "catchment_area_km2": 2.8782,
    "channel_width_m": 3.26,
    "channel_width_score": 1.0,
    "composite_score": 57.0428,
    "cso_density": 0.0,
    "ej_index": 0.7895,
    "elevation_m": 16.6218,
    "estuary_dist_km": 179.88,
    "feasibility_score": 100.0,
    "flood_q10_cfs": 238.03,
    "flow_score": 42.4366,
    "flow_velocity_ms": 0.1255,
    "generation_score": 35.0396,
    "impact_score": 69.7391,
    "impervious_pct": 1.46,
    "land_ownership": 0.5,
    "lat": 34.7704,
    "litter_complaint_density": 0.0,
    "lon": -77.993,
    "navigable_dist_m": null,
    "npdes_points": 1,
    "pixel_col": 326.0,
    "pixel_row": 209.0,
    "population_density": 48.8,
    "position_along": 0.5,
    "protected_area_score": 4.4765,
    "rank": 3,
    "road_access_m": 305.4,
    "road_access_score": 0.8,
    "road_density_km_km2": 1.795,
    "robustness_pct": 100.0,
    "runoff_coeff_C": 0.0631,
    "seasonal_cv": 0.5484,
    "segment_id": 0,
    "segment_length_m": 2300.1909,
    "stream_order": 3,
    "superfund_score": 0.0,
    "tourism_amenity_density": 0.4775,
    "tri_facility_density": 0.0,
    "usgs_mean_q_cfs": 4.317,
    "velocity_feasibility": 0.7,
    "water_intake_score": 0.0364
   },
   "type": "Feature"
  },
  {
   "geometry": {
    "coordinates": [
     -78.027495,
     34.775766
    ],
    "type": "Point"
   },
   "properties": {
    "accumulation": 23352.0,
    "bank_slope_deg": 2.92,
    "bank_slope_score": 1.0,
    "bank_slope_source": "nc-dps-lidar-dem03-cross-section",
    "beach_dist_km": 66.57,
    "bridge_proximity_bonus": 0.0,
    "catchment_area_km2": 2.3279,
    "channel_width_m": 3.02,
    "channel_width_score": 1.0,
    "composite_score": 29.6228,
    "cso_density": 0.0,
    "ej_index": 0.7895,
    "elevation_m": 19.3816,
    "estuary_dist_km": 182.87,
    "feasibility_score": 100.0,
    "flood_q10_cfs": 205.65,
    "flow_score": 7.6217,
    "flow_velocity_ms": 0.1106,
    "generation_score": 0.0,
    "impact_score": 42.3913,
    "impervious_pct": 0.65,
    "land_ownership": 0.5,
    "lat": 34.7758,
    "litter_complaint_density": 0.0,
    "lon": -78.0275,
    "navigable_dist_m": null,
    "npdes_points": 0,
    "pixel_col": 7.0,
    "pixel_row": 158.0,
    "population_density": 48.8,
    "position_along": 0.5,
    "protected_area_score": 3.5742,
    "rank": 4,
    "road_access_m": 415.6,
    "road_access_score": 0.8,
    "road_density_km_km2": 0.43,
    "robustness_pct": 100.0,
    "runoff_coeff_C": 0.0559,
    "seasonal_cv": 0.5986,
    "segment_id": 1,
    "segment_length_m": 110.5374,
    "stream_order": 1,
    "superfund_score": 0.0,
    "tourism_amenity_density": 0.0,
    "tri_facility_density": 0.0,
    "usgs_mean_q_cfs": 2.662,
    "velocity_feasibility": 0.7,
    "water_intake_score": 0.0406
   },
   "type": "Feature"
  }
 ],
 "note": "GRIME region 'Teachey, NC' \u2014 real-data pipeline (DEM\u2192streams\u2192candidates\u2192stream mask (sites confined to \u00b1150 m of mapped OSM/NHD waterways)\u2192region-appropriate real parameters\u2192shipped scoring, math unchanged). Width curve: Bieger et al. 2015 JAWRA Table 3, Atlantic Plain. Flood: SIR 2014-5030 HR4 (I24H50Y: NOAA Atlas 14). NC Coastal Plain (SIR 2014-5030 HR4; I24H50Y from NOAA Atlas 14 at region center)",
 "provenance": {
  "candidates_pre_gate": 4,
  "constant": [
   "bank_slope_score",
   "bridge_proximity_bonus",
   "channel_width_score",
   "cso_density",
   "land_ownership",
   "litter_complaint_density",
   "superfund_score",
   "tri_facility_density",
   "velocity_feasibility"
  ],
  "gated_navigable": 0,
  "hard_gate_removed": 0,
  "n_parameters": 27,
  "parameters": {
   "bank_slope_score": {
    "kind": "real",
    "n_3dep_10m_fallback": 0,
    "n_nc_lidar_3_125ft": 4,
    "n_real": 4,
    "n_sites": 4,
    "source": "NC OneMap / NC DPS DEM03 statewide lidar-derived 3.125-ft (0.953 m) elevations (perpendicular 50 m transect; robust 5 m bank-rise metric); unavailable profiles use the region 10 m 3DEP DEM-gradient fallback",
    "source_mosaics": [
     "Duplin_Ground_3ft"
    ]
   },
   "beach_dist_km": {
    "kind": "real",
    "n_real": 4,
    "n_sites": 4,
    "source": "haversine to region ref: Wrightsville Beach (shipped NC reference)"
   },
   "bridge_proximity_bonus": {
    "kind": "real",
    "n_real": 4,
    "n_sites": 4,
    "source": "FHWA/BTS NBI (NTAD), 50 m proximity"
   },
   "catchment_area_km2": {
    "kind": "real",
    "n_real": 4,
    "n_sites": 4,
    "source": "DEM flow accumulation (pipeline)"
   },
   "channel_width_score": {
    "kind": "real",
    "n_real": 4,
    "n_sites": 4,
    "source": "Bieger 2015 APL width curve on DEM drainage area \u2192 shipped width curve"
   },
   "cso_density": {
    "kind": "real",
    "n_real": 4,
    "n_sites": 4,
    "source": "EPA ECHO open CSO/TCS outfall PF coordinates states=NC, Cauchy proximity"
   },
   "ej_index": {
    "kind": "real",
    "n_real": 4,
    "n_sites": 4,
    "source": "Census ACS C17002+B03002 two-component demographic index, percentile-ranked within region"
   },
   "estuary_dist_km": {
    "kind": "real",
    "n_real": 4,
    "n_sites": 4,
    "source": "haversine to region ref: Pamlico Sound (shipped NC reference)"
   },
   "flood_q10_cfs": {
    "kind": "real",
    "n_real": 4,
    "n_sites": 4,
    "source": "USGS SIR 2014-5030 Table 7 HR4 (NC Coastal Plain; I24H50Y from NOAA Atlas 14 at region center)"
   },
   "flow_velocity_ms": {
    "kind": "real",
    "n_fallback": 0,
    "n_real": 4,
    "n_sites": 4,
    "source": "Manning (region DEM/D8) blended with EROM continuity (shipped M4 logic)"
   },
   "impervious_pct": {
    "kind": "real",
    "n_real": 4,
    "n_sites": 4,
    "source": "EPA StreamCat pctimp2019 (per NHDPlus watershed)"
   },
   "land_ownership": {
    "kind": "real",
    "n_fallback": 0,
    "n_real": 4,
    "n_sites": 4,
    "source": "NC OneMap statewide parcels (NC Parcels Transformer) ownname"
   },
   "litter_complaint_density": {
    "kind": "fallback",
    "n_real": 0,
    "n_sites": 4,
    "source": "no public machine-readable litter/illegal-dumping feed for this region"
   },
   "navigable_dist_m": {
    "kind": "real",
    "n_real": 4,
    "n_sites": 4,
    "source": "USACE/BTS NWN (NTAD): no navigable segment within this bbox (+2 km) \u2014 computed absence, gate passes all sites"
   },
   "npdes_points": {
    "kind": "real",
    "n_real": 4,
    "n_sites": 4,
    "source": "EPA ECHO active NPDES outfalls states=NC (types NPD/GPC/NGP; statuses ADC/EFF/EXP), per catchment"
   },
   "population_density": {
    "kind": "real",
    "n_real": 4,
    "n_sites": 4,
    "source": "Census ACS 2022 B01003 block groups (bbox, multi-county), area-weighted"
   },
   "protected_area_score": {
    "kind": "real",
    "n_real": 4,
    "n_sites": 4,
    "source": "USGS PAD-US 4.1 state GDB; states=NC; shipped designation-weighted proximity curve"
   },
   "road_access_score": {
    "kind": "real",
    "n_real": 4,
    "n_sites": 4,
    "source": "OSM drive network nearest-node distance"
   },
   "road_density_km_km2": {
    "kind": "real",
    "n_real": 4,
    "n_sites": 4,
    "source": "OSM drive network (osmnx, cached) clipped per catchment"
   },
   "runoff_coeff_C": {
    "kind": "real",
    "n_real": 4,
    "n_sites": 4,
    "source": "derived from real impervious_pct (C=0.05+0.009*I)"
   },
   "seasonal_cv": {
    "kind": "real",
    "n_real": 4,
    "n_sites": 4,
    "source": "CV of NHDPlus EROM monthly flows per COMID"
   },
   "stream_order": {
    "kind": "real",
    "n_real": 4,
    "n_sites": 4,
    "source": "DEM stream-network confluence heuristic (pipeline)"
   },
   "superfund_score": {
    "kind": "real",
    "n_real": 4,
    "n_sites": 4,
    "source": "EPA DataMap SEMS active sites states=NC (non-archived, georeferenced), shipped 500 m inverse-distance curve"
   },
   "tourism_amenity_density": {
    "kind": "real",
    "n_real": 4,
    "n_sites": 4,
    "source": "OSM leisure/tourism features per 2 km radius"
   },
   "tri_facility_density": {
    "kind": "real",
    "n_real": 4,
    "n_sites": 4,
    "source": "EPA DataMap TRI open facilities states=NC (preferred decimal or packed-DMS recovery), per catchment"
   },
   "usgs_mean_q_cfs": {
    "kind": "real",
    "n_real": 4,
    "n_sites": 4,
    "source": "NHDPlus EROM qe_ma per COMID (snap-guarded)"
   },
   "velocity_feasibility": {
    "kind": "real",
    "n_fallback": 0,
    "n_real": 4,
    "n_sites": 4,
    "source": "shipped step curve on the computed velocity"
   },
   "velocity_transport_favorability": {
    "kind": "derived",
    "n_real": 4,
    "n_sites": 4,
    "source": "scored form of flow_velocity_ms inside the Flow family \u2014 peaked Gaussian exp(-((v-0.9)/0.6)^2), model.json curves.velocity_transport_favorability; construct: transport/delivery favorability, deliberately distinct from velocity_feasibility (device operability)"
   },
   "water_intake_score": {
    "kind": "real",
    "n_real": 4,
    "n_sites": 4,
    "source": "NC OneMap / NC DEQ SWAP public water supply sources (source_typ='Surface Water'), shipped exp(-d/10km) curve"
   }
  },
  "stream_mask": {
   "buffer_m": 150.0,
   "pre_mask": 4,
   "removed": 0,
   "sources": [
    "osm-overpass (all waterway ways)",
    "usgs-nhdplus flowlines"
   ]
  },
  "varying": [
   "beach_dist_km",
   "catchment_area_km2",
   "ej_index",
   "estuary_dist_km",
   "flood_q10_cfs",
   "flow_velocity_ms",
   "impervious_pct",
   "npdes_points",
   "population_density",
   "protected_area_score",
   "road_access_score",
   "road_density_km_km2",
   "runoff_coeff_C",
   "seasonal_cv",
   "stream_order",
   "tourism_amenity_density",
   "usgs_mean_q_cfs",
   "water_intake_score"
  ]
 },
 "region": {
  "bbox": [
   -78.0279,
   34.7528,
   -77.9841,
   34.7888
  ],
  "beach_ref": {
   "label": "Wrightsville Beach (shipped NC reference)",
   "lat": 34.21,
   "lon": -77.79
  },
  "center": [
   -78.005985,
   34.770812
  ],
  "estuary_ref": {
   "label": "Pamlico Sound (shipped NC reference)",
   "lat": 35.05,
   "lon": -76.05
  },
  "flood_method": "sir2014_hr4",
  "name": "Teachey, NC",
  "notes": "NC Coastal Plain (SIR 2014-5030 HR4; I24H50Y from NOAA Atlas 14 at region center)",
  "slug": "teachey",
  "state": "NC",
  "utm_epsg": 32617,
  "width_curve": {
   "a": 2.22,
   "b": 0.363,
   "code": "APL",
   "source": "Bieger et al. 2015 JAWRA Table 3, Atlantic Plain"
  }
 },
 "type": "FeatureCollection"
}
