{
 "features": [
  {
   "geometry": {
    "coordinates": [
     -80.884724,
     35.678174
    ],
    "type": "Point"
   },
   "properties": {
    "accumulation": 33249.0,
    "bank_slope_deg": 13.6,
    "bank_slope_score": 1.0,
    "bank_slope_source": "nc-dps-lidar-dem03-cross-section",
    "beach_dist_km": 325.89,
    "bridge_proximity_bonus": 0.0,
    "catchment_area_km2": 3.3196,
    "channel_width_m": 5.13,
    "channel_width_score": 1.0,
    "composite_score": 54.2258,
    "cso_density": 0.0,
    "ej_index": 0.4174,
    "elevation_m": 234.067,
    "estuary_dist_km": 443.89,
    "feasibility_score": 58.0357,
    "flood_q10_cfs": 535.09,
    "flow_score": 24.8586,
    "flow_velocity_ms": 0.0921,
    "generation_score": 87.1355,
    "impact_score": 43.884,
    "impervious_pct": 8.72,
    "land_ownership": 0.5,
    "lat": 35.6782,
    "litter_complaint_density": 0.0,
    "lon": -80.8847,
    "navigable_dist_m": null,
    "npdes_points": 3,
    "pixel_col": 522.0,
    "pixel_row": 727.0,
    "population_density": 236.0,
    "position_along": 0.5,
    "protected_area_score": 6.5119,
    "rank": 1,
    "road_access_m": 172.9,
    "road_access_score": 1.0,
    "road_density_km_km2": 5.241,
    "robustness_pct": 95.5,
    "runoff_coeff_C": 0.1285,
    "seasonal_cv": 0.4065,
    "segment_id": 13,
    "segment_length_m": 1099.2527,
    "stream_order": 3,
    "superfund_score": 0.0287,
    "tourism_amenity_density": 0.1592,
    "tri_facility_density": 0.0,
    "usgs_mean_q_cfs": 1.238,
    "velocity_feasibility": 0.7,
    "water_intake_score": 1.5988
   },
   "type": "Feature"
  },
  {
   "geometry": {
    "coordinates": [
     -80.829013,
     35.739898
    ],
    "type": "Point"
   },
   "properties": {
    "accumulation": 253597.0,
    "bank_slope_deg": 29.49,
    "bank_slope_score": 0.5,
    "bank_slope_source": "nc-dps-lidar-dem03-cross-section",
    "beach_dist_km": 324.95,
    "bridge_proximity_bonus": 0.2,
    "catchment_area_km2": 25.3196,
    "channel_width_m": 11.93,
    "channel_width_score": 1.0,
    "composite_score": 52.9979,
    "cso_density": 0.0,
    "ej_index": 0.6345,
    "elevation_m": 225.1264,
    "estuary_dist_km": 439.88,
    "feasibility_score": 58.0357,
    "flood_q10_cfs": 1876.35,
    "flow_score": 75.6852,
    "flow_velocity_ms": 0.1665,
    "generation_score": 33.8263,
    "impact_score": 50.7444,
    "impervious_pct": 6.67,
    "land_ownership": 0.5,
    "lat": 35.7399,
    "litter_complaint_density": 0.0,
    "lon": -80.829,
    "navigable_dist_m": null,
    "npdes_points": 2,
    "pixel_col": 1027.0,
    "pixel_row": 40.0,
    "population_density": 76.3,
    "position_along": 0.5,
    "protected_area_score": 7.0224,
    "rank": 2,
    "road_access_m": 51.4,
    "road_access_score": 1.0,
    "road_density_km_km2": 0.412,
    "robustness_pct": 78.5,
    "runoff_coeff_C": 0.11,
    "seasonal_cv": 0.4497,
    "segment_id": 9,
    "segment_length_m": 217.1075,
    "stream_order": 3,
    "superfund_score": 0.0694,
    "tourism_amenity_density": 0.0796,
    "tri_facility_density": 0.0,
    "usgs_mean_q_cfs": 72.635,
    "velocity_feasibility": 0.7,
    "water_intake_score": 1.3556
   },
   "type": "Feature"
  },
  {
   "geometry": {
    "coordinates": [
     -80.891123,
     35.670565
    ],
    "type": "Point"
   },
   "properties": {
    "accumulation": 89182.0,
    "bank_slope_deg": 6.45,
    "bank_slope_score": 1.0,
    "bank_slope_source": "nc-dps-lidar-dem03-cross-section",
    "beach_dist_km": 325.98,
    "bridge_proximity_bonus": 0.0,
    "catchment_area_km2": 8.9041,
    "channel_width_m": 7.73,
    "channel_width_score": 1.0,
    "composite_score": 52.9799,
    "cso_density": 0.0,
    "ej_index": 0.4165,
    "elevation_m": 230.167,
    "estuary_dist_km": 444.35,
    "feasibility_score": 42.4107,
    "flood_q10_cfs": 1034.9,
    "flow_score": 32.7779,
    "flow_velocity_ms": 0.0624,
    "generation_score": 79.5831,
    "impact_score": 48.4963,
    "impervious_pct": 5.5,
    "land_ownership": 0.5,
    "lat": 35.6706,
    "litter_complaint_density": 0.0,
    "lon": -80.8911,
    "navigable_dist_m": null,
    "npdes_points": 5,
    "pixel_col": 463.0,
    "pixel_row": 812.0,
    "population_density": 223.0,
    "position_along": 0.5,
    "protected_area_score": 7.1099,
    "rank": 3,
    "road_access_m": 231.3,
    "road_access_score": 0.8,
    "road_density_km_km2": 4.362,
    "robustness_pct": 97.0,
    "runoff_coeff_C": 0.0995,
    "seasonal_cv": 0.4096,
    "segment_id": 18,
    "segment_length_m": 1343.3237,
    "stream_order": 3,
    "superfund_score": 0.0226,
    "tourism_amenity_density": 0.0796,
    "tri_facility_density": 0.0,
    "usgs_mean_q_cfs": 4.727,
    "velocity_feasibility": 0.7,
    "water_intake_score": 1.6527
   },
   "type": "Feature"
  },
  {
   "geometry": {
    "coordinates": [
     -80.836008,
     35.658374
    ],
    "type": "Point"
   },
   "properties": {
    "accumulation": 48023.0,
    "bank_slope_deg": 14.09,
    "bank_slope_score": 1.0,
    "bank_slope_source": "nc-dps-lidar-dem03-cross-section",
    "beach_dist_km": 320.97,
    "bridge_proximity_bonus": 0.0,
    "catchment_area_km2": 4.7947,
    "channel_width_m": 5.98,
    "channel_width_score": 1.0,
    "composite_score": 52.5381,
    "cso_density": 0.0,
    "ej_index": 0.494,
    "elevation_m": 243.5883,
    "estuary_dist_km": 439.23,
    "feasibility_score": 58.0357,
    "flood_q10_cfs": 700.02,
    "flow_score": 14.5072,
    "flow_velocity_ms": 0.1162,
    "generation_score": 56.8813,
    "impact_score": 77.1383,
    "impervious_pct": 8.24,
    "land_ownership": 0.5,
    "lat": 35.6584,
    "litter_complaint_density": 0.0,
    "lon": -80.836,
    "navigable_dist_m": null,
    "npdes_points": 0,
    "pixel_col": 965.0,
    "pixel_row": 945.0,
    "population_density": 178.0,
    "position_along": 0.5,
    "protected_area_score": 8.7147,
    "rank": 4,
    "road_access_m": 95.2,
    "road_access_score": 1.0,
    "road_density_km_km2": 3.113,
    "robustness_pct": 83.5,
    "runoff_coeff_C": 0.1242,
    "seasonal_cv": 0.4079,
    "segment_id": 20,
    "segment_length_m": 1887.8679,
    "stream_order": 1,
    "superfund_score": 0.0223,
    "tourism_amenity_density": 0.1592,
    "tri_facility_density": 0.0,
    "usgs_mean_q_cfs": 3.452,
    "velocity_feasibility": 0.7,
    "water_intake_score": 1.7308
   },
   "type": "Feature"
  },
  {
   "geometry": {
    "coordinates": [
     -80.882502,
     35.674823
    ],
    "type": "Point"
   },
   "properties": {
    "accumulation": 20877.0,
    "bank_slope_deg": 1.36,
    "bank_slope_score": 1.0,
    "bank_slope_source": "nc-dps-lidar-dem03-cross-section",
    "beach_dist_km": 325.53,
    "bridge_proximity_bonus": 0.0,
    "catchment_area_km2": 2.0844,
    "channel_width_m": 4.23,
    "channel_width_score": 1.0,
    "composite_score": 47.4316,
    "cso_density": 0.0,
    "ej_index": 0.4198,
    "elevation_m": 233.8168,
    "estuary_dist_km": 443.64,
    "feasibility_score": 58.0357,
    "flood_q10_cfs": 350.41,
    "flow_score": 20.6401,
    "flow_velocity_ms": 0.0957,
    "generation_score": 63.6847,
    "impact_score": 48.2028,
    "impervious_pct": 4.57,
    "land_ownership": 0.5,
    "lat": 35.6748,
    "litter_complaint_density": 0.0,
    "lon": -80.8825,
    "navigable_dist_m": null,
    "npdes_points": 1,
    "pixel_col": 542.0,
    "pixel_row": 765.0,
    "population_density": 235.4,
    "position_along": 0.5,
    "protected_area_score": 6.8993,
    "rank": 5,
    "road_access_m": 161.4,
    "road_access_score": 1.0,
    "road_density_km_km2": 4.684,
    "robustness_pct": 54.5,
    "runoff_coeff_C": 0.0911,
    "seasonal_cv": 0.4095,
    "segment_id": 14,
    "segment_length_m": 526.5685,
    "stream_order": 3,
    "superfund_score": 0.0276,
    "tourism_amenity_density": 0.0796,
    "tri_facility_density": 0.0,
    "usgs_mean_q_cfs": 1.104,
    "velocity_feasibility": 0.7,
    "water_intake_score": 1.633
   },
   "type": "Feature"
  },
  {
   "geometry": {
    "coordinates": [
     -80.908549,
     35.68233
    ],
    "type": "Point"
   },
   "properties": {
    "accumulation": 32095.0,
    "bank_slope_deg": 1.72,
    "bank_slope_score": 1.0,
    "bank_slope_source": "nc-dps-lidar-dem03-cross-section",
    "beach_dist_km": 327.99,
    "bridge_proximity_bonus": 0.0,
    "catchment_area_km2": 3.2044,
    "channel_width_m": 5.06,
    "channel_width_score": 1.0,
    "composite_score": 46.2857,
    "cso_density": 0.0,
    "ej_index": 0.7198,
    "elevation_m": 239.2168,
    "estuary_dist_km": 446.08,
    "feasibility_score": 58.0357,
    "flood_q10_cfs": 534.8,
    "flow_score": 25.6636,
    "flow_velocity_ms": 0.0926,
    "generation_score": 62.9421,
    "impact_score": 40.9394,
    "impervious_pct": 10.21,
    "land_ownership": 0.5,
    "lat": 35.6823,
    "litter_complaint_density": 0.0,
    "lon": -80.9085,
    "navigable_dist_m": null,
    "npdes_points": 0,
    "pixel_col": 306.0,
    "pixel_row": 681.0,
    "population_density": 183.3,
    "position_along": 0.5,
    "protected_area_score": 6.1603,
    "rank": 6,
    "road_access_m": 140.3,
    "road_access_score": 1.0,
    "road_density_km_km2": 2.721,
    "robustness_pct": 23.0,
    "runoff_coeff_C": 0.1419,
    "seasonal_cv": 0.4056,
    "segment_id": 10,
    "segment_length_m": 2212.464,
    "stream_order": 3,
    "superfund_score": 0.0241,
    "tourism_amenity_density": 0.0,
    "tri_facility_density": 0.0,
    "usgs_mean_q_cfs": 2.224,
    "velocity_feasibility": 0.7,
    "water_intake_score": 1.5515
   },
   "type": "Feature"
  },
  {
   "geometry": {
    "coordinates": [
     -80.885014,
     35.673747
    ],
    "type": "Point"
   },
   "properties": {
    "accumulation": 44063.0,
    "bank_slope_deg": 17.65,
    "bank_slope_score": 0.5,
    "bank_slope_source": "nc-dps-lidar-dem03-cross-section",
    "beach_dist_km": 325.67,
    "bridge_proximity_bonus": 0.0,
    "catchment_area_km2": 4.3993,
    "channel_width_m": 5.77,
    "channel_width_score": 1.0,
    "composite_score": 46.205,
    "cso_density": 0.0,
    "ej_index": 0.4375,
    "elevation_m": 232.0656,
    "estuary_dist_km": 443.85,
    "feasibility_score": 45.5357,
    "flood_q10_cfs": 601.1,
    "flow_score": 24.7005,
    "flow_velocity_ms": 0.1,
    "generation_score": 61.8906,
    "impact_score": 48.7744,
    "impervious_pct": 3.24,
    "land_ownership": 0.5,
    "lat": 35.6737,
    "litter_complaint_density": 0.0,
    "lon": -80.885,
    "navigable_dist_m": null,
    "npdes_points": 2,
    "pixel_col": 517.0,
    "pixel_row": 773.0,
    "population_density": 231.0,
    "position_along": 0.5,
    "protected_area_score": 6.943,
    "rank": 7,
    "road_access_m": 147.0,
    "road_access_score": 1.0,
    "road_density_km_km2": 4.465,
    "robustness_pct": 18.5,
    "runoff_coeff_C": 0.0792,
    "seasonal_cv": 0.4054,
    "segment_id": 17,
    "segment_length_m": 247.0838,
    "stream_order": 3,
    "superfund_score": 0.026,
    "tourism_amenity_density": 0.0796,
    "tri_facility_density": 0.0,
    "usgs_mean_q_cfs": 2.205,
    "velocity_feasibility": 0.7,
    "water_intake_score": 1.6413
   },
   "type": "Feature"
  },
  {
   "geometry": {
    "coordinates": [
     -80.835654,
     35.733441
    ],
    "type": "Point"
   },
   "properties": {
    "accumulation": 169684.0,
    "bank_slope_deg": 9.87,
    "bank_slope_score": 1.0,
    "bank_slope_source": "nc-dps-lidar-dem03-cross-section",
    "beach_dist_km": 325.1,
    "bridge_proximity_bonus": 0.0,
    "catchment_area_km2": 16.9416,
    "channel_width_m": 10.1,
    "channel_width_score": 1.0,
    "composite_score": 43.6918,
    "cso_density": 0.0,
    "ej_index": 0.5751,
    "elevation_m": 228.436,
    "estuary_dist_km": 440.37,
    "feasibility_score": 58.0357,
    "flood_q10_cfs": 1462.64,
    "flow_score": 45.8246,
    "flow_velocity_ms": 0.1544,
    "generation_score": 29.8878,
    "impact_score": 48.5463,
    "impervious_pct": 4.75,
    "land_ownership": 0.5,
    "lat": 35.7334,
    "litter_complaint_density": 0.0,
    "lon": -80.8357,
    "navigable_dist_m": null,
    "npdes_points": 2,
    "pixel_col": 967.0,
    "pixel_row": 109.0,
    "population_density": 77.5,
    "position_along": 0.8333,
    "protected_area_score": 7.0046,
    "rank": 8,
    "road_access_m": 121.9,
    "road_access_score": 1.0,
    "road_density_km_km2": 1.07,
    "robustness_pct": 25.5,
    "runoff_coeff_C": 0.0927,
    "seasonal_cv": 0.4171,
    "segment_id": 8,
    "segment_length_m": 5514.3104,
    "stream_order": 3,
    "superfund_score": 0.0618,
    "tourism_amenity_density": 0.1592,
    "tri_facility_density": 0.0,
    "usgs_mean_q_cfs": 8.823,
    "velocity_feasibility": 0.7,
    "water_intake_score": 1.367
   },
   "type": "Feature"
  },
  {
   "geometry": {
    "coordinates": [
     -80.888295,
     35.663299
    ],
    "type": "Point"
   },
   "properties": {
    "accumulation": 29307.0,
    "bank_slope_deg": 1.94,
    "bank_slope_score": 1.0,
    "bank_slope_source": "nc-dps-lidar-dem03-cross-section",
    "beach_dist_km": 325.37,
    "bridge_proximity_bonus": 0.0,
    "catchment_area_km2": 2.9261,
    "channel_width_m": 4.87,
    "channel_width_score": 1.0,
    "composite_score": 43.3753,
    "cso_density": 0.0,
    "ej_index": 0.4147,
    "elevation_m": 230.2657,
    "estuary_dist_km": 443.99,
    "feasibility_score": 58.0357,
    "flood_q10_cfs": 444.0,
    "flow_score": 7.9747,
    "flow_velocity_ms": 0.0951,
    "generation_score": 50.4576,
    "impact_score": 58.4631,
    "impervious_pct": 3.49,
    "land_ownership": 0.5,
    "lat": 35.6633,
    "litter_complaint_density": 0.0,
    "lon": -80.8883,
    "navigable_dist_m": null,
    "npdes_points": 0,
    "pixel_col": 487.0,
    "pixel_row": 889.0,
    "population_density": 224.3,
    "position_along": 0.5,
    "protected_area_score": 7.986,
    "rank": 9,
    "road_access_m": 152.4,
    "road_access_score": 1.0,
    "road_density_km_km2": 3.501,
    "robustness_pct": 13.5,
    "runoff_coeff_C": 0.0814,
    "seasonal_cv": 0.4051,
    "segment_id": 19,
    "segment_length_m": 287.0522,
    "stream_order": 1,
    "superfund_score": 0.02,
    "tourism_amenity_density": 0.0796,
    "tri_facility_density": 0.0,
    "usgs_mean_q_cfs": 1.666,
    "velocity_feasibility": 0.7,
    "water_intake_score": 1.7274
   },
   "type": "Feature"
  },
  {
   "geometry": {
    "coordinates": [
     -80.847191,
     35.72294
    ],
    "type": "Point"
   },
   "properties": {
    "accumulation": 139800.0,
    "bank_slope_deg": 7.33,
    "bank_slope_score": 1.0,
    "bank_slope_source": "nc-dps-lidar-dem03-cross-section",
    "beach_dist_km": 325.41,
    "bridge_proximity_bonus": 0.0,
    "catchment_area_km2": 13.9579,
    "channel_width_m": 9.32,
    "channel_width_score": 1.0,
    "composite_score": 42.7495,
    "cso_density": 0.0,
    "ej_index": 0.4624,
    "elevation_m": 233.2761,
    "estuary_dist_km": 441.22,
    "feasibility_score": 42.4107,
    "flood_q10_cfs": 1323.11,
    "flow_score": 40.7449,
    "flow_velocity_ms": 0.0982,
    "generation_score": 41.427,
    "impact_score": 45.9117,
    "impervious_pct": 5.26,
    "land_ownership": 0.5,
    "lat": 35.7229,
    "litter_complaint_density": 0.0,
    "lon": -80.8472,
    "navigable_dist_m": null,
    "npdes_points": 3,
    "pixel_col": 863.0,
    "pixel_row": 226.0,
    "population_density": 85.8,
    "position_along": 0.5,
    "protected_area_score": 7.1401,
    "rank": 10,
    "road_access_m": 314.7,
    "road_access_score": 0.8,
    "road_density_km_km2": 2.453,
    "robustness_pct": 8.5,
    "runoff_coeff_C": 0.0973,
    "seasonal_cv": 0.4146,
    "segment_id": 8,
    "segment_length_m": 5514.3104,
    "stream_order": 3,
    "superfund_score": 0.0646,
    "tourism_amenity_density": 0.1592,
    "tri_facility_density": 0.0,
    "usgs_mean_q_cfs": 7.679,
    "velocity_feasibility": 0.7,
    "water_intake_score": 1.3829
   },
   "type": "Feature"
  },
  {
   "geometry": {
    "coordinates": [
     -80.868992,
     35.707705
    ],
    "type": "Point"
   },
   "properties": {
    "accumulation": 39520.0,
    "bank_slope_deg": 17.79,
    "bank_slope_score": 0.5,
    "bank_slope_source": "nc-dps-lidar-dem03-cross-section",
    "beach_dist_km": 326.27,
    "bridge_proximity_bonus": 0.0,
    "catchment_area_km2": 3.9458,
    "channel_width_m": 5.52,
    "channel_width_score": 1.0,
    "composite_score": 42.2602,
    "cso_density": 0.0,
    "ej_index": 0.3644,
    "elevation_m": 245.6322,
    "estuary_dist_km": 442.93,
    "feasibility_score": 45.5357,
    "flood_q10_cfs": 597.57,
    "flow_score": 26.2046,
    "flow_velocity_ms": 0.1077,
    "generation_score": 46.0142,
    "impact_score": 50.248,
    "impervious_pct": 7.59,
    "land_ownership": 0.5,
    "lat": 35.7077,
    "litter_complaint_density": 0.0,
    "lon": -80.869,
    "navigable_dist_m": null,
    "npdes_points": 1,
    "pixel_col": 665.0,
    "pixel_row": 399.0,
    "population_density": 105.1,
    "position_along": 0.5,
    "protected_area_score": 7.0232,
    "rank": 11,
    "road_access_m": 195.1,
    "road_access_score": 1.0,
    "road_density_km_km2": 2.984,
    "robustness_pct": 0.0,
    "runoff_coeff_C": 0.1183,
    "seasonal_cv": 0.4058,
    "segment_id": 5,
    "segment_length_m": 1890.2924,
    "stream_order": 3,
    "superfund_score": 0.0647,
    "tourism_amenity_density": 1.7507,
    "tri_facility_density": 0.0,
    "usgs_mean_q_cfs": 2.402,
    "velocity_feasibility": 0.7,
    "water_intake_score": 1.4208
   },
   "type": "Feature"
  },
  {
   "geometry": {
    "coordinates": [
     -80.882933,
     35.67265
    ],
    "type": "Point"
   },
   "properties": {
    "accumulation": 22128.0,
    "bank_slope_deg": 21.94,
    "bank_slope_score": 0.5,
    "bank_slope_source": "nc-dps-lidar-dem03-cross-section",
    "beach_dist_km": 325.45,
    "bridge_proximity_bonus": 0.0,
    "catchment_area_km2": 2.2093,
    "channel_width_m": 4.34,
    "channel_width_score": 1.0,
    "composite_score": 41.5045,
    "cso_density": 0.0,
    "ej_index": 0.438,
    "elevation_m": 233.5659,
    "estuary_dist_km": 443.65,
    "feasibility_score": 45.5357,
    "flood_q10_cfs": 349.96,
    "flow_score": 19.971,
    "flow_velocity_ms": 0.1058,
    "generation_score": 49.0751,
    "impact_score": 49.8628,
    "impervious_pct": 1.99,
    "land_ownership": 0.5,
    "lat": 35.6727,
    "litter_complaint_density": 0.0,
    "lon": -80.8829,
    "navigable_dist_m": null,
    "npdes_points": 0,
    "pixel_col": 536.0,
    "pixel_row": 786.0,
    "population_density": 230.9,
    "position_along": 0.5,
    "protected_area_score": 6.9573,
    "rank": 12,
    "road_access_m": 64.1,
    "road_access_score": 1.0,
    "road_density_km_km2": 4.243,
    "robustness_pct": 0.0,
    "runoff_coeff_C": 0.0679,
    "seasonal_cv": 0.4108,
    "segment_id": 16,
    "segment_length_m": 345.2904,
    "stream_order": 3,
    "superfund_score": 0.0261,
    "tourism_amenity_density": 0.0796,
    "tri_facility_density": 0.0,
    "usgs_mean_q_cfs": 1.143,
    "velocity_feasibility": 0.7,
    "water_intake_score": 1.651
   },
   "type": "Feature"
  },
  {
   "geometry": {
    "coordinates": [
     -80.865181,
     35.736791
    ],
    "type": "Point"
   },
   "properties": {
    "accumulation": 39278.0,
    "bank_slope_deg": 12.21,
    "bank_slope_score": 1.0,
    "bank_slope_source": "nc-dps-lidar-dem03-cross-section",
    "beach_dist_km": 327.59,
    "bridge_proximity_bonus": 0.0,
    "catchment_area_km2": 3.9216,
    "channel_width_m": 5.5,
    "channel_width_score": 1.0,
    "composite_score": 40.1015,
    "cso_density": 0.0,
    "ej_index": 0.4378,
    "elevation_m": 238.6089,
    "estuary_dist_km": 443.06,
    "feasibility_score": 58.0357,
    "flood_q10_cfs": 574.66,
    "flow_score": 26.0439,
    "flow_velocity_ms": 0.1202,
    "generation_score": 43.2032,
    "impact_score": 39.7475,
    "impervious_pct": 5.62,
    "land_ownership": 0.5,
    "lat": 35.7368,
    "litter_complaint_density": 0.0,
    "lon": -80.8652,
    "navigable_dist_m": null,
    "npdes_points": 0,
    "pixel_col": 699.0,
    "pixel_row": 75.0,
    "population_density": 149.8,
    "position_along": 0.375,
    "protected_area_score": 7.2168,
    "rank": 13,
    "road_access_m": 113.4,
    "road_access_score": 1.0,
    "road_density_km_km2": 3.003,
    "robustness_pct": 0.0,
    "runoff_coeff_C": 0.1006,
    "seasonal_cv": 0.4044,
    "segment_id": 2,
    "segment_length_m": 6002.2593,
    "stream_order": 3,
    "superfund_score": 0.057,
    "tourism_amenity_density": 0.557,
    "tri_facility_density": 0.0,
    "usgs_mean_q_cfs": 3.973,
    "velocity_feasibility": 0.7,
    "water_intake_score": 1.326
   },
   "type": "Feature"
  },
  {
   "geometry": {
    "coordinates": [
     -80.855784,
     35.709791
    ],
    "type": "Point"
   },
   "properties": {
    "accumulation": 104713.0,
    "bank_slope_deg": 27.51,
    "bank_slope_score": 0.5,
    "bank_slope_source": "nc-dps-lidar-dem03-cross-section",
    "beach_dist_km": 325.35,
    "bridge_proximity_bonus": 0.0,
    "catchment_area_km2": 10.4548,
    "channel_width_m": 8.26,
    "channel_width_score": 1.0,
    "composite_score": 38.2393,
    "cso_density": 0.0,
    "ej_index": 0.438,
    "elevation_m": 237.6348,
    "estuary_dist_km": 441.78,
    "feasibility_score": 31.25,
    "flood_q10_cfs": 1127.4,
    "flow_score": 35.2089,
    "flow_velocity_ms": 0.0481,
    "generation_score": 32.0904,
    "impact_score": 50.4084,
    "impervious_pct": 5.26,
    "land_ownership": 0.5,
    "lat": 35.7098,
    "litter_complaint_density": 0.0,
    "lon": -80.8558,
    "navigable_dist_m": null,
    "npdes_points": 0,
    "pixel_col": 785.0,
    "pixel_row": 373.0,
    "population_density": 87.5,
    "position_along": 0.1667,
    "protected_area_score": 7.0383,
    "rank": 14,
    "road_access_m": 180.0,
    "road_access_score": 1.0,
    "road_density_km_km2": 3.188,
    "robustness_pct": 0.0,
    "runoff_coeff_C": 0.0973,
    "seasonal_cv": 0.4146,
    "segment_id": 8,
    "segment_length_m": 5514.3104,
    "stream_order": 3,
    "superfund_score": 0.1091,
    "tourism_amenity_density": 0.2387,
    "tri_facility_density": 0.0,
    "usgs_mean_q_cfs": 7.679,
    "velocity_feasibility": 0.3,
    "water_intake_score": 1.4256
   },
   "type": "Feature"
  },
  {
   "geometry": {
    "coordinates": [
     -80.924993,
     35.676227
    ],
    "type": "Point"
   },
   "properties": {
    "accumulation": 109274.0,
    "bank_slope_deg": 2.74,
    "bank_slope_score": 1.0,
    "bank_slope_source": "nc-dps-lidar-dem03-cross-section",
    "beach_dist_km": 328.96,
    "bridge_proximity_bonus": 0.0,
    "catchment_area_km2": 10.9101,
    "channel_width_m": 8.41,
    "channel_width_score": 1.0,
    "composite_score": 37.3038,
    "cso_density": 0.0,
    "ej_index": 0.2542,
    "elevation_m": 231.3919,
    "estuary_dist_km": 447.46,
    "feasibility_score": 61.1607,
    "flood_q10_cfs": 1156.89,
    "flow_score": 37.1555,
    "flow_velocity_ms": 0.1223,
    "generation_score": 32.9933,
    "impact_score": 29.8093,
    "impervious_pct": 5.42,
    "land_ownership": 1.0,
    "lat": 35.6762,
    "litter_complaint_density": 0.0,
    "lon": -80.925,
    "navigable_dist_m": null,
    "npdes_points": 1,
    "pixel_col": 157.0,
    "pixel_row": 749.0,
    "population_density": 95.4,
    "position_along": 0.5,
    "protected_area_score": 6.6352,
    "rank": 15,
    "road_access_m": 213.3,
    "road_access_score": 0.8,
    "road_density_km_km2": 1.655,
    "robustness_pct": 0.0,
    "runoff_coeff_C": 0.0988,
    "seasonal_cv": 0.4124,
    "segment_id": 11,
    "segment_length_m": 1886.7418,
    "stream_order": 3,
    "superfund_score": 0.0211,
    "tourism_amenity_density": 0.0,
    "tri_facility_density": 0.0,
    "usgs_mean_q_cfs": 6.239,
    "velocity_feasibility": 0.7,
    "water_intake_score": 1.583
   },
   "type": "Feature"
  },
  {
   "geometry": {
    "coordinates": [
     -80.914508,
     35.690366
    ],
    "type": "Point"
   },
   "properties": {
    "accumulation": 42252.0,
    "bank_slope_deg": 7.72,
    "bank_slope_score": 1.0,
    "bank_slope_source": "nc-dps-lidar-dem03-cross-section",
    "beach_dist_km": 328.9,
    "bridge_proximity_bonus": 0.0,
    "catchment_area_km2": 4.2185,
    "channel_width_m": 5.67,
    "channel_width_score": 1.0,
    "composite_score": 36.9237,
    "cso_density": 0.0,
    "ej_index": 0.6909,
    "elevation_m": 241.3094,
    "estuary_dist_km": 446.73,
    "feasibility_score": 58.0357,
    "flood_q10_cfs": 589.87,
    "flow_score": 24.77,
    "flow_velocity_ms": 0.0947,
    "generation_score": 37.0586,
    "impact_score": 36.3607,
    "impervious_pct": 3.97,
    "land_ownership": 0.5,
    "lat": 35.6904,
    "litter_complaint_density": 0.0,
    "lon": -80.9145,
    "navigable_dist_m": null,
    "npdes_points": 0,
    "pixel_col": 251.0,
    "pixel_row": 592.0,
    "population_density": 158.7,
    "position_along": 0.5,
    "protected_area_score": 6.3245,
    "rank": 16,
    "road_access_m": 138.4,
    "road_access_score": 1.0,
    "road_density_km_km2": 2.303,
    "robustness_pct": 0.0,
    "runoff_coeff_C": 0.0857,
    "seasonal_cv": 0.4055,
    "segment_id": 6,
    "segment_length_m": 2989.4232,
    "stream_order": 3,
    "superfund_score": 0.0267,
    "tourism_amenity_density": 0.0,
    "tri_facility_density": 0.0,
    "usgs_mean_q_cfs": 2.734,
    "velocity_feasibility": 0.7,
    "water_intake_score": 1.4852
   },
   "type": "Feature"
  },
  {
   "geometry": {
    "coordinates": [
     -80.852012,
     35.737305
    ],
    "type": "Point"
   },
   "properties": {
    "accumulation": 60956.0,
    "bank_slope_deg": 11.89,
    "bank_slope_score": 1.0,
    "bank_slope_source": "nc-dps-lidar-dem03-cross-section",
    "beach_dist_km": 326.59,
    "bridge_proximity_bonus": 0.0,
    "catchment_area_km2": 6.086,
    "channel_width_m": 6.6,
    "channel_width_score": 1.0,
    "composite_score": 35.9953,
    "cso_density": 0.0,
    "ej_index": 0.5108,
    "elevation_m": 230.7767,
    "estuary_dist_km": 441.89,
    "feasibility_score": 26.7857,
    "flood_q10_cfs": 800.29,
    "flow_score": 29.9179,
    "flow_velocity_ms": 0.1272,
    "generation_score": 38.0422,
    "impact_score": 43.6178,
    "impervious_pct": 5.62,
    "land_ownership": 0.5,
    "lat": 35.7373,
    "litter_complaint_density": 0.0,
    "lon": -80.852,
    "navigable_dist_m": null,
    "npdes_points": 2,
    "pixel_col": 819.0,
    "pixel_row": 70.0,
    "population_density": 98.2,
    "position_along": 0.625,
    "protected_area_score": 7.0243,
    "rank": 17,
    "road_access_m": 699.8,
    "road_access_score": 0.6,
    "road_density_km_km2": 1.631,
    "robustness_pct": 0.0,
    "runoff_coeff_C": 0.1006,
    "seasonal_cv": 0.4044,
    "segment_id": 2,
    "segment_length_m": 6002.2593,
    "stream_order": 3,
    "superfund_score": 0.0557,
    "tourism_amenity_density": 0.557,
    "tri_facility_density": 0.0,
    "usgs_mean_q_cfs": 3.973,
    "velocity_feasibility": 0.7,
    "water_intake_score": 1.338
   },
   "type": "Feature"
  },
  {
   "geometry": {
    "coordinates": [
     -80.879196,
     35.734914
    ],
    "type": "Point"
   },
   "properties": {
    "accumulation": 27277.0,
    "bank_slope_deg": 9.05,
    "bank_slope_score": 1.0,
    "bank_slope_source": "nc-dps-lidar-dem03-cross-section",
    "beach_dist_km": 328.58,
    "bridge_proximity_bonus": 0.0,
    "catchment_area_km2": 2.7234,
    "channel_width_m": 4.73,
    "channel_width_score": 1.0,
    "composite_score": 35.4992,
    "cso_density": 0.0,
    "ej_index": 0.4339,
    "elevation_m": 248.188,
    "estuary_dist_km": 444.28,
    "feasibility_score": 42.4107,
    "flood_q10_cfs": 436.59,
    "flow_score": 23.4925,
    "flow_velocity_ms": 0.1043,
    "generation_score": 44.1625,
    "impact_score": 33.3857,
    "impervious_pct": 5.62,
    "land_ownership": 0.5,
    "lat": 35.7349,
    "litter_complaint_density": 0.0,
    "lon": -80.8792,
    "navigable_dist_m": null,
    "npdes_points": 0,
    "pixel_col": 573.0,
    "pixel_row": 95.0,
    "population_density": 171.3,
    "position_along": 0.125,
    "protected_area_score": 6.8233,
    "rank": 18,
    "road_access_m": 448.9,
    "road_access_score": 0.8,
    "road_density_km_km2": 2.175,
    "robustness_pct": 0.0,
    "runoff_coeff_C": 0.1006,
    "seasonal_cv": 0.4044,
    "segment_id": 2,
    "segment_length_m": 6002.2593,
    "stream_order": 3,
    "superfund_score": 0.0573,
    "tourism_amenity_density": 0.4775,
    "tri_facility_density": 0.0,
    "usgs_mean_q_cfs": 3.973,
    "velocity_feasibility": 0.7,
    "water_intake_score": 1.3126
   },
   "type": "Feature"
  },
  {
   "geometry": {
    "coordinates": [
     -80.863907,
     35.700576
    ],
    "type": "Point"
   },
   "properties": {
    "accumulation": 28861.0,
    "bank_slope_deg": 17.34,
    "bank_slope_score": 0.5,
    "bank_slope_source": "nc-dps-lidar-dem03-cross-section",
    "beach_dist_km": 325.47,
    "bridge_proximity_bonus": 0.0,
    "catchment_area_km2": 2.8815,
    "channel_width_m": 4.84,
    "channel_width_score": 1.0,
    "composite_score": 34.4922,
    "cso_density": 0.0,
    "ej_index": 0.399,
    "elevation_m": 243.4248,
    "estuary_dist_km": 442.36,
    "feasibility_score": 29.9107,
    "flood_q10_cfs": 448.92,
    "flow_score": 22.5018,
    "flow_velocity_ms": 0.1026,
    "generation_score": 32.1172,
    "impact_score": 49.15,
    "impervious_pct": 4.78,
    "land_ownership": 0.5,
    "lat": 35.7006,
    "litter_complaint_density": 0.0,
    "lon": -80.8639,
    "navigable_dist_m": null,
    "npdes_points": 0,
    "pixel_col": 712.0,
    "pixel_row": 475.0,
    "population_density": 99.2,
    "position_along": 0.5,
    "protected_area_score": 6.8401,
    "rank": 19,
    "road_access_m": 332.9,
    "road_access_score": 0.8,
    "road_density_km_km2": 3.069,
    "robustness_pct": 0.0,
    "runoff_coeff_C": 0.093,
    "seasonal_cv": 0.4085,
    "segment_id": 7,
    "segment_length_m": 815.751,
    "stream_order": 3,
    "superfund_score": 0.0974,
    "tourism_amenity_density": 0.4775,
    "tri_facility_density": 0.0,
    "usgs_mean_q_cfs": 1.428,
    "velocity_feasibility": 0.7,
    "water_intake_score": 1.4591
   },
   "type": "Feature"
  },
  {
   "geometry": {
    "coordinates": [
     -80.837553,
     35.738018
    ],
    "type": "Point"
   },
   "properties": {
    "accumulation": 72711.0,
    "bank_slope_deg": 26.86,
    "bank_slope_score": 0.5,
    "bank_slope_source": "nc-dps-lidar-dem03-cross-section",
    "beach_dist_km": 325.51,
    "bridge_proximity_bonus": 0.0,
    "catchment_area_km2": 7.2596,
    "channel_width_m": 7.1,
    "channel_width_score": 1.0,
    "composite_score": 32.8883,
    "cso_density": 0.0,
    "ej_index": 0.5837,
    "elevation_m": 226.5469,
    "estuary_dist_km": 440.61,
    "feasibility_score": 25.0,
    "flood_q10_cfs": 828.42,
    "flow_score": 48.6371,
    "flow_velocity_ms": 0.5,
    "generation_score": 9.1402,
    "impact_score": 47.4567,
    "impervious_pct": null,
    "land_ownership": 0.5,
    "lat": 35.738,
    "litter_complaint_density": 0.0,
    "lon": -80.8376,
    "navigable_dist_m": null,
    "npdes_points": 1,
    "pixel_col": 949.0,
    "pixel_row": 61.0,
    "population_density": 79.4,
    "position_along": 0.875,
    "protected_area_score": 7.0518,
    "rank": 20,
    "road_access_m": 522.7,
    "road_access_score": 0.6,
    "road_density_km_km2": 0.587,
    "robustness_pct": 1.5,
    "runoff_coeff_C": null,
    "seasonal_cv": null,
    "segment_id": 2,
    "segment_length_m": 6002.2593,
    "stream_order": 3,
    "superfund_score": 0.0593,
    "tourism_amenity_density": 0.1592,
    "tri_facility_density": 0.0,
    "usgs_mean_q_cfs": null,
    "velocity_feasibility": 1.0,
    "water_intake_score": 1.354
   },
   "type": "Feature"
  },
  {
   "geometry": {
    "coordinates": [
     -80.898188,
     35.738105
    ],
    "type": "Point"
   },
   "properties": {
    "accumulation": 47236.0,
    "bank_slope_deg": 15.92,
    "bank_slope_score": 0.5,
    "bank_slope_source": "nc-dps-lidar-dem03-cross-section",
    "beach_dist_km": 330.24,
    "bridge_proximity_bonus": 0.0,
    "catchment_area_km2": 4.7161,
    "channel_width_m": 5.94,
    "channel_width_score": 1.0,
    "composite_score": 31.9119,
    "cso_density": 0.0,
    "ej_index": 0.4864,
    "elevation_m": 249.5192,
    "estuary_dist_km": 446.02,
    "feasibility_score": 45.5357,
    "flood_q10_cfs": 633.1,
    "flow_score": 14.1326,
    "flow_velocity_ms": 0.2036,
    "generation_score": 44.252,
    "impact_score": 27.5759,
    "impervious_pct": 3.21,
    "land_ownership": 0.5,
    "lat": 35.7381,
    "litter_complaint_density": 0.0,
    "lon": -80.8982,
    "navigable_dist_m": null,
    "npdes_points": 2,
    "pixel_col": 401.0,
    "pixel_row": 61.0,
    "population_density": 163.9,
    "position_along": 0.5,
    "protected_area_score": 6.5934,
    "rank": 21,
    "road_access_m": 24.8,
    "road_access_score": 1.0,
    "road_density_km_km2": 2.549,
    "robustness_pct": 0.0,
    "runoff_coeff_C": 0.0789,
    "seasonal_cv": 0.4065,
    "segment_id": 1,
    "segment_length_m": 1531.1651,
    "stream_order": 1,
    "superfund_score": 0.0633,
    "tourism_amenity_density": 0.1592,
    "tri_facility_density": 0.0,
    "usgs_mean_q_cfs": 2.56,
    "velocity_feasibility": 0.7,
    "water_intake_score": 1.3053
   },
   "type": "Feature"
  },
  {
   "geometry": {
    "coordinates": [
     -80.832878,
     35.680321
    ],
    "type": "Point"
   },
   "properties": {
    "accumulation": 34108.0,
    "bank_slope_deg": 11.73,
    "bank_slope_score": 1.0,
    "bank_slope_source": "nc-dps-lidar-dem03-cross-section",
    "beach_dist_km": 321.92,
    "bridge_proximity_bonus": 0.0,
    "catchment_area_km2": 3.4054,
    "channel_width_m": 5.19,
    "channel_width_score": 1.0,
    "composite_score": 30.9621,
    "cso_density": 0.0,
    "ej_index": 0.4917,
    "elevation_m": 245.1294,
    "estuary_dist_km": 439.28,
    "feasibility_score": 28.125,
    "flood_q10_cfs": 487.43,
    "flow_score": 7.6777,
    "flow_velocity_ms": 0.0378,
    "generation_score": 20.6971,
    "impact_score": 62.0494,
    "impervious_pct": 2.29,
    "land_ownership": 0.5,
    "lat": 35.6803,
    "litter_complaint_density": 0.0,
    "lon": -80.8329,
    "navigable_dist_m": null,
    "npdes_points": 0,
    "pixel_col": 992.0,
    "pixel_row": 703.0,
    "population_density": 125.1,
    "position_along": 0.5,
    "protected_area_score": 7.0249,
    "rank": 22,
    "road_access_m": 231.1,
    "road_access_score": 0.8,
    "road_density_km_km2": 0.696,
    "robustness_pct": 0.5,
    "runoff_coeff_C": 0.0706,
    "seasonal_cv": 0.408,
    "segment_id": 12,
    "segment_length_m": 1327.1843,
    "stream_order": 1,
    "superfund_score": 0.0623,
    "tourism_amenity_density": 0.1592,
    "tri_facility_density": 0.0,
    "usgs_mean_q_cfs": 3.854,
    "velocity_feasibility": 0.3,
    "water_intake_score": 1.5878
   },
   "type": "Feature"
  },
  {
   "geometry": {
    "coordinates": [
     -80.922632,
     35.740641
    ],
    "type": "Point"
   },
   "properties": {
    "accumulation": 27818.0,
    "bank_slope_deg": 9.35,
    "bank_slope_score": 1.0,
    "bank_slope_source": "nc-dps-lidar-dem03-cross-section",
    "beach_dist_km": 332.29,
    "bridge_proximity_bonus": 0.0,
    "catchment_area_km2": 2.7774,
    "channel_width_m": 4.77,
    "channel_width_score": 1.0,
    "composite_score": 23.0434,
    "cso_density": 0.0,
    "ej_index": 0.5196,
    "elevation_m": 250.9324,
    "estuary_dist_km": 448.25,
    "feasibility_score": 42.4107,
    "flood_q10_cfs": 422.73,
    "flow_score": 7.7446,
    "flow_velocity_ms": 0.1083,
    "generation_score": 30.0779,
    "impact_score": 19.0742,
    "impervious_pct": 2.93,
    "land_ownership": 0.5,
    "lat": 35.7406,
    "litter_complaint_density": 0.0,
    "lon": -80.9226,
    "navigable_dist_m": null,
    "npdes_points": 0,
    "pixel_col": 177.0,
    "pixel_row": 30.0,
    "population_density": 155.6,
    "position_along": 0.5,
    "protected_area_score": 6.3238,
    "rank": 23,
    "road_access_m": 308.5,
    "road_access_score": 0.8,
    "road_density_km_km2": 1.356,
    "robustness_pct": 0.0,
    "runoff_coeff_C": 0.0764,
    "seasonal_cv": 0.4071,
    "segment_id": 0,
    "segment_length_m": 694.0096,
    "stream_order": 1,
    "superfund_score": 0.0611,
    "tourism_amenity_density": 0.0,
    "tri_facility_density": 0.0,
    "usgs_mean_q_cfs": 1.737,
    "velocity_feasibility": 0.7,
    "water_intake_score": 1.2769
   },
   "type": "Feature"
  },
  {
   "geometry": {
    "coordinates": [
     -80.926862,
     35.706533
    ],
    "type": "Point"
   },
   "properties": {
    "accumulation": 35378.0,
    "bank_slope_deg": 7.34,
    "bank_slope_score": 1.0,
    "bank_slope_source": "nc-dps-lidar-dem03-cross-section",
    "beach_dist_km": 330.75,
    "bridge_proximity_bonus": 0.0,
    "catchment_area_km2": 3.5322,
    "channel_width_m": 5.27,
    "channel_width_score": 1.0,
    "composite_score": 22.5135,
    "cso_density": 0.0,
    "ej_index": 0.4509,
    "elevation_m": 249.5733,
    "estuary_dist_km": 448.09,
    "feasibility_score": 42.4107,
    "flood_q10_cfs": 510.07,
    "flow_score": 9.2884,
    "flow_velocity_ms": 0.1089,
    "generation_score": 18.7452,
    "impact_score": 27.3542,
    "impervious_pct": 3.31,
    "land_ownership": 0.5,
    "lat": 35.7065,
    "litter_complaint_density": 0.0,
    "lon": -80.9269,
    "navigable_dist_m": null,
    "npdes_points": 0,
    "pixel_col": 139.0,
    "pixel_row": 413.0,
    "population_density": 80.6,
    "position_along": 0.25,
    "protected_area_score": 6.3478,
    "rank": 24,
    "road_access_m": 264.8,
    "road_access_score": 0.8,
    "road_density_km_km2": 1.39,
    "robustness_pct": 0.0,
    "runoff_coeff_C": 0.0798,
    "seasonal_cv": 0.4075,
    "segment_id": 3,
    "segment_length_m": 3361.799,
    "stream_order": 1,
    "superfund_score": 0.0353,
    "tourism_amenity_density": 0.8754,
    "tri_facility_density": 0.0,
    "usgs_mean_q_cfs": 1.827,
    "velocity_feasibility": 0.7,
    "water_intake_score": 1.3886
   },
   "type": "Feature"
  },
  {
   "geometry": {
    "coordinates": [
     -80.934107,
     35.670929
    ],
    "type": "Point"
   },
   "properties": {
    "accumulation": 20299.0,
    "bank_slope_deg": 0.01,
    "bank_slope_score": 1.0,
    "bank_slope_source": "nc-dps-lidar-dem03-cross-section",
    "beach_dist_km": 329.4,
    "bridge_proximity_bonus": 0.0,
    "catchment_area_km2": 2.0267,
    "channel_width_m": 4.18,
    "channel_width_score": 1.0,
    "composite_score": 20.261,
    "cso_density": 0.0,
    "ej_index": 0.0467,
    "elevation_m": 231.7678,
    "estuary_dist_km": 448.2,
    "feasibility_score": 37.5,
    "flood_q10_cfs": 316.71,
    "flow_score": 26.0,
    "flow_velocity_ms": 0.5,
    "generation_score": 0.0,
    "impact_score": 27.1199,
    "impervious_pct": null,
    "land_ownership": 0.5,
    "lat": 35.6709,
    "litter_complaint_density": 0.0,
    "lon": -80.9341,
    "navigable_dist_m": null,
    "npdes_points": 0,
    "pixel_col": 75.0,
    "pixel_row": 808.0,
    "population_density": 58.6,
    "position_along": 0.5,
    "protected_area_score": 6.9575,
    "rank": 25,
    "road_access_m": 769.1,
    "road_access_score": 0.6,
    "road_density_km_km2": 0.085,
    "robustness_pct": 0.0,
    "runoff_coeff_C": null,
    "seasonal_cv": null,
    "segment_id": 15,
    "segment_length_m": 531.4174,
    "stream_order": 1,
    "superfund_score": 0.0193,
    "tourism_amenity_density": 0.2387,
    "tri_facility_density": 0.0,
    "usgs_mean_q_cfs": null,
    "velocity_feasibility": 1.0,
    "water_intake_score": 1.606
   },
   "type": "Feature"
  },
  {
   "geometry": {
    "coordinates": [
     -80.936702,
     35.69518
    ],
    "type": "Point"
   },
   "properties": {
    "accumulation": 64748.0,
    "bank_slope_deg": 11.9,
    "bank_slope_score": 1.0,
    "bank_slope_source": "nc-dps-lidar-dem03-cross-section",
    "beach_dist_km": 330.91,
    "bridge_proximity_bonus": 0.0,
    "catchment_area_km2": 6.4646,
    "channel_width_m": 6.77,
    "channel_width_score": 1.0,
    "composite_score": 18.8768,
    "cso_density": 0.0,
    "ej_index": 0.3789,
    "elevation_m": 240.5146,
    "estuary_dist_km": 448.79,
    "feasibility_score": 26.7857,
    "flood_q10_cfs": 784.19,
    "flow_score": 14.2485,
    "flow_velocity_ms": 0.1162,
    "generation_score": 15.6708,
    "impact_score": 21.9854,
    "impervious_pct": 1.86,
    "land_ownership": 0.5,
    "lat": 35.6952,
    "litter_complaint_density": 0.0,
    "lon": -80.9367,
    "navigable_dist_m": null,
    "npdes_points": 1,
    "pixel_col": 49.0,
    "pixel_row": 539.0,
    "population_density": 72.8,
    "position_along": 0.75,
    "protected_area_score": 6.3787,
    "rank": 26,
    "road_access_m": 544.5,
    "road_access_score": 0.6,
    "road_density_km_km2": 1.074,
    "robustness_pct": 0.0,
    "runoff_coeff_C": 0.0667,
    "seasonal_cv": 0.4053,
    "segment_id": 3,
    "segment_length_m": 3361.799,
    "stream_order": 1,
    "superfund_score": 0.0325,
    "tourism_amenity_density": 0.0,
    "tri_facility_density": 0.0,
    "usgs_mean_q_cfs": 3.679,
    "velocity_feasibility": 0.7,
    "water_intake_score": 1.4451
   },
   "type": "Feature"
  },
  {
   "geometry": {
    "coordinates": [
     -80.94155,
     35.711499
    ],
    "type": "Point"
   },
   "properties": {
    "accumulation": 21392.0,
    "bank_slope_deg": 10.17,
    "bank_slope_score": 1.0,
    "bank_slope_source": "nc-dps-lidar-dem03-cross-section",
    "beach_dist_km": 332.17,
    "bridge_proximity_bonus": 0.0,
    "catchment_area_km2": 2.1358,
    "channel_width_m": 4.27,
    "channel_width_score": 1.0,
    "composite_score": 16.0285,
    "cso_density": 0.0,
    "ej_index": 0.4298,
    "elevation_m": 250.1531,
    "estuary_dist_km": 449.48,
    "feasibility_score": 42.4107,
    "flood_q10_cfs": 335.41,
    "flow_score": 5.5074,
    "flow_velocity_ms": 0.1069,
    "generation_score": 9.4963,
    "impact_score": 18.1372,
    "impervious_pct": 1.02,
    "land_ownership": 0.5,
    "lat": 35.7115,
    "litter_complaint_density": 0.0,
    "lon": -80.9415,
    "navigable_dist_m": null,
    "npdes_points": 0,
    "pixel_col": 6.0,
    "pixel_row": 358.0,
    "population_density": 74.4,
    "position_along": 0.5,
    "protected_area_score": 6.336,
    "rank": 27,
    "road_access_m": 228.0,
    "road_access_score": 0.8,
    "road_density_km_km2": 1.166,
    "robustness_pct": 0.0,
    "runoff_coeff_C": 0.0592,
    "seasonal_cv": 0.4096,
    "segment_id": 4,
    "segment_length_m": 249.5083,
    "stream_order": 1,
    "superfund_score": 0.0483,
    "tourism_amenity_density": 0.0,
    "tri_facility_density": 0.0,
    "usgs_mean_q_cfs": 1.271,
    "velocity_feasibility": 0.7,
    "water_intake_score": 1.3611
   },
   "type": "Feature"
  }
 ],
 "note": "GRIME region 'Troutman, NC' \u2014 real-data pipeline (DEM\u2192streams\u2192candidates\u2192stream mask (sites confined to \u00b1150 m of mapped OSM/NHD waterways)\u2192region-appropriate real parameters\u2192shipped scoring, math unchanged). Width curve: Bieger et al. 2015 JAWRA Table 3, Appalachian Highlands. Flood: SIR 2014-5030 HR1. NC Piedmont (DEQ physiography polygon)",
 "provenance": {
  "candidates_pre_gate": 27,
  "constant": [
   "channel_width_score",
   "cso_density",
   "litter_complaint_density",
   "tri_facility_density"
  ],
  "gated_navigable": 0,
  "hard_gate_removed": 0,
  "n_parameters": 27,
  "parameters": {
   "bank_slope_score": {
    "kind": "real",
    "n_3dep_10m_fallback": 0,
    "n_nc_lidar_3_125ft": 27,
    "n_real": 27,
    "n_sites": 27,
    "source": "NC OneMap / NC DPS DEM03 statewide lidar-derived 3.125-ft (0.953 m) elevations (perpendicular 50 m transect; robust 5 m bank-rise metric); unavailable profiles use the region 10 m 3DEP DEM-gradient fallback",
    "source_mosaics": [
     "Iredell_Ground_3ft"
    ]
   },
   "beach_dist_km": {
    "kind": "real",
    "n_real": 27,
    "n_sites": 27,
    "source": "haversine to region ref: Wrightsville Beach (shipped NC reference)"
   },
   "bridge_proximity_bonus": {
    "kind": "real",
    "n_real": 27,
    "n_sites": 27,
    "source": "FHWA/BTS NBI (NTAD), 50 m proximity"
   },
   "catchment_area_km2": {
    "kind": "real",
    "n_real": 27,
    "n_sites": 27,
    "source": "DEM flow accumulation (pipeline)"
   },
   "channel_width_score": {
    "kind": "real",
    "n_real": 27,
    "n_sites": 27,
    "source": "Bieger 2015 AHI width curve on DEM drainage area \u2192 shipped width curve"
   },
   "cso_density": {
    "kind": "real",
    "n_real": 27,
    "n_sites": 27,
    "source": "EPA ECHO open CSO/TCS outfall PF coordinates states=NC, Cauchy proximity"
   },
   "ej_index": {
    "kind": "real",
    "n_real": 27,
    "n_sites": 27,
    "source": "Census ACS C17002+B03002 two-component demographic index, percentile-ranked within region"
   },
   "estuary_dist_km": {
    "kind": "real",
    "n_real": 27,
    "n_sites": 27,
    "source": "haversine to region ref: Pamlico Sound (shipped NC reference)"
   },
   "flood_q10_cfs": {
    "impervious_fallback_reason": "StreamCat imperviousness unavailable; the existing regression-input fallback of 0.0% impervious was used and is disclosed here",
    "kind": "real",
    "n_impervious_fallback": 2,
    "n_real": 27,
    "n_sites": 27,
    "source": "USGS SIR 2014-5030 Table 7 HR1 (NC Piedmont)"
   },
   "flow_velocity_ms": {
    "fallback_reason": "EROM/DEM continuity input unavailable; shipped 0.5 m/s default used",
    "kind": "real",
    "n_fallback": 2,
    "n_real": 25,
    "n_sites": 27,
    "source": "Manning (region DEM/D8) blended with EROM continuity (shipped M4 logic)"
   },
   "impervious_pct": {
    "fallback_reason": "NLDI/StreamCat did not return a snap-compatible catchment value; value remains null and is removed by constant-column handling",
    "kind": "real",
    "n_fallback": 2,
    "n_real": 25,
    "n_sites": 27,
    "source": "EPA StreamCat pctimp2019 (per NHDPlus watershed)"
   },
   "land_ownership": {
    "fallback_reason": "no containing parcel owner returned; shipped unknown ownership 0.5 used",
    "kind": "real",
    "n_fallback": 5,
    "n_real": 22,
    "n_sites": 27,
    "source": "NC OneMap statewide parcels (NC Parcels Transformer) ownname"
   },
   "litter_complaint_density": {
    "kind": "fallback",
    "n_real": 0,
    "n_sites": 27,
    "source": "no public machine-readable litter/illegal-dumping feed for this region"
   },
   "navigable_dist_m": {
    "kind": "real",
    "n_real": 27,
    "n_sites": 27,
    "source": "USACE/BTS NWN (NTAD): no navigable segment within this bbox (+2 km) \u2014 computed absence, gate passes all sites"
   },
   "npdes_points": {
    "kind": "real",
    "n_real": 27,
    "n_sites": 27,
    "source": "EPA ECHO active NPDES outfalls states=NC (types NPD/GPC/NGP; statuses ADC/EFF/EXP), per catchment"
   },
   "population_density": {
    "kind": "real",
    "n_real": 27,
    "n_sites": 27,
    "source": "Census ACS 2022 B01003 block groups (bbox, multi-county), area-weighted"
   },
   "protected_area_score": {
    "kind": "real",
    "n_real": 27,
    "n_sites": 27,
    "source": "USGS PAD-US 4.1 state GDB; states=NC; shipped designation-weighted proximity curve"
   },
   "road_access_score": {
    "kind": "real",
    "n_real": 27,
    "n_sites": 27,
    "source": "OSM drive network nearest-node distance"
   },
   "road_density_km_km2": {
    "kind": "real",
    "n_real": 27,
    "n_sites": 27,
    "source": "OSM drive network (osmnx, cached) clipped per catchment"
   },
   "runoff_coeff_C": {
    "fallback_reason": "source impervious_pct was unavailable; derived value remains null",
    "kind": "real",
    "n_fallback": 2,
    "n_real": 25,
    "n_sites": 27,
    "source": "derived from real impervious_pct (C=0.05+0.009*I)"
   },
   "seasonal_cv": {
    "fallback_reason": "NHDPlus monthly EROM was unavailable or failed the drainage-area snap guard; value remains null",
    "kind": "real",
    "n_fallback": 2,
    "n_real": 25,
    "n_sites": 27,
    "source": "CV of NHDPlus EROM monthly flows per COMID"
   },
   "stream_order": {
    "kind": "real",
    "n_real": 27,
    "n_sites": 27,
    "source": "DEM stream-network confluence heuristic (pipeline)"
   },
   "superfund_score": {
    "kind": "real",
    "n_real": 27,
    "n_sites": 27,
    "source": "EPA DataMap SEMS active sites states=NC (non-archived, georeferenced), shipped 500 m inverse-distance curve"
   },
   "tourism_amenity_density": {
    "kind": "real",
    "n_real": 27,
    "n_sites": 27,
    "source": "OSM leisure/tourism features per 2 km radius"
   },
   "tri_facility_density": {
    "kind": "real",
    "n_real": 27,
    "n_sites": 27,
    "source": "EPA DataMap TRI open facilities states=NC (preferred decimal or packed-DMS recovery), per catchment"
   },
   "usgs_mean_q_cfs": {
    "fallback_reason": "NHDPlus EROM was unavailable or failed the drainage-area snap guard; value remains null",
    "kind": "real",
    "n_fallback": 2,
    "n_real": 25,
    "n_sites": 27,
    "source": "NHDPlus EROM qe_ma per COMID (snap-guarded)"
   },
   "velocity_feasibility": {
    "fallback_reason": "derived from the shipped 0.5 m/s velocity fallback",
    "kind": "real",
    "n_fallback": 2,
    "n_real": 25,
    "n_sites": 27,
    "source": "shipped step curve on the computed velocity"
   },
   "velocity_transport_favorability": {
    "fallback_reason": "EROM/DEM continuity input unavailable; shipped 0.5 m/s default used",
    "kind": "derived",
    "n_fallback": 2,
    "n_real": 25,
    "n_sites": 27,
    "source": "scored form of flow_velocity_ms inside the Flow family \u2014 peaked Gaussian exp(-((v-0.9)/0.6)^2), model.json curves.velocity_transport_favorability; construct: transport/delivery favorability, deliberately distinct from velocity_feasibility (device operability)"
   },
   "water_intake_score": {
    "kind": "real",
    "n_real": 27,
    "n_sites": 27,
    "source": "NC OneMap / NC DEQ SWAP public water supply sources (source_typ='Surface Water'), shipped exp(-d/10km) curve"
   }
  },
  "stream_mask": {
   "buffer_m": 150.0,
   "pre_mask": 27,
   "removed": 0,
   "sources": [
    "osm-overpass (all waterway ways)",
    "usgs-nhdplus flowlines"
   ]
  },
  "varying": [
   "bank_slope_score",
   "beach_dist_km",
   "bridge_proximity_bonus",
   "catchment_area_km2",
   "ej_index",
   "estuary_dist_km",
   "flood_q10_cfs",
   "flow_velocity_ms",
   "impervious_pct",
   "land_ownership",
   "npdes_points",
   "population_density",
   "protected_area_score",
   "road_access_score",
   "road_density_km_km2",
   "runoff_coeff_C",
   "seasonal_cv",
   "stream_order",
   "superfund_score",
   "tourism_amenity_density",
   "usgs_mean_q_cfs",
   "velocity_feasibility",
   "water_intake_score"
  ]
 },
 "region": {
  "bbox": [
   -80.9423,
   35.6504,
   -80.8277,
   35.7435
  ],
  "beach_ref": {
   "label": "Wrightsville Beach (shipped NC reference)",
   "lat": 34.21,
   "lon": -77.79
  },
  "center": [
   -80.884971,
   35.696962
  ],
  "estuary_ref": {
   "label": "Pamlico Sound (shipped NC reference)",
   "lat": 35.05,
   "lon": -76.05
  },
  "flood_method": "sir2014_hr1",
  "name": "Troutman, NC",
  "notes": "NC Piedmont (DEQ physiography polygon)",
  "slug": "troutman",
  "state": "NC",
  "utm_epsg": 32617,
  "width_curve": {
   "a": 3.12,
   "b": 0.415,
   "code": "AHI",
   "source": "Bieger et al. 2015 JAWRA Table 3, Appalachian Highlands"
  }
 },
 "type": "FeatureCollection"
}
