{
 "features": [
  {
   "geometry": {
    "coordinates": [
     -79.868034,
     35.374865
    ],
    "type": "Point"
   },
   "properties": {
    "accumulation": 30960.0,
    "bank_slope_deg": 11.29,
    "bank_slope_score": 1.0,
    "bank_slope_source": "nc-dps-lidar-dem03-cross-section",
    "beach_dist_km": 229.74,
    "bridge_proximity_bonus": 0.0,
    "catchment_area_km2": 3.0919,
    "channel_width_m": 4.98,
    "channel_width_score": 1.0,
    "composite_score": 53.7439,
    "cso_density": 0.0,
    "ej_index": 0.3864,
    "elevation_m": 130.2772,
    "estuary_dist_km": 348.72,
    "feasibility_score": 45.9184,
    "flood_q10_cfs": 560.49,
    "flow_score": 27.6997,
    "flow_velocity_ms": 0.0948,
    "generation_score": 74.1581,
    "impact_score": 58.9459,
    "impervious_pct": 14.43,
    "land_ownership": 0.5,
    "lat": 35.3749,
    "litter_complaint_density": 0.0,
    "lon": -79.868,
    "navigable_dist_m": null,
    "npdes_points": 0,
    "pixel_col": 561.0,
    "pixel_row": 226.0,
    "population_density": 43.5,
    "position_along": 0.5,
    "protected_area_score": 9.234,
    "rank": 1,
    "road_access_m": 828.7,
    "road_access_score": 0.6,
    "road_density_km_km2": 0.988,
    "robustness_pct": 100.0,
    "runoff_coeff_C": 0.1799,
    "seasonal_cv": 0.4246,
    "segment_id": 2,
    "segment_length_m": 2028.3194,
    "stream_order": 3,
    "superfund_score": 0.0,
    "tourism_amenity_density": 1.4324,
    "tri_facility_density": 0.3234,
    "usgs_mean_q_cfs": 1.902,
    "velocity_feasibility": 0.7,
    "water_intake_score": 0.4956
   },
   "type": "Feature"
  },
  {
   "geometry": {
    "coordinates": [
     -79.85987,
     35.377746
    ],
    "type": "Point"
   },
   "properties": {
    "accumulation": 69467.0,
    "bank_slope_deg": 20.64,
    "bank_slope_score": 0.5,
    "bank_slope_source": "nc-dps-lidar-dem03-cross-section",
    "beach_dist_km": 229.3,
    "bridge_proximity_bonus": 0.0,
    "catchment_area_km2": 6.9376,
    "channel_width_m": 6.97,
    "channel_width_score": 1.0,
    "composite_score": 49.5107,
    "cso_density": 0.0,
    "ej_index": 0.3864,
    "elevation_m": 122.9607,
    "estuary_dist_km": 348.01,
    "feasibility_score": 70.6633,
    "flood_q10_cfs": 800.57,
    "flow_score": 55.0461,
    "flow_velocity_ms": 0.5,
    "generation_score": 33.8,
    "impact_score": 50.0322,
    "impervious_pct": null,
    "land_ownership": 1.0,
    "lat": 35.3777,
    "litter_complaint_density": 0.0,
    "lon": -79.8599,
    "navigable_dist_m": null,
    "npdes_points": 0,
    "pixel_col": 635.0,
    "pixel_row": 195.0,
    "population_density": 43.5,
    "position_along": 0.875,
    "protected_area_score": 8.911,
    "rank": 2,
    "road_access_m": 826.1,
    "road_access_score": 0.6,
    "road_density_km_km2": 0.521,
    "robustness_pct": 99.5,
    "runoff_coeff_C": null,
    "seasonal_cv": null,
    "segment_id": 3,
    "segment_length_m": 6398.8935,
    "stream_order": 3,
    "superfund_score": 0.0,
    "tourism_amenity_density": 0.7958,
    "tri_facility_density": 0.1441,
    "usgs_mean_q_cfs": null,
    "velocity_feasibility": 1.0,
    "water_intake_score": 0.4677
   },
   "type": "Feature"
  },
  {
   "geometry": {
    "coordinates": [
     -79.907962,
     35.345366
    ],
    "type": "Point"
   },
   "properties": {
    "accumulation": 54614.0,
    "bank_slope_deg": 13.65,
    "bank_slope_score": 1.0,
    "bank_slope_source": "nc-dps-lidar-dem03-cross-section",
    "beach_dist_km": 230.98,
    "bridge_proximity_bonus": 0.0,
    "catchment_area_km2": 5.4542,
    "channel_width_m": 6.31,
    "channel_width_score": 1.0,
    "composite_score": 48.7441,
    "cso_density": 0.0,
    "ej_index": 0.6095,
    "elevation_m": 146.412,
    "estuary_dist_km": 352.07,
    "feasibility_score": 56.1224,
    "flood_q10_cfs": 762.69,
    "flow_score": 21.1909,
    "flow_velocity_ms": 0.1334,
    "generation_score": 52.121,
    "impact_score": 64.6391,
    "impervious_pct": 7.59,
    "land_ownership": 0.5,
    "lat": 35.3454,
    "litter_complaint_density": 0.0,
    "lon": -79.908,
    "navigable_dist_m": null,
    "npdes_points": 1,
    "pixel_col": 200.0,
    "pixel_row": 559.0,
    "population_density": 37.8,
    "position_along": 0.5,
    "protected_area_score": 8.1698,
    "rank": 3,
    "road_access_m": 339.6,
    "road_access_score": 0.8,
    "road_density_km_km2": 3.528,
    "robustness_pct": 97.0,
    "runoff_coeff_C": 0.1183,
    "seasonal_cv": 0.4379,
    "segment_id": 6,
    "segment_length_m": 2959.5438,
    "stream_order": 1,
    "superfund_score": 0.0,
    "tourism_amenity_density": 0.9549,
    "tri_facility_density": 0.0,
    "usgs_mean_q_cfs": 4.396,
    "velocity_feasibility": 0.7,
    "water_intake_score": 0.6557
   },
   "type": "Feature"
  },
  {
   "geometry": {
    "coordinates": [
     -79.855257,
     35.370792
    ],
    "type": "Point"
   },
   "properties": {
    "accumulation": 128277.0,
    "bank_slope_deg": 35.68,
    "bank_slope_score": 0.2,
    "bank_slope_source": "nc-dps-lidar-dem03-cross-section",
    "beach_dist_km": 228.53,
    "bridge_proximity_bonus": 0.0,
    "catchment_area_km2": 12.8108,
    "channel_width_m": 8.99,
    "channel_width_score": 1.0,
    "composite_score": 48.5298,
    "cso_density": 0.0,
    "ej_index": 0.411,
    "elevation_m": 119.5496,
    "estuary_dist_km": 347.52,
    "feasibility_score": 36.7347,
    "flood_q10_cfs": 1205.66,
    "flow_score": 70.2579,
    "flow_velocity_ms": 0.0482,
    "generation_score": 32.2083,
    "impact_score": 52.6423,
    "impervious_pct": 1.97,
    "land_ownership": 1.0,
    "lat": 35.3708,
    "litter_complaint_density": 0.0,
    "lon": -79.8553,
    "navigable_dist_m": null,
    "npdes_points": 0,
    "pixel_col": 675.0,
    "pixel_row": 271.0,
    "population_density": 42.5,
    "position_along": 0.5,
    "protected_area_score": 8.7302,
    "rank": 4,
    "road_access_m": 504.3,
    "road_access_score": 0.6,
    "road_density_km_km2": 0.967,
    "robustness_pct": 86.5,
    "runoff_coeff_C": 0.0677,
    "seasonal_cv": 0.4864,
    "segment_id": 4,
    "segment_length_m": 1037.4286,
    "stream_order": 3,
    "superfund_score": 0.0,
    "tourism_amenity_density": 0.7958,
    "tri_facility_density": 0.0781,
    "usgs_mean_q_cfs": 39.45,
    "velocity_feasibility": 0.3,
    "water_intake_score": 0.4687
   },
   "type": "Feature"
  },
  {
   "geometry": {
    "coordinates": [
     -79.883844,
     35.385014
    ],
    "type": "Point"
   },
   "properties": {
    "accumulation": 37538.0,
    "bank_slope_deg": 9.99,
    "bank_slope_score": 1.0,
    "bank_slope_source": "nc-dps-lidar-dem03-cross-section",
    "beach_dist_km": 231.56,
    "bridge_proximity_bonus": 0.0,
    "catchment_area_km2": 3.7489,
    "channel_width_m": 5.4,
    "channel_width_score": 1.0,
    "composite_score": 43.142,
    "cso_density": 0.0,
    "ej_index": 0.2962,
    "elevation_m": 153.9362,
    "estuary_dist_km": 350.24,
    "feasibility_score": 66.3265,
    "flood_q10_cfs": 613.42,
    "flow_score": 29.619,
    "flow_velocity_ms": 0.1231,
    "generation_score": 39.638,
    "impact_score": 46.3228,
    "impervious_pct": 11.29,
    "land_ownership": 0.5,
    "lat": 35.385,
    "litter_complaint_density": 0.0,
    "lon": -79.8838,
    "navigable_dist_m": null,
    "npdes_points": 0,
    "pixel_col": 416.0,
    "pixel_row": 114.0,
    "population_density": 38.9,
    "position_along": 0.375,
    "protected_area_score": 9.4079,
    "rank": 5,
    "road_access_m": 123.7,
    "road_access_score": 1.0,
    "road_density_km_km2": 2.043,
    "robustness_pct": 50.0,
    "runoff_coeff_C": 0.1516,
    "seasonal_cv": 0.4276,
    "segment_id": 3,
    "segment_length_m": 6398.8935,
    "stream_order": 3,
    "superfund_score": 0.0,
    "tourism_amenity_density": 0.7958,
    "tri_facility_density": 0.0,
    "usgs_mean_q_cfs": 2.283,
    "velocity_feasibility": 0.7,
    "water_intake_score": 0.5231
   },
   "type": "Feature"
  },
  {
   "geometry": {
    "coordinates": [
     -79.893461,
     35.376501
    ],
    "type": "Point"
   },
   "properties": {
    "accumulation": 28107.0,
    "bank_slope_deg": 6.8,
    "bank_slope_score": 1.0,
    "bank_slope_source": "nc-dps-lidar-dem03-cross-section",
    "beach_dist_km": 231.76,
    "bridge_proximity_bonus": 0.0,
    "catchment_area_km2": 2.807,
    "channel_width_m": 4.79,
    "channel_width_score": 1.0,
    "composite_score": 43.0566,
    "cso_density": 0.0,
    "ej_index": 0.2848,
    "elevation_m": 162.2882,
    "estuary_dist_km": 351.03,
    "feasibility_score": 56.1224,
    "flood_q10_cfs": 493.25,
    "flow_score": 25.2057,
    "flow_velocity_ms": 0.0911,
    "generation_score": 44.2887,
    "impact_score": 50.1672,
    "impervious_pct": 11.29,
    "land_ownership": 0.5,
    "lat": 35.3765,
    "litter_complaint_density": 0.0,
    "lon": -79.8935,
    "navigable_dist_m": null,
    "npdes_points": 0,
    "pixel_col": 329.0,
    "pixel_row": 208.0,
    "population_density": 38.3,
    "position_along": 0.125,
    "protected_area_score": 9.2834,
    "rank": 6,
    "road_access_m": 233.0,
    "road_access_score": 0.8,
    "road_density_km_km2": 3.496,
    "robustness_pct": 50.0,
    "runoff_coeff_C": 0.1516,
    "seasonal_cv": 0.4276,
    "segment_id": 3,
    "segment_length_m": 6398.8935,
    "stream_order": 3,
    "superfund_score": 0.0,
    "tourism_amenity_density": 1.3528,
    "tri_facility_density": 0.0,
    "usgs_mean_q_cfs": 2.283,
    "velocity_feasibility": 0.7,
    "water_intake_score": 0.5557
   },
   "type": "Feature"
  },
  {
   "geometry": {
    "coordinates": [
     -79.869879,
     35.387226
    ],
    "type": "Point"
   },
   "properties": {
    "accumulation": 45677.0,
    "bank_slope_deg": 17.04,
    "bank_slope_score": 0.5,
    "bank_slope_source": "nc-dps-lidar-dem03-cross-section",
    "beach_dist_km": 230.65,
    "bridge_proximity_bonus": 0.0,
    "catchment_area_km2": 4.5617,
    "channel_width_m": 5.86,
    "channel_width_score": 1.0,
    "composite_score": 40.4415,
    "cso_density": 0.0,
    "ej_index": 0.3688,
    "elevation_m": 131.3102,
    "estuary_dist_km": 349.0,
    "feasibility_score": 36.9898,
    "flood_q10_cfs": 711.19,
    "flow_score": 33.4467,
    "flow_velocity_ms": 0.1527,
    "generation_score": 43.274,
    "impact_score": 45.1637,
    "impervious_pct": 11.29,
    "land_ownership": 0.5,
    "lat": 35.3872,
    "litter_complaint_density": 0.0,
    "lon": -79.8699,
    "navigable_dist_m": null,
    "npdes_points": 0,
    "pixel_col": 542.0,
    "pixel_row": 88.0,
    "population_density": 42.6,
    "position_along": 0.625,
    "protected_area_score": 9.0871,
    "rank": 7,
    "road_access_m": 549.1,
    "road_access_score": 0.6,
    "road_density_km_km2": 0.932,
    "robustness_pct": 13.5,
    "runoff_coeff_C": 0.1516,
    "seasonal_cv": 0.4276,
    "segment_id": 3,
    "segment_length_m": 6398.8935,
    "stream_order": 3,
    "superfund_score": 0.0,
    "tourism_amenity_density": 0.4775,
    "tri_facility_density": 0.0,
    "usgs_mean_q_cfs": 2.283,
    "velocity_feasibility": 0.7,
    "water_intake_score": 0.4863
   },
   "type": "Feature"
  },
  {
   "geometry": {
    "coordinates": [
     -79.866525,
     35.352789
    ],
    "type": "Point"
   },
   "properties": {
    "accumulation": 39397.0,
    "bank_slope_deg": 14.74,
    "bank_slope_score": 1.0,
    "bank_slope_source": "nc-dps-lidar-dem03-cross-section",
    "beach_dist_km": 228.27,
    "bridge_proximity_bonus": 0.0,
    "catchment_area_km2": 3.9345,
    "channel_width_m": 5.51,
    "channel_width_score": 1.0,
    "composite_score": 34.3512,
    "cso_density": 0.0,
    "ej_index": 0.5219,
    "elevation_m": 131.7587,
    "estuary_dist_km": 348.38,
    "feasibility_score": 56.1224,
    "flood_q10_cfs": 541.38,
    "flow_score": 12.7968,
    "flow_velocity_ms": 0.1509,
    "generation_score": 15.5419,
    "impact_score": 60.2368,
    "impervious_pct": 2.07,
    "land_ownership": 0.5,
    "lat": 35.3528,
    "litter_complaint_density": 0.0,
    "lon": -79.8665,
    "navigable_dist_m": null,
    "npdes_points": 0,
    "pixel_col": 577.0,
    "pixel_row": 472.0,
    "population_density": 33.5,
    "position_along": 0.5,
    "protected_area_score": 8.5165,
    "rank": 8,
    "road_access_m": 425.9,
    "road_access_score": 0.8,
    "road_density_km_km2": 3.08,
    "robustness_pct": 3.5,
    "runoff_coeff_C": 0.0686,
    "seasonal_cv": 0.4277,
    "segment_id": 5,
    "segment_length_m": 2855.8862,
    "stream_order": 1,
    "superfund_score": 0.0,
    "tourism_amenity_density": 0.7958,
    "tri_facility_density": 0.0,
    "usgs_mean_q_cfs": 2.443,
    "velocity_feasibility": 0.7,
    "water_intake_score": 0.5124
   },
   "type": "Feature"
  },
  {
   "geometry": {
    "coordinates": [
     -79.883453,
     35.392207
    ],
    "type": "Point"
   },
   "properties": {
    "accumulation": 24538.0,
    "bank_slope_deg": 13.19,
    "bank_slope_score": 1.0,
    "bank_slope_source": "nc-dps-lidar-dem03-cross-section",
    "beach_dist_km": 231.98,
    "bridge_proximity_bonus": 0.0,
    "catchment_area_km2": 2.4506,
    "channel_width_m": 4.53,
    "channel_width_score": 1.0,
    "composite_score": 30.6718,
    "cso_density": 0.0,
    "ej_index": 0.2649,
    "elevation_m": 136.5133,
    "estuary_dist_km": 350.28,
    "feasibility_score": 68.3673,
    "flood_q10_cfs": 365.44,
    "flow_score": 26.0,
    "flow_velocity_ms": 0.5,
    "generation_score": 10.6987,
    "impact_score": 35.6901,
    "impervious_pct": null,
    "land_ownership": 0.5,
    "lat": 35.3922,
    "litter_complaint_density": 0.0,
    "lon": -79.8835,
    "navigable_dist_m": null,
    "npdes_points": 0,
    "pixel_col": 418.0,
    "pixel_row": 33.0,
    "population_density": 37.3,
    "position_along": 0.5,
    "protected_area_score": 9.2315,
    "rank": 9,
    "road_access_m": 319.3,
    "road_access_score": 0.8,
    "road_density_km_km2": 0.749,
    "robustness_pct": 0.0,
    "runoff_coeff_C": null,
    "seasonal_cv": null,
    "segment_id": 0,
    "segment_length_m": 600.0212,
    "stream_order": 1,
    "superfund_score": 0.0,
    "tourism_amenity_density": 0.0796,
    "tri_facility_density": 0.0,
    "usgs_mean_q_cfs": null,
    "velocity_feasibility": 1.0,
    "water_intake_score": 0.5188
   },
   "type": "Feature"
  },
  {
   "geometry": {
    "coordinates": [
     -79.878386,
     35.33695
    ],
    "type": "Point"
   },
   "properties": {
    "accumulation": 32337.0,
    "bank_slope_deg": 5.95,
    "bank_slope_score": 1.0,
    "bank_slope_source": "nc-dps-lidar-dem03-cross-section",
    "beach_dist_km": 228.22,
    "bridge_proximity_bonus": 0.0,
    "catchment_area_km2": 3.2294,
    "channel_width_m": 5.08,
    "channel_width_score": 1.0,
    "composite_score": 26.569,
    "cso_density": 0.0,
    "ej_index": 0.5227,
    "elevation_m": 135.8967,
    "estuary_dist_km": 349.32,
    "feasibility_score": 45.9184,
    "flood_q10_cfs": 466.77,
    "flow_score": 9.9264,
    "flow_velocity_ms": 0.1257,
    "generation_score": 5.3578,
    "impact_score": 51.9742,
    "impervious_pct": 2.1,
    "land_ownership": 0.5,
    "lat": 35.337,
    "litter_complaint_density": 0.0,
    "lon": -79.8784,
    "navigable_dist_m": null,
    "npdes_points": 0,
    "pixel_col": 470.0,
    "pixel_row": 649.0,
    "population_density": 33.1,
    "position_along": 0.5,
    "protected_area_score": 7.778,
    "rank": 10,
    "road_access_m": 533.4,
    "road_access_score": 0.6,
    "road_density_km_km2": 0.809,
    "robustness_pct": 0.0,
    "runoff_coeff_C": 0.0689,
    "seasonal_cv": 0.4322,
    "segment_id": 7,
    "segment_length_m": 1346.9304,
    "stream_order": 1,
    "superfund_score": 0.0,
    "tourism_amenity_density": 0.1592,
    "tri_facility_density": 0.0,
    "usgs_mean_q_cfs": 3.072,
    "velocity_feasibility": 0.7,
    "water_intake_score": 0.566
   },
   "type": "Feature"
  },
  {
   "geometry": {
    "coordinates": [
     -79.907016,
     35.390271
    ],
    "type": "Point"
   },
   "properties": {
    "accumulation": 45240.0,
    "bank_slope_deg": 1.61,
    "bank_slope_score": 1.0,
    "bank_slope_source": "nc-dps-lidar-dem03-cross-section",
    "beach_dist_km": 233.63,
    "bridge_proximity_bonus": 0.0,
    "catchment_area_km2": 4.518,
    "channel_width_m": 5.83,
    "channel_width_score": 1.0,
    "composite_score": 21.606,
    "cso_density": 0.0,
    "ej_index": 0.25,
    "elevation_m": 152.9271,
    "estuary_dist_km": 352.39,
    "feasibility_score": 30.6122,
    "flood_q10_cfs": 591.67,
    "flow_score": 14.469,
    "flow_velocity_ms": 0.0966,
    "generation_score": 9.6589,
    "impact_score": 34.9973,
    "impervious_pct": 1.19,
    "land_ownership": 0.5,
    "lat": 35.3903,
    "litter_complaint_density": 0.0,
    "lon": -79.907,
    "navigable_dist_m": null,
    "npdes_points": 0,
    "pixel_col": 205.0,
    "pixel_row": 57.0,
    "population_density": 36.5,
    "position_along": 0.75,
    "protected_area_score": 9.38,
    "rank": 11,
    "road_access_m": 1243.7,
    "road_access_score": 0.3,
    "road_density_km_km2": 0.414,
    "robustness_pct": 0.0,
    "runoff_coeff_C": 0.0607,
    "seasonal_cv": 0.4407,
    "segment_id": 1,
    "segment_length_m": 3517.1664,
    "stream_order": 1,
    "superfund_score": 0.0,
    "tourism_amenity_density": 0.0,
    "tri_facility_density": 0.0,
    "usgs_mean_q_cfs": 5.554,
    "velocity_feasibility": 0.7,
    "water_intake_score": 0.5862
   },
   "type": "Feature"
  },
  {
   "geometry": {
    "coordinates": [
     -79.916538,
     35.383509
    ],
    "type": "Point"
   },
   "properties": {
    "accumulation": 25696.0,
    "bank_slope_deg": 13.54,
    "bank_slope_score": 1.0,
    "bank_slope_source": "nc-dps-lidar-dem03-cross-section",
    "beach_dist_km": 233.94,
    "bridge_proximity_bonus": 0.0,
    "catchment_area_km2": 2.5662,
    "channel_width_m": 4.61,
    "channel_width_score": 1.0,
    "composite_score": 20.5115,
    "cso_density": 0.0,
    "ej_index": 0.25,
    "elevation_m": 159.6697,
    "estuary_dist_km": 353.18,
    "feasibility_score": 30.6122,
    "flood_q10_cfs": 386.32,
    "flow_score": 7.561,
    "flow_velocity_ms": 0.0925,
    "generation_score": 10.5194,
    "impact_score": 36.2453,
    "impervious_pct": 1.19,
    "land_ownership": 0.5,
    "lat": 35.3835,
    "litter_complaint_density": 0.0,
    "lon": -79.9165,
    "navigable_dist_m": null,
    "npdes_points": 0,
    "pixel_col": 119.0,
    "pixel_row": 135.0,
    "population_density": 36.5,
    "position_along": 0.25,
    "protected_area_score": 9.351,
    "rank": 12,
    "road_access_m": 1067.1,
    "road_access_score": 0.3,
    "road_density_km_km2": 0.623,
    "robustness_pct": 0.0,
    "runoff_coeff_C": 0.0607,
    "seasonal_cv": 0.4407,
    "segment_id": 1,
    "segment_length_m": 3517.1664,
    "stream_order": 1,
    "superfund_score": 0.0,
    "tourism_amenity_density": 0.0,
    "tri_facility_density": 0.0,
    "usgs_mean_q_cfs": 5.554,
    "velocity_feasibility": 0.7,
    "water_intake_score": 0.6207
   },
   "type": "Feature"
  }
 ],
 "note": "GRIME region 'Troy, NC' \u2014 real-data pipeline (DEM\u2192streams\u2192candidates\u2192stream mask (sites confined to \u00b1150 m of mapped OSM/NHD waterways)\u2192region-appropriate real parameters\u2192shipped scoring, math unchanged). Width curve: Bieger et al. 2015 JAWRA Table 3, Appalachian Highlands. Flood: SIR 2014-5030 HR1. NC Piedmont (DEQ physiography polygon)",
 "provenance": {
  "candidates_pre_gate": 12,
  "constant": [
   "bridge_proximity_bonus",
   "channel_width_score",
   "cso_density",
   "litter_complaint_density",
   "superfund_score"
  ],
  "gated_navigable": 0,
  "hard_gate_removed": 0,
  "n_parameters": 27,
  "parameters": {
   "bank_slope_score": {
    "kind": "real",
    "n_3dep_10m_fallback": 0,
    "n_nc_lidar_3_125ft": 12,
    "n_real": 12,
    "n_sites": 12,
    "source": "NC OneMap / NC DPS DEM03 statewide lidar-derived 3.125-ft (0.953 m) elevations (perpendicular 50 m transect; robust 5 m bank-rise metric); unavailable profiles use the region 10 m 3DEP DEM-gradient fallback",
    "source_mosaics": [
     "Montgomery_QL1_2024_03ft_CountywideRaster"
    ]
   },
   "beach_dist_km": {
    "kind": "real",
    "n_real": 12,
    "n_sites": 12,
    "source": "haversine to region ref: Wrightsville Beach (shipped NC reference)"
   },
   "bridge_proximity_bonus": {
    "kind": "real",
    "n_real": 12,
    "n_sites": 12,
    "source": "FHWA/BTS NBI (NTAD), 50 m proximity"
   },
   "catchment_area_km2": {
    "kind": "real",
    "n_real": 12,
    "n_sites": 12,
    "source": "DEM flow accumulation (pipeline)"
   },
   "channel_width_score": {
    "kind": "real",
    "n_real": 12,
    "n_sites": 12,
    "source": "Bieger 2015 AHI width curve on DEM drainage area \u2192 shipped width curve"
   },
   "cso_density": {
    "kind": "real",
    "n_real": 12,
    "n_sites": 12,
    "source": "EPA ECHO open CSO/TCS outfall PF coordinates states=NC, Cauchy proximity"
   },
   "ej_index": {
    "kind": "real",
    "n_real": 12,
    "n_sites": 12,
    "source": "Census ACS C17002+B03002 two-component demographic index, percentile-ranked within region"
   },
   "estuary_dist_km": {
    "kind": "real",
    "n_real": 12,
    "n_sites": 12,
    "source": "haversine to region ref: Pamlico Sound (shipped NC reference)"
   },
   "flood_q10_cfs": {
    "impervious_fallback_reason": "StreamCat imperviousness unavailable; the existing regression-input fallback of 0.0% impervious was used and is disclosed here",
    "kind": "real",
    "n_impervious_fallback": 2,
    "n_real": 12,
    "n_sites": 12,
    "source": "USGS SIR 2014-5030 Table 7 HR1 (NC Piedmont)"
   },
   "flow_velocity_ms": {
    "fallback_reason": "EROM/DEM continuity input unavailable; shipped 0.5 m/s default used",
    "kind": "real",
    "n_fallback": 2,
    "n_real": 10,
    "n_sites": 12,
    "source": "Manning (region DEM/D8) blended with EROM continuity (shipped M4 logic)"
   },
   "impervious_pct": {
    "fallback_reason": "NLDI/StreamCat did not return a snap-compatible catchment value; value remains null and is removed by constant-column handling",
    "kind": "real",
    "n_fallback": 2,
    "n_real": 10,
    "n_sites": 12,
    "source": "EPA StreamCat pctimp2019 (per NHDPlus watershed)"
   },
   "land_ownership": {
    "kind": "real",
    "n_fallback": 0,
    "n_real": 12,
    "n_sites": 12,
    "source": "NC OneMap statewide parcels (NC Parcels Transformer) ownname"
   },
   "litter_complaint_density": {
    "kind": "fallback",
    "n_real": 0,
    "n_sites": 12,
    "source": "no public machine-readable litter/illegal-dumping feed for this region"
   },
   "navigable_dist_m": {
    "kind": "real",
    "n_real": 12,
    "n_sites": 12,
    "source": "USACE/BTS NWN (NTAD): no navigable segment within this bbox (+2 km) \u2014 computed absence, gate passes all sites"
   },
   "npdes_points": {
    "kind": "real",
    "n_real": 12,
    "n_sites": 12,
    "source": "EPA ECHO active NPDES outfalls states=NC (types NPD/GPC/NGP; statuses ADC/EFF/EXP), per catchment"
   },
   "population_density": {
    "kind": "real",
    "n_real": 12,
    "n_sites": 12,
    "source": "Census ACS 2022 B01003 block groups (bbox, multi-county), area-weighted"
   },
   "protected_area_score": {
    "kind": "real",
    "n_real": 12,
    "n_sites": 12,
    "source": "USGS PAD-US 4.1 state GDB; states=NC; shipped designation-weighted proximity curve"
   },
   "road_access_score": {
    "kind": "real",
    "n_real": 12,
    "n_sites": 12,
    "source": "OSM drive network nearest-node distance"
   },
   "road_density_km_km2": {
    "kind": "real",
    "n_real": 12,
    "n_sites": 12,
    "source": "OSM drive network (osmnx, cached) clipped per catchment"
   },
   "runoff_coeff_C": {
    "fallback_reason": "source impervious_pct was unavailable; derived value remains null",
    "kind": "real",
    "n_fallback": 2,
    "n_real": 10,
    "n_sites": 12,
    "source": "derived from real impervious_pct (C=0.05+0.009*I)"
   },
   "seasonal_cv": {
    "fallback_reason": "NHDPlus monthly EROM was unavailable or failed the drainage-area snap guard; value remains null",
    "kind": "real",
    "n_fallback": 2,
    "n_real": 10,
    "n_sites": 12,
    "source": "CV of NHDPlus EROM monthly flows per COMID"
   },
   "stream_order": {
    "kind": "real",
    "n_real": 12,
    "n_sites": 12,
    "source": "DEM stream-network confluence heuristic (pipeline)"
   },
   "superfund_score": {
    "kind": "real",
    "n_real": 12,
    "n_sites": 12,
    "source": "EPA DataMap SEMS active sites states=NC (non-archived, georeferenced), shipped 500 m inverse-distance curve"
   },
   "tourism_amenity_density": {
    "kind": "real",
    "n_real": 12,
    "n_sites": 12,
    "source": "OSM leisure/tourism features per 2 km radius"
   },
   "tri_facility_density": {
    "kind": "real",
    "n_real": 12,
    "n_sites": 12,
    "source": "EPA DataMap TRI open facilities states=NC (preferred decimal or packed-DMS recovery), per catchment"
   },
   "usgs_mean_q_cfs": {
    "fallback_reason": "NHDPlus EROM was unavailable or failed the drainage-area snap guard; value remains null",
    "kind": "real",
    "n_fallback": 2,
    "n_real": 10,
    "n_sites": 12,
    "source": "NHDPlus EROM qe_ma per COMID (snap-guarded)"
   },
   "velocity_feasibility": {
    "fallback_reason": "derived from the shipped 0.5 m/s velocity fallback",
    "kind": "real",
    "n_fallback": 2,
    "n_real": 10,
    "n_sites": 12,
    "source": "shipped step curve on the computed velocity"
   },
   "velocity_transport_favorability": {
    "fallback_reason": "EROM/DEM continuity input unavailable; shipped 0.5 m/s default used",
    "kind": "derived",
    "n_fallback": 2,
    "n_real": 10,
    "n_sites": 12,
    "source": "scored form of flow_velocity_ms inside the Flow family \u2014 peaked Gaussian exp(-((v-0.9)/0.6)^2), model.json curves.velocity_transport_favorability; construct: transport/delivery favorability, deliberately distinct from velocity_feasibility (device operability)"
   },
   "water_intake_score": {
    "kind": "real",
    "n_real": 12,
    "n_sites": 12,
    "source": "NC OneMap / NC DEQ SWAP public water supply sources (source_typ='Surface Water'), shipped exp(-d/10km) curve"
   }
  },
  "stream_mask": {
   "buffer_m": 150.0,
   "pre_mask": 12,
   "removed": 0,
   "sources": [
    "osm-overpass (all waterway ways)",
    "usgs-nhdplus flowlines"
   ]
  },
  "varying": [
   "bank_slope_score",
   "beach_dist_km",
   "catchment_area_km2",
   "ej_index",
   "estuary_dist_km",
   "flood_q10_cfs",
   "flow_velocity_ms",
   "impervious_pct",
   "land_ownership",
   "npdes_points",
   "population_density",
   "protected_area_score",
   "road_access_score",
   "road_density_km_km2",
   "runoff_coeff_C",
   "seasonal_cv",
   "stream_order",
   "tourism_amenity_density",
   "tri_facility_density",
   "usgs_mean_q_cfs",
   "velocity_feasibility",
   "water_intake_score"
  ]
 },
 "region": {
  "bbox": [
   -79.9293,
   35.3341,
   -79.8544,
   35.3951
  ],
  "beach_ref": {
   "label": "Wrightsville Beach (shipped NC reference)",
   "lat": 34.21,
   "lon": -77.79
  },
  "center": [
   -79.891851,
   35.364635
  ],
  "estuary_ref": {
   "label": "Pamlico Sound (shipped NC reference)",
   "lat": 35.05,
   "lon": -76.05
  },
  "flood_method": "sir2014_hr1",
  "name": "Troy, NC",
  "notes": "NC Piedmont (DEQ physiography polygon)",
  "slug": "troy",
  "state": "NC",
  "utm_epsg": 32617,
  "width_curve": {
   "a": 3.12,
   "b": 0.415,
   "code": "AHI",
   "source": "Bieger et al. 2015 JAWRA Table 3, Appalachian Highlands"
  }
 },
 "type": "FeatureCollection"
}
