{
 "features": [
  {
   "geometry": {
    "coordinates": [
     -79.287108,
     35.237461
    ],
    "type": "Point"
   },
   "properties": {
    "accumulation": 160219.0,
    "bank_slope_deg": 2.86,
    "bank_slope_score": 1.0,
    "bank_slope_source": "nc-dps-lidar-dem03-cross-section",
    "beach_dist_km": 178.25,
    "bridge_proximity_bonus": 0.0,
    "catchment_area_km2": 15.9855,
    "channel_width_m": 6.07,
    "channel_width_score": 1.0,
    "composite_score": 62.3441,
    "cso_density": 0.0,
    "ej_index": 0.742,
    "elevation_m": 73.3437,
    "estuary_dist_km": 295.06,
    "feasibility_score": 100.0,
    "flood_q10_cfs": 476.88,
    "flow_score": 64.535,
    "flow_velocity_ms": 0.5,
    "generation_score": 39.4279,
    "impact_score": 64.6067,
    "impervious_pct": null,
    "land_ownership": 0.5,
    "lat": 35.2375,
    "litter_complaint_density": 0.0,
    "lon": -79.2871,
    "navigable_dist_m": null,
    "npdes_points": 4,
    "pixel_col": 314.0,
    "pixel_row": 515.0,
    "population_density": 33.1,
    "position_along": 0.5,
    "protected_area_score": 7.94,
    "rank": 1,
    "road_access_m": 387.2,
    "road_access_score": 0.8,
    "road_density_km_km2": 2.869,
    "robustness_pct": 100.0,
    "runoff_coeff_C": null,
    "seasonal_cv": null,
    "segment_id": 3,
    "segment_length_m": 7776.9261,
    "stream_order": 3,
    "superfund_score": 0.0,
    "tourism_amenity_density": 0.6366,
    "tri_facility_density": 0.0,
    "usgs_mean_q_cfs": null,
    "velocity_feasibility": 1.0,
    "water_intake_score": 0.4659
   },
   "type": "Feature"
  },
  {
   "geometry": {
    "coordinates": [
     -79.275392,
     35.2333
    ],
    "type": "Point"
   },
   "properties": {
    "accumulation": 199014.0,
    "bank_slope_deg": 1.32,
    "bank_slope_score": 1.0,
    "bank_slope_source": "nc-dps-lidar-dem03-cross-section",
    "beach_dist_km": 177.13,
    "bridge_proximity_bonus": 0.0,
    "catchment_area_km2": 19.8562,
    "channel_width_m": 6.57,
    "channel_width_score": 1.0,
    "composite_score": 56.0612,
    "cso_density": 0.0,
    "ej_index": 0.7686,
    "elevation_m": 71.7017,
    "estuary_dist_km": 293.97,
    "feasibility_score": 81.8182,
    "flood_q10_cfs": 543.19,
    "flow_score": 70.6934,
    "flow_velocity_ms": 0.5,
    "generation_score": 30.3617,
    "impact_score": 56.6886,
    "impervious_pct": null,
    "land_ownership": 0.5,
    "lat": 35.2333,
    "litter_complaint_density": 0.0,
    "lon": -79.2754,
    "navigable_dist_m": null,
    "npdes_points": 4,
    "pixel_col": 422.0,
    "pixel_row": 560.0,
    "population_density": 29.7,
    "position_along": 0.7,
    "protected_area_score": 7.5082,
    "rank": 2,
    "road_access_m": 776.0,
    "road_access_score": 0.6,
    "road_density_km_km2": 1.801,
    "robustness_pct": 97.5,
    "runoff_coeff_C": null,
    "seasonal_cv": null,
    "segment_id": 3,
    "segment_length_m": 7776.9261,
    "stream_order": 3,
    "superfund_score": 0.0,
    "tourism_amenity_density": 0.1592,
    "tri_facility_density": 0.0,
    "usgs_mean_q_cfs": null,
    "velocity_feasibility": 1.0,
    "water_intake_score": 0.4337
   },
   "type": "Feature"
  },
  {
   "geometry": {
    "coordinates": [
     -79.296839,
     35.243271
    ],
    "type": "Point"
   },
   "properties": {
    "accumulation": 111368.0,
    "bank_slope_deg": 16.02,
    "bank_slope_score": 0.5,
    "bank_slope_source": "nc-dps-lidar-dem03-cross-section",
    "beach_dist_km": 179.34,
    "bridge_proximity_bonus": 0.0,
    "catchment_area_km2": 11.1115,
    "channel_width_m": 5.32,
    "channel_width_score": 1.0,
    "composite_score": 55.2563,
    "cso_density": 0.0,
    "ej_index": 0.6596,
    "elevation_m": 74.6881,
    "estuary_dist_km": 295.98,
    "feasibility_score": 81.8182,
    "flood_q10_cfs": 383.33,
    "flow_score": 56.4268,
    "flow_velocity_ms": 0.5,
    "generation_score": 36.274,
    "impact_score": 59.9822,
    "impervious_pct": null,
    "land_ownership": 0.5,
    "lat": 35.2433,
    "litter_complaint_density": 0.0,
    "lon": -79.2968,
    "navigable_dist_m": null,
    "npdes_points": 1,
    "pixel_col": 222.0,
    "pixel_row": 452.0,
    "population_density": 44.6,
    "position_along": 0.3,
    "protected_area_score": 8.082,
    "rank": 3,
    "road_access_m": 245.3,
    "road_access_score": 0.8,
    "road_density_km_km2": 3.339,
    "robustness_pct": 100.0,
    "runoff_coeff_C": null,
    "seasonal_cv": null,
    "segment_id": 3,
    "segment_length_m": 7776.9261,
    "stream_order": 3,
    "superfund_score": 0.0,
    "tourism_amenity_density": 0.6366,
    "tri_facility_density": 0.0,
    "usgs_mean_q_cfs": null,
    "velocity_feasibility": 1.0,
    "water_intake_score": 0.4963
   },
   "type": "Feature"
  },
  {
   "geometry": {
    "coordinates": [
     -79.302206,
     35.249931
    ],
    "type": "Point"
   },
   "properties": {
    "accumulation": 84728.0,
    "bank_slope_deg": 4.45,
    "bank_slope_score": 1.0,
    "bank_slope_source": "nc-dps-lidar-dem03-cross-section",
    "beach_dist_km": 180.19,
    "bridge_proximity_bonus": 0.0,
    "catchment_area_km2": 8.4535,
    "channel_width_m": 4.82,
    "channel_width_score": 1.0,
    "composite_score": 52.7033,
    "cso_density": 0.0,
    "ej_index": 0.5627,
    "elevation_m": 76.2492,
    "estuary_dist_km": 296.51,
    "feasibility_score": 81.8182,
    "flood_q10_cfs": 325.3,
    "flow_score": 51.7584,
    "flow_velocity_ms": 0.5,
    "generation_score": 39.034,
    "impact_score": 52.6027,
    "impervious_pct": null,
    "land_ownership": 0.5,
    "lat": 35.2499,
    "litter_complaint_density": 0.0,
    "lon": -79.3022,
    "navigable_dist_m": null,
    "npdes_points": 0,
    "pixel_col": 174.0,
    "pixel_row": 379.0,
    "population_density": 57.6,
    "position_along": 0.1,
    "protected_area_score": 8.1956,
    "rank": 4,
    "road_access_m": 675.4,
    "road_access_score": 0.6,
    "road_density_km_km2": 2.93,
    "robustness_pct": 100.0,
    "runoff_coeff_C": null,
    "seasonal_cv": null,
    "segment_id": 3,
    "segment_length_m": 7776.9261,
    "stream_order": 3,
    "superfund_score": 0.0,
    "tourism_amenity_density": 0.557,
    "tri_facility_density": 0.0,
    "usgs_mean_q_cfs": null,
    "velocity_feasibility": 1.0,
    "water_intake_score": 0.5142
   },
   "type": "Feature"
  },
  {
   "geometry": {
    "coordinates": [
     -79.263936,
     35.227417
    ],
    "type": "Point"
   },
   "properties": {
    "accumulation": 207401.0,
    "bank_slope_deg": 1.34,
    "bank_slope_score": 1.0,
    "bank_slope_source": "nc-dps-lidar-dem03-cross-section",
    "beach_dist_km": 175.91,
    "bridge_proximity_bonus": 0.0,
    "catchment_area_km2": 20.693,
    "channel_width_m": 6.67,
    "channel_width_score": 1.0,
    "composite_score": 47.7216,
    "cso_density": 0.0,
    "ej_index": 0.7359,
    "elevation_m": 69.8583,
    "estuary_dist_km": 292.9,
    "feasibility_score": 54.5455,
    "flood_q10_cfs": 556.82,
    "flow_score": 72.0,
    "flow_velocity_ms": 0.5,
    "generation_score": 22.5578,
    "impact_score": 49.2415,
    "impervious_pct": null,
    "land_ownership": 0.5,
    "lat": 35.2274,
    "litter_complaint_density": 0.0,
    "lon": -79.2639,
    "navigable_dist_m": null,
    "npdes_points": 3,
    "pixel_col": 527.0,
    "pixel_row": 623.0,
    "population_density": 34.8,
    "position_along": 0.9,
    "protected_area_score": 7.0807,
    "rank": 5,
    "road_access_m": 1482.4,
    "road_access_score": 0.3,
    "road_density_km_km2": 0.664,
    "robustness_pct": 54.0,
    "runoff_coeff_C": null,
    "seasonal_cv": null,
    "segment_id": 3,
    "segment_length_m": 7776.9261,
    "stream_order": 3,
    "superfund_score": 0.0,
    "tourism_amenity_density": 0.0,
    "tri_facility_density": 0.0,
    "usgs_mean_q_cfs": null,
    "velocity_feasibility": 1.0,
    "water_intake_score": 0.405
   },
   "type": "Feature"
  },
  {
   "geometry": {
    "coordinates": [
     -79.311038,
     35.259911
    ],
    "type": "Point"
   },
   "properties": {
    "accumulation": 37854.0,
    "bank_slope_deg": 2.97,
    "bank_slope_score": 1.0,
    "bank_slope_source": "nc-dps-lidar-dem03-cross-section",
    "beach_dist_km": 181.51,
    "bridge_proximity_bonus": 0.0,
    "catchment_area_km2": 3.7768,
    "channel_width_m": 3.6,
    "channel_width_score": 1.0,
    "composite_score": 46.726,
    "cso_density": 0.0,
    "ej_index": 0.5139,
    "elevation_m": 79.7893,
    "estuary_dist_km": 297.37,
    "feasibility_score": 63.6364,
    "flood_q10_cfs": 213.09,
    "flow_score": 43.2127,
    "flow_velocity_ms": 0.1268,
    "generation_score": 46.855,
    "impact_score": 41.0694,
    "impervious_pct": 2.61,
    "land_ownership": 0.5,
    "lat": 35.2599,
    "litter_complaint_density": 0.0,
    "lon": -79.311,
    "navigable_dist_m": null,
    "npdes_points": 0,
    "pixel_col": 90.0,
    "pixel_row": 270.0,
    "population_density": 64.2,
    "position_along": 0.5,
    "protected_area_score": 8.1716,
    "rank": 6,
    "road_access_m": 228.4,
    "road_access_score": 0.8,
    "road_density_km_km2": 1.176,
    "robustness_pct": 23.0,
    "runoff_coeff_C": 0.0735,
    "seasonal_cv": 0.4473,
    "segment_id": 0,
    "segment_length_m": 2484.401,
    "stream_order": 3,
    "superfund_score": 0.0,
    "tourism_amenity_density": 0.0,
    "tri_facility_density": 0.0,
    "usgs_mean_q_cfs": 1.963,
    "velocity_feasibility": 0.7,
    "water_intake_score": 0.542
   },
   "type": "Feature"
  },
  {
   "geometry": {
    "coordinates": [
     -79.266811,
     35.262927
    ],
    "type": "Point"
   },
   "properties": {
    "accumulation": 29016.0,
    "bank_slope_deg": 4.02,
    "bank_slope_score": 1.0,
    "bank_slope_source": "nc-dps-lidar-dem03-cross-section",
    "beach_dist_km": 178.65,
    "bridge_proximity_bonus": 0.0,
    "catchment_area_km2": 2.895,
    "channel_width_m": 3.27,
    "channel_width_score": 1.0,
    "composite_score": 46.3294,
    "cso_density": 0.0,
    "ej_index": 0.7834,
    "elevation_m": 78.0708,
    "estuary_dist_km": 293.39,
    "feasibility_score": 63.6364,
    "flood_q10_cfs": 199.4,
    "flow_score": 24.6049,
    "flow_velocity_ms": 0.1351,
    "generation_score": 45.2384,
    "impact_score": 56.8708,
    "impervious_pct": 6.62,
    "land_ownership": 0.5,
    "lat": 35.2629,
    "litter_complaint_density": 0.0,
    "lon": -79.2668,
    "navigable_dist_m": null,
    "npdes_points": 1,
    "pixel_col": 494.0,
    "pixel_row": 228.0,
    "population_density": 26.0,
    "position_along": 0.5,
    "protected_area_score": 6.7417,
    "rank": 7,
    "road_access_m": 320.1,
    "road_access_score": 0.8,
    "road_density_km_km2": 1.709,
    "robustness_pct": 25.5,
    "runoff_coeff_C": 0.1096,
    "seasonal_cv": 0.439,
    "segment_id": 4,
    "segment_length_m": 1205.0245,
    "stream_order": 1,
    "superfund_score": 0.0,
    "tourism_amenity_density": 0.8754,
    "tri_facility_density": 0.0,
    "usgs_mean_q_cfs": 1.458,
    "velocity_feasibility": 0.7,
    "water_intake_score": 0.4308
   },
   "type": "Feature"
  },
  {
   "geometry": {
    "coordinates": [
     -79.303504,
     35.256603
    ],
    "type": "Point"
   },
   "properties": {
    "accumulation": 24908.0,
    "bank_slope_deg": 1.08,
    "bank_slope_score": 1.0,
    "bank_slope_source": "nc-dps-lidar-dem03-cross-section",
    "beach_dist_km": 180.75,
    "bridge_proximity_bonus": 0.0,
    "catchment_area_km2": 2.4851,
    "channel_width_m": 3.09,
    "channel_width_score": 1.0,
    "composite_score": 40.6986,
    "cso_density": 0.0,
    "ej_index": 0.5139,
    "elevation_m": 78.8174,
    "estuary_dist_km": 296.67,
    "feasibility_score": 45.4545,
    "flood_q10_cfs": 158.72,
    "flow_score": 33.8721,
    "flow_velocity_ms": 0.1283,
    "generation_score": 37.5074,
    "impact_score": 47.2005,
    "impervious_pct": 0.75,
    "land_ownership": 0.5,
    "lat": 35.2566,
    "litter_complaint_density": 0.0,
    "lon": -79.3035,
    "navigable_dist_m": null,
    "npdes_points": 0,
    "pixel_col": 158.0,
    "pixel_row": 306.0,
    "population_density": 64.2,
    "position_along": 0.5,
    "protected_area_score": 8.1298,
    "rank": 8,
    "road_access_m": 702.6,
    "road_access_score": 0.6,
    "road_density_km_km2": 1.179,
    "robustness_pct": 0.0,
    "runoff_coeff_C": 0.0568,
    "seasonal_cv": 0.4464,
    "segment_id": 2,
    "segment_length_m": 1391.381,
    "stream_order": 3,
    "superfund_score": 0.0,
    "tourism_amenity_density": 0.557,
    "tri_facility_density": 0.0,
    "usgs_mean_q_cfs": 1.49,
    "velocity_feasibility": 0.7,
    "water_intake_score": 0.5175
   },
   "type": "Feature"
  },
  {
   "geometry": {
    "coordinates": [
     -79.255462,
     35.264581
    ],
    "type": "Point"
   },
   "properties": {
    "accumulation": 26043.0,
    "bank_slope_deg": 10.3,
    "bank_slope_score": 1.0,
    "bank_slope_source": "nc-dps-lidar-dem03-cross-section",
    "beach_dist_km": 177.99,
    "bridge_proximity_bonus": 0.0,
    "catchment_area_km2": 2.5984,
    "channel_width_m": 3.14,
    "channel_width_score": 1.0,
    "composite_score": 30.6506,
    "cso_density": 0.0,
    "ej_index": 0.6626,
    "elevation_m": 74.5625,
    "estuary_dist_km": 292.37,
    "feasibility_score": 81.8182,
    "flood_q10_cfs": 160.21,
    "flow_score": 26.1644,
    "flow_velocity_ms": 0.5,
    "generation_score": 4.6335,
    "impact_score": 34.8224,
    "impervious_pct": null,
    "land_ownership": 0.5,
    "lat": 35.2646,
    "litter_complaint_density": 0.0,
    "lon": -79.2555,
    "navigable_dist_m": null,
    "npdes_points": 0,
    "pixel_col": 596.0,
    "pixel_row": 209.0,
    "population_density": 31.9,
    "position_along": 0.5,
    "protected_area_score": 6.4191,
    "rank": 9,
    "road_access_m": 525.3,
    "road_access_score": 0.6,
    "road_density_km_km2": 0.556,
    "robustness_pct": 0.0,
    "runoff_coeff_C": null,
    "seasonal_cv": null,
    "segment_id": 1,
    "segment_length_m": 2210.2765,
    "stream_order": 1,
    "superfund_score": 0.0,
    "tourism_amenity_density": 0.0,
    "tri_facility_density": 0.0,
    "usgs_mean_q_cfs": null,
    "velocity_feasibility": 1.0,
    "water_intake_score": 0.4085
   },
   "type": "Feature"
  }
 ],
 "note": "GRIME region 'Vass, NC' \u2014 real-data pipeline (DEM\u2192streams\u2192candidates\u2192stream mask (sites confined to \u00b1150 m of mapped OSM/NHD waterways)\u2192region-appropriate real parameters\u2192shipped scoring, math unchanged). Width curve: Bieger et al. 2015 JAWRA Table 3, Atlantic Plain. Flood: SIR 2014-5030 HR4 (I24H50Y: NOAA Atlas 14). NC Coastal Plain (SIR 2014-5030 HR4; I24H50Y from NOAA Atlas 14 at region center)",
 "provenance": {
  "candidates_pre_gate": 9,
  "constant": [
   "bridge_proximity_bonus",
   "channel_width_score",
   "cso_density",
   "land_ownership",
   "litter_complaint_density",
   "superfund_score",
   "tri_facility_density"
  ],
  "gated_navigable": 0,
  "hard_gate_removed": 0,
  "n_parameters": 27,
  "parameters": {
   "bank_slope_score": {
    "kind": "real",
    "n_3dep_10m_fallback": 0,
    "n_nc_lidar_3_125ft": 9,
    "n_real": 9,
    "n_sites": 9,
    "source": "NC OneMap / NC DPS DEM03 statewide lidar-derived 3.125-ft (0.953 m) elevations (perpendicular 50 m transect; robust 5 m bank-rise metric); unavailable profiles use the region 10 m 3DEP DEM-gradient fallback",
    "source_mosaics": [
     "Moore_QL1_2024_03ft_CountywideRaster"
    ]
   },
   "beach_dist_km": {
    "kind": "real",
    "n_real": 9,
    "n_sites": 9,
    "source": "haversine to region ref: Wrightsville Beach (shipped NC reference)"
   },
   "bridge_proximity_bonus": {
    "kind": "real",
    "n_real": 9,
    "n_sites": 9,
    "source": "FHWA/BTS NBI (NTAD), 50 m proximity"
   },
   "catchment_area_km2": {
    "kind": "real",
    "n_real": 9,
    "n_sites": 9,
    "source": "DEM flow accumulation (pipeline)"
   },
   "channel_width_score": {
    "kind": "real",
    "n_real": 9,
    "n_sites": 9,
    "source": "Bieger 2015 APL width curve on DEM drainage area \u2192 shipped width curve"
   },
   "cso_density": {
    "kind": "real",
    "n_real": 9,
    "n_sites": 9,
    "source": "EPA ECHO open CSO/TCS outfall PF coordinates states=NC, Cauchy proximity"
   },
   "ej_index": {
    "kind": "real",
    "n_real": 9,
    "n_sites": 9,
    "source": "Census ACS C17002+B03002 two-component demographic index, percentile-ranked within region"
   },
   "estuary_dist_km": {
    "kind": "real",
    "n_real": 9,
    "n_sites": 9,
    "source": "haversine to region ref: Pamlico Sound (shipped NC reference)"
   },
   "flood_q10_cfs": {
    "impervious_fallback_reason": "StreamCat imperviousness unavailable; the existing regression-input fallback of 0.0% impervious was used and is disclosed here",
    "kind": "real",
    "n_impervious_fallback": 6,
    "n_real": 9,
    "n_sites": 9,
    "source": "USGS SIR 2014-5030 Table 7 HR4 (NC Coastal Plain; I24H50Y from NOAA Atlas 14 at region center)"
   },
   "flow_velocity_ms": {
    "fallback_reason": "EROM/DEM continuity input unavailable; shipped 0.5 m/s default used",
    "kind": "real",
    "n_fallback": 6,
    "n_real": 3,
    "n_sites": 9,
    "source": "Manning (region DEM/D8) blended with EROM continuity (shipped M4 logic)"
   },
   "impervious_pct": {
    "fallback_reason": "NLDI/StreamCat did not return a snap-compatible catchment value; value remains null and is removed by constant-column handling",
    "kind": "real",
    "n_fallback": 6,
    "n_real": 3,
    "n_sites": 9,
    "source": "EPA StreamCat pctimp2019 (per NHDPlus watershed)"
   },
   "land_ownership": {
    "fallback_reason": "no containing parcel owner returned; shipped unknown ownership 0.5 used",
    "kind": "real",
    "n_fallback": 1,
    "n_real": 8,
    "n_sites": 9,
    "source": "NC OneMap statewide parcels (NC Parcels Transformer) ownname"
   },
   "litter_complaint_density": {
    "kind": "fallback",
    "n_real": 0,
    "n_sites": 9,
    "source": "no public machine-readable litter/illegal-dumping feed for this region"
   },
   "navigable_dist_m": {
    "kind": "real",
    "n_real": 9,
    "n_sites": 9,
    "source": "USACE/BTS NWN (NTAD): no navigable segment within this bbox (+2 km) \u2014 computed absence, gate passes all sites"
   },
   "npdes_points": {
    "kind": "real",
    "n_real": 9,
    "n_sites": 9,
    "source": "EPA ECHO active NPDES outfalls states=NC (types NPD/GPC/NGP; statuses ADC/EFF/EXP), per catchment"
   },
   "population_density": {
    "kind": "real",
    "n_real": 9,
    "n_sites": 9,
    "source": "Census ACS 2022 B01003 block groups (bbox, multi-county), area-weighted"
   },
   "protected_area_score": {
    "kind": "real",
    "n_real": 9,
    "n_sites": 9,
    "source": "USGS PAD-US 4.1 state GDB; states=NC; shipped designation-weighted proximity curve"
   },
   "road_access_score": {
    "kind": "real",
    "n_real": 9,
    "n_sites": 9,
    "source": "OSM drive network nearest-node distance"
   },
   "road_density_km_km2": {
    "kind": "real",
    "n_real": 9,
    "n_sites": 9,
    "source": "OSM drive network (osmnx, cached) clipped per catchment"
   },
   "runoff_coeff_C": {
    "fallback_reason": "source impervious_pct was unavailable; derived value remains null",
    "kind": "real",
    "n_fallback": 6,
    "n_real": 3,
    "n_sites": 9,
    "source": "derived from real impervious_pct (C=0.05+0.009*I)"
   },
   "seasonal_cv": {
    "fallback_reason": "NHDPlus monthly EROM was unavailable or failed the drainage-area snap guard; value remains null",
    "kind": "real",
    "n_fallback": 6,
    "n_real": 3,
    "n_sites": 9,
    "source": "CV of NHDPlus EROM monthly flows per COMID"
   },
   "stream_order": {
    "kind": "real",
    "n_real": 9,
    "n_sites": 9,
    "source": "DEM stream-network confluence heuristic (pipeline)"
   },
   "superfund_score": {
    "kind": "real",
    "n_real": 9,
    "n_sites": 9,
    "source": "EPA DataMap SEMS active sites states=NC (non-archived, georeferenced), shipped 500 m inverse-distance curve"
   },
   "tourism_amenity_density": {
    "kind": "real",
    "n_real": 9,
    "n_sites": 9,
    "source": "OSM leisure/tourism features per 2 km radius"
   },
   "tri_facility_density": {
    "kind": "real",
    "n_real": 9,
    "n_sites": 9,
    "source": "EPA DataMap TRI open facilities states=NC (preferred decimal or packed-DMS recovery), per catchment"
   },
   "usgs_mean_q_cfs": {
    "fallback_reason": "NHDPlus EROM was unavailable or failed the drainage-area snap guard; value remains null",
    "kind": "real",
    "n_fallback": 6,
    "n_real": 3,
    "n_sites": 9,
    "source": "NHDPlus EROM qe_ma per COMID (snap-guarded)"
   },
   "velocity_feasibility": {
    "fallback_reason": "derived from the shipped 0.5 m/s velocity fallback",
    "kind": "real",
    "n_fallback": 6,
    "n_real": 3,
    "n_sites": 9,
    "source": "shipped step curve on the computed velocity"
   },
   "velocity_transport_favorability": {
    "fallback_reason": "EROM/DEM continuity input unavailable; shipped 0.5 m/s default used",
    "kind": "derived",
    "n_fallback": 6,
    "n_real": 3,
    "n_sites": 9,
    "source": "scored form of flow_velocity_ms inside the Flow family \u2014 peaked Gaussian exp(-((v-0.9)/0.6)^2), model.json curves.velocity_transport_favorability; construct: transport/delivery favorability, deliberately distinct from velocity_feasibility (device operability)"
   },
   "water_intake_score": {
    "kind": "real",
    "n_real": 9,
    "n_sites": 9,
    "source": "NC OneMap / NC DEQ SWAP public water supply sources (source_typ='Surface Water'), shipped exp(-d/10km) curve"
   }
  },
  "stream_mask": {
   "buffer_m": 150.0,
   "pre_mask": 9,
   "removed": 0,
   "sources": [
    "osm-overpass (all waterway ways)",
    "usgs-nhdplus flowlines"
   ]
  },
  "varying": [
   "bank_slope_score",
   "beach_dist_km",
   "catchment_area_km2",
   "ej_index",
   "estuary_dist_km",
   "flood_q10_cfs",
   "flow_velocity_ms",
   "impervious_pct",
   "npdes_points",
   "population_density",
   "protected_area_score",
   "road_access_score",
   "road_density_km_km2",
   "runoff_coeff_C",
   "seasonal_cv",
   "stream_order",
   "tourism_amenity_density",
   "usgs_mean_q_cfs",
   "velocity_feasibility",
   "water_intake_score"
  ]
 },
 "region": {
  "bbox": [
   -79.3205,
   35.2246,
   -79.2488,
   35.2832
  ],
  "beach_ref": {
   "label": "Wrightsville Beach (shipped NC reference)",
   "lat": 34.21,
   "lon": -77.79
  },
  "center": [
   -79.284645,
   35.253875
  ],
  "estuary_ref": {
   "label": "Pamlico Sound (shipped NC reference)",
   "lat": 35.05,
   "lon": -76.05
  },
  "flood_method": "sir2014_hr4",
  "name": "Vass, NC",
  "notes": "NC Coastal Plain (SIR 2014-5030 HR4; I24H50Y from NOAA Atlas 14 at region center)",
  "slug": "vass",
  "state": "NC",
  "utm_epsg": 32617,
  "width_curve": {
   "a": 2.22,
   "b": 0.363,
   "code": "APL",
   "source": "Bieger et al. 2015 JAWRA Table 3, Atlantic Plain"
  }
 },
 "type": "FeatureCollection"
}
