{
 "features": [
  {
   "geometry": {
    "coordinates": [
     -81.417281,
     35.377772
    ],
    "type": "Point"
   },
   "properties": {
    "accumulation": 36826.0,
    "bank_slope_deg": 2.08,
    "bank_slope_score": 1.0,
    "bank_slope_source": "nc-dps-lidar-dem03-cross-section",
    "beach_dist_km": 355.74,
    "bridge_proximity_bonus": 0.0,
    "catchment_area_km2": 3.6727,
    "channel_width_m": 5.35,
    "channel_width_score": 1.0,
    "composite_score": 49.3292,
    "cso_density": 0.0,
    "ej_index": 0.5317,
    "elevation_m": 254.5487,
    "estuary_dist_km": 488.9,
    "feasibility_score": 18.1818,
    "flood_q10_cfs": 513.83,
    "flow_score": 74.4186,
    "flow_velocity_ms": 0.0411,
    "generation_score": 39.6658,
    "impact_score": 53.6585,
    "impervious_pct": 2.05,
    "land_ownership": 0.5,
    "lat": 35.3778,
    "litter_complaint_density": 0.0,
    "lon": -81.4173,
    "navigable_dist_m": null,
    "npdes_points": 0,
    "pixel_col": 310.0,
    "pixel_row": 31.0,
    "population_density": 83.4,
    "position_along": 0.5,
    "protected_area_score": 6.4621,
    "rank": 1,
    "road_access_m": 571.0,
    "road_access_score": 0.6,
    "road_density_km_km2": 0.375,
    "robustness_pct": 100.0,
    "runoff_coeff_C": 0.0684,
    "seasonal_cv": 0.4198,
    "segment_id": 0,
    "segment_length_m": 707.7468,
    "stream_order": 1,
    "superfund_score": 0.0,
    "tourism_amenity_density": 0.0,
    "tri_facility_density": 0.0,
    "usgs_mean_q_cfs": 8.121,
    "velocity_feasibility": 0.3,
    "water_intake_score": 2.5467
   },
   "type": "Feature"
  },
  {
   "geometry": {
    "coordinates": [
     -81.409849,
     35.353072
    ],
    "type": "Point"
   },
   "properties": {
    "accumulation": 28877.0,
    "bank_slope_deg": 24.28,
    "bank_slope_score": 0.5,
    "bank_slope_source": "nc-dps-lidar-dem03-cross-section",
    "beach_dist_km": 354.16,
    "bridge_proximity_bonus": 0.0,
    "catchment_area_km2": 2.8799,
    "channel_width_m": 4.84,
    "channel_width_score": 1.0,
    "composite_score": 48.1808,
    "cso_density": 0.0,
    "ej_index": 0.5441,
    "elevation_m": 239.4276,
    "estuary_dist_km": 488.1,
    "feasibility_score": 36.3636,
    "flood_q10_cfs": 427.79,
    "flow_score": 54.2715,
    "flow_velocity_ms": 0.1024,
    "generation_score": 14.8794,
    "impact_score": 82.3151,
    "impervious_pct": 2.05,
    "land_ownership": 0.5,
    "lat": 35.3531,
    "litter_complaint_density": 0.0,
    "lon": -81.4098,
    "navigable_dist_m": null,
    "npdes_points": 0,
    "pixel_col": 379.0,
    "pixel_row": 310.0,
    "population_density": 60.9,
    "position_along": 0.5,
    "protected_area_score": 6.0232,
    "rank": 2,
    "road_access_m": 857.9,
    "road_access_score": 0.6,
    "road_density_km_km2": 0.291,
    "robustness_pct": 100.0,
    "runoff_coeff_C": 0.0684,
    "seasonal_cv": 0.4198,
    "segment_id": 1,
    "segment_length_m": 976.0858,
    "stream_order": 1,
    "superfund_score": 0.0,
    "tourism_amenity_density": 0.0,
    "tri_facility_density": 0.0,
    "usgs_mean_q_cfs": 8.121,
    "velocity_feasibility": 0.7,
    "water_intake_score": 2.5452
   },
   "type": "Feature"
  },
  {
   "geometry": {
    "coordinates": [
     -81.425387,
     35.349465
    ],
    "type": "Point"
   },
   "properties": {
    "accumulation": 27917.0,
    "bank_slope_deg": 18.72,
    "bank_slope_score": 0.5,
    "bank_slope_source": "nc-dps-lidar-dem03-cross-section",
    "beach_dist_km": 355.35,
    "bridge_proximity_bonus": 0.0,
    "catchment_area_km2": 2.7842,
    "channel_width_m": 4.77,
    "channel_width_score": 1.0,
    "composite_score": 41.2633,
    "cso_density": 0.0,
    "ej_index": 0.5369,
    "elevation_m": 249.8538,
    "estuary_dist_km": 489.5,
    "feasibility_score": 81.8182,
    "flood_q10_cfs": 422.17,
    "flow_score": 25.5814,
    "flow_velocity_ms": 0.1211,
    "generation_score": 62.5,
    "impact_score": 12.8176,
    "impervious_pct": 2.75,
    "land_ownership": 0.5,
    "lat": 35.3495,
    "litter_complaint_density": 0.0,
    "lon": -81.4254,
    "navigable_dist_m": null,
    "npdes_points": 0,
    "pixel_col": 237.0,
    "pixel_row": 349.0,
    "population_density": 46.1,
    "position_along": 0.5,
    "protected_area_score": 5.9499,
    "rank": 3,
    "road_access_m": 446.7,
    "road_access_score": 0.8,
    "road_density_km_km2": 1.099,
    "robustness_pct": 100.0,
    "runoff_coeff_C": 0.0747,
    "seasonal_cv": 0.4209,
    "segment_id": 2,
    "segment_length_m": 1168.2532,
    "stream_order": 1,
    "superfund_score": 0.0,
    "tourism_amenity_density": 0.0,
    "tri_facility_density": 0.0,
    "usgs_mean_q_cfs": 6.269,
    "velocity_feasibility": 0.7,
    "water_intake_score": 2.505
   },
   "type": "Feature"
  }
 ],
 "note": "GRIME region 'Waco, NC' \u2014 real-data pipeline (DEM\u2192streams\u2192candidates\u2192stream mask (sites confined to \u00b1150 m of mapped OSM/NHD waterways)\u2192region-appropriate real parameters\u2192shipped scoring, math unchanged). Width curve: Bieger et al. 2015 JAWRA Table 3, Appalachian Highlands. Flood: SIR 2014-5030 HR1. NC Piedmont (DEQ physiography polygon)",
 "provenance": {
  "candidates_pre_gate": 3,
  "constant": [
   "bridge_proximity_bonus",
   "channel_width_score",
   "cso_density",
   "land_ownership",
   "litter_complaint_density",
   "npdes_points",
   "stream_order",
   "superfund_score",
   "tourism_amenity_density",
   "tri_facility_density"
  ],
  "gated_navigable": 0,
  "hard_gate_removed": 0,
  "n_parameters": 27,
  "parameters": {
   "bank_slope_score": {
    "kind": "real",
    "n_3dep_10m_fallback": 0,
    "n_nc_lidar_3_125ft": 3,
    "n_real": 3,
    "n_sites": 3,
    "source": "NC OneMap / NC DPS DEM03 statewide lidar-derived 3.125-ft (0.953 m) elevations (perpendicular 50 m transect; robust 5 m bank-rise metric); unavailable profiles use the region 10 m 3DEP DEM-gradient fallback",
    "source_mosaics": [
     "Cleveland_Ground_3ft"
    ]
   },
   "beach_dist_km": {
    "kind": "real",
    "n_real": 3,
    "n_sites": 3,
    "source": "haversine to region ref: Wrightsville Beach (shipped NC reference)"
   },
   "bridge_proximity_bonus": {
    "kind": "real",
    "n_real": 3,
    "n_sites": 3,
    "source": "FHWA/BTS NBI (NTAD), 50 m proximity"
   },
   "catchment_area_km2": {
    "kind": "real",
    "n_real": 3,
    "n_sites": 3,
    "source": "DEM flow accumulation (pipeline)"
   },
   "channel_width_score": {
    "kind": "real",
    "n_real": 3,
    "n_sites": 3,
    "source": "Bieger 2015 AHI width curve on DEM drainage area \u2192 shipped width curve"
   },
   "cso_density": {
    "kind": "real",
    "n_real": 3,
    "n_sites": 3,
    "source": "EPA ECHO open CSO/TCS outfall PF coordinates states=NC, Cauchy proximity"
   },
   "ej_index": {
    "kind": "real",
    "n_real": 3,
    "n_sites": 3,
    "source": "Census ACS C17002+B03002 two-component demographic index, percentile-ranked within region"
   },
   "estuary_dist_km": {
    "kind": "real",
    "n_real": 3,
    "n_sites": 3,
    "source": "haversine to region ref: Pamlico Sound (shipped NC reference)"
   },
   "flood_q10_cfs": {
    "kind": "real",
    "n_real": 3,
    "n_sites": 3,
    "source": "USGS SIR 2014-5030 Table 7 HR1 (NC Piedmont)"
   },
   "flow_velocity_ms": {
    "kind": "real",
    "n_fallback": 0,
    "n_real": 3,
    "n_sites": 3,
    "source": "Manning (region DEM/D8) blended with EROM continuity (shipped M4 logic)"
   },
   "impervious_pct": {
    "kind": "real",
    "n_real": 3,
    "n_sites": 3,
    "source": "EPA StreamCat pctimp2019 (per NHDPlus watershed)"
   },
   "land_ownership": {
    "kind": "real",
    "n_fallback": 0,
    "n_real": 3,
    "n_sites": 3,
    "source": "NC OneMap statewide parcels (NC Parcels Transformer) ownname"
   },
   "litter_complaint_density": {
    "kind": "fallback",
    "n_real": 0,
    "n_sites": 3,
    "source": "no public machine-readable litter/illegal-dumping feed for this region"
   },
   "navigable_dist_m": {
    "kind": "real",
    "n_real": 3,
    "n_sites": 3,
    "source": "USACE/BTS NWN (NTAD): no navigable segment within this bbox (+2 km) \u2014 computed absence, gate passes all sites"
   },
   "npdes_points": {
    "kind": "real",
    "n_real": 3,
    "n_sites": 3,
    "source": "EPA ECHO active NPDES outfalls states=NC (types NPD/GPC/NGP; statuses ADC/EFF/EXP), per catchment"
   },
   "population_density": {
    "kind": "real",
    "n_real": 3,
    "n_sites": 3,
    "source": "Census ACS 2022 B01003 block groups (bbox, multi-county), area-weighted"
   },
   "protected_area_score": {
    "kind": "real",
    "n_real": 3,
    "n_sites": 3,
    "source": "USGS PAD-US 4.1 state GDB; states=NC; shipped designation-weighted proximity curve"
   },
   "road_access_score": {
    "kind": "real",
    "n_real": 3,
    "n_sites": 3,
    "source": "OSM drive network nearest-node distance"
   },
   "road_density_km_km2": {
    "kind": "real",
    "n_real": 3,
    "n_sites": 3,
    "source": "OSM drive network (osmnx, cached) clipped per catchment"
   },
   "runoff_coeff_C": {
    "kind": "real",
    "n_real": 3,
    "n_sites": 3,
    "source": "derived from real impervious_pct (C=0.05+0.009*I)"
   },
   "seasonal_cv": {
    "kind": "real",
    "n_real": 3,
    "n_sites": 3,
    "source": "CV of NHDPlus EROM monthly flows per COMID"
   },
   "stream_order": {
    "kind": "real",
    "n_real": 3,
    "n_sites": 3,
    "source": "DEM stream-network confluence heuristic (pipeline)"
   },
   "superfund_score": {
    "kind": "real",
    "n_real": 3,
    "n_sites": 3,
    "source": "EPA DataMap SEMS active sites states=NC (non-archived, georeferenced), shipped 500 m inverse-distance curve"
   },
   "tourism_amenity_density": {
    "kind": "fallback",
    "n_real": 0,
    "n_sites": 3,
    "source": "OSM leisure/tourism query unavailable \u2014 documented fallback"
   },
   "tri_facility_density": {
    "kind": "real",
    "n_real": 3,
    "n_sites": 3,
    "source": "EPA DataMap TRI open facilities states=NC (preferred decimal or packed-DMS recovery), per catchment"
   },
   "usgs_mean_q_cfs": {
    "kind": "real",
    "n_real": 3,
    "n_sites": 3,
    "source": "NHDPlus EROM qe_ma per COMID (snap-guarded)"
   },
   "velocity_feasibility": {
    "kind": "real",
    "n_fallback": 0,
    "n_real": 3,
    "n_sites": 3,
    "source": "shipped step curve on the computed velocity"
   },
   "velocity_transport_favorability": {
    "kind": "derived",
    "n_real": 3,
    "n_sites": 3,
    "source": "scored form of flow_velocity_ms inside the Flow family \u2014 peaked Gaussian exp(-((v-0.9)/0.6)^2), model.json curves.velocity_transport_favorability; construct: transport/delivery favorability, deliberately distinct from velocity_feasibility (device operability)"
   },
   "water_intake_score": {
    "kind": "real",
    "n_real": 3,
    "n_sites": 3,
    "source": "NC OneMap / NC DEQ SWAP public water supply sources (source_typ='Surface Water'), shipped exp(-d/10km) curve"
   }
  },
  "stream_mask": {
   "buffer_m": 150.0,
   "pre_mask": 3,
   "removed": 0,
   "sources": [
    "osm-overpass (all waterway ways)",
    "usgs-nhdplus flowlines"
   ]
  },
  "varying": [
   "bank_slope_score",
   "beach_dist_km",
   "catchment_area_km2",
   "ej_index",
   "estuary_dist_km",
   "flood_q10_cfs",
   "flow_velocity_ms",
   "impervious_pct",
   "population_density",
   "protected_area_score",
   "road_access_score",
   "road_density_km_km2",
   "runoff_coeff_C",
   "seasonal_cv",
   "usgs_mean_q_cfs",
   "velocity_feasibility",
   "water_intake_score"
  ]
 },
 "region": {
  "bbox": [
   -81.4514,
   35.3446,
   -81.4072,
   35.3807
  ],
  "beach_ref": {
   "label": "Wrightsville Beach (shipped NC reference)",
   "lat": 34.21,
   "lon": -77.79
  },
  "center": [
   -81.429329,
   35.362648
  ],
  "estuary_ref": {
   "label": "Pamlico Sound (shipped NC reference)",
   "lat": 35.05,
   "lon": -76.05
  },
  "flood_method": "sir2014_hr1",
  "name": "Waco, NC",
  "notes": "NC Piedmont (DEQ physiography polygon)",
  "slug": "waco",
  "state": "NC",
  "utm_epsg": 32617,
  "width_curve": {
   "a": 3.12,
   "b": 0.415,
   "code": "AHI",
   "source": "Bieger et al. 2015 JAWRA Table 3, Appalachian Highlands"
  }
 },
 "type": "FeatureCollection"
}
