{
 "features": [
  {
   "geometry": {
    "coordinates": [
     -80.051635,
     34.962222
    ],
    "type": "Point"
   },
   "properties": {
    "accumulation": 50542.0,
    "bank_slope_deg": 10.54,
    "bank_slope_score": 1.0,
    "bank_slope_source": "nc-dps-lidar-dem03-cross-section",
    "beach_dist_km": 223.29,
    "bridge_proximity_bonus": 0.2,
    "catchment_area_km2": 5.0448,
    "channel_width_m": 6.11,
    "channel_width_score": 1.0,
    "composite_score": 56.857,
    "cso_density": 0.0,
    "ej_index": 0.7216,
    "elevation_m": 98.0284,
    "estuary_dist_km": 364.57,
    "feasibility_score": 89.2857,
    "flood_q10_cfs": 861.93,
    "flow_score": 36.652,
    "flow_velocity_ms": 0.1041,
    "generation_score": 53.5488,
    "impact_score": 60.7883,
    "impervious_pct": 17.94,
    "land_ownership": 1.0,
    "lat": 34.9622,
    "litter_complaint_density": 0.0,
    "lon": -80.0516,
    "navigable_dist_m": null,
    "npdes_points": 0,
    "pixel_col": 673.0,
    "pixel_row": 477.0,
    "population_density": 179.0,
    "position_along": 0.5,
    "protected_area_score": 2.4729,
    "rank": 1,
    "road_access_m": 70.2,
    "road_access_score": 1.0,
    "road_density_km_km2": 3.926,
    "robustness_pct": 100.0,
    "runoff_coeff_C": 0.2115,
    "seasonal_cv": 0.4457,
    "segment_id": 11,
    "segment_length_m": 494.1004,
    "stream_order": 3,
    "superfund_score": 0.135,
    "tourism_amenity_density": 0.3183,
    "tri_facility_density": 0.1982,
    "usgs_mean_q_cfs": 2.526,
    "velocity_feasibility": 0.7,
    "water_intake_score": 0.7887
   },
   "type": "Feature"
  },
  {
   "geometry": {
    "coordinates": [
     -80.044808,
     34.962619
    ],
    "type": "Point"
   },
   "properties": {
    "accumulation": 79660.0,
    "bank_slope_deg": 9.36,
    "bank_slope_score": 1.0,
    "bank_slope_source": "nc-dps-lidar-dem03-cross-section",
    "beach_dist_km": 222.73,
    "bridge_proximity_bonus": 0.0,
    "catchment_area_km2": 7.9512,
    "channel_width_m": 7.38,
    "channel_width_score": 1.0,
    "composite_score": 54.7324,
    "cso_density": 0.0,
    "ej_index": 0.7648,
    "elevation_m": 95.7406,
    "estuary_dist_km": 363.95,
    "feasibility_score": 58.0357,
    "flood_q10_cfs": 1135.61,
    "flow_score": 46.1671,
    "flow_velocity_ms": 0.119,
    "generation_score": 49.4649,
    "impact_score": 65.4862,
    "impervious_pct": 16.76,
    "land_ownership": 0.5,
    "lat": 34.9626,
    "litter_complaint_density": 0.0,
    "lon": -80.0448,
    "navigable_dist_m": null,
    "npdes_points": 1,
    "pixel_col": 736.0,
    "pixel_row": 470.0,
    "population_density": 121.3,
    "position_along": 0.5,
    "protected_area_score": 2.4633,
    "rank": 2,
    "road_access_m": 125.7,
    "road_access_score": 1.0,
    "road_density_km_km2": 2.775,
    "robustness_pct": 100.0,
    "runoff_coeff_C": 0.2008,
    "seasonal_cv": 0.4539,
    "segment_id": 13,
    "segment_length_m": 1003.3339,
    "stream_order": 3,
    "superfund_score": 0.0911,
    "tourism_amenity_density": 0.3183,
    "tri_facility_density": 0.2515,
    "usgs_mean_q_cfs": 3.757,
    "velocity_feasibility": 0.7,
    "water_intake_score": 0.8262
   },
   "type": "Feature"
  },
  {
   "geometry": {
    "coordinates": [
     -80.051342,
     34.960628
    ],
    "type": "Point"
   },
   "properties": {
    "accumulation": 21792.0,
    "bank_slope_deg": 7.03,
    "bank_slope_score": 1.0,
    "bank_slope_source": "nc-dps-lidar-dem03-cross-section",
    "beach_dist_km": 223.2,
    "bridge_proximity_bonus": 0.0,
    "catchment_area_km2": 2.1752,
    "channel_width_m": 4.31,
    "channel_width_score": 1.0,
    "composite_score": 52.1087,
    "cso_density": 0.0,
    "ej_index": 0.6934,
    "elevation_m": 98.6517,
    "estuary_dist_km": 364.55,
    "feasibility_score": 58.0357,
    "flood_q10_cfs": 439.74,
    "flow_score": 25.1059,
    "flow_velocity_ms": 0.1144,
    "generation_score": 65.3984,
    "impact_score": 58.358,
    "impervious_pct": 15.71,
    "land_ownership": 0.5,
    "lat": 34.9606,
    "litter_complaint_density": 0.0,
    "lon": -80.0513,
    "navigable_dist_m": null,
    "npdes_points": 0,
    "pixel_col": 673.0,
    "pixel_row": 490.0,
    "population_density": 171.3,
    "position_along": 0.5,
    "protected_area_score": 2.4658,
    "rank": 3,
    "road_access_m": 135.5,
    "road_access_score": 1.0,
    "road_density_km_km2": 4.735,
    "robustness_pct": 82.0,
    "runoff_coeff_C": 0.1914,
    "seasonal_cv": 0.4336,
    "segment_id": 12,
    "segment_length_m": 496.5245,
    "stream_order": 3,
    "superfund_score": 0.1082,
    "tourism_amenity_density": 0.3183,
    "tri_facility_density": 0.4597,
    "usgs_mean_q_cfs": 1.128,
    "velocity_feasibility": 0.7,
    "water_intake_score": 0.7856
   },
   "type": "Feature"
  },
  {
   "geometry": {
    "coordinates": [
     -80.057852,
     34.963432
    ],
    "type": "Point"
   },
   "properties": {
    "accumulation": 23839.0,
    "bank_slope_deg": 1.84,
    "bank_slope_score": 1.0,
    "bank_slope_source": "nc-dps-lidar-dem03-cross-section",
    "beach_dist_km": 223.87,
    "bridge_proximity_bonus": 0.0,
    "catchment_area_km2": 2.3795,
    "channel_width_m": 4.47,
    "channel_width_score": 1.0,
    "composite_score": 51.1569,
    "cso_density": 0.0,
    "ej_index": 0.6106,
    "elevation_m": 106.9035,
    "estuary_dist_km": 365.13,
    "feasibility_score": 58.0357,
    "flood_q10_cfs": 551.74,
    "flow_score": 29.0762,
    "flow_velocity_ms": 0.1241,
    "generation_score": 61.5385,
    "impact_score": 55.7365,
    "impervious_pct": 24.81,
    "land_ownership": 0.5,
    "lat": 34.9634,
    "litter_complaint_density": 0.0,
    "lon": -80.0579,
    "navigable_dist_m": null,
    "npdes_points": 0,
    "pixel_col": 616.0,
    "pixel_row": 462.0,
    "population_density": 247.4,
    "position_along": 0.5,
    "protected_area_score": 2.5261,
    "rank": 4,
    "road_access_m": 54.0,
    "road_access_score": 1.0,
    "road_density_km_km2": 5.853,
    "robustness_pct": 64.0,
    "runoff_coeff_C": 0.2733,
    "seasonal_cv": 0.4355,
    "segment_id": 10,
    "segment_length_m": 853.4728,
    "stream_order": 3,
    "superfund_score": 0.1905,
    "tourism_amenity_density": 0.4775,
    "tri_facility_density": 0.0,
    "usgs_mean_q_cfs": 1.318,
    "velocity_feasibility": 0.7,
    "water_intake_score": 0.7609
   },
   "type": "Feature"
  },
  {
   "geometry": {
    "coordinates": [
     -80.031005,
     34.95011
    ],
    "type": "Point"
   },
   "properties": {
    "accumulation": 177248.0,
    "bank_slope_deg": 22.59,
    "bank_slope_score": 0.5,
    "bank_slope_source": "nc-dps-lidar-dem03-cross-section",
    "beach_dist_km": 221.05,
    "bridge_proximity_bonus": 0.0,
    "catchment_area_km2": 17.692,
    "channel_width_m": 10.28,
    "channel_width_score": 1.0,
    "composite_score": 50.3412,
    "cso_density": 0.0,
    "ej_index": 0.7891,
    "elevation_m": 88.1581,
    "estuary_dist_km": 362.76,
    "feasibility_score": 27.6786,
    "flood_q10_cfs": 1586.36,
    "flow_score": 72.6369,
    "flow_velocity_ms": 0.1166,
    "generation_score": 25.4833,
    "impact_score": 67.9505,
    "impervious_pct": 8.89,
    "land_ownership": 0.5,
    "lat": 34.9501,
    "litter_complaint_density": 0.0,
    "lon": -80.031,
    "navigable_dist_m": null,
    "npdes_points": 1,
    "pixel_col": 863.0,
    "pixel_row": 608.0,
    "population_density": 63.8,
    "position_along": 0.5,
    "protected_area_score": 2.4507,
    "rank": 5,
    "road_access_m": 598.8,
    "road_access_score": 0.6,
    "road_density_km_km2": 1.254,
    "robustness_pct": 65.5,
    "runoff_coeff_C": 0.13,
    "seasonal_cv": 0.4766,
    "segment_id": 17,
    "segment_length_m": 1730.0613,
    "stream_order": 3,
    "superfund_score": 0.0217,
    "tourism_amenity_density": 0.0796,
    "tri_facility_density": 0.113,
    "usgs_mean_q_cfs": 8.547,
    "velocity_feasibility": 0.7,
    "water_intake_score": 0.8635
   },
   "type": "Feature"
  },
  {
   "geometry": {
    "coordinates": [
     -80.040073,
     34.957358
    ],
    "type": "Point"
   },
   "properties": {
    "accumulation": 143567.0,
    "bank_slope_deg": 15.52,
    "bank_slope_score": 0.5,
    "bank_slope_source": "nc-dps-lidar-dem03-cross-section",
    "beach_dist_km": 222.11,
    "bridge_proximity_bonus": 0.0,
    "catchment_area_km2": 14.3301,
    "channel_width_m": 9.42,
    "channel_width_score": 1.0,
    "composite_score": 49.8094,
    "cso_density": 0.0,
    "ej_index": 0.7697,
    "elevation_m": 92.4766,
    "estuary_dist_km": 363.54,
    "feasibility_score": 27.6786,
    "flood_q10_cfs": 1452.53,
    "flow_score": 63.446,
    "flow_velocity_ms": 0.134,
    "generation_score": 33.8392,
    "impact_score": 65.4812,
    "impervious_pct": 10.96,
    "land_ownership": 0.5,
    "lat": 34.9574,
    "litter_complaint_density": 0.0,
    "lon": -80.0401,
    "navigable_dist_m": null,
    "npdes_points": 1,
    "pixel_col": 778.0,
    "pixel_row": 529.0,
    "population_density": 91.7,
    "position_along": 0.5,
    "protected_area_score": 2.3903,
    "rank": 6,
    "road_access_m": 590.3,
    "road_access_score": 0.6,
    "road_density_km_km2": 2.25,
    "robustness_pct": 66.5,
    "runoff_coeff_C": 0.1486,
    "seasonal_cv": 0.4699,
    "segment_id": 14,
    "segment_length_m": 1121.5086,
    "stream_order": 3,
    "superfund_score": 0.0461,
    "tourism_amenity_density": 0.3183,
    "tri_facility_density": 0.1396,
    "usgs_mean_q_cfs": 6.675,
    "velocity_feasibility": 0.7,
    "water_intake_score": 0.8362
   },
   "type": "Feature"
  },
  {
   "geometry": {
    "coordinates": [
     -80.055077,
     34.965759
    ],
    "type": "Point"
   },
   "properties": {
    "accumulation": 22709.0,
    "bank_slope_deg": 13.81,
    "bank_slope_score": 1.0,
    "bank_slope_source": "nc-dps-lidar-dem03-cross-section",
    "beach_dist_km": 223.72,
    "bridge_proximity_bonus": 0.0,
    "catchment_area_km2": 2.2667,
    "channel_width_m": 4.38,
    "channel_width_score": 1.0,
    "composite_score": 44.2697,
    "cso_density": 0.0,
    "ej_index": 0.6884,
    "elevation_m": 101.7817,
    "estuary_dist_km": 364.87,
    "feasibility_score": 43.75,
    "flood_q10_cfs": 410.62,
    "flow_score": 22.1008,
    "flow_velocity_ms": 0.0341,
    "generation_score": 43.6836,
    "impact_score": 63.5898,
    "impervious_pct": 10.02,
    "land_ownership": 0.5,
    "lat": 34.9658,
    "litter_complaint_density": 0.0,
    "lon": -80.0551,
    "navigable_dist_m": null,
    "npdes_points": 0,
    "pixel_col": 640.0,
    "pixel_row": 438.0,
    "population_density": 241.4,
    "position_along": 0.5,
    "protected_area_score": 2.6089,
    "rank": 7,
    "road_access_m": 104.2,
    "road_access_score": 1.0,
    "road_density_km_km2": 4.945,
    "robustness_pct": 13.0,
    "runoff_coeff_C": 0.1402,
    "seasonal_cv": 0.4342,
    "segment_id": 9,
    "segment_length_m": 719.4549,
    "stream_order": 3,
    "superfund_score": 0.2818,
    "tourism_amenity_density": 0.3183,
    "tri_facility_density": 0.0,
    "usgs_mean_q_cfs": 1.155,
    "velocity_feasibility": 0.3,
    "water_intake_score": 0.7811
   },
   "type": "Feature"
  },
  {
   "geometry": {
    "coordinates": [
     -80.034016,
     34.968283
    ],
    "type": "Point"
   },
   "properties": {
    "accumulation": 38576.0,
    "bank_slope_deg": 22.49,
    "bank_slope_score": 0.5,
    "bank_slope_source": "nc-dps-lidar-dem03-cross-section",
    "beach_dist_km": 222.04,
    "bridge_proximity_bonus": 0.0,
    "catchment_area_km2": 3.8505,
    "channel_width_m": 5.46,
    "channel_width_score": 1.0,
    "composite_score": 41.6462,
    "cso_density": 0.0,
    "ej_index": 0.775,
    "elevation_m": 98.7498,
    "estuary_dist_km": 362.94,
    "feasibility_score": 36.6071,
    "flood_q10_cfs": 544.81,
    "flow_score": 27.563,
    "flow_velocity_ms": 0.0793,
    "generation_score": 27.3656,
    "impact_score": 70.1822,
    "impervious_pct": 3.36,
    "land_ownership": 0.5,
    "lat": 34.9683,
    "litter_complaint_density": 0.0,
    "lon": -80.034,
    "navigable_dist_m": null,
    "npdes_points": 1,
    "pixel_col": 833.0,
    "pixel_row": 408.0,
    "population_density": 57.2,
    "position_along": 0.5,
    "protected_area_score": 2.5537,
    "rank": 8,
    "road_access_m": 486.4,
    "road_access_score": 0.8,
    "road_density_km_km2": 1.652,
    "robustness_pct": 3.0,
    "runoff_coeff_C": 0.0802,
    "seasonal_cv": 0.4457,
    "segment_id": 5,
    "segment_length_m": 2441.9496,
    "stream_order": 3,
    "superfund_score": 0.052,
    "tourism_amenity_density": 0.0796,
    "tri_facility_density": 0.2597,
    "usgs_mean_q_cfs": 2.24,
    "velocity_feasibility": 0.7,
    "water_intake_score": 0.9055
   },
   "type": "Feature"
  },
  {
   "geometry": {
    "coordinates": [
     -80.083341,
     35.002374
    ],
    "type": "Point"
   },
   "properties": {
    "accumulation": 68560.0,
    "bank_slope_deg": 25.18,
    "bank_slope_score": 0.5,
    "bank_slope_source": "nc-dps-lidar-dem03-cross-section",
    "beach_dist_km": 227.63,
    "bridge_proximity_bonus": 0.0,
    "catchment_area_km2": 6.8433,
    "channel_width_m": 6.93,
    "channel_width_score": 1.0,
    "composite_score": 41.2386,
    "cso_density": 0.0,
    "ej_index": 0.7836,
    "elevation_m": 79.9628,
    "estuary_dist_km": 367.28,
    "feasibility_score": 36.6071,
    "flood_q10_cfs": 848.17,
    "flow_score": 43.0474,
    "flow_velocity_ms": 0.0867,
    "generation_score": 21.4159,
    "impact_score": 61.8696,
    "impervious_pct": 3.89,
    "land_ownership": 0.5,
    "lat": 35.0024,
    "litter_complaint_density": 0.0,
    "lon": -80.0833,
    "navigable_dist_m": null,
    "npdes_points": 6,
    "pixel_col": 376.0,
    "pixel_row": 29.0,
    "population_density": 9.4,
    "position_along": 0.5,
    "protected_area_score": 3.0188,
    "rank": 9,
    "road_access_m": 448.4,
    "road_access_score": 0.8,
    "road_density_km_km2": 0.896,
    "robustness_pct": 2.5,
    "runoff_coeff_C": 0.085,
    "seasonal_cv": 0.4771,
    "segment_id": 4,
    "segment_length_m": 760.1279,
    "stream_order": 3,
    "superfund_score": 0.0224,
    "tourism_amenity_density": 0.8754,
    "tri_facility_density": 0.0,
    "usgs_mean_q_cfs": 5.756,
    "velocity_feasibility": 0.7,
    "water_intake_score": 0.7415
   },
   "type": "Feature"
  },
  {
   "geometry": {
    "coordinates": [
     -80.03774,
     34.953735
    ],
    "type": "Point"
   },
   "properties": {
    "accumulation": 22049.0,
    "bank_slope_deg": 13.27,
    "bank_slope_score": 1.0,
    "bank_slope_source": "nc-dps-lidar-dem03-cross-section",
    "beach_dist_km": 221.77,
    "bridge_proximity_bonus": 0.0,
    "catchment_area_km2": 2.2008,
    "channel_width_m": 4.33,
    "channel_width_score": 1.0,
    "composite_score": 37.0176,
    "cso_density": 0.0,
    "ej_index": 0.8,
    "elevation_m": 91.2464,
    "estuary_dist_km": 363.35,
    "feasibility_score": 58.0357,
    "flood_q10_cfs": 354.3,
    "flow_score": 21.1554,
    "flow_velocity_ms": 0.0992,
    "generation_score": 9.8835,
    "impact_score": 66.8612,
    "impervious_pct": 2.86,
    "land_ownership": 0.5,
    "lat": 34.9537,
    "litter_complaint_density": 0.0,
    "lon": -80.0377,
    "navigable_dist_m": null,
    "npdes_points": 0,
    "pixel_col": 801.0,
    "pixel_row": 567.0,
    "population_density": 57.0,
    "position_along": 0.5,
    "protected_area_score": 2.4077,
    "rank": 10,
    "road_access_m": 172.8,
    "road_access_score": 1.0,
    "road_density_km_km2": 1.038,
    "robustness_pct": 2.0,
    "runoff_coeff_C": 0.0757,
    "seasonal_cv": 0.4325,
    "segment_id": 16,
    "segment_length_m": 195.3824,
    "stream_order": 3,
    "superfund_score": 0.0333,
    "tourism_amenity_density": 0.2387,
    "tri_facility_density": 0.0,
    "usgs_mean_q_cfs": 1.07,
    "velocity_feasibility": 0.7,
    "water_intake_score": 0.8374
   },
   "type": "Feature"
  },
  {
   "geometry": {
    "coordinates": [
     -80.058147,
     34.929778
    ],
    "type": "Point"
   },
   "properties": {
    "accumulation": 93680.0,
    "bank_slope_deg": 16.65,
    "bank_slope_score": 0.5,
    "bank_slope_source": "nc-dps-lidar-dem03-cross-section",
    "beach_dist_km": 222.56,
    "bridge_proximity_bonus": 0.0,
    "catchment_area_km2": 9.3507,
    "channel_width_m": 7.89,
    "channel_width_score": 1.0,
    "composite_score": 36.5631,
    "cso_density": 0.0,
    "ej_index": 0.7982,
    "elevation_m": 90.8784,
    "estuary_dist_km": 365.35,
    "feasibility_score": 27.6786,
    "flood_q10_cfs": 1081.56,
    "flow_score": 48.4506,
    "flow_velocity_ms": 0.1225,
    "generation_score": 18.212,
    "impact_score": 49.4503,
    "impervious_pct": 6.73,
    "land_ownership": 0.5,
    "lat": 34.9298,
    "litter_complaint_density": 0.0,
    "lon": -80.0581,
    "navigable_dist_m": null,
    "npdes_points": 0,
    "pixel_col": 616.0,
    "pixel_row": 837.0,
    "population_density": 56.6,
    "position_along": 0.75,
    "protected_area_score": 2.2782,
    "rank": 11,
    "road_access_m": 926.2,
    "road_access_score": 0.6,
    "road_density_km_km2": 0.582,
    "robustness_pct": 1.5,
    "runoff_coeff_C": 0.1106,
    "seasonal_cv": 0.4616,
    "segment_id": 21,
    "segment_length_m": 3877.0153,
    "stream_order": 3,
    "superfund_score": 0.0121,
    "tourism_amenity_density": 0.1592,
    "tri_facility_density": 0.1069,
    "usgs_mean_q_cfs": 5.051,
    "velocity_feasibility": 0.7,
    "water_intake_score": 0.6574
   },
   "type": "Feature"
  },
  {
   "geometry": {
    "coordinates": [
     -80.082516,
     34.996409
    ],
    "type": "Point"
   },
   "properties": {
    "accumulation": 31197.0,
    "bank_slope_deg": 14.28,
    "bank_slope_score": 1.0,
    "bank_slope_source": "nc-dps-lidar-dem03-cross-section",
    "beach_dist_km": 227.31,
    "bridge_proximity_bonus": 0.0,
    "catchment_area_km2": 3.1139,
    "channel_width_m": 5.0,
    "channel_width_score": 1.0,
    "composite_score": 35.6409,
    "cso_density": 0.0,
    "ej_index": 0.7625,
    "elevation_m": 83.7361,
    "estuary_dist_km": 367.22,
    "feasibility_score": 58.0357,
    "flood_q10_cfs": 477.19,
    "flow_score": 25.1393,
    "flow_velocity_ms": 0.0949,
    "generation_score": 8.8667,
    "impact_score": 59.9689,
    "impervious_pct": 4.93,
    "land_ownership": 0.5,
    "lat": 34.9964,
    "litter_complaint_density": 0.0,
    "lon": -80.0825,
    "navigable_dist_m": null,
    "npdes_points": 0,
    "pixel_col": 386.0,
    "pixel_row": 96.0,
    "population_density": 9.1,
    "position_along": 0.5,
    "protected_area_score": 2.9575,
    "rank": 12,
    "road_access_m": 129.9,
    "road_access_score": 1.0,
    "road_density_km_km2": 1.713,
    "robustness_pct": 0.0,
    "runoff_coeff_C": 0.0944,
    "seasonal_cv": 0.4414,
    "segment_id": 3,
    "segment_length_m": 822.7906,
    "stream_order": 3,
    "superfund_score": 0.0262,
    "tourism_amenity_density": 0.8754,
    "tri_facility_density": 0.0,
    "usgs_mean_q_cfs": 1.629,
    "velocity_feasibility": 0.7,
    "water_intake_score": 0.7311
   },
   "type": "Feature"
  },
  {
   "geometry": {
    "coordinates": [
     -80.070994,
     34.937739
    ],
    "type": "Point"
   },
   "properties": {
    "accumulation": 59746.0,
    "bank_slope_deg": 14.77,
    "bank_slope_score": 1.0,
    "bank_slope_source": "nc-dps-lidar-dem03-cross-section",
    "beach_dist_km": 223.96,
    "bridge_proximity_bonus": 0.0,
    "catchment_area_km2": 5.9635,
    "channel_width_m": 6.55,
    "channel_width_score": 1.0,
    "composite_score": 34.0849,
    "cso_density": 0.0,
    "ej_index": 0.7047,
    "elevation_m": 105.6229,
    "estuary_dist_km": 366.47,
    "feasibility_score": 40.1786,
    "flood_q10_cfs": 824.81,
    "flow_score": 37.434,
    "flow_velocity_ms": 0.1015,
    "generation_score": 23.0792,
    "impact_score": 39.2528,
    "impervious_pct": 8.22,
    "land_ownership": 0.5,
    "lat": 34.9377,
    "litter_complaint_density": 0.0,
    "lon": -80.071,
    "navigable_dist_m": null,
    "npdes_points": 2,
    "pixel_col": 499.0,
    "pixel_row": 750.0,
    "population_density": 71.4,
    "position_along": 0.25,
    "protected_area_score": 2.3402,
    "rank": 13,
    "road_access_m": 504.9,
    "road_access_score": 0.6,
    "road_density_km_km2": 1.556,
    "robustness_pct": 0.0,
    "runoff_coeff_C": 0.124,
    "seasonal_cv": 0.4516,
    "segment_id": 21,
    "segment_length_m": 3877.0153,
    "stream_order": 3,
    "superfund_score": 0.0163,
    "tourism_amenity_density": 0.0796,
    "tri_facility_density": 0.0,
    "usgs_mean_q_cfs": 3.398,
    "velocity_feasibility": 0.7,
    "water_intake_score": 0.6288
   },
   "type": "Feature"
  },
  {
   "geometry": {
    "coordinates": [
     -80.075559,
     34.945553
    ],
    "type": "Point"
   },
   "properties": {
    "accumulation": 23548.0,
    "bank_slope_deg": 18.82,
    "bank_slope_score": 0.5,
    "bank_slope_source": "nc-dps-lidar-dem03-cross-section",
    "beach_dist_km": 224.66,
    "bridge_proximity_bonus": 0.0,
    "catchment_area_km2": 2.3504,
    "channel_width_m": 4.45,
    "channel_width_score": 1.0,
    "composite_score": 32.5277,
    "cso_density": 0.0,
    "ej_index": 0.5591,
    "elevation_m": 117.1739,
    "estuary_dist_km": 366.84,
    "feasibility_score": 45.5357,
    "flood_q10_cfs": 408.92,
    "flow_score": 28.5932,
    "flow_velocity_ms": 0.0994,
    "generation_score": 32.1686,
    "impact_score": 29.6617,
    "impervious_pct": 8.22,
    "land_ownership": 0.5,
    "lat": 34.9456,
    "litter_complaint_density": 0.0,
    "lon": -80.0756,
    "navigable_dist_m": null,
    "npdes_points": 2,
    "pixel_col": 454.0,
    "pixel_row": 664.0,
    "population_density": 145.1,
    "position_along": 0.5,
    "protected_area_score": 2.3637,
    "rank": 14,
    "road_access_m": 168.6,
    "road_access_score": 1.0,
    "road_density_km_km2": 2.45,
    "robustness_pct": 0.0,
    "runoff_coeff_C": 0.124,
    "seasonal_cv": 0.4516,
    "segment_id": 19,
    "segment_length_m": 619.8417,
    "stream_order": 3,
    "superfund_score": 0.0223,
    "tourism_amenity_density": 0.0,
    "tri_facility_density": 0.0,
    "usgs_mean_q_cfs": 3.398,
    "velocity_feasibility": 0.7,
    "water_intake_score": 0.6326
   },
   "type": "Feature"
  },
  {
   "geometry": {
    "coordinates": [
     -80.076905,
     34.94458
    ],
    "type": "Point"
   },
   "properties": {
    "accumulation": 21134.0,
    "bank_slope_deg": 11.13,
    "bank_slope_score": 1.0,
    "bank_slope_source": "nc-dps-lidar-dem03-cross-section",
    "beach_dist_km": 224.74,
    "bridge_proximity_bonus": 0.0,
    "catchment_area_km2": 2.1095,
    "channel_width_m": 4.25,
    "channel_width_score": 1.0,
    "composite_score": 32.1852,
    "cso_density": 0.0,
    "ej_index": 0.5431,
    "elevation_m": 115.7376,
    "estuary_dist_km": 366.97,
    "feasibility_score": 49.1071,
    "flood_q10_cfs": 376.91,
    "flow_score": 27.6215,
    "flow_velocity_ms": 0.0845,
    "generation_score": 30.8706,
    "impact_score": 28.8419,
    "impervious_pct": 8.22,
    "land_ownership": 0.5,
    "lat": 34.9446,
    "litter_complaint_density": 0.0,
    "lon": -80.0769,
    "navigable_dist_m": null,
    "npdes_points": 2,
    "pixel_col": 444.0,
    "pixel_row": 674.0,
    "population_density": 136.1,
    "position_along": 0.5,
    "protected_area_score": 2.3586,
    "rank": 15,
    "road_access_m": 222.1,
    "road_access_score": 0.8,
    "road_density_km_km2": 2.255,
    "robustness_pct": 0.0,
    "runoff_coeff_C": 0.124,
    "seasonal_cv": 0.4516,
    "segment_id": 20,
    "segment_length_m": 323.5478,
    "stream_order": 3,
    "superfund_score": 0.0206,
    "tourism_amenity_density": 0.0796,
    "tri_facility_density": 0.0,
    "usgs_mean_q_cfs": 3.398,
    "velocity_feasibility": 0.7,
    "water_intake_score": 0.6247
   },
   "type": "Feature"
  },
  {
   "geometry": {
    "coordinates": [
     -80.076302,
     34.995482
    ],
    "type": "Point"
   },
   "properties": {
    "accumulation": 28950.0,
    "bank_slope_deg": 11.74,
    "bank_slope_score": 1.0,
    "bank_slope_source": "nc-dps-lidar-dem03-cross-section",
    "beach_dist_km": 226.74,
    "bridge_proximity_bonus": 0.0,
    "catchment_area_km2": 2.8896,
    "channel_width_m": 4.85,
    "channel_width_score": 1.0,
    "composite_score": 31.4576,
    "cso_density": 0.0,
    "ej_index": 0.75,
    "elevation_m": 85.9797,
    "estuary_dist_km": 366.66,
    "feasibility_score": 40.1786,
    "flood_q10_cfs": 420.7,
    "flow_score": 23.6708,
    "flow_velocity_ms": 0.0969,
    "generation_score": 2.9751,
    "impact_score": 62.0686,
    "impervious_pct": 0.95,
    "land_ownership": 0.5,
    "lat": 34.9955,
    "litter_complaint_density": 0.0,
    "lon": -80.0763,
    "navigable_dist_m": null,
    "npdes_points": 0,
    "pixel_col": 442.0,
    "pixel_row": 105.0,
    "population_density": 8.9,
    "position_along": 0.5,
    "protected_area_score": 2.9348,
    "rank": 16,
    "road_access_m": 608.8,
    "road_access_score": 0.6,
    "road_density_km_km2": 0.91,
    "robustness_pct": 0.0,
    "runoff_coeff_C": 0.0586,
    "seasonal_cv": 0.4424,
    "segment_id": 2,
    "segment_length_m": 1874.7799,
    "stream_order": 3,
    "superfund_score": 0.0314,
    "tourism_amenity_density": 0.8754,
    "tri_facility_density": 0.0,
    "usgs_mean_q_cfs": 1.699,
    "velocity_feasibility": 0.7,
    "water_intake_score": 0.7547
   },
   "type": "Feature"
  },
  {
   "geometry": {
    "coordinates": [
     -80.103761,
     34.971586
    ],
    "type": "Point"
   },
   "properties": {
    "accumulation": 27496.0,
    "bank_slope_deg": 19.04,
    "bank_slope_score": 0.5,
    "bank_slope_source": "nc-dps-lidar-dem03-cross-section",
    "beach_dist_km": 228.09,
    "bridge_proximity_bonus": 0.0,
    "catchment_area_km2": 2.7445,
    "channel_width_m": 4.74,
    "channel_width_score": 1.0,
    "composite_score": 30.402,
    "cso_density": 0.0,
    "ej_index": 0.6894,
    "elevation_m": 92.9648,
    "estuary_dist_km": 369.27,
    "feasibility_score": 46.4286,
    "flood_q10_cfs": 483.08,
    "flow_score": 26.0414,
    "flow_velocity_ms": 0.1062,
    "generation_score": 27.2239,
    "impact_score": 29.2007,
    "impervious_pct": 11.07,
    "land_ownership": 1.0,
    "lat": 34.9716,
    "litter_complaint_density": 0.0,
    "lon": -80.1038,
    "navigable_dist_m": null,
    "npdes_points": 1,
    "pixel_col": 193.0,
    "pixel_row": 377.0,
    "population_density": 108.8,
    "position_along": 0.5,
    "protected_area_score": 2.24,
    "rank": 17,
    "road_access_m": 785.9,
    "road_access_score": 0.6,
    "road_density_km_km2": 1.622,
    "robustness_pct": 0.0,
    "runoff_coeff_C": 0.1496,
    "seasonal_cv": 0.4376,
    "segment_id": 6,
    "segment_length_m": 1226.9743,
    "stream_order": 3,
    "superfund_score": 0.0171,
    "tourism_amenity_density": 0.3979,
    "tri_facility_density": 0.0,
    "usgs_mean_q_cfs": 1.515,
    "velocity_feasibility": 0.7,
    "water_intake_score": 0.5943
   },
   "type": "Feature"
  },
  {
   "geometry": {
    "coordinates": [
     -80.032371,
     34.923674
    ],
    "type": "Point"
   },
   "properties": {
    "accumulation": 21720.0,
    "bank_slope_deg": 7.45,
    "bank_slope_score": 1.0,
    "bank_slope_source": "nc-dps-lidar-dem03-cross-section",
    "beach_dist_km": 220.12,
    "bridge_proximity_bonus": 0.0,
    "catchment_area_km2": 2.168,
    "channel_width_m": 4.3,
    "channel_width_score": 1.0,
    "composite_score": 27.5566,
    "cso_density": 0.0,
    "ej_index": 0.8,
    "elevation_m": 89.6436,
    "estuary_dist_km": 363.04,
    "feasibility_score": 40.1786,
    "flood_q10_cfs": 339.74,
    "flow_score": 7.4688,
    "flow_velocity_ms": 0.1127,
    "generation_score": 6.7935,
    "impact_score": 58.7484,
    "impervious_pct": 1.11,
    "land_ownership": 0.5,
    "lat": 34.9237,
    "litter_complaint_density": 0.0,
    "lon": -80.0324,
    "navigable_dist_m": null,
    "npdes_points": 0,
    "pixel_col": 853.0,
    "pixel_row": 903.0,
    "population_density": 57.0,
    "position_along": 0.5,
    "protected_area_score": 2.2049,
    "rank": 18,
    "road_access_m": 630.1,
    "road_access_score": 0.6,
    "road_density_km_km2": 0.453,
    "robustness_pct": 0.0,
    "runoff_coeff_C": 0.06,
    "seasonal_cv": 0.4352,
    "segment_id": 23,
    "segment_length_m": 237.0594,
    "stream_order": 1,
    "superfund_score": 0.0081,
    "tourism_amenity_density": 0.0,
    "tri_facility_density": 0.0,
    "usgs_mean_q_cfs": 1.301,
    "velocity_feasibility": 0.7,
    "water_intake_score": 0.7536
   },
   "type": "Feature"
  },
  {
   "geometry": {
    "coordinates": [
     -80.117774,
     34.974632
    ],
    "type": "Point"
   },
   "properties": {
    "accumulation": 63271.0,
    "bank_slope_deg": 6.61,
    "bank_slope_score": 1.0,
    "bank_slope_source": "nc-dps-lidar-dem03-cross-section",
    "beach_dist_km": 229.41,
    "bridge_proximity_bonus": 0.0,
    "catchment_area_km2": 6.3154,
    "channel_width_m": 6.7,
    "channel_width_score": 1.0,
    "composite_score": 27.4001,
    "cso_density": 0.0,
    "ej_index": 0.6907,
    "elevation_m": 85.21,
    "estuary_dist_km": 370.53,
    "feasibility_score": 49.1071,
    "flood_q10_cfs": 857.02,
    "flow_score": 37.5722,
    "flow_velocity_ms": 0.1084,
    "generation_score": 10.1687,
    "impact_score": 25.3014,
    "impervious_pct": 7.94,
    "land_ownership": 0.5,
    "lat": 34.9746,
    "litter_complaint_density": 0.0,
    "lon": -80.1178,
    "navigable_dist_m": null,
    "npdes_points": 0,
    "pixel_col": 68.0,
    "pixel_row": 340.0,
    "population_density": 16.1,
    "position_along": 0.5,
    "protected_area_score": 2.39,
    "rank": 19,
    "road_access_m": 201.0,
    "road_access_score": 0.8,
    "road_density_km_km2": 0.578,
    "robustness_pct": 0.0,
    "runoff_coeff_C": 0.1215,
    "seasonal_cv": 0.4564,
    "segment_id": 8,
    "segment_length_m": 2850.2717,
    "stream_order": 3,
    "superfund_score": 0.0119,
    "tourism_amenity_density": 0.3979,
    "tri_facility_density": 0.0,
    "usgs_mean_q_cfs": 3.152,
    "velocity_feasibility": 0.7,
    "water_intake_score": 0.5571
   },
   "type": "Feature"
  },
  {
   "geometry": {
    "coordinates": [
     -80.104939,
     34.999631
    ],
    "type": "Point"
   },
   "properties": {
    "accumulation": 28880.0,
    "bank_slope_deg": 13.76,
    "bank_slope_score": 1.0,
    "bank_slope_source": "nc-dps-lidar-dem03-cross-section",
    "beach_dist_km": 229.34,
    "bridge_proximity_bonus": 0.0,
    "catchment_area_km2": 2.8827,
    "channel_width_m": 4.84,
    "channel_width_score": 1.0,
    "composite_score": 26.5842,
    "cso_density": 0.0,
    "ej_index": 0.875,
    "elevation_m": 76.8014,
    "estuary_dist_km": 369.25,
    "feasibility_score": 40.1786,
    "flood_q10_cfs": 464.55,
    "flow_score": 10.2126,
    "flow_velocity_ms": 0.076,
    "generation_score": 12.3824,
    "impact_score": 47.6318,
    "impervious_pct": 6.72,
    "land_ownership": 0.5,
    "lat": 34.9996,
    "litter_complaint_density": 0.0,
    "lon": -80.1049,
    "navigable_dist_m": null,
    "npdes_points": 2,
    "pixel_col": 181.0,
    "pixel_row": 62.0,
    "population_density": 10.6,
    "position_along": 0.5,
    "protected_area_score": 2.7426,
    "rank": 20,
    "road_access_m": 952.8,
    "road_access_score": 0.6,
    "road_density_km_km2": 0.066,
    "robustness_pct": 0.0,
    "runoff_coeff_C": 0.1105,
    "seasonal_cv": 0.445,
    "segment_id": 1,
    "segment_length_m": 1434.0615,
    "stream_order": 1,
    "superfund_score": 0.0174,
    "tourism_amenity_density": 0.3979,
    "tri_facility_density": 0.0,
    "usgs_mean_q_cfs": 1.482,
    "velocity_feasibility": 0.7,
    "water_intake_score": 0.6561
   },
   "type": "Feature"
  },
  {
   "geometry": {
    "coordinates": [
     -80.113466,
     35.002047
    ],
    "type": "Point"
   },
   "properties": {
    "accumulation": 21915.0,
    "bank_slope_deg": 19.83,
    "bank_slope_score": 0.5,
    "bank_slope_source": "nc-dps-lidar-dem03-cross-section",
    "beach_dist_km": 230.16,
    "bridge_proximity_bonus": 0.0,
    "catchment_area_km2": 2.1874,
    "channel_width_m": 4.32,
    "channel_width_score": 1.0,
    "composite_score": 21.9889,
    "cso_density": 0.0,
    "ej_index": 0.875,
    "elevation_m": 74.6544,
    "estuary_dist_km": 370.02,
    "feasibility_score": 25.0,
    "flood_q10_cfs": 335.46,
    "flow_score": 26.2218,
    "flow_velocity_ms": 0.5,
    "generation_score": 0.1645,
    "impact_score": 38.7804,
    "impervious_pct": null,
    "land_ownership": 0.5,
    "lat": 35.002,
    "litter_complaint_density": 0.0,
    "lon": -80.1135,
    "navigable_dist_m": null,
    "npdes_points": 0,
    "pixel_col": 100.0,
    "pixel_row": 36.0,
    "population_density": 10.6,
    "position_along": 0.5,
    "protected_area_score": 2.6807,
    "rank": 21,
    "road_access_m": 1741.7,
    "road_access_score": 0.3,
    "road_density_km_km2": 0.0,
    "robustness_pct": 0.0,
    "runoff_coeff_C": null,
    "seasonal_cv": null,
    "segment_id": 0,
    "segment_length_m": 1074.395,
    "stream_order": 1,
    "superfund_score": 0.0165,
    "tourism_amenity_density": 0.0,
    "tri_facility_density": 0.0,
    "usgs_mean_q_cfs": null,
    "velocity_feasibility": 1.0,
    "water_intake_score": 0.6342
   },
   "type": "Feature"
  },
  {
   "geometry": {
    "coordinates": [
     -80.093879,
     34.929294
    ],
    "type": "Point"
   },
   "properties": {
    "accumulation": 43192.0,
    "bank_slope_deg": 7.33,
    "bank_slope_score": 1.0,
    "bank_slope_source": "nc-dps-lidar-dem03-cross-section",
    "beach_dist_km": 225.59,
    "bridge_proximity_bonus": 0.0,
    "catchment_area_km2": 4.3112,
    "channel_width_m": 5.72,
    "channel_width_score": 1.0,
    "composite_score": 18.4698,
    "cso_density": 0.0,
    "ej_index": 0.6242,
    "elevation_m": 106.779,
    "estuary_dist_km": 368.61,
    "feasibility_score": 49.1071,
    "flood_q10_cfs": 579.49,
    "flow_score": 15.0787,
    "flow_velocity_ms": 0.0909,
    "generation_score": 4.2233,
    "impact_score": 20.2235,
    "impervious_pct": 2.02,
    "land_ownership": 0.5,
    "lat": 34.9293,
    "litter_complaint_density": 0.0,
    "lon": -80.0939,
    "navigable_dist_m": null,
    "npdes_points": 0,
    "pixel_col": 291.0,
    "pixel_row": 846.0,
    "population_density": 18.0,
    "position_along": 0.5,
    "protected_area_score": 2.0944,
    "rank": 22,
    "road_access_m": 320.8,
    "road_access_score": 0.8,
    "road_density_km_km2": 0.573,
    "robustness_pct": 0.0,
    "runoff_coeff_C": 0.0682,
    "seasonal_cv": 0.4469,
    "segment_id": 22,
    "segment_length_m": 1857.2226,
    "stream_order": 1,
    "superfund_score": 0.0086,
    "tourism_amenity_density": 0.0796,
    "tri_facility_density": 0.0,
    "usgs_mean_q_cfs": 2.485,
    "velocity_feasibility": 0.7,
    "water_intake_score": 0.5242
   },
   "type": "Feature"
  },
  {
   "geometry": {
    "coordinates": [
     -80.109087,
     34.970484
    ],
    "type": "Point"
   },
   "properties": {
    "accumulation": 20487.0,
    "bank_slope_deg": 22.14,
    "bank_slope_score": 0.5,
    "bank_slope_source": "nc-dps-lidar-dem03-cross-section",
    "beach_dist_km": 228.5,
    "bridge_proximity_bonus": 0.0,
    "catchment_area_km2": 2.0449,
    "channel_width_m": 4.2,
    "channel_width_score": 1.0,
    "composite_score": 17.7324,
    "cso_density": 0.0,
    "ej_index": 0.6337,
    "elevation_m": 90.5719,
    "estuary_dist_km": 369.76,
    "feasibility_score": 27.6786,
    "flood_q10_cfs": 330.27,
    "flow_score": 19.8966,
    "flow_velocity_ms": 0.0804,
    "generation_score": 5.373,
    "impact_score": 23.3152,
    "impervious_pct": 2.01,
    "land_ownership": 0.5,
    "lat": 34.9705,
    "litter_complaint_density": 0.0,
    "lon": -80.1091,
    "navigable_dist_m": null,
    "npdes_points": 0,
    "pixel_col": 144.0,
    "pixel_row": 386.0,
    "population_density": 31.8,
    "position_along": 0.5,
    "protected_area_score": 2.2105,
    "rank": 23,
    "road_access_m": 951.2,
    "road_access_score": 0.6,
    "road_density_km_km2": 0.493,
    "robustness_pct": 0.0,
    "runoff_coeff_C": 0.0681,
    "seasonal_cv": 0.433,
    "segment_id": 7,
    "segment_length_m": 371.7874,
    "stream_order": 3,
    "superfund_score": 0.0144,
    "tourism_amenity_density": 0.3979,
    "tri_facility_density": 0.0,
    "usgs_mean_q_cfs": 0.988,
    "velocity_feasibility": 0.7,
    "water_intake_score": 0.5744
   },
   "type": "Feature"
  },
  {
   "geometry": {
    "coordinates": [
     -80.121693,
     34.962334
    ],
    "type": "Point"
   },
   "properties": {
    "accumulation": 30647.0,
    "bank_slope_deg": 20.67,
    "bank_slope_score": 0.5,
    "bank_slope_source": "nc-dps-lidar-dem03-cross-section",
    "beach_dist_km": 229.25,
    "bridge_proximity_bonus": 0.0,
    "catchment_area_km2": 3.059,
    "channel_width_m": 4.96,
    "channel_width_score": 1.0,
    "composite_score": 10.1597,
    "cso_density": 0.0,
    "ej_index": 0.625,
    "elevation_m": 87.0028,
    "estuary_dist_km": 370.95,
    "feasibility_score": 14.2857,
    "flood_q10_cfs": 435.64,
    "flow_score": 21.472,
    "flow_velocity_ms": 0.0658,
    "generation_score": 1.3869,
    "impact_score": 7.4425,
    "impervious_pct": 0.49,
    "land_ownership": 0.5,
    "lat": 34.9623,
    "litter_complaint_density": 0.0,
    "lon": -80.1217,
    "navigable_dist_m": null,
    "npdes_points": 0,
    "pixel_col": 29.0,
    "pixel_row": 477.0,
    "population_density": 18.0,
    "position_along": 0.5,
    "protected_area_score": 1.842,
    "rank": 24,
    "road_access_m": 1589.8,
    "road_access_score": 0.3,
    "road_density_km_km2": 0.0,
    "robustness_pct": 0.0,
    "runoff_coeff_C": 0.0544,
    "seasonal_cv": 0.4735,
    "segment_id": 15,
    "segment_length_m": 1685.6659,
    "stream_order": 1,
    "superfund_score": 0.0097,
    "tourism_amenity_density": 0.0,
    "tri_facility_density": 0.0,
    "usgs_mean_q_cfs": 6.697,
    "velocity_feasibility": 0.7,
    "water_intake_score": 0.5182
   },
   "type": "Feature"
  },
  {
   "geometry": {
    "coordinates": [
     -80.121075,
     34.953182
    ],
    "type": "Point"
   },
   "properties": {
    "accumulation": 22328.0,
    "bank_slope_deg": 25.08,
    "bank_slope_score": 0.5,
    "bank_slope_source": "nc-dps-lidar-dem03-cross-section",
    "beach_dist_km": 228.84,
    "bridge_proximity_bonus": 0.0,
    "catchment_area_km2": 2.2287,
    "channel_width_m": 4.35,
    "channel_width_score": 1.0,
    "composite_score": 6.8819,
    "cso_density": 0.0,
    "ej_index": 0.625,
    "elevation_m": 92.2711,
    "estuary_dist_km": 370.94,
    "feasibility_score": 14.2857,
    "flood_q10_cfs": 340.87,
    "flow_score": 10.4983,
    "flow_velocity_ms": 0.0936,
    "generation_score": 0.9942,
    "impact_score": 6.054,
    "impervious_pct": 0.11,
    "land_ownership": 0.5,
    "lat": 34.9532,
    "litter_complaint_density": 0.0,
    "lon": -80.1211,
    "navigable_dist_m": null,
    "npdes_points": 0,
    "pixel_col": 37.0,
    "pixel_row": 579.0,
    "population_density": 18.0,
    "position_along": 0.5,
    "protected_area_score": 1.7753,
    "rank": 25,
    "road_access_m": 1558.0,
    "road_access_score": 0.3,
    "road_density_km_km2": 0.0,
    "robustness_pct": 0.0,
    "runoff_coeff_C": 0.051,
    "seasonal_cv": 0.4471,
    "segment_id": 18,
    "segment_length_m": 297.0039,
    "stream_order": 1,
    "superfund_score": 0.0087,
    "tourism_amenity_density": 0.0,
    "tri_facility_density": 0.0,
    "usgs_mean_q_cfs": 2.794,
    "velocity_feasibility": 0.7,
    "water_intake_score": 0.4996
   },
   "type": "Feature"
  }
 ],
 "note": "GRIME region 'Wadesboro, NC' \u2014 real-data pipeline (DEM\u2192streams\u2192candidates\u2192stream mask (sites confined to \u00b1150 m of mapped OSM/NHD waterways)\u2192region-appropriate real parameters\u2192shipped scoring, math unchanged). Width curve: Bieger et al. 2015 JAWRA Table 3, Appalachian Highlands. Flood: SIR 2014-5030 HR1. NC Piedmont (DEQ physiography polygon)",
 "provenance": {
  "candidates_pre_gate": 25,
  "constant": [
   "channel_width_score",
   "cso_density",
   "litter_complaint_density"
  ],
  "gated_navigable": 0,
  "hard_gate_removed": 0,
  "n_parameters": 27,
  "parameters": {
   "bank_slope_score": {
    "kind": "real",
    "n_3dep_10m_fallback": 0,
    "n_nc_lidar_3_125ft": 25,
    "n_real": 25,
    "n_sites": 25,
    "source": "NC OneMap / NC DPS DEM03 statewide lidar-derived 3.125-ft (0.953 m) elevations (perpendicular 50 m transect; robust 5 m bank-rise metric); unavailable profiles use the region 10 m 3DEP DEM-gradient fallback",
    "source_mosaics": [
     "Anson_Ground_3ft"
    ]
   },
   "beach_dist_km": {
    "kind": "real",
    "n_real": 25,
    "n_sites": 25,
    "source": "haversine to region ref: Wrightsville Beach (shipped NC reference)"
   },
   "bridge_proximity_bonus": {
    "kind": "real",
    "n_real": 25,
    "n_sites": 25,
    "source": "FHWA/BTS NBI (NTAD), 50 m proximity"
   },
   "catchment_area_km2": {
    "kind": "real",
    "n_real": 25,
    "n_sites": 25,
    "source": "DEM flow accumulation (pipeline)"
   },
   "channel_width_score": {
    "kind": "real",
    "n_real": 25,
    "n_sites": 25,
    "source": "Bieger 2015 AHI width curve on DEM drainage area \u2192 shipped width curve"
   },
   "cso_density": {
    "kind": "real",
    "n_real": 25,
    "n_sites": 25,
    "source": "EPA ECHO open CSO/TCS outfall PF coordinates states=NC, Cauchy proximity"
   },
   "ej_index": {
    "kind": "real",
    "n_real": 25,
    "n_sites": 25,
    "source": "Census ACS C17002+B03002 two-component demographic index, percentile-ranked within region"
   },
   "estuary_dist_km": {
    "kind": "real",
    "n_real": 25,
    "n_sites": 25,
    "source": "haversine to region ref: Pamlico Sound (shipped NC reference)"
   },
   "flood_q10_cfs": {
    "impervious_fallback_reason": "StreamCat imperviousness unavailable; the existing regression-input fallback of 0.0% impervious was used and is disclosed here",
    "kind": "real",
    "n_impervious_fallback": 1,
    "n_real": 25,
    "n_sites": 25,
    "source": "USGS SIR 2014-5030 Table 7 HR1 (NC Piedmont)"
   },
   "flow_velocity_ms": {
    "fallback_reason": "EROM/DEM continuity input unavailable; shipped 0.5 m/s default used",
    "kind": "real",
    "n_fallback": 1,
    "n_real": 24,
    "n_sites": 25,
    "source": "Manning (region DEM/D8) blended with EROM continuity (shipped M4 logic)"
   },
   "impervious_pct": {
    "fallback_reason": "NLDI/StreamCat did not return a snap-compatible catchment value; value remains null and is removed by constant-column handling",
    "kind": "real",
    "n_fallback": 1,
    "n_real": 24,
    "n_sites": 25,
    "source": "EPA StreamCat pctimp2019 (per NHDPlus watershed)"
   },
   "land_ownership": {
    "kind": "real",
    "n_fallback": 0,
    "n_real": 25,
    "n_sites": 25,
    "source": "NC OneMap statewide parcels (NC Parcels Transformer) ownname"
   },
   "litter_complaint_density": {
    "kind": "fallback",
    "n_real": 0,
    "n_sites": 25,
    "source": "no public machine-readable litter/illegal-dumping feed for this region"
   },
   "navigable_dist_m": {
    "kind": "real",
    "n_real": 25,
    "n_sites": 25,
    "source": "USACE/BTS NWN (NTAD): no navigable segment within this bbox (+2 km) \u2014 computed absence, gate passes all sites"
   },
   "npdes_points": {
    "kind": "real",
    "n_real": 25,
    "n_sites": 25,
    "source": "EPA ECHO active NPDES outfalls states=NC (types NPD/GPC/NGP; statuses ADC/EFF/EXP), per catchment"
   },
   "population_density": {
    "kind": "real",
    "n_real": 25,
    "n_sites": 25,
    "source": "Census ACS 2022 B01003 block groups (bbox, multi-county), area-weighted"
   },
   "protected_area_score": {
    "kind": "real",
    "n_real": 25,
    "n_sites": 25,
    "source": "USGS PAD-US 4.1 state GDB; states=NC; shipped designation-weighted proximity curve"
   },
   "road_access_score": {
    "kind": "real",
    "n_real": 25,
    "n_sites": 25,
    "source": "OSM drive network nearest-node distance"
   },
   "road_density_km_km2": {
    "kind": "real",
    "n_real": 25,
    "n_sites": 25,
    "source": "OSM drive network (osmnx, cached) clipped per catchment"
   },
   "runoff_coeff_C": {
    "fallback_reason": "source impervious_pct was unavailable; derived value remains null",
    "kind": "real",
    "n_fallback": 1,
    "n_real": 24,
    "n_sites": 25,
    "source": "derived from real impervious_pct (C=0.05+0.009*I)"
   },
   "seasonal_cv": {
    "fallback_reason": "NHDPlus monthly EROM was unavailable or failed the drainage-area snap guard; value remains null",
    "kind": "real",
    "n_fallback": 1,
    "n_real": 24,
    "n_sites": 25,
    "source": "CV of NHDPlus EROM monthly flows per COMID"
   },
   "stream_order": {
    "kind": "real",
    "n_real": 25,
    "n_sites": 25,
    "source": "DEM stream-network confluence heuristic (pipeline)"
   },
   "superfund_score": {
    "kind": "real",
    "n_real": 25,
    "n_sites": 25,
    "source": "EPA DataMap SEMS active sites states=NC (non-archived, georeferenced), shipped 500 m inverse-distance curve"
   },
   "tourism_amenity_density": {
    "kind": "real",
    "n_real": 25,
    "n_sites": 25,
    "source": "OSM leisure/tourism features per 2 km radius"
   },
   "tri_facility_density": {
    "kind": "real",
    "n_real": 25,
    "n_sites": 25,
    "source": "EPA DataMap TRI open facilities states=NC (preferred decimal or packed-DMS recovery), per catchment"
   },
   "usgs_mean_q_cfs": {
    "fallback_reason": "NHDPlus EROM was unavailable or failed the drainage-area snap guard; value remains null",
    "kind": "real",
    "n_fallback": 1,
    "n_real": 24,
    "n_sites": 25,
    "source": "NHDPlus EROM qe_ma per COMID (snap-guarded)"
   },
   "velocity_feasibility": {
    "fallback_reason": "derived from the shipped 0.5 m/s velocity fallback",
    "kind": "real",
    "n_fallback": 1,
    "n_real": 24,
    "n_sites": 25,
    "source": "shipped step curve on the computed velocity"
   },
   "velocity_transport_favorability": {
    "fallback_reason": "EROM/DEM continuity input unavailable; shipped 0.5 m/s default used",
    "kind": "derived",
    "n_fallback": 1,
    "n_real": 24,
    "n_sites": 25,
    "source": "scored form of flow_velocity_ms inside the Flow family \u2014 peaked Gaussian exp(-((v-0.9)/0.6)^2), model.json curves.velocity_transport_favorability; construct: transport/delivery favorability, deliberately distinct from velocity_feasibility (device operability)"
   },
   "water_intake_score": {
    "kind": "real",
    "n_real": 25,
    "n_sites": 25,
    "source": "NC OneMap / NC DEQ SWAP public water supply sources (source_typ='Surface Water'), shipped exp(-d/10km) curve"
   }
  },
  "stream_mask": {
   "buffer_m": 150.0,
   "pre_mask": 25,
   "removed": 0,
   "sources": [
    "osm-overpass (all waterway ways)",
    "usgs-nhdplus flowlines"
   ]
  },
  "varying": [
   "bank_slope_score",
   "beach_dist_km",
   "bridge_proximity_bonus",
   "catchment_area_km2",
   "ej_index",
   "estuary_dist_km",
   "flood_q10_cfs",
   "flow_velocity_ms",
   "impervious_pct",
   "land_ownership",
   "npdes_points",
   "population_density",
   "protected_area_score",
   "road_access_score",
   "road_density_km_km2",
   "runoff_coeff_C",
   "seasonal_cv",
   "stream_order",
   "superfund_score",
   "tourism_amenity_density",
   "tri_facility_density",
   "usgs_mean_q_cfs",
   "velocity_feasibility",
   "water_intake_score"
  ]
 },
 "region": {
  "bbox": [
   -80.1247,
   34.9229,
   -80.0247,
   35.0048
  ],
  "beach_ref": {
   "label": "Wrightsville Beach (shipped NC reference)",
   "lat": 34.21,
   "lon": -77.79
  },
  "center": [
   -80.074694,
   34.963829
  ],
  "estuary_ref": {
   "label": "Pamlico Sound (shipped NC reference)",
   "lat": 35.05,
   "lon": -76.05
  },
  "flood_method": "sir2014_hr1",
  "name": "Wadesboro, NC",
  "notes": "NC Piedmont (DEQ physiography polygon)",
  "slug": "wadesboro",
  "state": "NC",
  "utm_epsg": 32617,
  "width_curve": {
   "a": 3.12,
   "b": 0.415,
   "code": "AHI",
   "source": "Bieger et al. 2015 JAWRA Table 3, Appalachian Highlands"
  }
 },
 "type": "FeatureCollection"
}
