{
 "features": [
  {
   "geometry": {
    "coordinates": [
     -77.982492,
     34.724658
    ],
    "type": "Point"
   },
   "properties": {
    "accumulation": 81763.0,
    "bank_slope_deg": 7.44,
    "bank_slope_score": 1.0,
    "bank_slope_source": "nc-dps-lidar-dem03-cross-section",
    "beach_dist_km": 59.89,
    "bridge_proximity_bonus": 0.0,
    "catchment_area_km2": 8.1705,
    "channel_width_m": 4.76,
    "channel_width_score": 1.0,
    "composite_score": 62.6765,
    "cso_density": 0.0,
    "ej_index": 0.5741,
    "elevation_m": 6.8551,
    "estuary_dist_km": 179.94,
    "feasibility_score": 66.3265,
    "flood_q10_cfs": 501.48,
    "flow_score": 51.0268,
    "flow_velocity_ms": 0.1528,
    "generation_score": 61.3281,
    "impact_score": 71.9081,
    "impervious_pct": 5.84,
    "land_ownership": 0.5,
    "lat": 34.7247,
    "litter_complaint_density": 0.0,
    "lon": -77.9825,
    "navigable_dist_m": null,
    "npdes_points": 2,
    "pixel_col": 395.0,
    "pixel_row": 473.0,
    "population_density": 100.4,
    "position_along": 0.5,
    "protected_area_score": 4.0797,
    "rank": 1,
    "road_access_m": 42.8,
    "road_access_score": 1.0,
    "road_density_km_km2": 3.615,
    "robustness_pct": 100.0,
    "runoff_coeff_C": 0.1026,
    "seasonal_cv": 0.5031,
    "segment_id": 1,
    "segment_length_m": 8347.0969,
    "stream_order": 1,
    "superfund_score": 0.0,
    "tourism_amenity_density": 0.7162,
    "tri_facility_density": 0.1224,
    "usgs_mean_q_cfs": 11.155,
    "velocity_feasibility": 0.7,
    "water_intake_score": 0.0522
   },
   "type": "Feature"
  },
  {
   "geometry": {
    "coordinates": [
     -77.983898,
     34.736646
    ],
    "type": "Point"
   },
   "properties": {
    "accumulation": 53881.0,
    "bank_slope_deg": 19.21,
    "bank_slope_score": 0.5,
    "bank_slope_source": "nc-dps-lidar-dem03-cross-section",
    "beach_dist_km": 61.2,
    "bridge_proximity_bonus": 0.0,
    "catchment_area_km2": 5.3843,
    "channel_width_m": 4.09,
    "channel_width_score": 1.0,
    "composite_score": 61.845,
    "cso_density": 0.0,
    "ej_index": 0.5404,
    "elevation_m": 9.6097,
    "estuary_dist_km": 179.79,
    "feasibility_score": 52.0408,
    "flood_q10_cfs": 390.4,
    "flow_score": 42.434,
    "flow_velocity_ms": 0.1564,
    "generation_score": 82.824,
    "impact_score": 61.9437,
    "impervious_pct": 5.84,
    "land_ownership": 0.5,
    "lat": 34.7366,
    "litter_complaint_density": 0.0,
    "lon": -77.9839,
    "navigable_dist_m": null,
    "npdes_points": 1,
    "pixel_col": 387.0,
    "pixel_row": 343.0,
    "population_density": 155.0,
    "position_along": 0.3,
    "protected_area_score": 4.0761,
    "rank": 2,
    "road_access_m": 109.6,
    "road_access_score": 1.0,
    "road_density_km_km2": 6.569,
    "robustness_pct": 97.5,
    "runoff_coeff_C": 0.1026,
    "seasonal_cv": 0.5031,
    "segment_id": 1,
    "segment_length_m": 8347.0969,
    "stream_order": 1,
    "superfund_score": 0.0,
    "tourism_amenity_density": 0.7958,
    "tri_facility_density": 0.1857,
    "usgs_mean_q_cfs": 11.155,
    "velocity_feasibility": 0.7,
    "water_intake_score": 0.0473
   },
   "type": "Feature"
  },
  {
   "geometry": {
    "coordinates": [
     -77.97229,
     34.719401
    ],
    "type": "Point"
   },
   "properties": {
    "accumulation": 101427.0,
    "bank_slope_deg": 24.17,
    "bank_slope_score": 0.5,
    "bank_slope_source": "nc-dps-lidar-dem03-cross-section",
    "beach_dist_km": 59.06,
    "bridge_proximity_bonus": 0.0,
    "catchment_area_km2": 10.1355,
    "channel_width_m": 5.15,
    "channel_width_score": 1.0,
    "composite_score": 49.4692,
    "cso_density": 0.0,
    "ej_index": 0.5292,
    "elevation_m": 3.8607,
    "estuary_dist_km": 179.15,
    "feasibility_score": 67.8571,
    "flood_q10_cfs": 498.27,
    "flow_score": 48.371,
    "flow_velocity_ms": 0.5,
    "generation_score": 19.7288,
    "impact_score": 70.9307,
    "impervious_pct": null,
    "land_ownership": 1.0,
    "lat": 34.7194,
    "litter_complaint_density": 0.0,
    "lon": -77.9723,
    "navigable_dist_m": null,
    "npdes_points": 3,
    "pixel_col": 491.0,
    "pixel_row": 538.0,
    "population_density": 68.6,
    "position_along": 0.7,
    "protected_area_score": 4.3018,
    "rank": 3,
    "road_access_m": 442.3,
    "road_access_score": 0.8,
    "road_density_km_km2": 1.269,
    "robustness_pct": 100.0,
    "runoff_coeff_C": null,
    "seasonal_cv": null,
    "segment_id": 1,
    "segment_length_m": 8347.0969,
    "stream_order": 1,
    "superfund_score": 0.0,
    "tourism_amenity_density": 0.3183,
    "tri_facility_density": 0.0,
    "usgs_mean_q_cfs": null,
    "velocity_feasibility": 1.0,
    "water_intake_score": 0.0517
   },
   "type": "Feature"
  },
  {
   "geometry": {
    "coordinates": [
     -77.959453,
     34.71674
    ],
    "type": "Point"
   },
   "properties": {
    "accumulation": 137704.0,
    "bank_slope_deg": 2.76,
    "bank_slope_score": 1.0,
    "bank_slope_source": "nc-dps-lidar-dem03-cross-section",
    "beach_dist_km": 58.45,
    "bridge_proximity_bonus": 0.0,
    "catchment_area_km2": 13.7607,
    "channel_width_m": 5.75,
    "channel_width_score": 1.0,
    "composite_score": 47.6487,
    "cso_density": 0.0,
    "ej_index": 0.4777,
    "elevation_m": 4.1619,
    "estuary_dist_km": 178.07,
    "feasibility_score": 60.7143,
    "flood_q10_cfs": 598.68,
    "flow_score": 58.0,
    "flow_velocity_ms": 0.5,
    "generation_score": 10.2564,
    "impact_score": 69.882,
    "impervious_pct": null,
    "land_ownership": 0.5,
    "lat": 34.7167,
    "litter_complaint_density": 0.0,
    "lon": -77.9595,
    "navigable_dist_m": null,
    "npdes_points": 2,
    "pixel_col": 603.0,
    "pixel_row": 571.0,
    "population_density": 56.8,
    "position_along": 0.9,
    "protected_area_score": 4.6348,
    "rank": 4,
    "road_access_m": 482.3,
    "road_access_score": 0.8,
    "road_density_km_km2": 0.493,
    "robustness_pct": 87.0,
    "runoff_coeff_C": null,
    "seasonal_cv": null,
    "segment_id": 1,
    "segment_length_m": 8347.0969,
    "stream_order": 1,
    "superfund_score": 0.0,
    "tourism_amenity_density": 0.0,
    "tri_facility_density": 0.0,
    "usgs_mean_q_cfs": null,
    "velocity_feasibility": 1.0,
    "water_intake_score": 0.0491
   },
   "type": "Feature"
  },
  {
   "geometry": {
    "coordinates": [
     -77.995091,
     34.717978
    ],
    "type": "Point"
   },
   "properties": {
    "accumulation": 28432.0,
    "bank_slope_deg": 12.34,
    "bank_slope_score": 1.0,
    "bank_slope_source": "nc-dps-lidar-dem03-cross-section",
    "beach_dist_km": 59.53,
    "bridge_proximity_bonus": 0.0,
    "catchment_area_km2": 2.8412,
    "channel_width_m": 3.24,
    "channel_width_score": 1.0,
    "composite_score": 45.6367,
    "cso_density": 0.0,
    "ej_index": 0.5815,
    "elevation_m": 5.1932,
    "estuary_dist_km": 181.22,
    "feasibility_score": 82.1429,
    "flood_q10_cfs": 232.19,
    "flow_score": 40.555,
    "flow_velocity_ms": 0.5,
    "generation_score": 6.6233,
    "impact_score": 70.6316,
    "impervious_pct": null,
    "land_ownership": 1.0,
    "lat": 34.718,
    "litter_complaint_density": 0.0,
    "lon": -77.9951,
    "navigable_dist_m": null,
    "npdes_points": 0,
    "pixel_col": 281.0,
    "pixel_row": 546.0,
    "population_density": 79.4,
    "position_along": 0.5,
    "protected_area_score": 3.918,
    "rank": 5,
    "road_access_m": 268.2,
    "road_access_score": 0.8,
    "road_density_km_km2": 1.175,
    "robustness_pct": 43.0,
    "runoff_coeff_C": null,
    "seasonal_cv": null,
    "segment_id": 5,
    "segment_length_m": 474.3911,
    "stream_order": 3,
    "superfund_score": 0.0,
    "tourism_amenity_density": 0.3183,
    "tri_facility_density": 0.0,
    "usgs_mean_q_cfs": null,
    "velocity_feasibility": 1.0,
    "water_intake_score": 0.0593
   },
   "type": "Feature"
  },
  {
   "geometry": {
    "coordinates": [
     -77.989336,
     34.716651
    ],
    "type": "Point"
   },
   "properties": {
    "accumulation": 52633.0,
    "bank_slope_deg": 22.39,
    "bank_slope_score": 0.5,
    "bank_slope_source": "nc-dps-lidar-dem03-cross-section",
    "beach_dist_km": 59.23,
    "bridge_proximity_bonus": 0.0,
    "catchment_area_km2": 5.2596,
    "channel_width_m": 4.06,
    "channel_width_score": 1.0,
    "composite_score": 44.4811,
    "cso_density": 0.0,
    "ej_index": 0.5699,
    "elevation_m": 4.5756,
    "estuary_dist_km": 180.74,
    "feasibility_score": 46.4286,
    "flood_q10_cfs": 336.06,
    "flow_score": 48.3847,
    "flow_velocity_ms": 0.5,
    "generation_score": 10.5896,
    "impact_score": 74.1458,
    "impervious_pct": null,
    "land_ownership": 0.5,
    "lat": 34.7167,
    "litter_complaint_density": 0.0,
    "lon": -77.9893,
    "navigable_dist_m": null,
    "npdes_points": 1,
    "pixel_col": 333.0,
    "pixel_row": 561.0,
    "population_density": 69.8,
    "position_along": 0.5,
    "protected_area_score": 4.0786,
    "rank": 6,
    "road_access_m": 245.9,
    "road_access_score": 0.8,
    "road_density_km_km2": 1.668,
    "robustness_pct": 28.5,
    "runoff_coeff_C": null,
    "seasonal_cv": null,
    "segment_id": 7,
    "segment_length_m": 1214.9624,
    "stream_order": 3,
    "superfund_score": 0.0,
    "tourism_amenity_density": 0.3979,
    "tri_facility_density": 0.0,
    "usgs_mean_q_cfs": null,
    "velocity_feasibility": 1.0,
    "water_intake_score": 0.0582
   },
   "type": "Feature"
  },
  {
   "geometry": {
    "coordinates": [
     -78.009482,
     34.738002
    ],
    "type": "Point"
   },
   "properties": {
    "accumulation": 31836.0,
    "bank_slope_deg": 4.11,
    "bank_slope_score": 1.0,
    "bank_slope_source": "nc-dps-lidar-dem03-cross-section",
    "beach_dist_km": 62.06,
    "bridge_proximity_bonus": 0.0,
    "catchment_area_km2": 3.1814,
    "channel_width_m": 3.38,
    "channel_width_score": 1.0,
    "composite_score": 43.843,
    "cso_density": 0.0,
    "ej_index": 0.2432,
    "elevation_m": 10.251,
    "estuary_dist_km": 182.04,
    "feasibility_score": 66.3265,
    "flood_q10_cfs": 297.72,
    "flow_score": 28.5764,
    "flow_velocity_ms": 0.0539,
    "generation_score": 56.6094,
    "impact_score": 32.557,
    "impervious_pct": 7.77,
    "land_ownership": 0.5,
    "lat": 34.738,
    "litter_complaint_density": 0.0,
    "lon": -78.0095,
    "navigable_dist_m": null,
    "npdes_points": 0,
    "pixel_col": 152.0,
    "pixel_row": 321.0,
    "population_density": 157.4,
    "position_along": 0.5,
    "protected_area_score": 3.6753,
    "rank": 7,
    "road_access_m": 135.9,
    "road_access_score": 1.0,
    "road_density_km_km2": 4.233,
    "robustness_pct": 40.0,
    "runoff_coeff_C": 0.1199,
    "seasonal_cv": 0.6426,
    "segment_id": 2,
    "segment_length_m": 1873.8468,
    "stream_order": 3,
    "superfund_score": 0.0,
    "tourism_amenity_density": 0.3979,
    "tri_facility_density": 0.0,
    "usgs_mean_q_cfs": 2.474,
    "velocity_feasibility": 0.7,
    "water_intake_score": 0.0533
   },
   "type": "Feature"
  },
  {
   "geometry": {
    "coordinates": [
     -77.993626,
     34.716978
    ],
    "type": "Point"
   },
   "properties": {
    "accumulation": 28522.0,
    "bank_slope_deg": 5.93,
    "bank_slope_score": 1.0,
    "bank_slope_source": "nc-dps-lidar-dem03-cross-section",
    "beach_dist_km": 59.38,
    "bridge_proximity_bonus": 0.0,
    "catchment_area_km2": 2.8502,
    "channel_width_m": 3.25,
    "channel_width_score": 1.0,
    "composite_score": 42.5033,
    "cso_density": 0.0,
    "ej_index": 0.586,
    "elevation_m": 5.0415,
    "estuary_dist_km": 181.11,
    "feasibility_score": 60.7143,
    "flood_q10_cfs": 232.63,
    "flow_score": 40.5862,
    "flow_velocity_ms": 0.5,
    "generation_score": 4.7952,
    "impact_score": 72.7036,
    "impervious_pct": null,
    "land_ownership": 0.5,
    "lat": 34.717,
    "litter_complaint_density": 0.0,
    "lon": -77.9936,
    "navigable_dist_m": null,
    "npdes_points": 0,
    "pixel_col": 291.0,
    "pixel_row": 555.0,
    "population_density": 72.7,
    "position_along": 0.5,
    "protected_area_score": 3.9874,
    "rank": 8,
    "road_access_m": 330.4,
    "road_access_score": 0.8,
    "road_density_km_km2": 1.037,
    "robustness_pct": 1.0,
    "runoff_coeff_C": null,
    "seasonal_cv": null,
    "segment_id": 6,
    "segment_length_m": 62.4044,
    "stream_order": 3,
    "superfund_score": 0.0,
    "tourism_amenity_density": 0.3183,
    "tri_facility_density": 0.0,
    "usgs_mean_q_cfs": null,
    "velocity_feasibility": 1.0,
    "water_intake_score": 0.0594
   },
   "type": "Feature"
  },
  {
   "geometry": {
    "coordinates": [
     -78.010788,
     34.731842
    ],
    "type": "Point"
   },
   "properties": {
    "accumulation": 29240.0,
    "bank_slope_deg": 0.36,
    "bank_slope_score": 1.0,
    "bank_slope_source": "nc-dps-lidar-dem03-cross-section",
    "beach_dist_km": 61.45,
    "bridge_proximity_bonus": 0.0,
    "catchment_area_km2": 2.9219,
    "channel_width_m": 3.28,
    "channel_width_score": 1.0,
    "composite_score": 39.2984,
    "cso_density": 0.0,
    "ej_index": 0.4187,
    "elevation_m": 7.6279,
    "estuary_dist_km": 182.3,
    "feasibility_score": 60.7143,
    "flood_q10_cfs": 236.13,
    "flow_score": 40.8344,
    "flow_velocity_ms": 0.5,
    "generation_score": 21.8628,
    "impact_score": 44.746,
    "impervious_pct": null,
    "land_ownership": 0.5,
    "lat": 34.7318,
    "litter_complaint_density": 0.0,
    "lon": -78.0108,
    "navigable_dist_m": null,
    "npdes_points": 0,
    "pixel_col": 138.0,
    "pixel_row": 389.0,
    "population_density": 129.7,
    "position_along": 0.5,
    "protected_area_score": 3.5408,
    "rank": 9,
    "road_access_m": 255.2,
    "road_access_score": 0.8,
    "road_density_km_km2": 2.929,
    "robustness_pct": 2.0,
    "runoff_coeff_C": null,
    "seasonal_cv": null,
    "segment_id": 3,
    "segment_length_m": 644.0368,
    "stream_order": 3,
    "superfund_score": 0.0,
    "tourism_amenity_density": 0.3183,
    "tri_facility_density": 0.0,
    "usgs_mean_q_cfs": null,
    "velocity_feasibility": 1.0,
    "water_intake_score": 0.0568
   },
   "type": "Feature"
  },
  {
   "geometry": {
    "coordinates": [
     -78.018662,
     34.731721
    ],
    "type": "Point"
   },
   "properties": {
    "accumulation": 68094.0,
    "bank_slope_deg": 22.1,
    "bank_slope_score": 0.5,
    "bank_slope_source": "nc-dps-lidar-dem03-cross-section",
    "beach_dist_km": 61.68,
    "bridge_proximity_bonus": 0.0,
    "catchment_area_km2": 6.8046,
    "channel_width_m": 4.45,
    "channel_width_score": 1.0,
    "composite_score": 35.3997,
    "cso_density": 0.0,
    "ej_index": 0.4421,
    "elevation_m": 7.2198,
    "estuary_dist_km": 183.01,
    "feasibility_score": 28.5714,
    "flood_q10_cfs": 392.26,
    "flow_score": 52.9995,
    "flow_velocity_ms": 0.5,
    "generation_score": 16.4951,
    "impact_score": 43.052,
    "impervious_pct": null,
    "land_ownership": 0.5,
    "lat": 34.7317,
    "litter_complaint_density": 0.0,
    "lon": -78.0187,
    "navigable_dist_m": null,
    "npdes_points": 0,
    "pixel_col": 66.0,
    "pixel_row": 387.0,
    "population_density": 119.5,
    "position_along": 0.5,
    "protected_area_score": 3.3913,
    "rank": 10,
    "road_access_m": 538.9,
    "road_access_score": 0.6,
    "road_density_km_km2": 1.494,
    "robustness_pct": 1.0,
    "runoff_coeff_C": null,
    "seasonal_cv": null,
    "segment_id": 4,
    "segment_length_m": 1264.9448,
    "stream_order": 3,
    "superfund_score": 0.0,
    "tourism_amenity_density": 0.2387,
    "tri_facility_density": 0.0,
    "usgs_mean_q_cfs": null,
    "velocity_feasibility": 1.0,
    "water_intake_score": 0.0591
   },
   "type": "Feature"
  },
  {
   "geometry": {
    "coordinates": [
     -77.978486,
     34.748763
    ],
    "type": "Point"
   },
   "properties": {
    "accumulation": 25145.0,
    "bank_slope_deg": 0.04,
    "bank_slope_score": 1.0,
    "bank_slope_source": "nc-dps-lidar-dem03-cross-section",
    "beach_dist_km": 62.35,
    "bridge_proximity_bonus": 0.0,
    "catchment_area_km2": 2.5127,
    "channel_width_m": 3.1,
    "channel_width_score": 1.0,
    "composite_score": 33.4461,
    "cso_density": 0.0,
    "ej_index": 0.2413,
    "elevation_m": 12.15,
    "estuary_dist_km": 179.03,
    "feasibility_score": 71.4286,
    "flood_q10_cfs": 231.42,
    "flow_score": 29.2825,
    "flow_velocity_ms": 0.0476,
    "generation_score": 14.5703,
    "impact_score": 36.8005,
    "impervious_pct": 3.03,
    "land_ownership": 1.0,
    "lat": 34.7488,
    "litter_complaint_density": 0.0,
    "lon": -77.9785,
    "navigable_dist_m": null,
    "npdes_points": 0,
    "pixel_col": 442.0,
    "pixel_row": 210.0,
    "population_density": 65.8,
    "position_along": 0.1,
    "protected_area_score": 4.3987,
    "rank": 11,
    "road_access_m": 184.7,
    "road_access_score": 1.0,
    "road_density_km_km2": 1.681,
    "robustness_pct": 0.0,
    "runoff_coeff_C": 0.0773,
    "seasonal_cv": 0.4232,
    "segment_id": 1,
    "segment_length_m": 8347.0969,
    "stream_order": 1,
    "superfund_score": 0.0,
    "tourism_amenity_density": 0.4775,
    "tri_facility_density": 0.0,
    "usgs_mean_q_cfs": 11.216,
    "velocity_feasibility": 0.3,
    "water_intake_score": 0.0412
   },
   "type": "Feature"
  },
  {
   "geometry": {
    "coordinates": [
     -77.990972,
     34.757473
    ],
    "type": "Point"
   },
   "properties": {
    "accumulation": 30102.0,
    "bank_slope_deg": 0.78,
    "bank_slope_score": 1.0,
    "bank_slope_source": "nc-dps-lidar-dem03-cross-section",
    "beach_dist_km": 63.6,
    "bridge_proximity_bonus": 0.0,
    "catchment_area_km2": 3.0081,
    "channel_width_m": 3.31,
    "channel_width_score": 1.0,
    "composite_score": 27.9551,
    "cso_density": 0.0,
    "ej_index": 0.4904,
    "elevation_m": 14.164,
    "estuary_dist_km": 179.96,
    "feasibility_score": 30.6122,
    "flood_q10_cfs": 260.36,
    "flow_score": 24.6163,
    "flow_velocity_ms": 0.1193,
    "generation_score": 20.2056,
    "impact_score": 37.1584,
    "impervious_pct": 3.45,
    "land_ownership": 0.5,
    "lat": 34.7575,
    "litter_complaint_density": 0.0,
    "lon": -77.991,
    "navigable_dist_m": null,
    "npdes_points": 0,
    "pixel_col": 332.0,
    "pixel_row": 110.0,
    "population_density": 76.0,
    "position_along": 0.5,
    "protected_area_score": 4.2877,
    "rank": 12,
    "road_access_m": 565.0,
    "road_access_score": 0.6,
    "road_density_km_km2": 2.586,
    "robustness_pct": 0.0,
    "runoff_coeff_C": 0.081,
    "seasonal_cv": 0.4471,
    "segment_id": 0,
    "segment_length_m": 1265.6552,
    "stream_order": 1,
    "superfund_score": 0.0,
    "tourism_amenity_density": 0.0796,
    "tri_facility_density": 0.0,
    "usgs_mean_q_cfs": 7.146,
    "velocity_feasibility": 0.7,
    "water_intake_score": 0.0406
   },
   "type": "Feature"
  }
 ],
 "note": "GRIME region 'Wallace, NC' \u2014 real-data pipeline (DEM\u2192streams\u2192candidates\u2192stream mask (sites confined to \u00b1150 m of mapped OSM/NHD waterways)\u2192region-appropriate real parameters\u2192shipped scoring, math unchanged). Width curve: Bieger et al. 2015 JAWRA Table 3, Atlantic Plain. Flood: SIR 2014-5030 HR4 (I24H50Y: NOAA Atlas 14). NC Coastal Plain (SIR 2014-5030 HR4; I24H50Y from NOAA Atlas 14 at region center)",
 "provenance": {
  "candidates_pre_gate": 12,
  "constant": [
   "bridge_proximity_bonus",
   "channel_width_score",
   "cso_density",
   "litter_complaint_density",
   "superfund_score"
  ],
  "gated_navigable": 0,
  "hard_gate_removed": 0,
  "n_parameters": 27,
  "parameters": {
   "bank_slope_score": {
    "kind": "real",
    "n_3dep_10m_fallback": 0,
    "n_nc_lidar_3_125ft": 12,
    "n_real": 12,
    "n_sites": 12,
    "source": "NC OneMap / NC DPS DEM03 statewide lidar-derived 3.125-ft (0.953 m) elevations (perpendicular 50 m transect; robust 5 m bank-rise metric); unavailable profiles use the region 10 m 3DEP DEM-gradient fallback",
    "source_mosaics": [
     "Duplin_Ground_3ft"
    ]
   },
   "beach_dist_km": {
    "kind": "real",
    "n_real": 12,
    "n_sites": 12,
    "source": "haversine to region ref: Wrightsville Beach (shipped NC reference)"
   },
   "bridge_proximity_bonus": {
    "kind": "real",
    "n_real": 12,
    "n_sites": 12,
    "source": "FHWA/BTS NBI (NTAD), 50 m proximity"
   },
   "catchment_area_km2": {
    "kind": "real",
    "n_real": 12,
    "n_sites": 12,
    "source": "DEM flow accumulation (pipeline)"
   },
   "channel_width_score": {
    "kind": "real",
    "n_real": 12,
    "n_sites": 12,
    "source": "Bieger 2015 APL width curve on DEM drainage area \u2192 shipped width curve"
   },
   "cso_density": {
    "kind": "real",
    "n_real": 12,
    "n_sites": 12,
    "source": "EPA ECHO open CSO/TCS outfall PF coordinates states=NC, Cauchy proximity"
   },
   "ej_index": {
    "kind": "real",
    "n_real": 12,
    "n_sites": 12,
    "source": "Census ACS C17002+B03002 two-component demographic index, percentile-ranked within region"
   },
   "estuary_dist_km": {
    "kind": "real",
    "n_real": 12,
    "n_sites": 12,
    "source": "haversine to region ref: Pamlico Sound (shipped NC reference)"
   },
   "flood_q10_cfs": {
    "impervious_fallback_reason": "StreamCat imperviousness unavailable; the existing regression-input fallback of 0.0% impervious was used and is disclosed here",
    "kind": "real",
    "n_impervious_fallback": 7,
    "n_real": 12,
    "n_sites": 12,
    "source": "USGS SIR 2014-5030 Table 7 HR4 (NC Coastal Plain; I24H50Y from NOAA Atlas 14 at region center)"
   },
   "flow_velocity_ms": {
    "fallback_reason": "EROM/DEM continuity input unavailable; shipped 0.5 m/s default used",
    "kind": "real",
    "n_fallback": 7,
    "n_real": 5,
    "n_sites": 12,
    "source": "Manning (region DEM/D8) blended with EROM continuity (shipped M4 logic)"
   },
   "impervious_pct": {
    "fallback_reason": "NLDI/StreamCat did not return a snap-compatible catchment value; value remains null and is removed by constant-column handling",
    "kind": "real",
    "n_fallback": 7,
    "n_real": 5,
    "n_sites": 12,
    "source": "EPA StreamCat pctimp2019 (per NHDPlus watershed)"
   },
   "land_ownership": {
    "fallback_reason": "no containing parcel owner returned; shipped unknown ownership 0.5 used",
    "kind": "real",
    "n_fallback": 1,
    "n_real": 11,
    "n_sites": 12,
    "source": "NC OneMap statewide parcels (NC Parcels Transformer) ownname"
   },
   "litter_complaint_density": {
    "kind": "fallback",
    "n_real": 0,
    "n_sites": 12,
    "source": "no public machine-readable litter/illegal-dumping feed for this region"
   },
   "navigable_dist_m": {
    "kind": "real",
    "n_real": 12,
    "n_sites": 12,
    "source": "USACE/BTS NWN (NTAD): no navigable segment within this bbox (+2 km) \u2014 computed absence, gate passes all sites"
   },
   "npdes_points": {
    "kind": "real",
    "n_real": 12,
    "n_sites": 12,
    "source": "EPA ECHO active NPDES outfalls states=NC (types NPD/GPC/NGP; statuses ADC/EFF/EXP), per catchment"
   },
   "population_density": {
    "kind": "real",
    "n_real": 12,
    "n_sites": 12,
    "source": "Census ACS 2022 B01003 block groups (bbox, multi-county), area-weighted"
   },
   "protected_area_score": {
    "kind": "real",
    "n_real": 12,
    "n_sites": 12,
    "source": "USGS PAD-US 4.1 state GDB; states=NC; shipped designation-weighted proximity curve"
   },
   "road_access_score": {
    "kind": "real",
    "n_real": 12,
    "n_sites": 12,
    "source": "OSM drive network nearest-node distance"
   },
   "road_density_km_km2": {
    "kind": "real",
    "n_real": 12,
    "n_sites": 12,
    "source": "OSM drive network (osmnx, cached) clipped per catchment"
   },
   "runoff_coeff_C": {
    "fallback_reason": "source impervious_pct was unavailable; derived value remains null",
    "kind": "real",
    "n_fallback": 7,
    "n_real": 5,
    "n_sites": 12,
    "source": "derived from real impervious_pct (C=0.05+0.009*I)"
   },
   "seasonal_cv": {
    "fallback_reason": "NHDPlus monthly EROM was unavailable or failed the drainage-area snap guard; value remains null",
    "kind": "real",
    "n_fallback": 7,
    "n_real": 5,
    "n_sites": 12,
    "source": "CV of NHDPlus EROM monthly flows per COMID"
   },
   "stream_order": {
    "kind": "real",
    "n_real": 12,
    "n_sites": 12,
    "source": "DEM stream-network confluence heuristic (pipeline)"
   },
   "superfund_score": {
    "kind": "real",
    "n_real": 12,
    "n_sites": 12,
    "source": "EPA DataMap SEMS active sites states=NC (non-archived, georeferenced), shipped 500 m inverse-distance curve"
   },
   "tourism_amenity_density": {
    "kind": "real",
    "n_real": 12,
    "n_sites": 12,
    "source": "OSM leisure/tourism features per 2 km radius"
   },
   "tri_facility_density": {
    "kind": "real",
    "n_real": 12,
    "n_sites": 12,
    "source": "EPA DataMap TRI open facilities states=NC (preferred decimal or packed-DMS recovery), per catchment"
   },
   "usgs_mean_q_cfs": {
    "fallback_reason": "NHDPlus EROM was unavailable or failed the drainage-area snap guard; value remains null",
    "kind": "real",
    "n_fallback": 7,
    "n_real": 5,
    "n_sites": 12,
    "source": "NHDPlus EROM qe_ma per COMID (snap-guarded)"
   },
   "velocity_feasibility": {
    "fallback_reason": "derived from the shipped 0.5 m/s velocity fallback",
    "kind": "real",
    "n_fallback": 7,
    "n_real": 5,
    "n_sites": 12,
    "source": "shipped step curve on the computed velocity"
   },
   "velocity_transport_favorability": {
    "fallback_reason": "EROM/DEM continuity input unavailable; shipped 0.5 m/s default used",
    "kind": "derived",
    "n_fallback": 7,
    "n_real": 5,
    "n_sites": 12,
    "source": "scored form of flow_velocity_ms inside the Flow family \u2014 peaked Gaussian exp(-((v-0.9)/0.6)^2), model.json curves.velocity_transport_favorability; construct: transport/delivery favorability, deliberately distinct from velocity_feasibility (device operability)"
   },
   "water_intake_score": {
    "kind": "real",
    "n_real": 12,
    "n_sites": 12,
    "source": "NC OneMap / NC DEQ SWAP public water supply sources (source_typ='Surface Water'), shipped exp(-d/10km) curve"
   }
  },
  "stream_mask": {
   "buffer_m": 150.0,
   "pre_mask": 12,
   "removed": 0,
   "sources": [
    "osm-overpass (all waterway ways)",
    "usgs-nhdplus flowlines"
   ]
  },
  "varying": [
   "bank_slope_score",
   "beach_dist_km",
   "catchment_area_km2",
   "ej_index",
   "estuary_dist_km",
   "flood_q10_cfs",
   "flow_velocity_ms",
   "impervious_pct",
   "land_ownership",
   "npdes_points",
   "population_density",
   "protected_area_score",
   "road_access_score",
   "road_density_km_km2",
   "runoff_coeff_C",
   "seasonal_cv",
   "stream_order",
   "tourism_amenity_density",
   "tri_facility_density",
   "usgs_mean_q_cfs",
   "velocity_feasibility",
   "water_intake_score"
  ]
 },
 "region": {
  "bbox": [
   -78.0253,
   34.7094,
   -77.9559,
   34.7664
  ],
  "beach_ref": {
   "label": "Wrightsville Beach (shipped NC reference)",
   "lat": 34.21,
   "lon": -77.79
  },
  "center": [
   -77.990577,
   34.737886
  ],
  "estuary_ref": {
   "label": "Pamlico Sound (shipped NC reference)",
   "lat": 35.05,
   "lon": -76.05
  },
  "flood_method": "sir2014_hr4",
  "name": "Wallace, NC",
  "notes": "NC Coastal Plain (SIR 2014-5030 HR4; I24H50Y from NOAA Atlas 14 at region center)",
  "slug": "wallace",
  "state": "NC",
  "utm_epsg": 32618,
  "width_curve": {
   "a": 2.22,
   "b": 0.363,
   "code": "APL",
   "source": "Bieger et al. 2015 JAWRA Table 3, Atlantic Plain"
  }
 },
 "type": "FeatureCollection"
}
