{
 "features": [
  {
   "geometry": {
    "coordinates": [
     -78.082231,
     34.99816
    ],
    "type": "Point"
   },
   "properties": {
    "accumulation": 38563.0,
    "bank_slope_deg": 10.04,
    "bank_slope_score": 1.0,
    "bank_slope_source": "nc-dps-lidar-dem03-cross-section",
    "beach_dist_km": 91.63,
    "bridge_proximity_bonus": 0.0,
    "catchment_area_km2": 3.8525,
    "channel_width_m": 3.62,
    "channel_width_score": 1.0,
    "composite_score": 61.1563,
    "cso_density": 0.0,
    "ej_index": 0.5521,
    "elevation_m": 40.1853,
    "estuary_dist_km": 185.14,
    "feasibility_score": 50.0,
    "flood_q10_cfs": 287.5,
    "flow_score": 59.0726,
    "flow_velocity_ms": 0.1048,
    "generation_score": 76.9231,
    "impact_score": 52.704,
    "impervious_pct": 6.8,
    "land_ownership": 0.5,
    "lat": 34.9982,
    "litter_complaint_density": 0.0,
    "lon": -78.0822,
    "navigable_dist_m": null,
    "npdes_points": 3,
    "pixel_col": 424.0,
    "pixel_row": 341.0,
    "population_density": 126.3,
    "position_along": 0.1667,
    "protected_area_score": 2.3743,
    "rank": 1,
    "road_access_m": 247.7,
    "road_access_score": 0.8,
    "road_density_km_km2": 7.403,
    "robustness_pct": 100.0,
    "runoff_coeff_C": 0.1112,
    "seasonal_cv": 0.4544,
    "segment_id": 2,
    "segment_length_m": 5122.748,
    "stream_order": 1,
    "superfund_score": 0.085,
    "tourism_amenity_density": 1.0345,
    "tri_facility_density": 0.0,
    "usgs_mean_q_cfs": 7.606,
    "velocity_feasibility": 0.7,
    "water_intake_score": 0.0293
   },
   "type": "Feature"
  },
  {
   "geometry": {
    "coordinates": [
     -78.07731,
     34.98567
    ],
    "type": "Point"
   },
   "properties": {
    "accumulation": 65678.0,
    "bank_slope_deg": 5.45,
    "bank_slope_score": 1.0,
    "bank_slope_source": "nc-dps-lidar-dem03-cross-section",
    "beach_dist_km": 90.17,
    "bridge_proximity_bonus": 0.0,
    "catchment_area_km2": 6.5613,
    "channel_width_m": 4.39,
    "channel_width_score": 1.0,
    "composite_score": 59.2934,
    "cso_density": 0.0,
    "ej_index": 0.5755,
    "elevation_m": 37.2058,
    "estuary_dist_km": 184.75,
    "feasibility_score": 50.0,
    "flood_q10_cfs": 395.8,
    "flow_score": 88.3834,
    "flow_velocity_ms": 0.1567,
    "generation_score": 44.4813,
    "impact_score": 54.5106,
    "impervious_pct": 6.8,
    "land_ownership": 0.5,
    "lat": 34.9857,
    "litter_complaint_density": 0.0,
    "lon": -78.0773,
    "navigable_dist_m": null,
    "npdes_points": 1,
    "pixel_col": 473.0,
    "pixel_row": 479.0,
    "population_density": 69.7,
    "position_along": 0.5,
    "protected_area_score": 2.3764,
    "rank": 2,
    "road_access_m": 438.8,
    "road_access_score": 0.8,
    "road_density_km_km2": 2.164,
    "robustness_pct": 100.0,
    "runoff_coeff_C": 0.1112,
    "seasonal_cv": 0.4544,
    "segment_id": 2,
    "segment_length_m": 5122.748,
    "stream_order": 1,
    "superfund_score": 0.2125,
    "tourism_amenity_density": 0.4775,
    "tri_facility_density": 0.0,
    "usgs_mean_q_cfs": 7.606,
    "velocity_feasibility": 0.7,
    "water_intake_score": 0.0267
   },
   "type": "Feature"
  },
  {
   "geometry": {
    "coordinates": [
     -78.070919,
     34.974205
    ],
    "type": "Point"
   },
   "properties": {
    "accumulation": 88143.0,
    "bank_slope_deg": 0.36,
    "bank_slope_score": 1.0,
    "bank_slope_source": "nc-dps-lidar-dem03-cross-section",
    "beach_dist_km": 88.78,
    "bridge_proximity_bonus": 0.0,
    "catchment_area_km2": 8.8056,
    "channel_width_m": 4.89,
    "channel_width_score": 1.0,
    "composite_score": 46.1863,
    "cso_density": 0.0,
    "ej_index": 0.5771,
    "elevation_m": 34.7461,
    "estuary_dist_km": 184.24,
    "feasibility_score": 0.0,
    "flood_q10_cfs": 472.27,
    "flow_score": 100.0,
    "flow_velocity_ms": 0.1585,
    "generation_score": 34.0563,
    "impact_score": 36.5646,
    "impervious_pct": 6.8,
    "land_ownership": 0.5,
    "lat": 34.9742,
    "litter_complaint_density": 0.0,
    "lon": -78.0709,
    "navigable_dist_m": null,
    "npdes_points": 0,
    "pixel_col": 535.0,
    "pixel_row": 604.0,
    "population_density": 58.7,
    "position_along": 0.8333,
    "protected_area_score": 2.1643,
    "rank": 3,
    "road_access_m": 762.3,
    "road_access_score": 0.6,
    "road_density_km_km2": 0.625,
    "robustness_pct": 97.0,
    "runoff_coeff_C": 0.1112,
    "seasonal_cv": 0.4544,
    "segment_id": 2,
    "segment_length_m": 5122.748,
    "stream_order": 1,
    "superfund_score": 0.066,
    "tourism_amenity_density": 0.0,
    "tri_facility_density": 0.0,
    "usgs_mean_q_cfs": 7.606,
    "velocity_feasibility": 0.7,
    "water_intake_score": 0.0247
   },
   "type": "Feature"
  },
  {
   "geometry": {
    "coordinates": [
     -78.121121,
     35.00927
    ],
    "type": "Point"
   },
   "properties": {
    "accumulation": 37499.0,
    "bank_slope_deg": 9.03,
    "bank_slope_score": 1.0,
    "bank_slope_source": "nc-dps-lidar-dem03-cross-section",
    "beach_dist_km": 93.9,
    "bridge_proximity_bonus": 0.0,
    "catchment_area_km2": 3.7462,
    "channel_width_m": 3.59,
    "channel_width_score": 1.0,
    "composite_score": 42.1136,
    "cso_density": 0.0,
    "ej_index": 0.8622,
    "elevation_m": 40.5036,
    "estuary_dist_km": 188.63,
    "feasibility_score": 50.0,
    "flood_q10_cfs": 278.34,
    "flow_score": 35.891,
    "flow_velocity_ms": 0.1211,
    "generation_score": 49.2079,
    "impact_score": 36.2616,
    "impervious_pct": 6.13,
    "land_ownership": 0.5,
    "lat": 35.0093,
    "litter_complaint_density": 0.0,
    "lon": -78.1211,
    "navigable_dist_m": null,
    "npdes_points": 0,
    "pixel_col": 63.0,
    "pixel_row": 226.0,
    "population_density": 30.7,
    "position_along": 0.5,
    "protected_area_score": 2.393,
    "rank": 4,
    "road_access_m": 230.5,
    "road_access_score": 0.8,
    "road_density_km_km2": 1.297,
    "robustness_pct": 100.0,
    "runoff_coeff_C": 0.1052,
    "seasonal_cv": 0.4844,
    "segment_id": 1,
    "segment_length_m": 1575.0258,
    "stream_order": 1,
    "superfund_score": 0.0144,
    "tourism_amenity_density": 0.0,
    "tri_facility_density": 0.2669,
    "usgs_mean_q_cfs": 2.98,
    "velocity_feasibility": 0.7,
    "water_intake_score": 0.0275
   },
   "type": "Feature"
  },
  {
   "geometry": {
    "coordinates": [
     -78.058134,
     35.019856
    ],
    "type": "Point"
   },
   "properties": {
    "accumulation": 20142.0,
    "bank_slope_deg": 2.95,
    "bank_slope_score": 1.0,
    "bank_slope_source": "nc-dps-lidar-dem03-cross-section",
    "beach_dist_km": 93.34,
    "bridge_proximity_bonus": 0.0,
    "catchment_area_km2": 2.0122,
    "channel_width_m": 2.86,
    "channel_width_score": 1.0,
    "composite_score": 35.086,
    "cso_density": 0.0,
    "ej_index": 0.3772,
    "elevation_m": 36.3128,
    "estuary_dist_km": 182.86,
    "feasibility_score": 100.0,
    "flood_q10_cfs": 171.29,
    "flow_score": 13.4026,
    "flow_velocity_ms": 0.1416,
    "generation_score": 2.4722,
    "impact_score": 53.3125,
    "impervious_pct": 1.3,
    "land_ownership": 0.5,
    "lat": 35.0199,
    "litter_complaint_density": 0.0,
    "lon": -78.0581,
    "navigable_dist_m": null,
    "npdes_points": 0,
    "pixel_col": 638.0,
    "pixel_row": 91.0,
    "population_density": 30.4,
    "position_along": 0.5,
    "protected_area_score": 2.5171,
    "rank": 5,
    "road_access_m": 91.9,
    "road_access_score": 1.0,
    "road_density_km_km2": 0.728,
    "robustness_pct": 83.5,
    "runoff_coeff_C": 0.0617,
    "seasonal_cv": 0.5393,
    "segment_id": 0,
    "segment_length_m": 62.3954,
    "stream_order": 1,
    "superfund_score": 0.0107,
    "tourism_amenity_density": 0.0,
    "tri_facility_density": 0.0,
    "usgs_mean_q_cfs": 2.202,
    "velocity_feasibility": 0.7,
    "water_intake_score": 0.0391
   },
   "type": "Feature"
  },
  {
   "geometry": {
    "coordinates": [
     -78.092756,
     34.975421
    ],
    "type": "Point"
   },
   "properties": {
    "accumulation": 25438.0,
    "bank_slope_deg": 7.23,
    "bank_slope_score": 1.0,
    "bank_slope_source": "nc-dps-lidar-dem03-cross-section",
    "beach_dist_km": 89.51,
    "bridge_proximity_bonus": 0.0,
    "catchment_area_km2": 2.5413,
    "channel_width_m": 3.11,
    "channel_width_score": 1.0,
    "composite_score": 23.8093,
    "cso_density": 0.0,
    "ej_index": 0.7976,
    "elevation_m": 36.4345,
    "estuary_dist_km": 186.22,
    "feasibility_score": 0.0,
    "flood_q10_cfs": 207.12,
    "flow_score": 27.575,
    "flow_velocity_ms": 0.1341,
    "generation_score": 11.0294,
    "impact_score": 45.3558,
    "impervious_pct": 3.44,
    "land_ownership": 0.5,
    "lat": 34.9754,
    "litter_complaint_density": 0.0,
    "lon": -78.0928,
    "navigable_dist_m": null,
    "npdes_points": 0,
    "pixel_col": 335.0,
    "pixel_row": 597.0,
    "population_density": 22.8,
    "position_along": 0.5,
    "protected_area_score": 2.2704,
    "rank": 6,
    "road_access_m": 662.6,
    "road_access_score": 0.6,
    "road_density_km_km2": 0.849,
    "robustness_pct": 16.5,
    "runoff_coeff_C": 0.081,
    "seasonal_cv": 0.5031,
    "segment_id": 3,
    "segment_length_m": 1107.5622,
    "stream_order": 1,
    "superfund_score": 0.1801,
    "tourism_amenity_density": 0.0,
    "tri_facility_density": 0.0,
    "usgs_mean_q_cfs": 3.291,
    "velocity_feasibility": 0.7,
    "water_intake_score": 0.0229
   },
   "type": "Feature"
  },
  {
   "geometry": {
    "coordinates": [
     -78.110682,
     34.975192
    ],
    "type": "Point"
   },
   "properties": {
    "accumulation": 26588.0,
    "bank_slope_deg": 3.06,
    "bank_slope_score": 1.0,
    "bank_slope_source": "nc-dps-lidar-dem03-cross-section",
    "beach_dist_km": 90.01,
    "bridge_proximity_bonus": 0.0,
    "catchment_area_km2": 2.6562,
    "channel_width_m": 3.16,
    "channel_width_score": 1.0,
    "composite_score": 23.5322,
    "cso_density": 0.0,
    "ej_index": 0.8158,
    "elevation_m": 35.0263,
    "estuary_dist_km": 187.85,
    "feasibility_score": 50.0,
    "flood_q10_cfs": 204.78,
    "flow_score": 23.1463,
    "flow_velocity_ms": 0.0937,
    "generation_score": 3.242,
    "impact_score": 30.9099,
    "impervious_pct": 1.81,
    "land_ownership": 0.5,
    "lat": 34.9752,
    "litter_complaint_density": 0.0,
    "lon": -78.1107,
    "navigable_dist_m": null,
    "npdes_points": 0,
    "pixel_col": 170.0,
    "pixel_row": 604.0,
    "population_density": 19.9,
    "position_along": 0.5,
    "protected_area_score": 2.2148,
    "rank": 7,
    "road_access_m": 324.3,
    "road_access_score": 0.8,
    "road_density_km_km2": 1.082,
    "robustness_pct": 3.0,
    "runoff_coeff_C": 0.0663,
    "seasonal_cv": 0.4689,
    "segment_id": 4,
    "segment_length_m": 1232.3531,
    "stream_order": 1,
    "superfund_score": 0.0443,
    "tourism_amenity_density": 0.0,
    "tri_facility_density": 0.0,
    "usgs_mean_q_cfs": 4.116,
    "velocity_feasibility": 0.7,
    "water_intake_score": 0.0212
   },
   "type": "Feature"
  }
 ],
 "note": "GRIME region 'Warsaw, NC' \u2014 real-data pipeline (DEM\u2192streams\u2192candidates\u2192stream mask (sites confined to \u00b1150 m of mapped OSM/NHD waterways)\u2192region-appropriate real parameters\u2192shipped scoring, math unchanged). Width curve: Bieger et al. 2015 JAWRA Table 3, Atlantic Plain. Flood: SIR 2014-5030 HR4 (I24H50Y: NOAA Atlas 14). NC Coastal Plain (SIR 2014-5030 HR4; I24H50Y from NOAA Atlas 14 at region center)",
 "provenance": {
  "candidates_pre_gate": 7,
  "constant": [
   "bank_slope_score",
   "bridge_proximity_bonus",
   "channel_width_score",
   "cso_density",
   "land_ownership",
   "litter_complaint_density",
   "stream_order",
   "velocity_feasibility"
  ],
  "gated_navigable": 0,
  "hard_gate_removed": 0,
  "n_parameters": 27,
  "parameters": {
   "bank_slope_score": {
    "kind": "real",
    "n_3dep_10m_fallback": 0,
    "n_nc_lidar_3_125ft": 7,
    "n_real": 7,
    "n_sites": 7,
    "source": "NC OneMap / NC DPS DEM03 statewide lidar-derived 3.125-ft (0.953 m) elevations (perpendicular 50 m transect; robust 5 m bank-rise metric); unavailable profiles use the region 10 m 3DEP DEM-gradient fallback",
    "source_mosaics": [
     "Duplin_Ground_3ft"
    ]
   },
   "beach_dist_km": {
    "kind": "real",
    "n_real": 7,
    "n_sites": 7,
    "source": "haversine to region ref: Wrightsville Beach (shipped NC reference)"
   },
   "bridge_proximity_bonus": {
    "kind": "real",
    "n_real": 7,
    "n_sites": 7,
    "source": "FHWA/BTS NBI (NTAD), 50 m proximity"
   },
   "catchment_area_km2": {
    "kind": "real",
    "n_real": 7,
    "n_sites": 7,
    "source": "DEM flow accumulation (pipeline)"
   },
   "channel_width_score": {
    "kind": "real",
    "n_real": 7,
    "n_sites": 7,
    "source": "Bieger 2015 APL width curve on DEM drainage area \u2192 shipped width curve"
   },
   "cso_density": {
    "kind": "real",
    "n_real": 7,
    "n_sites": 7,
    "source": "EPA ECHO open CSO/TCS outfall PF coordinates states=NC, Cauchy proximity"
   },
   "ej_index": {
    "kind": "real",
    "n_real": 7,
    "n_sites": 7,
    "source": "Census ACS C17002+B03002 two-component demographic index, percentile-ranked within region"
   },
   "estuary_dist_km": {
    "kind": "real",
    "n_real": 7,
    "n_sites": 7,
    "source": "haversine to region ref: Pamlico Sound (shipped NC reference)"
   },
   "flood_q10_cfs": {
    "kind": "real",
    "n_real": 7,
    "n_sites": 7,
    "source": "USGS SIR 2014-5030 Table 7 HR4 (NC Coastal Plain; I24H50Y from NOAA Atlas 14 at region center)"
   },
   "flow_velocity_ms": {
    "kind": "real",
    "n_fallback": 0,
    "n_real": 7,
    "n_sites": 7,
    "source": "Manning (region DEM/D8) blended with EROM continuity (shipped M4 logic)"
   },
   "impervious_pct": {
    "kind": "real",
    "n_real": 7,
    "n_sites": 7,
    "source": "EPA StreamCat pctimp2019 (per NHDPlus watershed)"
   },
   "land_ownership": {
    "kind": "real",
    "n_fallback": 0,
    "n_real": 7,
    "n_sites": 7,
    "source": "NC OneMap statewide parcels (NC Parcels Transformer) ownname"
   },
   "litter_complaint_density": {
    "kind": "fallback",
    "n_real": 0,
    "n_sites": 7,
    "source": "no public machine-readable litter/illegal-dumping feed for this region"
   },
   "navigable_dist_m": {
    "kind": "real",
    "n_real": 7,
    "n_sites": 7,
    "source": "USACE/BTS NWN (NTAD): no navigable segment within this bbox (+2 km) \u2014 computed absence, gate passes all sites"
   },
   "npdes_points": {
    "kind": "real",
    "n_real": 7,
    "n_sites": 7,
    "source": "EPA ECHO active NPDES outfalls states=NC (types NPD/GPC/NGP; statuses ADC/EFF/EXP), per catchment"
   },
   "population_density": {
    "kind": "real",
    "n_real": 7,
    "n_sites": 7,
    "source": "Census ACS 2022 B01003 block groups (bbox, multi-county), area-weighted"
   },
   "protected_area_score": {
    "kind": "real",
    "n_real": 7,
    "n_sites": 7,
    "source": "USGS PAD-US 4.1 state GDB; states=NC; shipped designation-weighted proximity curve"
   },
   "road_access_score": {
    "kind": "real",
    "n_real": 7,
    "n_sites": 7,
    "source": "OSM drive network nearest-node distance"
   },
   "road_density_km_km2": {
    "kind": "real",
    "n_real": 7,
    "n_sites": 7,
    "source": "OSM drive network (osmnx, cached) clipped per catchment"
   },
   "runoff_coeff_C": {
    "kind": "real",
    "n_real": 7,
    "n_sites": 7,
    "source": "derived from real impervious_pct (C=0.05+0.009*I)"
   },
   "seasonal_cv": {
    "kind": "real",
    "n_real": 7,
    "n_sites": 7,
    "source": "CV of NHDPlus EROM monthly flows per COMID"
   },
   "stream_order": {
    "kind": "real",
    "n_real": 7,
    "n_sites": 7,
    "source": "DEM stream-network confluence heuristic (pipeline)"
   },
   "superfund_score": {
    "kind": "real",
    "n_real": 7,
    "n_sites": 7,
    "source": "EPA DataMap SEMS active sites states=NC (non-archived, georeferenced), shipped 500 m inverse-distance curve"
   },
   "tourism_amenity_density": {
    "kind": "real",
    "n_real": 7,
    "n_sites": 7,
    "source": "OSM leisure/tourism features per 2 km radius"
   },
   "tri_facility_density": {
    "kind": "real",
    "n_real": 7,
    "n_sites": 7,
    "source": "EPA DataMap TRI open facilities states=NC (preferred decimal or packed-DMS recovery), per catchment"
   },
   "usgs_mean_q_cfs": {
    "kind": "real",
    "n_real": 7,
    "n_sites": 7,
    "source": "NHDPlus EROM qe_ma per COMID (snap-guarded)"
   },
   "velocity_feasibility": {
    "kind": "real",
    "n_fallback": 0,
    "n_real": 7,
    "n_sites": 7,
    "source": "shipped step curve on the computed velocity"
   },
   "velocity_transport_favorability": {
    "kind": "derived",
    "n_real": 7,
    "n_sites": 7,
    "source": "scored form of flow_velocity_ms inside the Flow family \u2014 peaked Gaussian exp(-((v-0.9)/0.6)^2), model.json curves.velocity_transport_favorability; construct: transport/delivery favorability, deliberately distinct from velocity_feasibility (device operability)"
   },
   "water_intake_score": {
    "kind": "real",
    "n_real": 7,
    "n_sites": 7,
    "source": "NC OneMap / NC DEQ SWAP public water supply sources (source_typ='Surface Water'), shipped exp(-d/10km) curve"
   }
  },
  "stream_mask": {
   "buffer_m": 150.0,
   "pre_mask": 7,
   "removed": 0,
   "sources": [
    "osm-overpass (all waterway ways)",
    "usgs-nhdplus flowlines"
   ]
  },
  "varying": [
   "beach_dist_km",
   "catchment_area_km2",
   "ej_index",
   "estuary_dist_km",
   "flood_q10_cfs",
   "flow_velocity_ms",
   "impervious_pct",
   "npdes_points",
   "population_density",
   "protected_area_score",
   "road_access_score",
   "road_density_km_km2",
   "runoff_coeff_C",
   "seasonal_cv",
   "superfund_score",
   "tourism_amenity_density",
   "tri_facility_density",
   "usgs_mean_q_cfs",
   "water_intake_score"
  ]
 },
 "region": {
  "bbox": [
   -78.1276,
   34.971,
   -78.0578,
   35.0282
  ],
  "beach_ref": {
   "label": "Wrightsville Beach (shipped NC reference)",
   "lat": 34.21,
   "lon": -77.79
  },
  "center": [
   -78.092726,
   34.999578
  ],
  "estuary_ref": {
   "label": "Pamlico Sound (shipped NC reference)",
   "lat": 35.05,
   "lon": -76.05
  },
  "flood_method": "sir2014_hr4",
  "name": "Warsaw, NC",
  "notes": "NC Coastal Plain (SIR 2014-5030 HR4; I24H50Y from NOAA Atlas 14 at region center)",
  "slug": "warsaw",
  "state": "NC",
  "utm_epsg": 32617,
  "width_curve": {
   "a": 2.22,
   "b": 0.363,
   "code": "APL",
   "source": "Bieger et al. 2015 JAWRA Table 3, Atlantic Plain"
  }
 },
 "type": "FeatureCollection"
}
