{
 "features": [
  {
   "geometry": {
    "coordinates": [
     -77.054964,
     35.548235
    ],
    "type": "Point"
   },
   "properties": {
    "accumulation": 32467.0,
    "bank_slope_deg": 1.82,
    "bank_slope_score": 1.0,
    "bank_slope_source": "nc-dps-lidar-dem03-cross-section",
    "beach_dist_km": 163.21,
    "bridge_proximity_bonus": 0.0,
    "catchment_area_km2": 3.2444,
    "channel_width_m": 3.4,
    "channel_width_score": 1.0,
    "composite_score": 64.8155,
    "cso_density": 0.0,
    "ej_index": 0.7372,
    "elevation_m": 0.1577,
    "estuary_dist_km": 106.71,
    "feasibility_score": 100.0,
    "flood_q10_cfs": 222.07,
    "flow_score": 43.2475,
    "flow_velocity_ms": 0.5,
    "generation_score": 54.4982,
    "impact_score": 75.5141,
    "impervious_pct": null,
    "land_ownership": 0.5,
    "lat": 35.5482,
    "litter_complaint_density": 0.0,
    "lon": -77.055,
    "navigable_dist_m": 822.9,
    "npdes_points": 1,
    "pixel_col": 512.0,
    "pixel_row": 625.0,
    "population_density": 545.4,
    "position_along": 0.5,
    "protected_area_score": 8.5449,
    "rank": 1,
    "road_access_m": 21.4,
    "road_access_score": 1.0,
    "road_density_km_km2": 12.351,
    "robustness_pct": 100.0,
    "runoff_coeff_C": null,
    "seasonal_cv": null,
    "segment_id": 9,
    "segment_length_m": 1513.5597,
    "stream_order": 3,
    "superfund_score": 0.6241,
    "tourism_amenity_density": 4.138,
    "tri_facility_density": 0.3082,
    "usgs_mean_q_cfs": null,
    "velocity_feasibility": 1.0,
    "water_intake_score": 0.0685
   },
   "type": "Feature"
  },
  {
   "geometry": {
    "coordinates": [
     -77.043801,
     35.535565
    ],
    "type": "Point"
   },
   "properties": {
    "accumulation": 87483.0,
    "bank_slope_deg": 0.01,
    "bank_slope_score": 1.0,
    "bank_slope_source": "nc-dps-lidar-dem03-cross-section",
    "beach_dist_km": 162.35,
    "bridge_proximity_bonus": 0.0,
    "catchment_area_km2": 8.7422,
    "channel_width_m": 4.88,
    "channel_width_score": 1.0,
    "composite_score": 60.9002,
    "cso_density": 0.0,
    "ej_index": 0.5199,
    "elevation_m": -0.1219,
    "estuary_dist_km": 105.12,
    "feasibility_score": 61.6883,
    "flood_q10_cfs": 472.0,
    "flow_score": 63.1829,
    "flow_velocity_ms": 0.0599,
    "generation_score": 61.7164,
    "impact_score": 57.7875,
    "impervious_pct": 6.83,
    "land_ownership": 0.5,
    "lat": 35.5356,
    "litter_complaint_density": 0.0,
    "lon": -77.0438,
    "navigable_dist_m": 590.4,
    "npdes_points": 7,
    "pixel_col": 610.0,
    "pixel_row": 769.0,
    "population_density": 321.1,
    "position_along": 0.5,
    "protected_area_score": 8.324,
    "rank": 2,
    "road_access_m": 200.7,
    "road_access_score": 0.8,
    "road_density_km_km2": 5.781,
    "robustness_pct": 100.0,
    "runoff_coeff_C": 0.1115,
    "seasonal_cv": 0.3985,
    "segment_id": 11,
    "segment_length_m": 2666.2412,
    "stream_order": 3,
    "superfund_score": 0.0907,
    "tourism_amenity_density": 3.2627,
    "tri_facility_density": 0.1144,
    "usgs_mean_q_cfs": 16.803,
    "velocity_feasibility": 0.7,
    "water_intake_score": 0.0596
   },
   "type": "Feature"
  },
  {
   "geometry": {
    "coordinates": [
     -77.028387,
     35.543211
    ],
    "type": "Point"
   },
   "properties": {
    "accumulation": 151131.0,
    "bank_slope_deg": 1.84,
    "bank_slope_score": 1.0,
    "bank_slope_source": "nc-dps-lidar-dem03-cross-section",
    "beach_dist_km": 163.72,
    "bridge_proximity_bonus": 0.0,
    "catchment_area_km2": 15.1025,
    "channel_width_m": 5.95,
    "channel_width_score": 1.0,
    "composite_score": 52.1623,
    "cso_density": 0.0,
    "ej_index": 0.4371,
    "elevation_m": 0.038,
    "estuary_dist_km": 104.36,
    "feasibility_score": 61.6883,
    "flood_q10_cfs": 598.28,
    "flow_score": 71.2162,
    "flow_velocity_ms": 0.1373,
    "generation_score": 35.5518,
    "impact_score": 48.1317,
    "impervious_pct": 2.91,
    "land_ownership": 0.5,
    "lat": 35.5432,
    "litter_complaint_density": 0.0,
    "lon": -77.0284,
    "navigable_dist_m": 1909.3,
    "npdes_points": 2,
    "pixel_col": 749.0,
    "pixel_row": 687.0,
    "population_density": 319.8,
    "position_along": 0.5,
    "protected_area_score": 7.9504,
    "rank": 3,
    "road_access_m": 245.4,
    "road_access_score": 0.8,
    "road_density_km_km2": 5.695,
    "robustness_pct": 94.5,
    "runoff_coeff_C": 0.0762,
    "seasonal_cv": 0.398,
    "segment_id": 13,
    "segment_length_m": 2410.9399,
    "stream_order": 3,
    "superfund_score": 0.0461,
    "tourism_amenity_density": 2.9444,
    "tri_facility_density": 0.0662,
    "usgs_mean_q_cfs": 13.003,
    "velocity_feasibility": 0.7,
    "water_intake_score": 0.0586
   },
   "type": "Feature"
  },
  {
   "geometry": {
    "coordinates": [
     -77.021835,
     35.553667
    ],
    "type": "Point"
   },
   "properties": {
    "accumulation": 118269.0,
    "bank_slope_deg": 2.02,
    "bank_slope_score": 1.0,
    "bank_slope_source": "nc-dps-lidar-dem03-cross-section",
    "beach_dist_km": 165.02,
    "bridge_proximity_bonus": 0.0,
    "catchment_area_km2": 11.8186,
    "channel_width_m": 5.44,
    "channel_width_score": 1.0,
    "composite_score": 45.7793,
    "cso_density": 0.0,
    "ej_index": 0.4031,
    "elevation_m": 1.2447,
    "estuary_dist_km": 104.47,
    "feasibility_score": 84.4156,
    "flood_q10_cfs": 504.63,
    "flow_score": 60.7477,
    "flow_velocity_ms": 0.1304,
    "generation_score": 23.4457,
    "impact_score": 36.3212,
    "impervious_pct": 1.92,
    "land_ownership": 0.5,
    "lat": 35.5537,
    "litter_complaint_density": 0.0,
    "lon": -77.0218,
    "navigable_dist_m": 3212.6,
    "npdes_points": 1,
    "pixel_col": 812.0,
    "pixel_row": 572.0,
    "population_density": 290.0,
    "position_along": 0.5,
    "protected_area_score": 7.5548,
    "rank": 4,
    "road_access_m": 96.0,
    "road_access_score": 1.0,
    "road_density_km_km2": 4.004,
    "robustness_pct": 67.5,
    "runoff_coeff_C": 0.0673,
    "seasonal_cv": 0.3986,
    "segment_id": 8,
    "segment_length_m": 1050.4635,
    "stream_order": 3,
    "superfund_score": 0.0342,
    "tourism_amenity_density": 0.8754,
    "tri_facility_density": 0.0,
    "usgs_mean_q_cfs": 11.302,
    "velocity_feasibility": 0.7,
    "water_intake_score": 0.0613
   },
   "type": "Feature"
  },
  {
   "geometry": {
    "coordinates": [
     -77.10079,
     35.582934
    ],
    "type": "Point"
   },
   "properties": {
    "accumulation": 56377.0,
    "bank_slope_deg": 4.22,
    "bank_slope_score": 1.0,
    "bank_slope_source": "nc-dps-lidar-dem03-cross-section",
    "beach_dist_km": 165.1,
    "bridge_proximity_bonus": 0.0,
    "catchment_area_km2": 5.6337,
    "channel_width_m": 4.16,
    "channel_width_score": 1.0,
    "composite_score": 41.3349,
    "cso_density": 0.0,
    "ej_index": 0.5385,
    "elevation_m": 0.2517,
    "estuary_dist_km": 112.26,
    "feasibility_score": 40.9091,
    "flood_q10_cfs": 371.6,
    "flow_score": 18.8974,
    "flow_velocity_ms": 0.0384,
    "generation_score": 43.704,
    "impact_score": 57.8767,
    "impervious_pct": 7.89,
    "land_ownership": 0.5,
    "lat": 35.5829,
    "litter_complaint_density": 0.0,
    "lon": -77.1008,
    "navigable_dist_m": 2679.8,
    "npdes_points": 1,
    "pixel_col": 103.0,
    "pixel_row": 233.0,
    "population_density": 111.4,
    "position_along": 0.75,
    "protected_area_score": 8.633,
    "rank": 5,
    "road_access_m": 212.6,
    "road_access_score": 0.8,
    "road_density_km_km2": 3.734,
    "robustness_pct": 28.5,
    "runoff_coeff_C": 0.121,
    "seasonal_cv": 0.4846,
    "segment_id": 0,
    "segment_length_m": 3209.0656,
    "stream_order": 1,
    "superfund_score": 0.2844,
    "tourism_amenity_density": 0.0,
    "tri_facility_density": 0.1775,
    "usgs_mean_q_cfs": 0.75,
    "velocity_feasibility": 0.3,
    "water_intake_score": 0.1056
   },
   "type": "Feature"
  },
  {
   "geometry": {
    "coordinates": [
     -77.020765,
     35.562399
    ],
    "type": "Point"
   },
   "properties": {
    "accumulation": 84619.0,
    "bank_slope_deg": 4.73,
    "bank_slope_score": 1.0,
    "bank_slope_source": "nc-dps-lidar-dem03-cross-section",
    "beach_dist_km": 165.94,
    "bridge_proximity_bonus": 0.0,
    "catchment_area_km2": 8.456,
    "channel_width_m": 4.82,
    "channel_width_score": 1.0,
    "composite_score": 40.8466,
    "cso_density": 0.0,
    "ej_index": 0.3295,
    "elevation_m": 1.872,
    "estuary_dist_km": 104.91,
    "feasibility_score": 84.4156,
    "flood_q10_cfs": 410.15,
    "flow_score": 50.7301,
    "flow_velocity_ms": 0.06,
    "generation_score": 19.2915,
    "impact_score": 32.3809,
    "impervious_pct": 1.65,
    "land_ownership": 0.5,
    "lat": 35.5624,
    "litter_complaint_density": 0.0,
    "lon": -77.0208,
    "navigable_dist_m": 4136.4,
    "npdes_points": 0,
    "pixel_col": 823.0,
    "pixel_row": 476.0,
    "population_density": 285.0,
    "position_along": 0.5,
    "protected_area_score": 7.4278,
    "rank": 6,
    "road_access_m": 188.4,
    "road_access_score": 1.0,
    "road_density_km_km2": 3.234,
    "robustness_pct": 21.5,
    "runoff_coeff_C": 0.0649,
    "seasonal_cv": 0.3988,
    "segment_id": 6,
    "segment_length_m": 1234.9571,
    "stream_order": 3,
    "superfund_score": 0.03,
    "tourism_amenity_density": 1.1937,
    "tri_facility_density": 0.0,
    "usgs_mean_q_cfs": 10.888,
    "velocity_feasibility": 0.7,
    "water_intake_score": 0.0649
   },
   "type": "Feature"
  },
  {
   "geometry": {
    "coordinates": [
     -77.081022,
     35.570677
    ],
    "type": "Point"
   },
   "properties": {
    "accumulation": 31858.0,
    "bank_slope_deg": 6.88,
    "bank_slope_score": 1.0,
    "bank_slope_source": "nc-dps-lidar-dem03-cross-section",
    "beach_dist_km": 164.54,
    "bridge_proximity_bonus": 0.0,
    "catchment_area_km2": 3.1836,
    "channel_width_m": 3.38,
    "channel_width_score": 1.0,
    "composite_score": 40.8421,
    "cso_density": 0.0,
    "ej_index": 0.7188,
    "elevation_m": 0.0256,
    "estuary_dist_km": 110.02,
    "feasibility_score": 77.2727,
    "flood_q10_cfs": 219.56,
    "flow_score": 29.081,
    "flow_velocity_ms": 0.5,
    "generation_score": 13.0962,
    "impact_score": 60.1735,
    "impervious_pct": null,
    "land_ownership": 0.5,
    "lat": 35.5707,
    "litter_complaint_density": 0.0,
    "lon": -77.081,
    "navigable_dist_m": 2145.2,
    "npdes_points": 2,
    "pixel_col": 277.0,
    "pixel_row": 369.0,
    "population_density": 177.3,
    "position_along": 0.5,
    "protected_area_score": 8.4007,
    "rank": 7,
    "road_access_m": 272.2,
    "road_access_score": 0.8,
    "road_density_km_km2": 2.695,
    "robustness_pct": 19.5,
    "runoff_coeff_C": null,
    "seasonal_cv": null,
    "segment_id": 4,
    "segment_length_m": 565.781,
    "stream_order": 1,
    "superfund_score": 0.1648,
    "tourism_amenity_density": 0.8754,
    "tri_facility_density": 0.0,
    "usgs_mean_q_cfs": null,
    "velocity_feasibility": 1.0,
    "water_intake_score": 0.0895
   },
   "type": "Feature"
  },
  {
   "geometry": {
    "coordinates": [
     -77.023019,
     35.55997
    ],
    "type": "Point"
   },
   "properties": {
    "accumulation": 23062.0,
    "bank_slope_deg": 2.77,
    "bank_slope_score": 1.0,
    "bank_slope_source": "nc-dps-lidar-dem03-cross-section",
    "beach_dist_km": 165.61,
    "bridge_proximity_bonus": 0.0,
    "catchment_area_km2": 2.3046,
    "channel_width_m": 3.01,
    "channel_width_score": 1.0,
    "composite_score": 40.6653,
    "cso_density": 0.0,
    "ej_index": 0.3263,
    "elevation_m": 2.4186,
    "estuary_dist_km": 104.94,
    "feasibility_score": 100.0,
    "flood_q10_cfs": 180.85,
    "flow_score": 40.5949,
    "flow_velocity_ms": 0.5,
    "generation_score": 17.9491,
    "impact_score": 33.7729,
    "impervious_pct": null,
    "land_ownership": 0.5,
    "lat": 35.56,
    "litter_complaint_density": 0.0,
    "lon": -77.023,
    "navigable_dist_m": 3811.3,
    "npdes_points": 0,
    "pixel_col": 804.0,
    "pixel_row": 502.0,
    "population_density": 338.3,
    "position_along": 0.5,
    "protected_area_score": 7.5325,
    "rank": 8,
    "road_access_m": 149.8,
    "road_access_score": 1.0,
    "road_density_km_km2": 4.599,
    "robustness_pct": 16.5,
    "runoff_coeff_C": null,
    "seasonal_cv": null,
    "segment_id": 7,
    "segment_length_m": 765.7107,
    "stream_order": 3,
    "superfund_score": 0.0338,
    "tourism_amenity_density": 1.1937,
    "tri_facility_density": 0.0,
    "usgs_mean_q_cfs": null,
    "velocity_feasibility": 1.0,
    "water_intake_score": 0.0644
   },
   "type": "Feature"
  },
  {
   "geometry": {
    "coordinates": [
     -77.041766,
     35.526288
    ],
    "type": "Point"
   },
   "properties": {
    "accumulation": 23081.0,
    "bank_slope_deg": 0.0,
    "bank_slope_score": 1.0,
    "bank_slope_source": "nc-dps-lidar-dem03-cross-section",
    "beach_dist_km": 161.5,
    "bridge_proximity_bonus": 0.0,
    "catchment_area_km2": 2.3065,
    "channel_width_m": 3.01,
    "channel_width_score": 1.0,
    "composite_score": 40.511,
    "cso_density": 0.0,
    "ej_index": 0.4488,
    "elevation_m": -0.1219,
    "estuary_dist_km": 104.44,
    "feasibility_score": 18.1818,
    "flood_q10_cfs": 218.29,
    "flow_score": 9.856,
    "flow_velocity_ms": 0.045,
    "generation_score": 65.0734,
    "impact_score": 52.6591,
    "impervious_pct": 8.07,
    "land_ownership": 0.5,
    "lat": 35.5263,
    "litter_complaint_density": 0.0,
    "lon": -77.0418,
    "navigable_dist_m": 284.6,
    "npdes_points": 6,
    "pixel_col": 627.0,
    "pixel_row": 873.0,
    "population_density": 92.4,
    "position_along": 0.75,
    "protected_area_score": 8.2064,
    "rank": 9,
    "road_access_m": 599.9,
    "road_access_score": 0.6,
    "road_density_km_km2": 1.117,
    "robustness_pct": 36.5,
    "runoff_coeff_C": 0.1226,
    "seasonal_cv": 0.4784,
    "segment_id": 14,
    "segment_length_m": 3204.9964,
    "stream_order": 1,
    "superfund_score": 0.0471,
    "tourism_amenity_density": 2.3873,
    "tri_facility_density": 0.4336,
    "usgs_mean_q_cfs": 0.952,
    "velocity_feasibility": 0.3,
    "water_intake_score": 0.0554
   },
   "type": "Feature"
  },
  {
   "geometry": {
    "coordinates": [
     -77.021371,
     35.549884
    ],
    "type": "Point"
   },
   "properties": {
    "accumulation": 21049.0,
    "bank_slope_deg": 2.85,
    "bank_slope_score": 1.0,
    "bank_slope_source": "nc-dps-lidar-dem03-cross-section",
    "beach_dist_km": 164.66,
    "bridge_proximity_bonus": 0.0,
    "catchment_area_km2": 2.1034,
    "channel_width_m": 2.91,
    "channel_width_score": 1.0,
    "composite_score": 40.4281,
    "cso_density": 0.0,
    "ej_index": 0.3643,
    "elevation_m": 0.6401,
    "estuary_dist_km": 104.21,
    "feasibility_score": 100.0,
    "flood_q10_cfs": 171.2,
    "flow_score": 40.0,
    "flow_velocity_ms": 0.5,
    "generation_score": 14.9621,
    "impact_score": 36.4648,
    "impervious_pct": null,
    "land_ownership": 0.5,
    "lat": 35.5499,
    "litter_complaint_density": 0.0,
    "lon": -77.0214,
    "navigable_dist_m": 2865.6,
    "npdes_points": 0,
    "pixel_col": 813.0,
    "pixel_row": 613.0,
    "population_density": 248.0,
    "position_along": 0.5,
    "protected_area_score": 7.6176,
    "rank": 10,
    "road_access_m": 194.9,
    "road_access_score": 1.0,
    "road_density_km_km2": 5.459,
    "robustness_pct": 7.0,
    "runoff_coeff_C": null,
    "seasonal_cv": null,
    "segment_id": 12,
    "segment_length_m": 173.0763,
    "stream_order": 3,
    "superfund_score": 0.034,
    "tourism_amenity_density": 1.0345,
    "tri_facility_density": 0.0,
    "usgs_mean_q_cfs": null,
    "velocity_feasibility": 1.0,
    "water_intake_score": 0.0595
   },
   "type": "Feature"
  },
  {
   "geometry": {
    "coordinates": [
     -77.027089,
     35.535279
    ],
    "type": "Point"
   },
   "properties": {
    "accumulation": 30767.0,
    "bank_slope_deg": 3.54,
    "bank_slope_score": 1.0,
    "bank_slope_source": "nc-dps-lidar-dem03-cross-section",
    "beach_dist_km": 162.97,
    "bridge_proximity_bonus": 0.0,
    "catchment_area_km2": 3.0745,
    "channel_width_m": 3.34,
    "channel_width_score": 1.0,
    "composite_score": 39.9428,
    "cso_density": 0.0,
    "ej_index": 0.4135,
    "elevation_m": 0.4666,
    "estuary_dist_km": 103.81,
    "feasibility_score": 84.4156,
    "flood_q10_cfs": 247.85,
    "flow_score": 13.7264,
    "flow_velocity_ms": 0.0783,
    "generation_score": 34.5581,
    "impact_score": 44.9382,
    "impervious_pct": 6.11,
    "land_ownership": 0.5,
    "lat": 35.5353,
    "litter_complaint_density": 0.0,
    "lon": -77.0271,
    "navigable_dist_m": 1271.9,
    "npdes_points": 1,
    "pixel_col": 758.0,
    "pixel_row": 774.0,
    "population_density": 185.5,
    "position_along": 0.5,
    "protected_area_score": 7.9788,
    "rank": 11,
    "road_access_m": 114.9,
    "road_access_score": 1.0,
    "road_density_km_km2": 6.1,
    "robustness_pct": 7.5,
    "runoff_coeff_C": 0.105,
    "seasonal_cv": 0.4361,
    "segment_id": 15,
    "segment_length_m": 2223.3103,
    "stream_order": 1,
    "superfund_score": 0.0372,
    "tourism_amenity_density": 1.512,
    "tri_facility_density": 0.0,
    "usgs_mean_q_cfs": 1.852,
    "velocity_feasibility": 0.7,
    "water_intake_score": 0.055
   },
   "type": "Feature"
  },
  {
   "geometry": {
    "coordinates": [
     -77.092864,
     35.590567
    ],
    "type": "Point"
   },
   "properties": {
    "accumulation": 22654.0,
    "bank_slope_deg": 7.39,
    "bank_slope_score": 1.0,
    "bank_slope_source": "nc-dps-lidar-dem03-cross-section",
    "beach_dist_km": 166.16,
    "bridge_proximity_bonus": 0.0,
    "catchment_area_km2": 2.2638,
    "channel_width_m": 2.99,
    "channel_width_score": 1.0,
    "composite_score": 37.9362,
    "cso_density": 0.0,
    "ej_index": 0.5368,
    "elevation_m": 2.5778,
    "estuary_dist_km": 112.09,
    "feasibility_score": 63.6364,
    "flood_q10_cfs": 209.28,
    "flow_score": 11.5101,
    "flow_velocity_ms": 0.0437,
    "generation_score": 30.5818,
    "impact_score": 54.4622,
    "impervious_pct": 6.74,
    "land_ownership": 0.5,
    "lat": 35.5906,
    "litter_complaint_density": 0.0,
    "lon": -77.0929,
    "navigable_dist_m": 3700.4,
    "npdes_points": 1,
    "pixel_col": 174.0,
    "pixel_row": 148.0,
    "population_density": 115.9,
    "position_along": 0.25,
    "protected_area_score": 8.64,
    "rank": 12,
    "road_access_m": 90.7,
    "road_access_score": 1.0,
    "road_density_km_km2": 3.542,
    "robustness_pct": 1.0,
    "runoff_coeff_C": 0.1107,
    "seasonal_cv": 0.4367,
    "segment_id": 0,
    "segment_length_m": 3209.0656,
    "stream_order": 1,
    "superfund_score": 0.1314,
    "tourism_amenity_density": 0.0,
    "tri_facility_density": 0.0,
    "usgs_mean_q_cfs": 2.314,
    "velocity_feasibility": 0.3,
    "water_intake_score": 0.1066
   },
   "type": "Feature"
  },
  {
   "geometry": {
    "coordinates": [
     -77.01648,
     35.564909
    ],
    "type": "Point"
   },
   "properties": {
    "accumulation": 22233.0,
    "bank_slope_deg": 10.66,
    "bank_slope_score": 1.0,
    "bank_slope_source": "nc-dps-lidar-dem03-cross-section",
    "beach_dist_km": 166.36,
    "bridge_proximity_bonus": 0.0,
    "catchment_area_km2": 2.2217,
    "channel_width_m": 2.97,
    "channel_width_score": 1.0,
    "composite_score": 27.9732,
    "cso_density": 0.0,
    "ej_index": 0.3346,
    "elevation_m": 2.5015,
    "estuary_dist_km": 104.73,
    "feasibility_score": 61.6883,
    "flood_q10_cfs": 183.79,
    "flow_score": 24.7385,
    "flow_velocity_ms": 0.1058,
    "generation_score": 13.2684,
    "impact_score": 28.516,
    "impervious_pct": 1.64,
    "land_ownership": 0.5,
    "lat": 35.5649,
    "litter_complaint_density": 0.0,
    "lon": -77.0165,
    "navigable_dist_m": 4546.8,
    "npdes_points": 0,
    "pixel_col": 863.0,
    "pixel_row": 445.0,
    "population_density": 199.1,
    "position_along": 0.5,
    "protected_area_score": 7.2008,
    "rank": 13,
    "road_access_m": 237.7,
    "road_access_score": 0.8,
    "road_density_km_km2": 1.292,
    "robustness_pct": 0.0,
    "runoff_coeff_C": 0.0648,
    "seasonal_cv": 0.4245,
    "segment_id": 5,
    "segment_length_m": 705.7318,
    "stream_order": 3,
    "superfund_score": 0.025,
    "tourism_amenity_density": 0.7162,
    "tri_facility_density": 0.0,
    "usgs_mean_q_cfs": 2.929,
    "velocity_feasibility": 0.7,
    "water_intake_score": 0.0649
   },
   "type": "Feature"
  },
  {
   "geometry": {
    "coordinates": [
     -77.01878,
     35.575496
    ],
    "type": "Point"
   },
   "properties": {
    "accumulation": 40738.0,
    "bank_slope_deg": 10.21,
    "bank_slope_score": 1.0,
    "bank_slope_source": "nc-dps-lidar-dem03-cross-section",
    "beach_dist_km": 167.34,
    "bridge_proximity_bonus": 0.0,
    "catchment_area_km2": 4.0709,
    "channel_width_m": 3.7,
    "channel_width_score": 1.0,
    "composite_score": 27.9015,
    "cso_density": 0.0,
    "ej_index": 0.3307,
    "elevation_m": 3.6244,
    "estuary_dist_km": 105.55,
    "feasibility_score": 61.6883,
    "flood_q10_cfs": 257.47,
    "flow_score": 33.5183,
    "flow_velocity_ms": 0.0502,
    "generation_score": 8.602,
    "impact_score": 25.627,
    "impervious_pct": 0.5,
    "land_ownership": 0.5,
    "lat": 35.5755,
    "litter_complaint_density": 0.0,
    "lon": -77.0188,
    "navigable_dist_m": 5272.4,
    "npdes_points": 0,
    "pixel_col": 843.0,
    "pixel_row": 331.0,
    "population_density": 170.9,
    "position_along": 0.5,
    "protected_area_score": 7.0285,
    "rank": 14,
    "road_access_m": 244.6,
    "road_access_score": 0.8,
    "road_density_km_km2": 1.463,
    "robustness_pct": 0.0,
    "runoff_coeff_C": 0.0545,
    "seasonal_cv": 0.4038,
    "segment_id": 2,
    "segment_length_m": 2376.0993,
    "stream_order": 3,
    "superfund_score": 0.0227,
    "tourism_amenity_density": 0.6366,
    "tri_facility_density": 0.0,
    "usgs_mean_q_cfs": 6.816,
    "velocity_feasibility": 0.7,
    "water_intake_score": 0.0708
   },
   "type": "Feature"
  },
  {
   "geometry": {
    "coordinates": [
     -77.05683,
     35.588097
    ],
    "type": "Point"
   },
   "properties": {
    "accumulation": 57058.0,
    "bank_slope_deg": 6.82,
    "bank_slope_score": 1.0,
    "bank_slope_source": "nc-dps-lidar-dem03-cross-section",
    "beach_dist_km": 167.19,
    "bridge_proximity_bonus": 0.0,
    "catchment_area_km2": 5.7018,
    "channel_width_m": 4.18,
    "channel_width_score": 1.0,
    "composite_score": 26.469,
    "cso_density": 0.0,
    "ej_index": 0.5229,
    "elevation_m": 2.7406,
    "estuary_dist_km": 109.2,
    "feasibility_score": 38.961,
    "flood_q10_cfs": 326.91,
    "flow_score": 23.8153,
    "flow_velocity_ms": 0.0577,
    "generation_score": 8.4382,
    "impact_score": 40.4652,
    "impervious_pct": 2.07,
    "land_ownership": 0.5,
    "lat": 35.5881,
    "litter_complaint_density": 0.0,
    "lon": -77.0568,
    "navigable_dist_m": 4783.5,
    "npdes_points": 0,
    "pixel_col": 500.0,
    "pixel_row": 184.0,
    "population_density": 47.9,
    "position_along": 0.75,
    "protected_area_score": 7.7697,
    "rank": 15,
    "road_access_m": 930.7,
    "road_access_score": 0.6,
    "road_density_km_km2": 1.685,
    "robustness_pct": 0.0,
    "runoff_coeff_C": 0.0686,
    "seasonal_cv": 0.415,
    "segment_id": 1,
    "segment_length_m": 3705.1655,
    "stream_order": 1,
    "superfund_score": 0.0423,
    "tourism_amenity_density": 0.0796,
    "tri_facility_density": 0.0,
    "usgs_mean_q_cfs": 6.165,
    "velocity_feasibility": 0.7,
    "water_intake_score": 0.0903
   },
   "type": "Feature"
  },
  {
   "geometry": {
    "coordinates": [
     -77.014151,
     35.515114
    ],
    "type": "Point"
   },
   "properties": {
    "accumulation": 21835.0,
    "bank_slope_deg": 0.01,
    "bank_slope_score": 1.0,
    "bank_slope_source": "nc-dps-lidar-dem03-cross-section",
    "beach_dist_km": 161.46,
    "bridge_proximity_bonus": 0.0,
    "catchment_area_km2": 2.182,
    "channel_width_m": 2.95,
    "channel_width_score": 1.0,
    "composite_score": 25.143,
    "cso_density": 0.0,
    "ej_index": 0.1755,
    "elevation_m": -0.1829,
    "estuary_dist_km": 101.65,
    "feasibility_score": 40.9091,
    "flood_q10_cfs": 200.7,
    "flow_score": 6.9729,
    "flow_velocity_ms": 0.0269,
    "generation_score": 26.6094,
    "impact_score": 30.9353,
    "impervious_pct": 5.89,
    "land_ownership": 0.5,
    "lat": 35.5151,
    "litter_complaint_density": 0.0,
    "lon": -77.0142,
    "navigable_dist_m": 544.6,
    "npdes_points": 1,
    "pixel_col": 874.0,
    "pixel_row": 1002.0,
    "population_density": 135.6,
    "position_along": 0.5,
    "protected_area_score": 7.5062,
    "rank": 16,
    "road_access_m": 238.1,
    "road_access_score": 0.8,
    "road_density_km_km2": 1.669,
    "robustness_pct": 0.0,
    "runoff_coeff_C": 0.103,
    "seasonal_cv": 0.5009,
    "segment_id": 16,
    "segment_length_m": 704.0167,
    "stream_order": 1,
    "superfund_score": 0.0151,
    "tourism_amenity_density": 0.0796,
    "tri_facility_density": 0.0,
    "usgs_mean_q_cfs": 0.654,
    "velocity_feasibility": 0.3,
    "water_intake_score": 0.0448
   },
   "type": "Feature"
  },
  {
   "geometry": {
    "coordinates": [
     -77.043819,
     35.589651
    ],
    "type": "Point"
   },
   "properties": {
    "accumulation": 40449.0,
    "bank_slope_deg": 9.28,
    "bank_slope_score": 1.0,
    "bank_slope_source": "nc-dps-lidar-dem03-cross-section",
    "beach_dist_km": 167.82,
    "bridge_proximity_bonus": 0.0,
    "catchment_area_km2": 4.0421,
    "channel_width_m": 3.69,
    "channel_width_score": 1.0,
    "composite_score": 24.8106,
    "cso_density": 0.0,
    "ej_index": 0.3969,
    "elevation_m": 4.9673,
    "estuary_dist_km": 108.31,
    "feasibility_score": 61.6883,
    "flood_q10_cfs": 267.89,
    "flow_score": 13.6363,
    "flow_velocity_ms": 0.051,
    "generation_score": 7.6246,
    "impact_score": 32.8696,
    "impervious_pct": 2.39,
    "land_ownership": 0.5,
    "lat": 35.5897,
    "litter_complaint_density": 0.0,
    "lon": -77.0438,
    "navigable_dist_m": 5452.3,
    "npdes_points": 0,
    "pixel_col": 621.0,
    "pixel_row": 169.0,
    "population_density": 20.3,
    "position_along": 0.25,
    "protected_area_score": 7.4259,
    "rank": 17,
    "road_access_m": 320.8,
    "road_access_score": 0.8,
    "road_density_km_km2": 1.144,
    "robustness_pct": 0.0,
    "runoff_coeff_C": 0.0715,
    "seasonal_cv": 0.4473,
    "segment_id": 1,
    "segment_length_m": 3705.1655,
    "stream_order": 1,
    "superfund_score": 0.0302,
    "tourism_amenity_density": 0.6366,
    "tri_facility_density": 0.0,
    "usgs_mean_q_cfs": 2.109,
    "velocity_feasibility": 0.7,
    "water_intake_score": 0.0866
   },
   "type": "Feature"
  },
  {
   "geometry": {
    "coordinates": [
     -77.041888,
     35.582507
    ],
    "type": "Point"
   },
   "properties": {
    "accumulation": 40524.0,
    "bank_slope_deg": 18.48,
    "bank_slope_score": 0.5,
    "bank_slope_source": "nc-dps-lidar-dem03-cross-section",
    "beach_dist_km": 167.17,
    "bridge_proximity_bonus": 0.0,
    "catchment_area_km2": 4.0496,
    "channel_width_m": 3.69,
    "channel_width_score": 1.0,
    "composite_score": 21.3982,
    "cso_density": 0.0,
    "ej_index": 0.5085,
    "elevation_m": 5.1369,
    "estuary_dist_km": 107.73,
    "feasibility_score": 22.7273,
    "flood_q10_cfs": 267.69,
    "flow_score": 15.8208,
    "flow_velocity_ms": 0.0409,
    "generation_score": 9.6009,
    "impact_score": 37.1788,
    "impervious_pct": 2.31,
    "land_ownership": 0.5,
    "lat": 35.5825,
    "litter_complaint_density": 0.0,
    "lon": -77.0419,
    "navigable_dist_m": 4758.9,
    "npdes_points": 0,
    "pixel_col": 634.0,
    "pixel_row": 245.0,
    "population_density": 54.9,
    "position_along": 0.5,
    "protected_area_score": 7.3858,
    "rank": 18,
    "road_access_m": 225.6,
    "road_access_score": 0.8,
    "road_density_km_km2": 1.766,
    "robustness_pct": 0.0,
    "runoff_coeff_C": 0.0708,
    "seasonal_cv": 0.4254,
    "segment_id": 3,
    "segment_length_m": 1114.2888,
    "stream_order": 1,
    "superfund_score": 0.0362,
    "tourism_amenity_density": 0.9549,
    "tri_facility_density": 0.0,
    "usgs_mean_q_cfs": 3.615,
    "velocity_feasibility": 0.3,
    "water_intake_score": 0.0818
   },
   "type": "Feature"
  }
 ],
 "note": "GRIME region 'Washington, NC' \u2014 real-data pipeline (DEM\u2192streams\u2192candidates\u2192stream mask (sites confined to \u00b1150 m of mapped OSM/NHD waterways)\u2192region-appropriate real parameters\u2192shipped scoring, math unchanged). Width curve: Bieger et al. 2015 JAWRA Table 3, Atlantic Plain. Flood: SIR 2014-5030 HR4 (I24H50Y: NOAA Atlas 14). NC Coastal Plain (SIR 2014-5030 HR4; I24H50Y from NOAA Atlas 14 at region center); merged nearby towns: Washington Park",
 "provenance": {
  "candidates_pre_gate": 19,
  "constant": [
   "bridge_proximity_bonus",
   "channel_width_score",
   "cso_density",
   "land_ownership",
   "litter_complaint_density"
  ],
  "gated_navigable": 1,
  "hard_gate_removed": 1,
  "n_parameters": 27,
  "parameters": {
   "bank_slope_score": {
    "kind": "real",
    "n_3dep_10m_fallback": 0,
    "n_nc_lidar_3_125ft": 19,
    "n_real": 19,
    "n_sites": 19,
    "source": "NC OneMap / NC DPS DEM03 statewide lidar-derived 3.125-ft (0.953 m) elevations (perpendicular 50 m transect; robust 5 m bank-rise metric); unavailable profiles use the region 10 m 3DEP DEM-gradient fallback",
    "source_mosaics": [
     "Beaufort_Ground_3ft",
     "Pitt_Ground_3ft"
    ]
   },
   "beach_dist_km": {
    "kind": "real",
    "n_real": 19,
    "n_sites": 19,
    "source": "haversine to region ref: Wrightsville Beach (shipped NC reference)"
   },
   "bridge_proximity_bonus": {
    "kind": "real",
    "n_real": 19,
    "n_sites": 19,
    "source": "FHWA/BTS NBI (NTAD), 50 m proximity"
   },
   "catchment_area_km2": {
    "kind": "real",
    "n_real": 19,
    "n_sites": 19,
    "source": "DEM flow accumulation (pipeline)"
   },
   "channel_width_score": {
    "kind": "real",
    "n_real": 19,
    "n_sites": 19,
    "source": "Bieger 2015 APL width curve on DEM drainage area \u2192 shipped width curve"
   },
   "cso_density": {
    "kind": "real",
    "n_real": 19,
    "n_sites": 19,
    "source": "EPA ECHO open CSO/TCS outfall PF coordinates states=NC, Cauchy proximity"
   },
   "ej_index": {
    "kind": "real",
    "n_real": 19,
    "n_sites": 19,
    "source": "Census ACS C17002+B03002 two-component demographic index, percentile-ranked within region"
   },
   "estuary_dist_km": {
    "kind": "real",
    "n_real": 19,
    "n_sites": 19,
    "source": "haversine to region ref: Pamlico Sound (shipped NC reference)"
   },
   "flood_q10_cfs": {
    "impervious_fallback_reason": "StreamCat imperviousness unavailable; the existing regression-input fallback of 0.0% impervious was used and is disclosed here",
    "kind": "real",
    "n_impervious_fallback": 5,
    "n_real": 19,
    "n_sites": 19,
    "source": "USGS SIR 2014-5030 Table 7 HR4 (NC Coastal Plain; I24H50Y from NOAA Atlas 14 at region center)"
   },
   "flow_velocity_ms": {
    "fallback_reason": "EROM/DEM continuity input unavailable; shipped 0.5 m/s default used",
    "kind": "real",
    "n_fallback": 5,
    "n_real": 14,
    "n_sites": 19,
    "source": "Manning (region DEM/D8) blended with EROM continuity (shipped M4 logic)"
   },
   "impervious_pct": {
    "fallback_reason": "NLDI/StreamCat did not return a snap-compatible catchment value; value remains null and is removed by constant-column handling",
    "kind": "real",
    "n_fallback": 5,
    "n_real": 14,
    "n_sites": 19,
    "source": "EPA StreamCat pctimp2019 (per NHDPlus watershed)"
   },
   "land_ownership": {
    "fallback_reason": "no containing parcel owner returned; shipped unknown ownership 0.5 used",
    "kind": "real",
    "n_fallback": 7,
    "n_real": 12,
    "n_sites": 19,
    "source": "NC OneMap statewide parcels (NC Parcels Transformer) ownname"
   },
   "litter_complaint_density": {
    "kind": "fallback",
    "n_real": 0,
    "n_sites": 19,
    "source": "no public machine-readable litter/illegal-dumping feed for this region"
   },
   "navigable_dist_m": {
    "kind": "real",
    "n_real": 19,
    "n_sites": 19,
    "source": "USACE/BTS National Waterway Network lines (NTAD, retrieved 2026-07-10), distance to nearest navigable segment"
   },
   "npdes_points": {
    "kind": "real",
    "n_real": 19,
    "n_sites": 19,
    "source": "EPA ECHO active NPDES outfalls states=NC (types NPD/GPC/NGP; statuses ADC/EFF/EXP), per catchment"
   },
   "population_density": {
    "kind": "real",
    "n_real": 19,
    "n_sites": 19,
    "source": "Census ACS 2022 B01003 block groups (bbox, multi-county), area-weighted"
   },
   "protected_area_score": {
    "kind": "real",
    "n_real": 19,
    "n_sites": 19,
    "source": "USGS PAD-US 4.1 state GDB; states=NC; shipped designation-weighted proximity curve"
   },
   "road_access_score": {
    "kind": "real",
    "n_real": 19,
    "n_sites": 19,
    "source": "OSM drive network nearest-node distance"
   },
   "road_density_km_km2": {
    "kind": "real",
    "n_real": 19,
    "n_sites": 19,
    "source": "OSM drive network (osmnx, cached) clipped per catchment"
   },
   "runoff_coeff_C": {
    "fallback_reason": "source impervious_pct was unavailable; derived value remains null",
    "kind": "real",
    "n_fallback": 5,
    "n_real": 14,
    "n_sites": 19,
    "source": "derived from real impervious_pct (C=0.05+0.009*I)"
   },
   "seasonal_cv": {
    "fallback_reason": "NHDPlus monthly EROM was unavailable or failed the drainage-area snap guard; value remains null",
    "kind": "real",
    "n_fallback": 5,
    "n_real": 14,
    "n_sites": 19,
    "source": "CV of NHDPlus EROM monthly flows per COMID"
   },
   "stream_order": {
    "kind": "real",
    "n_real": 19,
    "n_sites": 19,
    "source": "DEM stream-network confluence heuristic (pipeline)"
   },
   "superfund_score": {
    "kind": "real",
    "n_real": 19,
    "n_sites": 19,
    "source": "EPA DataMap SEMS active sites states=NC (non-archived, georeferenced), shipped 500 m inverse-distance curve"
   },
   "tourism_amenity_density": {
    "kind": "real",
    "n_real": 19,
    "n_sites": 19,
    "source": "OSM leisure/tourism features per 2 km radius"
   },
   "tri_facility_density": {
    "kind": "real",
    "n_real": 19,
    "n_sites": 19,
    "source": "EPA DataMap TRI open facilities states=NC (preferred decimal or packed-DMS recovery), per catchment"
   },
   "usgs_mean_q_cfs": {
    "fallback_reason": "NHDPlus EROM was unavailable or failed the drainage-area snap guard; value remains null",
    "kind": "real",
    "n_fallback": 5,
    "n_real": 14,
    "n_sites": 19,
    "source": "NHDPlus EROM qe_ma per COMID (snap-guarded)"
   },
   "velocity_feasibility": {
    "fallback_reason": "derived from the shipped 0.5 m/s velocity fallback",
    "kind": "real",
    "n_fallback": 5,
    "n_real": 14,
    "n_sites": 19,
    "source": "shipped step curve on the computed velocity"
   },
   "velocity_transport_favorability": {
    "fallback_reason": "EROM/DEM continuity input unavailable; shipped 0.5 m/s default used",
    "kind": "derived",
    "n_fallback": 5,
    "n_real": 14,
    "n_sites": 19,
    "source": "scored form of flow_velocity_ms inside the Flow family \u2014 peaked Gaussian exp(-((v-0.9)/0.6)^2), model.json curves.velocity_transport_favorability; construct: transport/delivery favorability, deliberately distinct from velocity_feasibility (device operability)"
   },
   "water_intake_score": {
    "kind": "real",
    "n_real": 19,
    "n_sites": 19,
    "source": "NC OneMap / NC DEQ SWAP public water supply sources (source_typ='Surface Water'), shipped exp(-d/10km) curve"
   }
  },
  "stream_mask": {
   "buffer_m": 150.0,
   "pre_mask": 20,
   "removed": 1,
   "sources": [
    "osm-overpass (all waterway ways)",
    "usgs-nhdplus flowlines"
   ]
  },
  "varying": [
   "bank_slope_score",
   "beach_dist_km",
   "catchment_area_km2",
   "ej_index",
   "estuary_dist_km",
   "flood_q10_cfs",
   "flow_velocity_ms",
   "impervious_pct",
   "npdes_points",
   "population_density",
   "protected_area_score",
   "road_access_score",
   "road_density_km_km2",
   "runoff_coeff_C",
   "seasonal_cv",
   "stream_order",
   "superfund_score",
   "tourism_amenity_density",
   "tri_facility_density",
   "usgs_mean_q_cfs",
   "velocity_feasibility",
   "water_intake_score"
  ]
 },
 "region": {
  "bbox": [
   -77.1103,
   35.5123,
   -76.9981,
   35.6036
  ],
  "beach_ref": {
   "label": "Wrightsville Beach (shipped NC reference)",
   "lat": 34.21,
   "lon": -77.79
  },
  "center": [
   -77.054238,
   35.557979
  ],
  "estuary_ref": {
   "label": "Pamlico Sound (shipped NC reference)",
   "lat": 35.05,
   "lon": -76.05
  },
  "flood_method": "sir2014_hr4",
  "name": "Washington, NC",
  "notes": "NC Coastal Plain (SIR 2014-5030 HR4; I24H50Y from NOAA Atlas 14 at region center); merged nearby towns: Washington Park",
  "slug": "washington",
  "state": "NC",
  "utm_epsg": 32618,
  "width_curve": {
   "a": 2.22,
   "b": 0.363,
   "code": "APL",
   "source": "Bieger et al. 2015 JAWRA Table 3, Atlantic Plain"
  }
 },
 "type": "FeatureCollection"
}
