{
 "features": [
  {
   "geometry": {
    "coordinates": [
     -83.002655,
     35.460813
    ],
    "type": "Point"
   },
   "properties": {
    "accumulation": 36244.0,
    "bank_slope_deg": 23.99,
    "bank_slope_score": 0.5,
    "bank_slope_source": "nc-dps-lidar-dem03-cross-section",
    "beach_dist_km": 495.59,
    "bridge_proximity_bonus": 0.0,
    "catchment_area_km2": 3.618,
    "channel_width_m": 5.32,
    "channel_width_score": 1.0,
    "composite_score": 50.6254,
    "cso_density": 0.0,
    "ej_index": 0.5522,
    "elevation_m": 856.4484,
    "estuary_dist_km": 632.82,
    "feasibility_score": 68.75,
    "flood_q10_cfs": null,
    "flow_score": 46.8895,
    "flow_velocity_ms": 0.5,
    "generation_score": 37.5105,
    "impact_score": 57.7912,
    "impervious_pct": null,
    "land_ownership": 0.5,
    "lat": 35.4608,
    "litter_complaint_density": 0.0,
    "lon": -83.0027,
    "navigable_dist_m": null,
    "npdes_points": 0,
    "pixel_col": 504.0,
    "pixel_row": 814.0,
    "population_density": 250.7,
    "position_along": 0.5,
    "protected_area_score": 8.6156,
    "rank": 1,
    "road_access_m": 18.9,
    "road_access_score": 1.0,
    "road_density_km_km2": 7.127,
    "robustness_pct": 84.5,
    "runoff_coeff_C": null,
    "seasonal_cv": null,
    "segment_id": 21,
    "segment_length_m": 2819.283,
    "stream_order": 3,
    "superfund_score": 0.6284,
    "tourism_amenity_density": 0.7162,
    "tri_facility_density": 0.2764,
    "usgs_mean_q_cfs": null,
    "velocity_feasibility": 1.0,
    "water_intake_score": 1.969
   },
   "type": "Feature"
  },
  {
   "geometry": {
    "coordinates": [
     -82.986871,
     35.498421
    ],
    "type": "Point"
   },
   "properties": {
    "accumulation": 485951.0,
    "bank_slope_deg": 1.75,
    "bank_slope_score": 1.0,
    "bank_slope_source": "nc-dps-lidar-dem03-cross-section",
    "beach_dist_km": 495.3,
    "bridge_proximity_bonus": 0.0,
    "catchment_area_km2": 48.5089,
    "channel_width_m": 15.62,
    "channel_width_score": 0.5,
    "composite_score": 50.349,
    "cso_density": 0.0,
    "ej_index": 0.4024,
    "elevation_m": 798.131,
    "estuary_dist_km": 631.56,
    "feasibility_score": 55.0,
    "flood_q10_cfs": null,
    "flow_score": 66.5045,
    "flow_velocity_ms": 0.3311,
    "generation_score": 34.3617,
    "impact_score": 50.548,
    "impervious_pct": 3.38,
    "land_ownership": 0.5,
    "lat": 35.4984,
    "litter_complaint_density": 0.0,
    "lon": -82.9869,
    "navigable_dist_m": null,
    "npdes_points": 3,
    "pixel_col": 659.0,
    "pixel_row": 400.0,
    "population_density": 228.2,
    "position_along": 0.75,
    "protected_area_score": 9.714,
    "rank": 2,
    "road_access_m": 41.6,
    "road_access_score": 1.0,
    "road_density_km_km2": 6.778,
    "robustness_pct": 76.0,
    "runoff_coeff_C": 0.0804,
    "seasonal_cv": 0.3977,
    "segment_id": 28,
    "segment_length_m": 3050.915,
    "stream_order": 3,
    "superfund_score": 0.0482,
    "tourism_amenity_density": 2.4669,
    "tri_facility_density": 0.0,
    "usgs_mean_q_cfs": 117.828,
    "velocity_feasibility": 1.0,
    "water_intake_score": 1.7211
   },
   "type": "Feature"
  },
  {
   "geometry": {
    "coordinates": [
     -82.984984,
     35.484628
    ],
    "type": "Point"
   },
   "properties": {
    "accumulation": 35376.0,
    "bank_slope_deg": 7.26,
    "bank_slope_score": 1.0,
    "bank_slope_source": "nc-dps-lidar-dem03-cross-section",
    "beach_dist_km": 494.73,
    "bridge_proximity_bonus": 0.0,
    "catchment_area_km2": 3.5313,
    "channel_width_m": 5.27,
    "channel_width_score": 1.0,
    "composite_score": 49.0447,
    "cso_density": 0.0,
    "ej_index": 0.5733,
    "elevation_m": 809.7554,
    "estuary_dist_km": 631.33,
    "feasibility_score": 55.0,
    "flood_q10_cfs": null,
    "flow_score": 25.7526,
    "flow_velocity_ms": 0.109,
    "generation_score": 56.6392,
    "impact_score": 57.8825,
    "impervious_pct": 14.1,
    "land_ownership": 0.5,
    "lat": 35.4846,
    "litter_complaint_density": 0.0,
    "lon": -82.985,
    "navigable_dist_m": null,
    "npdes_points": 0,
    "pixel_col": 671.0,
    "pixel_row": 553.0,
    "population_density": 494.2,
    "position_along": 0.25,
    "protected_area_score": 9.2759,
    "rank": 3,
    "road_access_m": 117.8,
    "road_access_score": 1.0,
    "road_density_km_km2": 10.454,
    "robustness_pct": 51.0,
    "runoff_coeff_C": 0.1769,
    "seasonal_cv": 0.5374,
    "segment_id": 11,
    "segment_length_m": 3074.6197,
    "stream_order": 3,
    "superfund_score": 0.0987,
    "tourism_amenity_density": 2.2282,
    "tri_facility_density": 0.0,
    "usgs_mean_q_cfs": 3.529,
    "velocity_feasibility": 0.7,
    "water_intake_score": 1.7695
   },
   "type": "Feature"
  },
  {
   "geometry": {
    "coordinates": [
     -82.981767,
     35.495833
    ],
    "type": "Point"
   },
   "properties": {
    "accumulation": 47740.0,
    "bank_slope_deg": 2.19,
    "bank_slope_score": 1.0,
    "bank_slope_source": "nc-dps-lidar-dem03-cross-section",
    "beach_dist_km": 494.78,
    "bridge_proximity_bonus": 0.0,
    "catchment_area_km2": 4.7655,
    "channel_width_m": 5.96,
    "channel_width_score": 1.0,
    "composite_score": 48.9069,
    "cso_density": 0.0,
    "ej_index": 0.5021,
    "elevation_m": 800.254,
    "estuary_dist_km": 631.09,
    "feasibility_score": 55.0,
    "flood_q10_cfs": null,
    "flow_score": 27.0253,
    "flow_velocity_ms": 0.1404,
    "generation_score": 57.8386,
    "impact_score": 55.1633,
    "impervious_pct": 14.1,
    "land_ownership": 0.5,
    "lat": 35.4958,
    "litter_complaint_density": 0.0,
    "lon": -82.9818,
    "navigable_dist_m": null,
    "npdes_points": 1,
    "pixel_col": 705.0,
    "pixel_row": 430.0,
    "population_density": 409.8,
    "position_along": 0.75,
    "protected_area_score": 9.7731,
    "rank": 4,
    "road_access_m": 17.7,
    "road_access_score": 1.0,
    "road_density_km_km2": 10.341,
    "robustness_pct": 48.0,
    "runoff_coeff_C": 0.1769,
    "seasonal_cv": 0.5374,
    "segment_id": 11,
    "segment_length_m": 3074.6197,
    "stream_order": 3,
    "superfund_score": 0.0474,
    "tourism_amenity_density": 2.3077,
    "tri_facility_density": 0.0,
    "usgs_mean_q_cfs": 3.529,
    "velocity_feasibility": 0.7,
    "water_intake_score": 1.7108
   },
   "type": "Feature"
  },
  {
   "geometry": {
    "coordinates": [
     -83.000132,
     35.476663
    ],
    "type": "Point"
   },
   "properties": {
    "accumulation": 25060.0,
    "bank_slope_deg": 12.58,
    "bank_slope_score": 1.0,
    "bank_slope_source": "nc-dps-lidar-dem03-cross-section",
    "beach_dist_km": 495.82,
    "bridge_proximity_bonus": 0.0,
    "catchment_area_km2": 2.5016,
    "channel_width_m": 4.56,
    "channel_width_score": 1.0,
    "composite_score": 48.8897,
    "cso_density": 0.0,
    "ej_index": 0.5364,
    "elevation_m": 829.4615,
    "estuary_dist_km": 632.66,
    "feasibility_score": 55.0,
    "flood_q10_cfs": null,
    "flow_score": 25.9549,
    "flow_velocity_ms": 0.154,
    "generation_score": 54.3684,
    "impact_score": 59.4683,
    "impervious_pct": 10.23,
    "land_ownership": 0.5,
    "lat": 35.4767,
    "litter_complaint_density": 0.0,
    "lon": -83.0001,
    "navigable_dist_m": null,
    "npdes_points": 0,
    "pixel_col": 532.0,
    "pixel_row": 638.0,
    "population_density": 605.0,
    "position_along": 0.5,
    "protected_area_score": 8.8641,
    "rank": 5,
    "road_access_m": 90.1,
    "road_access_score": 1.0,
    "road_density_km_km2": 10.378,
    "robustness_pct": 50.5,
    "runoff_coeff_C": 0.1421,
    "seasonal_cv": 0.504,
    "segment_id": 16,
    "segment_length_m": 1750.4049,
    "stream_order": 3,
    "superfund_score": 0.71,
    "tourism_amenity_density": 1.512,
    "tri_facility_density": 0.0,
    "usgs_mean_q_cfs": 2.228,
    "velocity_feasibility": 0.7,
    "water_intake_score": 1.8903
   },
   "type": "Feature"
  },
  {
   "geometry": {
    "coordinates": [
     -82.997141,
     35.490116
    ],
    "type": "Point"
   },
   "properties": {
    "accumulation": 453316.0,
    "bank_slope_deg": 11.59,
    "bank_slope_score": 1.0,
    "bank_slope_source": "nc-dps-lidar-dem03-cross-section",
    "beach_dist_km": 495.95,
    "bridge_proximity_bonus": 0.0,
    "catchment_area_km2": 45.2512,
    "channel_width_m": 15.18,
    "channel_width_score": 0.5,
    "composite_score": 47.79,
    "cso_density": 0.0,
    "ej_index": 0.4493,
    "elevation_m": 807.8133,
    "estuary_dist_km": 632.45,
    "feasibility_score": 55.0,
    "flood_q10_cfs": null,
    "flow_score": 65.8963,
    "flow_velocity_ms": 0.337,
    "generation_score": 26.7387,
    "impact_score": 50.1477,
    "impervious_pct": 3.38,
    "land_ownership": 0.5,
    "lat": 35.4901,
    "litter_complaint_density": 0.0,
    "lon": -82.9971,
    "navigable_dist_m": null,
    "npdes_points": 1,
    "pixel_col": 564.0,
    "pixel_row": 492.0,
    "population_density": 242.4,
    "position_along": 0.25,
    "protected_area_score": 9.1435,
    "rank": 6,
    "road_access_m": 37.4,
    "road_access_score": 1.0,
    "road_density_km_km2": 6.87,
    "robustness_pct": 43.5,
    "runoff_coeff_C": 0.0804,
    "seasonal_cv": 0.3977,
    "segment_id": 28,
    "segment_length_m": 3050.915,
    "stream_order": 3,
    "superfund_score": 0.1269,
    "tourism_amenity_density": 2.1486,
    "tri_facility_density": 0.0221,
    "usgs_mean_q_cfs": 117.828,
    "velocity_feasibility": 1.0,
    "water_intake_score": 1.8028
   },
   "type": "Feature"
  },
  {
   "geometry": {
    "coordinates": [
     -83.002562,
     35.473846
    ],
    "type": "Point"
   },
   "properties": {
    "accumulation": 84417.0,
    "bank_slope_deg": 1.85,
    "bank_slope_score": 1.0,
    "bank_slope_source": "nc-dps-lidar-dem03-cross-section",
    "beach_dist_km": 495.96,
    "bridge_proximity_bonus": 0.0,
    "catchment_area_km2": 8.4267,
    "channel_width_m": 7.56,
    "channel_width_score": 1.0,
    "composite_score": 47.0022,
    "cso_density": 0.0,
    "ej_index": 0.5696,
    "elevation_m": 833.4924,
    "estuary_dist_km": 632.87,
    "feasibility_score": 55.0,
    "flood_q10_cfs": null,
    "flow_score": 31.4615,
    "flow_velocity_ms": 0.2213,
    "generation_score": 43.5237,
    "impact_score": 59.4324,
    "impervious_pct": 4.62,
    "land_ownership": 0.5,
    "lat": 35.4738,
    "litter_complaint_density": 0.0,
    "lon": -83.0026,
    "navigable_dist_m": null,
    "npdes_points": 0,
    "pixel_col": 510.0,
    "pixel_row": 669.0,
    "population_density": 416.7,
    "position_along": 0.5,
    "protected_area_score": 8.7869,
    "rank": 7,
    "road_access_m": 18.5,
    "road_access_score": 1.0,
    "road_density_km_km2": 9.1,
    "robustness_pct": 24.0,
    "runoff_coeff_C": 0.0916,
    "seasonal_cv": 0.4202,
    "segment_id": 26,
    "segment_length_m": 2358.5653,
    "stream_order": 3,
    "superfund_score": 0.6538,
    "tourism_amenity_density": 1.3528,
    "tri_facility_density": 0.1187,
    "usgs_mean_q_cfs": 11.463,
    "velocity_feasibility": 0.7,
    "water_intake_score": 1.9129
   },
   "type": "Feature"
  },
  {
   "geometry": {
    "coordinates": [
     -83.003835,
     35.486509
    ],
    "type": "Point"
   },
   "properties": {
    "accumulation": 330564.0,
    "bank_slope_deg": 7.38,
    "bank_slope_score": 1.0,
    "bank_slope_source": "nc-dps-lidar-dem03-cross-section",
    "beach_dist_km": 496.43,
    "bridge_proximity_bonus": 0.0,
    "catchment_area_km2": 32.9978,
    "channel_width_m": 13.31,
    "channel_width_score": 1.0,
    "composite_score": 46.5191,
    "cso_density": 0.0,
    "ej_index": 0.4748,
    "elevation_m": 813.1849,
    "estuary_dist_km": 633.04,
    "feasibility_score": 55.0,
    "flood_q10_cfs": null,
    "flow_score": 59.8825,
    "flow_velocity_ms": 0.2911,
    "generation_score": 28.4532,
    "impact_score": 49.2085,
    "impervious_pct": 2.83,
    "land_ownership": 0.5,
    "lat": 35.4865,
    "litter_complaint_density": 0.0,
    "lon": -83.0038,
    "navigable_dist_m": null,
    "npdes_points": 1,
    "pixel_col": 503.0,
    "pixel_row": 529.0,
    "population_density": 267.7,
    "position_along": 0.5,
    "protected_area_score": 8.8925,
    "rank": 8,
    "road_access_m": 99.7,
    "road_access_score": 1.0,
    "road_density_km_km2": 7.393,
    "robustness_pct": 9.5,
    "runoff_coeff_C": 0.0755,
    "seasonal_cv": 0.3935,
    "segment_id": 24,
    "segment_length_m": 76.5006,
    "stream_order": 3,
    "superfund_score": 0.2453,
    "tourism_amenity_density": 1.5915,
    "tri_facility_density": 0.0303,
    "usgs_mean_q_cfs": 115.323,
    "velocity_feasibility": 0.7,
    "water_intake_score": 1.849
   },
   "type": "Feature"
  },
  {
   "geometry": {
    "coordinates": [
     -83.003489,
     35.484594
    ],
    "type": "Point"
   },
   "properties": {
    "accumulation": 119052.0,
    "bank_slope_deg": 8.71,
    "bank_slope_score": 1.0,
    "bank_slope_source": "nc-dps-lidar-dem03-cross-section",
    "beach_dist_km": 496.35,
    "bridge_proximity_bonus": 0.0,
    "catchment_area_km2": 11.8841,
    "channel_width_m": 8.71,
    "channel_width_score": 1.0,
    "composite_score": 46.3503,
    "cso_density": 0.0,
    "ej_index": 0.5284,
    "elevation_m": 815.292,
    "estuary_dist_km": 633.0,
    "feasibility_score": 75.0,
    "flood_q10_cfs": null,
    "flow_score": 49.1434,
    "flow_velocity_ms": 0.5,
    "generation_score": 23.4278,
    "impact_score": 52.6203,
    "impervious_pct": null,
    "land_ownership": 0.5,
    "lat": 35.4846,
    "litter_complaint_density": 0.0,
    "lon": -83.0035,
    "navigable_dist_m": null,
    "npdes_points": 0,
    "pixel_col": 504.0,
    "pixel_row": 550.0,
    "population_density": 392.0,
    "position_along": 0.5,
    "protected_area_score": 8.8495,
    "rank": 9,
    "road_access_m": 157.3,
    "road_access_score": 1.0,
    "road_density_km_km2": 8.703,
    "robustness_pct": 21.0,
    "runoff_coeff_C": null,
    "seasonal_cv": null,
    "segment_id": 27,
    "segment_length_m": 546.4994,
    "stream_order": 3,
    "superfund_score": 0.3431,
    "tourism_amenity_density": 1.5915,
    "tri_facility_density": 0.0,
    "usgs_mean_q_cfs": null,
    "velocity_feasibility": 1.0,
    "water_intake_score": 1.8547
   },
   "type": "Feature"
  },
  {
   "geometry": {
    "coordinates": [
     -82.971944,
     35.516969
    ],
    "type": "Point"
   },
   "properties": {
    "accumulation": 764969.0,
    "bank_slope_deg": 22.52,
    "bank_slope_score": 0.5,
    "bank_slope_source": "nc-dps-lidar-dem03-cross-section",
    "beach_dist_km": 494.54,
    "bridge_proximity_bonus": 0.0,
    "catchment_area_km2": 76.3612,
    "channel_width_m": 18.86,
    "channel_width_score": 0.5,
    "composite_score": 46.177,
    "cso_density": 0.0,
    "ej_index": 0.3634,
    "elevation_m": 781.1909,
    "estuary_dist_km": 630.31,
    "feasibility_score": 28.75,
    "flood_q10_cfs": null,
    "flow_score": 72.9239,
    "flow_velocity_ms": 0.2209,
    "generation_score": 28.664,
    "impact_score": 50.1145,
    "impervious_pct": 3.95,
    "land_ownership": 0.5,
    "lat": 35.517,
    "litter_complaint_density": 0.0,
    "lon": -82.9719,
    "navigable_dist_m": null,
    "npdes_points": 3,
    "pixel_col": 795.0,
    "pixel_row": 199.0,
    "population_density": 195.0,
    "position_along": 0.5,
    "protected_area_score": 10.9949,
    "rank": 10,
    "road_access_m": 142.6,
    "road_access_score": 1.0,
    "road_density_km_km2": 3.756,
    "robustness_pct": 33.5,
    "runoff_coeff_C": 0.0856,
    "seasonal_cv": 0.4246,
    "segment_id": 30,
    "segment_length_m": 660.5403,
    "stream_order": 3,
    "superfund_score": 0.0166,
    "tourism_amenity_density": 1.9099,
    "tri_facility_density": 0.0,
    "usgs_mean_q_cfs": 139.569,
    "velocity_feasibility": 0.7,
    "water_intake_score": 1.5861
   },
   "type": "Feature"
  },
  {
   "geometry": {
    "coordinates": [
     -82.975653,
     35.518382
    ],
    "type": "Point"
   },
   "properties": {
    "accumulation": 791349.0,
    "bank_slope_deg": 15.83,
    "bank_slope_score": 0.5,
    "bank_slope_source": "nc-dps-lidar-dem03-cross-section",
    "beach_dist_km": 494.91,
    "bridge_proximity_bonus": 0.0,
    "catchment_area_km2": 78.9945,
    "channel_width_m": 19.13,
    "channel_width_score": 0.5,
    "composite_score": 46.0954,
    "cso_density": 0.0,
    "ej_index": 0.3648,
    "elevation_m": 780.8751,
    "estuary_dist_km": 630.65,
    "feasibility_score": 28.75,
    "flood_q10_cfs": null,
    "flow_score": 74.0788,
    "flow_velocity_ms": 0.2268,
    "generation_score": 28.804,
    "impact_score": 48.74,
    "impervious_pct": 4.05,
    "land_ownership": 0.5,
    "lat": 35.5184,
    "litter_complaint_density": 0.0,
    "lon": -82.9757,
    "navigable_dist_m": null,
    "npdes_points": 3,
    "pixel_col": 762.0,
    "pixel_row": 182.0,
    "population_density": 190.9,
    "position_along": 0.5,
    "protected_area_score": 10.9504,
    "rank": 11,
    "road_access_m": 78.2,
    "road_access_score": 1.0,
    "road_density_km_km2": 3.836,
    "robustness_pct": 36.0,
    "runoff_coeff_C": 0.0864,
    "seasonal_cv": 0.4262,
    "segment_id": 31,
    "segment_length_m": 198.8184,
    "stream_order": 3,
    "superfund_score": 0.0168,
    "tourism_amenity_density": 1.8303,
    "tri_facility_density": 0.0,
    "usgs_mean_q_cfs": 140.731,
    "velocity_feasibility": 0.7,
    "water_intake_score": 1.5904
   },
   "type": "Feature"
  },
  {
   "geometry": {
    "coordinates": [
     -83.008651,
     35.475197
    ],
    "type": "Point"
   },
   "properties": {
    "accumulation": 199187.0,
    "bank_slope_deg": 6.76,
    "bank_slope_score": 1.0,
    "bank_slope_source": "nc-dps-lidar-dem03-cross-section",
    "beach_dist_km": 496.53,
    "bridge_proximity_bonus": 0.0,
    "catchment_area_km2": 19.8834,
    "channel_width_m": 10.79,
    "channel_width_score": 1.0,
    "composite_score": 45.5302,
    "cso_density": 0.0,
    "ej_index": 0.5264,
    "elevation_m": 826.8666,
    "estuary_dist_km": 633.43,
    "feasibility_score": 55.0,
    "flood_q10_cfs": null,
    "flow_score": 50.7851,
    "flow_velocity_ms": 0.277,
    "generation_score": 25.261,
    "impact_score": 56.6855,
    "impervious_pct": 2.09,
    "land_ownership": 0.5,
    "lat": 35.4752,
    "litter_complaint_density": 0.0,
    "lon": -83.0087,
    "navigable_dist_m": null,
    "npdes_points": 0,
    "pixel_col": 455.0,
    "pixel_row": 653.0,
    "population_density": 286.3,
    "position_along": 0.5,
    "protected_area_score": 8.7243,
    "rank": 12,
    "road_access_m": 99.5,
    "road_access_score": 1.0,
    "road_density_km_km2": 7.846,
    "robustness_pct": 2.5,
    "runoff_coeff_C": 0.0688,
    "seasonal_cv": 0.3623,
    "segment_id": 22,
    "segment_length_m": 1267.9906,
    "stream_order": 3,
    "superfund_score": 0.5792,
    "tourism_amenity_density": 1.5915,
    "tri_facility_density": 0.0503,
    "usgs_mean_q_cfs": 86.088,
    "velocity_feasibility": 0.7,
    "water_intake_score": 1.935
   },
   "type": "Feature"
  },
  {
   "geometry": {
    "coordinates": [
     -83.005763,
     35.482936
    ],
    "type": "Point"
   },
   "properties": {
    "accumulation": 277282.0,
    "bank_slope_deg": 13.66,
    "bank_slope_score": 1.0,
    "bank_slope_source": "nc-dps-lidar-dem03-cross-section",
    "beach_dist_km": 496.5,
    "bridge_proximity_bonus": 0.0,
    "catchment_area_km2": 27.679,
    "channel_width_m": 12.38,
    "channel_width_score": 1.0,
    "composite_score": 45.4216,
    "cso_density": 0.0,
    "ej_index": 0.4967,
    "elevation_m": 816.9859,
    "estuary_dist_km": 633.2,
    "feasibility_score": 55.0,
    "flood_q10_cfs": null,
    "flow_score": 56.046,
    "flow_velocity_ms": 0.2539,
    "generation_score": 24.2861,
    "impact_score": 52.9142,
    "impervious_pct": 2.53,
    "land_ownership": 0.5,
    "lat": 35.4829,
    "litter_complaint_density": 0.0,
    "lon": -83.0058,
    "navigable_dist_m": null,
    "npdes_points": 0,
    "pixel_col": 484.0,
    "pixel_row": 568.0,
    "population_density": 284.4,
    "position_along": 0.5,
    "protected_area_score": 8.7373,
    "rank": 13,
    "road_access_m": 54.4,
    "road_access_score": 1.0,
    "road_density_km_km2": 7.556,
    "robustness_pct": 0.0,
    "runoff_coeff_C": 0.0728,
    "seasonal_cv": 0.3863,
    "segment_id": 23,
    "segment_length_m": 860.7787,
    "stream_order": 3,
    "superfund_score": 0.4621,
    "tourism_amenity_density": 1.6711,
    "tri_facility_density": 0.0361,
    "usgs_mean_q_cfs": 110.706,
    "velocity_feasibility": 0.7,
    "water_intake_score": 1.8785
   },
   "type": "Feature"
  },
  {
   "geometry": {
    "coordinates": [
     -82.963528,
     35.477656
    ],
    "type": "Point"
   },
   "properties": {
    "accumulation": 70172.0,
    "bank_slope_deg": 1.52,
    "bank_slope_score": 1.0,
    "bank_slope_source": "nc-dps-lidar-dem03-cross-section",
    "beach_dist_km": 492.65,
    "bridge_proximity_bonus": 0.0,
    "catchment_area_km2": 7.0048,
    "channel_width_m": 7.0,
    "channel_width_score": 1.0,
    "composite_score": 42.0195,
    "cso_density": 0.0,
    "ej_index": 0.4703,
    "elevation_m": 816.3049,
    "estuary_dist_km": 629.35,
    "feasibility_score": 90.0,
    "flood_q10_cfs": null,
    "flow_score": 47.813,
    "flow_velocity_ms": 0.5,
    "generation_score": 5.0332,
    "impact_score": 50.1878,
    "impervious_pct": null,
    "land_ownership": 1.0,
    "lat": 35.4777,
    "litter_complaint_density": 0.0,
    "lon": -82.9635,
    "navigable_dist_m": null,
    "npdes_points": 0,
    "pixel_col": 863.0,
    "pixel_row": 634.0,
    "population_density": 176.2,
    "position_along": 0.5,
    "protected_area_score": 9.8007,
    "rank": 14,
    "road_access_m": 127.0,
    "road_access_score": 1.0,
    "road_density_km_km2": 3.623,
    "robustness_pct": 13.5,
    "runoff_coeff_C": null,
    "seasonal_cv": null,
    "segment_id": 12,
    "segment_length_m": 38.2503,
    "stream_order": 3,
    "superfund_score": 0.0396,
    "tourism_amenity_density": 0.0,
    "tri_facility_density": 0.0,
    "usgs_mean_q_cfs": null,
    "velocity_feasibility": 1.0,
    "water_intake_score": 1.7046
   },
   "type": "Feature"
  },
  {
   "geometry": {
    "coordinates": [
     -82.971805,
     35.508391
    ],
    "type": "Point"
   },
   "properties": {
    "accumulation": 568542.0,
    "bank_slope_deg": 26.64,
    "bank_slope_score": 0.5,
    "bank_slope_source": "nc-dps-lidar-dem03-cross-section",
    "beach_dist_km": 494.28,
    "bridge_proximity_bonus": 0.0,
    "catchment_area_km2": 56.7533,
    "channel_width_m": 16.67,
    "channel_width_score": 0.5,
    "composite_score": 41.461,
    "cso_density": 0.0,
    "ej_index": 0.3649,
    "elevation_m": 786.9156,
    "estuary_dist_km": 630.25,
    "feasibility_score": 3.75,
    "flood_q10_cfs": null,
    "flow_score": 65.7131,
    "flow_velocity_ms": 0.237,
    "generation_score": 31.5212,
    "impact_score": 50.0461,
    "impervious_pct": 4.16,
    "land_ownership": 0.5,
    "lat": 35.5084,
    "litter_complaint_density": 0.0,
    "lon": -82.9718,
    "navigable_dist_m": null,
    "npdes_points": 3,
    "pixel_col": 795.0,
    "pixel_row": 291.0,
    "population_density": 204.2,
    "position_along": 0.5,
    "protected_area_score": 10.6496,
    "rank": 15,
    "road_access_m": 221.0,
    "road_access_score": 0.8,
    "road_density_km_km2": 4.943,
    "robustness_pct": 6.5,
    "runoff_coeff_C": 0.0874,
    "seasonal_cv": 0.4071,
    "segment_id": 29,
    "segment_length_m": 2665.6936,
    "stream_order": 3,
    "superfund_score": 0.0219,
    "tourism_amenity_density": 1.7507,
    "tri_facility_density": 0.0,
    "usgs_mean_q_cfs": 123.364,
    "velocity_feasibility": 0.7,
    "water_intake_score": 1.6268
   },
   "type": "Feature"
  },
  {
   "geometry": {
    "coordinates": [
     -83.010872,
     35.467109
    ],
    "type": "Point"
   },
   "properties": {
    "accumulation": 154667.0,
    "bank_slope_deg": 18.54,
    "bank_slope_score": 0.5,
    "bank_slope_source": "nc-dps-lidar-dem03-cross-section",
    "beach_dist_km": 496.49,
    "bridge_proximity_bonus": 0.0,
    "catchment_area_km2": 15.4393,
    "channel_width_m": 9.71,
    "channel_width_score": 1.0,
    "composite_score": 40.0015,
    "cso_density": 0.0,
    "ej_index": 0.5454,
    "elevation_m": 837.473,
    "estuary_dist_km": 633.59,
    "feasibility_score": 48.75,
    "flood_q10_cfs": null,
    "flow_score": 38.7655,
    "flow_velocity_ms": 0.2481,
    "generation_score": 25.4588,
    "impact_score": 51.2,
    "impervious_pct": 3.29,
    "land_ownership": 0.5,
    "lat": 35.4671,
    "litter_complaint_density": 0.0,
    "lon": -83.0109,
    "navigable_dist_m": null,
    "npdes_points": 0,
    "pixel_col": 434.0,
    "pixel_row": 742.0,
    "population_density": 247.7,
    "position_along": 0.5,
    "protected_area_score": 8.6675,
    "rank": 16,
    "road_access_m": 125.2,
    "road_access_score": 1.0,
    "road_density_km_km2": 6.992,
    "robustness_pct": 0.0,
    "runoff_coeff_C": 0.0796,
    "seasonal_cv": 0.3883,
    "segment_id": 19,
    "segment_length_m": 782.858,
    "stream_order": 3,
    "superfund_score": 0.2533,
    "tourism_amenity_density": 0.7162,
    "tri_facility_density": 0.0648,
    "usgs_mean_q_cfs": 34.075,
    "velocity_feasibility": 0.7,
    "water_intake_score": 1.9759
   },
   "type": "Feature"
  },
  {
   "geometry": {
    "coordinates": [
     -82.967654,
     35.509785
    ],
    "type": "Point"
   },
   "properties": {
    "accumulation": 183149.0,
    "bank_slope_deg": 7.82,
    "bank_slope_score": 1.0,
    "bank_slope_source": "nc-dps-lidar-dem03-cross-section",
    "beach_dist_km": 493.96,
    "bridge_proximity_bonus": 0.0,
    "catchment_area_km2": 18.2824,
    "channel_width_m": 10.42,
    "channel_width_score": 1.0,
    "composite_score": 39.7567,
    "cso_density": 0.0,
    "ej_index": 0.2816,
    "elevation_m": 785.3019,
    "estuary_dist_km": 629.88,
    "feasibility_score": 55.0,
    "flood_q10_cfs": null,
    "flow_score": 30.5724,
    "flow_velocity_ms": 0.1641,
    "generation_score": 30.1667,
    "impact_score": 49.3786,
    "impervious_pct": 2.45,
    "land_ownership": 0.5,
    "lat": 35.5098,
    "litter_complaint_density": 0.0,
    "lon": -82.9677,
    "navigable_dist_m": null,
    "npdes_points": 3,
    "pixel_col": 835.0,
    "pixel_row": 276.0,
    "population_density": 167.2,
    "position_along": 0.5,
    "protected_area_score": 10.9482,
    "rank": 17,
    "road_access_m": 80.1,
    "road_access_score": 1.0,
    "road_density_km_km2": 6.889,
    "robustness_pct": 0.0,
    "runoff_coeff_C": 0.0721,
    "seasonal_cv": 0.4937,
    "segment_id": 15,
    "segment_length_m": 1478.9303,
    "stream_order": 3,
    "superfund_score": 0.0193,
    "tourism_amenity_density": 1.9894,
    "tri_facility_density": 0.0,
    "usgs_mean_q_cfs": 16.091,
    "velocity_feasibility": 0.7,
    "water_intake_score": 1.6078
   },
   "type": "Feature"
  },
  {
   "geometry": {
    "coordinates": [
     -83.018548,
     35.465071
    ],
    "type": "Point"
   },
   "properties": {
    "accumulation": 51524.0,
    "bank_slope_deg": 1.7,
    "bank_slope_score": 1.0,
    "bank_slope_source": "nc-dps-lidar-dem03-cross-section",
    "beach_dist_km": 497.1,
    "bridge_proximity_bonus": 0.0,
    "catchment_area_km2": 5.1433,
    "channel_width_m": 6.16,
    "channel_width_score": 1.0,
    "composite_score": 39.6909,
    "cso_density": 0.0,
    "ej_index": 0.6264,
    "elevation_m": 843.512,
    "estuary_dist_km": 634.28,
    "feasibility_score": 55.0,
    "flood_q10_cfs": null,
    "flow_score": 24.9214,
    "flow_velocity_ms": 0.1454,
    "generation_score": 32.8344,
    "impact_score": 51.2007,
    "impervious_pct": 2.97,
    "land_ownership": 0.5,
    "lat": 35.4651,
    "litter_complaint_density": 0.0,
    "lon": -83.0185,
    "navigable_dist_m": null,
    "npdes_points": 0,
    "pixel_col": 364.0,
    "pixel_row": 767.0,
    "population_density": 199.9,
    "position_along": 0.75,
    "protected_area_score": 8.6198,
    "rank": 18,
    "road_access_m": 133.4,
    "road_access_score": 1.0,
    "road_density_km_km2": 6.562,
    "robustness_pct": 0.0,
    "runoff_coeff_C": 0.0767,
    "seasonal_cv": 0.4756,
    "segment_id": 17,
    "segment_length_m": 3086.2032,
    "stream_order": 3,
    "superfund_score": 0.1379,
    "tourism_amenity_density": 0.4775,
    "tri_facility_density": 0.1944,
    "usgs_mean_q_cfs": 4.906,
    "velocity_feasibility": 0.7,
    "water_intake_score": 2.0117
   },
   "type": "Feature"
  },
  {
   "geometry": {
    "coordinates": [
     -82.964059,
     35.498121
    ],
    "type": "Point"
   },
   "properties": {
    "accumulation": 112052.0,
    "bank_slope_deg": 5.22,
    "bank_slope_score": 1.0,
    "bank_slope_source": "nc-dps-lidar-dem03-cross-section",
    "beach_dist_km": 493.3,
    "bridge_proximity_bonus": 0.0,
    "catchment_area_km2": 11.1853,
    "channel_width_m": 8.5,
    "channel_width_score": 1.0,
    "composite_score": 38.6927,
    "cso_density": 0.0,
    "ej_index": 0.3067,
    "elevation_m": 794.2308,
    "estuary_dist_km": 629.5,
    "feasibility_score": 70.0,
    "flood_q10_cfs": null,
    "flow_score": 28.162,
    "flow_velocity_ms": 0.1776,
    "generation_score": 21.4941,
    "impact_score": 49.0133,
    "impervious_pct": 2.16,
    "land_ownership": 1.0,
    "lat": 35.4981,
    "litter_complaint_density": 0.0,
    "lon": -82.9641,
    "navigable_dist_m": null,
    "npdes_points": 2,
    "pixel_col": 863.0,
    "pixel_row": 407.0,
    "population_density": 163.8,
    "position_along": 0.75,
    "protected_area_score": 10.4672,
    "rank": 19,
    "road_access_m": 173.6,
    "road_access_score": 1.0,
    "road_density_km_km2": 5.244,
    "robustness_pct": 0.0,
    "runoff_coeff_C": 0.0694,
    "seasonal_cv": 0.4704,
    "segment_id": 14,
    "segment_length_m": 3557.3281,
    "stream_order": 3,
    "superfund_score": 0.0251,
    "tourism_amenity_density": 1.4324,
    "tri_facility_density": 0.0,
    "usgs_mean_q_cfs": 8.763,
    "velocity_feasibility": 0.7,
    "water_intake_score": 1.6456
   },
   "type": "Feature"
  },
  {
   "geometry": {
    "coordinates": [
     -83.016527,
     35.45862
    ],
    "type": "Point"
   },
   "properties": {
    "accumulation": 85822.0,
    "bank_slope_deg": 10.67,
    "bank_slope_score": 1.0,
    "bank_slope_source": "nc-dps-lidar-dem03-cross-section",
    "beach_dist_km": 496.74,
    "bridge_proximity_bonus": 0.0,
    "catchment_area_km2": 8.567,
    "channel_width_m": 7.61,
    "channel_width_score": 1.0,
    "composite_score": 38.3468,
    "cso_density": 0.0,
    "ej_index": 0.5469,
    "elevation_m": 849.5528,
    "estuary_dist_km": 634.07,
    "feasibility_score": 55.0,
    "flood_q10_cfs": null,
    "flow_score": 34.9062,
    "flow_velocity_ms": 0.2107,
    "generation_score": 22.9791,
    "impact_score": 48.2551,
    "impervious_pct": 3.15,
    "land_ownership": 0.5,
    "lat": 35.4586,
    "litter_complaint_density": 0.0,
    "lon": -83.0165,
    "navigable_dist_m": null,
    "npdes_points": 0,
    "pixel_col": 381.0,
    "pixel_row": 838.0,
    "population_density": 154.2,
    "position_along": 0.75,
    "protected_area_score": 8.5504,
    "rank": 20,
    "road_access_m": 121.6,
    "road_access_score": 1.0,
    "road_density_km_km2": 5.601,
    "robustness_pct": 0.0,
    "runoff_coeff_C": 0.0784,
    "seasonal_cv": 0.368,
    "segment_id": 18,
    "segment_length_m": 4134.095,
    "stream_order": 3,
    "superfund_score": 0.1307,
    "tourism_amenity_density": 0.2387,
    "tri_facility_density": 0.1167,
    "usgs_mean_q_cfs": 29.074,
    "velocity_feasibility": 0.7,
    "water_intake_score": 2.0299
   },
   "type": "Feature"
  },
  {
   "geometry": {
    "coordinates": [
     -82.978138,
     35.516386
    ],
    "type": "Point"
   },
   "properties": {
    "accumulation": 23223.0,
    "bank_slope_deg": 15.12,
    "bank_slope_score": 0.5,
    "bank_slope_source": "nc-dps-lidar-dem03-cross-section",
    "beach_dist_km": 495.07,
    "bridge_proximity_bonus": 0.0,
    "catchment_area_km2": 2.3182,
    "channel_width_m": 4.42,
    "channel_width_score": 1.0,
    "composite_score": 37.628,
    "cso_density": 0.0,
    "ej_index": 0.3356,
    "elevation_m": 783.6476,
    "estuary_dist_km": 630.87,
    "feasibility_score": 48.75,
    "flood_q10_cfs": null,
    "flow_score": 24.349,
    "flow_velocity_ms": 0.124,
    "generation_score": 32.0447,
    "impact_score": 48.716,
    "impervious_pct": 10.72,
    "land_ownership": 0.5,
    "lat": 35.5164,
    "litter_complaint_density": 0.0,
    "lon": -82.9781,
    "navigable_dist_m": null,
    "npdes_points": 0,
    "pixel_col": 743.0,
    "pixel_row": 202.0,
    "population_density": 189.9,
    "position_along": 0.5,
    "protected_area_score": 10.7344,
    "rank": 21,
    "road_access_m": 57.0,
    "road_access_score": 1.0,
    "road_density_km_km2": 7.589,
    "robustness_pct": 0.0,
    "runoff_coeff_C": 0.1465,
    "seasonal_cv": 0.5316,
    "segment_id": 5,
    "segment_length_m": 771.8628,
    "stream_order": 3,
    "superfund_score": 0.0185,
    "tourism_amenity_density": 2.3077,
    "tri_facility_density": 0.0,
    "usgs_mean_q_cfs": 1.133,
    "velocity_feasibility": 0.7,
    "water_intake_score": 1.609
   },
   "type": "Feature"
  },
  {
   "geometry": {
    "coordinates": [
     -82.99261,
     35.459277
    ],
    "type": "Point"
   },
   "properties": {
    "accumulation": 43981.0,
    "bank_slope_deg": 15.25,
    "bank_slope_score": 0.5,
    "bank_slope_source": "nc-dps-lidar-dem03-cross-section",
    "beach_dist_km": 494.67,
    "bridge_proximity_bonus": 0.2,
    "catchment_area_km2": 4.3903,
    "channel_width_m": 5.76,
    "channel_width_score": 1.0,
    "composite_score": 37.2161,
    "cso_density": 0.0,
    "ej_index": 0.552,
    "elevation_m": 888.5353,
    "estuary_dist_km": 631.91,
    "feasibility_score": 58.75,
    "flood_q10_cfs": null,
    "flow_score": 29.0271,
    "flow_velocity_ms": 0.2562,
    "generation_score": 13.1798,
    "impact_score": 57.3096,
    "impervious_pct": 1.78,
    "land_ownership": 0.5,
    "lat": 35.4593,
    "litter_complaint_density": 0.0,
    "lon": -82.9926,
    "navigable_dist_m": null,
    "npdes_points": 0,
    "pixel_col": 596.0,
    "pixel_row": 833.0,
    "population_density": 190.6,
    "position_along": 0.5,
    "protected_area_score": 8.6308,
    "rank": 22,
    "road_access_m": 28.5,
    "road_access_score": 1.0,
    "road_density_km_km2": 6.075,
    "robustness_pct": 0.0,
    "runoff_coeff_C": 0.066,
    "seasonal_cv": 0.439,
    "segment_id": 20,
    "segment_length_m": 2223.9539,
    "stream_order": 3,
    "superfund_score": 0.5267,
    "tourism_amenity_density": 0.557,
    "tri_facility_density": 0.0,
    "usgs_mean_q_cfs": 4.223,
    "velocity_feasibility": 0.7,
    "water_intake_score": 1.9279
   },
   "type": "Feature"
  },
  {
   "geometry": {
    "coordinates": [
     -83.036363,
     35.455335
    ],
    "type": "Point"
   },
   "properties": {
    "accumulation": 54477.0,
    "bank_slope_deg": 9.08,
    "bank_slope_score": 1.0,
    "bank_slope_source": "nc-dps-lidar-dem03-cross-section",
    "beach_dist_km": 498.39,
    "bridge_proximity_bonus": 0.0,
    "catchment_area_km2": 5.438,
    "channel_width_m": 6.3,
    "channel_width_score": 1.0,
    "composite_score": 37.0405,
    "cso_density": 0.0,
    "ej_index": 0.5063,
    "elevation_m": 874.5306,
    "estuary_dist_km": 635.85,
    "feasibility_score": 55.0,
    "flood_q10_cfs": null,
    "flow_score": 34.2118,
    "flow_velocity_ms": 0.2149,
    "generation_score": 20.7364,
    "impact_score": 46.7221,
    "impervious_pct": 3.15,
    "land_ownership": 0.5,
    "lat": 35.4553,
    "litter_complaint_density": 0.0,
    "lon": -83.0364,
    "navigable_dist_m": null,
    "npdes_points": 2,
    "pixel_col": 200.0,
    "pixel_row": 871.0,
    "population_density": 98.5,
    "position_along": 0.25,
    "protected_area_score": 9.3392,
    "rank": 23,
    "road_access_m": 59.7,
    "road_access_score": 1.0,
    "road_density_km_km2": 5.433,
    "robustness_pct": 0.0,
    "runoff_coeff_C": 0.0784,
    "seasonal_cv": 0.368,
    "segment_id": 18,
    "segment_length_m": 4134.095,
    "stream_order": 3,
    "superfund_score": 0.0688,
    "tourism_amenity_density": 0.3979,
    "tri_facility_density": 0.0,
    "usgs_mean_q_cfs": 29.074,
    "velocity_feasibility": 0.7,
    "water_intake_score": 2.0826
   },
   "type": "Feature"
  },
  {
   "geometry": {
    "coordinates": [
     -83.045082,
     35.52024
    ],
    "type": "Point"
   },
   "properties": {
    "accumulation": 40787.0,
    "bank_slope_deg": 23.96,
    "bank_slope_score": 0.5,
    "bank_slope_source": "nc-dps-lidar-dem03-cross-section",
    "beach_dist_km": 501.02,
    "bridge_proximity_bonus": 0.0,
    "catchment_area_km2": 4.0715,
    "channel_width_m": 5.59,
    "channel_width_score": 1.0,
    "composite_score": 36.4074,
    "cso_density": 0.0,
    "ej_index": 0.5569,
    "elevation_m": 846.0657,
    "estuary_dist_km": 636.94,
    "feasibility_score": 68.75,
    "flood_q10_cfs": null,
    "flow_score": 47.0132,
    "flow_velocity_ms": 0.5,
    "generation_score": 10.9159,
    "impact_score": 36.8894,
    "impervious_pct": null,
    "land_ownership": 0.5,
    "lat": 35.5202,
    "litter_complaint_density": 0.0,
    "lon": -83.0451,
    "navigable_dist_m": null,
    "npdes_points": 1,
    "pixel_col": 136.0,
    "pixel_row": 149.0,
    "population_density": 94.5,
    "position_along": 0.5,
    "protected_area_score": 8.3662,
    "rank": 24,
    "road_access_m": 158.9,
    "road_access_score": 1.0,
    "road_density_km_km2": 6.129,
    "robustness_pct": 0.0,
    "runoff_coeff_C": null,
    "seasonal_cv": null,
    "segment_id": 3,
    "segment_length_m": 2866.1044,
    "stream_order": 3,
    "superfund_score": 0.0145,
    "tourism_amenity_density": 1.0345,
    "tri_facility_density": 0.0,
    "usgs_mean_q_cfs": null,
    "velocity_feasibility": 1.0,
    "water_intake_score": 1.9696
   },
   "type": "Feature"
  },
  {
   "geometry": {
    "coordinates": [
     -82.980544,
     35.523976
    ],
    "type": "Point"
   },
   "properties": {
    "accumulation": 96823.0,
    "bank_slope_deg": 0.0,
    "bank_slope_score": 1.0,
    "bank_slope_source": "nc-dps-lidar-dem03-cross-section",
    "beach_dist_km": 495.5,
    "bridge_proximity_bonus": 0.0,
    "catchment_area_km2": 9.6651,
    "channel_width_m": 8.0,
    "channel_width_score": 1.0,
    "composite_score": 36.1957,
    "cso_density": 0.0,
    "ej_index": 0.3718,
    "elevation_m": 780.6797,
    "estuary_dist_km": 631.12,
    "feasibility_score": 55.0,
    "flood_q10_cfs": null,
    "flow_score": 24.8609,
    "flow_velocity_ms": 0.0578,
    "generation_score": 27.0798,
    "impact_score": 45.3551,
    "impervious_pct": 5.6,
    "land_ownership": 0.5,
    "lat": 35.524,
    "litter_complaint_density": 0.0,
    "lon": -82.9805,
    "navigable_dist_m": null,
    "npdes_points": 1,
    "pixel_col": 723.0,
    "pixel_row": 120.0,
    "population_density": 180.6,
    "position_along": 0.5,
    "protected_area_score": 11.0471,
    "rank": 25,
    "road_access_m": 135.6,
    "road_access_score": 1.0,
    "road_density_km_km2": 7.376,
    "robustness_pct": 0.0,
    "runoff_coeff_C": 0.1004,
    "seasonal_cv": 0.4971,
    "segment_id": 7,
    "segment_length_m": 1367.3137,
    "stream_order": 3,
    "superfund_score": 0.0148,
    "tourism_amenity_density": 1.3528,
    "tri_facility_density": 0.0,
    "usgs_mean_q_cfs": 8.595,
    "velocity_feasibility": 0.7,
    "water_intake_score": 1.5761
   },
   "type": "Feature"
  },
  {
   "geometry": {
    "coordinates": [
     -83.001662,
     35.455299
    ],
    "type": "Point"
   },
   "properties": {
    "accumulation": 22594.0,
    "bank_slope_deg": 3.79,
    "bank_slope_score": 1.0,
    "bank_slope_source": "nc-dps-lidar-dem03-cross-section",
    "beach_dist_km": 495.35,
    "bridge_proximity_bonus": 0.0,
    "catchment_area_km2": 2.2554,
    "channel_width_m": 4.37,
    "channel_width_score": 1.0,
    "composite_score": 36.0875,
    "cso_density": 0.0,
    "ej_index": 0.5349,
    "elevation_m": 867.6738,
    "estuary_dist_km": 632.71,
    "feasibility_score": 70.0,
    "flood_q10_cfs": null,
    "flow_score": 26.3444,
    "flow_velocity_ms": 0.1787,
    "generation_score": 8.3885,
    "impact_score": 54.9493,
    "impervious_pct": 1.29,
    "land_ownership": 1.0,
    "lat": 35.4553,
    "litter_complaint_density": 0.0,
    "lon": -83.0017,
    "navigable_dist_m": null,
    "npdes_points": 0,
    "pixel_col": 514.0,
    "pixel_row": 875.0,
    "population_density": 126.0,
    "position_along": 0.5,
    "protected_area_score": 8.6335,
    "rank": 26,
    "road_access_m": 44.5,
    "road_access_score": 1.0,
    "road_density_km_km2": 5.476,
    "robustness_pct": 0.0,
    "runoff_coeff_C": 0.0616,
    "seasonal_cv": 0.4058,
    "segment_id": 25,
    "segment_length_m": 2367.1363,
    "stream_order": 3,
    "superfund_score": 0.3467,
    "tourism_amenity_density": 0.6366,
    "tri_facility_density": 0.0,
    "usgs_mean_q_cfs": 5.952,
    "velocity_feasibility": 0.7,
    "water_intake_score": 1.9904
   },
   "type": "Feature"
  },
  {
   "geometry": {
    "coordinates": [
     -83.009938,
     35.484528
    ],
    "type": "Point"
   },
   "properties": {
    "accumulation": 44707.0,
    "bank_slope_deg": 9.34,
    "bank_slope_score": 1.0,
    "bank_slope_source": "nc-dps-lidar-dem03-cross-section",
    "beach_dist_km": 496.91,
    "bridge_proximity_bonus": 0.0,
    "catchment_area_km2": 4.4628,
    "channel_width_m": 5.8,
    "channel_width_score": 1.0,
    "composite_score": 36.0031,
    "cso_density": 0.0,
    "ej_index": 0.4498,
    "elevation_m": 824.4657,
    "estuary_dist_km": 633.58,
    "feasibility_score": 55.0,
    "flood_q10_cfs": null,
    "flow_score": 21.4969,
    "flow_velocity_ms": 0.051,
    "generation_score": 27.1884,
    "impact_score": 47.4079,
    "impervious_pct": 3.76,
    "land_ownership": 0.5,
    "lat": 35.4845,
    "litter_complaint_density": 0.0,
    "lon": -83.0099,
    "navigable_dist_m": null,
    "npdes_points": 0,
    "pixel_col": 447.0,
    "pixel_row": 551.0,
    "population_density": 353.9,
    "position_along": 0.5,
    "protected_area_score": 8.7089,
    "rank": 27,
    "road_access_m": 103.7,
    "road_access_score": 1.0,
    "road_density_km_km2": 7.904,
    "robustness_pct": 0.0,
    "runoff_coeff_C": 0.0838,
    "seasonal_cv": 0.4949,
    "segment_id": 9,
    "segment_length_m": 1551.5865,
    "stream_order": 3,
    "superfund_score": 0.2674,
    "tourism_amenity_density": 1.512,
    "tri_facility_density": 0.0,
    "usgs_mean_q_cfs": 2.118,
    "velocity_feasibility": 0.7,
    "water_intake_score": 1.8925
   },
   "type": "Feature"
  },
  {
   "geometry": {
    "coordinates": [
     -82.962008,
     35.531259
    ],
    "type": "Point"
   },
   "properties": {
    "accumulation": 31649.0,
    "bank_slope_deg": 16.45,
    "bank_slope_score": 0.5,
    "bank_slope_source": "nc-dps-lidar-dem03-cross-section",
    "beach_dist_km": 494.11,
    "bridge_proximity_bonus": 0.0,
    "catchment_area_km2": 3.1593,
    "channel_width_m": 5.03,
    "channel_width_score": 1.0,
    "composite_score": 35.1009,
    "cso_density": 0.0,
    "ej_index": 0.2962,
    "elevation_m": 767.8245,
    "estuary_dist_km": 629.49,
    "feasibility_score": 68.75,
    "flood_q10_cfs": null,
    "flow_score": 30.4854,
    "flow_velocity_ms": 0.5,
    "generation_score": 9.5218,
    "impact_score": 47.7016,
    "impervious_pct": null,
    "land_ownership": 0.5,
    "lat": 35.5313,
    "litter_complaint_density": 0.0,
    "lon": -82.962,
    "navigable_dist_m": null,
    "npdes_points": 0,
    "pixel_col": 891.0,
    "pixel_row": 39.0,
    "population_density": 170.2,
    "position_along": 0.5,
    "protected_area_score": 12.0644,
    "rank": 28,
    "road_access_m": 127.2,
    "road_access_score": 1.0,
    "road_density_km_km2": 6.351,
    "robustness_pct": 0.0,
    "runoff_coeff_C": null,
    "seasonal_cv": null,
    "segment_id": 0,
    "segment_length_m": 519.2444,
    "stream_order": 1,
    "superfund_score": 0.0099,
    "tourism_amenity_density": 1.2732,
    "tri_facility_density": 0.0,
    "usgs_mean_q_cfs": null,
    "velocity_feasibility": 1.0,
    "water_intake_score": 1.485
   },
   "type": "Feature"
  },
  {
   "geometry": {
    "coordinates": [
     -82.964072,
     35.484838
    ],
    "type": "Point"
   },
   "properties": {
    "accumulation": 87716.0,
    "bank_slope_deg": 10.81,
    "bank_slope_score": 1.0,
    "bank_slope_source": "nc-dps-lidar-dem03-cross-section",
    "beach_dist_km": 492.91,
    "bridge_proximity_bonus": 0.0,
    "catchment_area_km2": 8.756,
    "channel_width_m": 7.68,
    "channel_width_score": 1.0,
    "composite_score": 35.0935,
    "cso_density": 0.0,
    "ej_index": 0.4294,
    "elevation_m": 806.3804,
    "estuary_dist_km": 629.44,
    "feasibility_score": 55.0,
    "flood_q10_cfs": null,
    "flow_score": 27.3447,
    "flow_velocity_ms": 0.1731,
    "generation_score": 17.3928,
    "impact_score": 49.2984,
    "impervious_pct": 2.16,
    "land_ownership": 0.5,
    "lat": 35.4848,
    "litter_complaint_density": 0.0,
    "lon": -82.9641,
    "navigable_dist_m": null,
    "npdes_points": 1,
    "pixel_col": 860.0,
    "pixel_row": 554.0,
    "population_density": 195.3,
    "position_along": 0.25,
    "protected_area_score": 10.2025,
    "rank": 29,
    "road_access_m": 159.9,
    "road_access_score": 1.0,
    "road_density_km_km2": 5.034,
    "robustness_pct": 0.0,
    "runoff_coeff_C": 0.0694,
    "seasonal_cv": 0.4704,
    "segment_id": 14,
    "segment_length_m": 3557.3281,
    "stream_order": 3,
    "superfund_score": 0.0355,
    "tourism_amenity_density": 0.0,
    "tri_facility_density": 0.0,
    "usgs_mean_q_cfs": 8.763,
    "velocity_feasibility": 0.7,
    "water_intake_score": 1.6916
   },
   "type": "Feature"
  },
  {
   "geometry": {
    "coordinates": [
     -82.995146,
     35.526775
    ],
    "type": "Point"
   },
   "properties": {
    "accumulation": 31142.0,
    "bank_slope_deg": 6.27,
    "bank_slope_score": 1.0,
    "bank_slope_source": "nc-dps-lidar-dem03-cross-section",
    "beach_dist_km": 496.86,
    "bridge_proximity_bonus": 0.0,
    "catchment_area_km2": 3.1087,
    "channel_width_m": 5.0,
    "channel_width_score": 1.0,
    "composite_score": 33.7028,
    "cso_density": 0.0,
    "ej_index": 0.4536,
    "elevation_m": 795.8337,
    "estuary_dist_km": 632.46,
    "feasibility_score": 55.0,
    "flood_q10_cfs": null,
    "flow_score": 25.089,
    "flow_velocity_ms": 0.1523,
    "generation_score": 22.9775,
    "impact_score": 40.9578,
    "impervious_pct": 7.17,
    "land_ownership": 0.5,
    "lat": 35.5268,
    "litter_complaint_density": 0.0,
    "lon": -82.9951,
    "navigable_dist_m": null,
    "npdes_points": 0,
    "pixel_col": 591.0,
    "pixel_row": 86.0,
    "population_density": 189.6,
    "position_along": 0.5,
    "protected_area_score": 10.4176,
    "rank": 30,
    "road_access_m": 47.3,
    "road_access_score": 1.0,
    "road_density_km_km2": 6.098,
    "robustness_pct": 0.0,
    "runoff_coeff_C": 0.1145,
    "seasonal_cv": 0.504,
    "segment_id": 1,
    "segment_length_m": 2211.4167,
    "stream_order": 3,
    "superfund_score": 0.015,
    "tourism_amenity_density": 0.7958,
    "tri_facility_density": 0.0,
    "usgs_mean_q_cfs": 2.845,
    "velocity_feasibility": 0.7,
    "water_intake_score": 1.6165
   },
   "type": "Feature"
  },
  {
   "geometry": {
    "coordinates": [
     -83.033775,
     35.465896
    ],
    "type": "Point"
   },
   "properties": {
    "accumulation": 37311.0,
    "bank_slope_deg": 0.74,
    "bank_slope_score": 1.0,
    "bank_slope_source": "nc-dps-lidar-dem03-cross-section",
    "beach_dist_km": 498.46,
    "bridge_proximity_bonus": 0.0,
    "catchment_area_km2": 3.7245,
    "channel_width_m": 5.38,
    "channel_width_score": 1.0,
    "composite_score": 33.0042,
    "cso_density": 0.0,
    "ej_index": 0.6387,
    "elevation_m": 856.8303,
    "estuary_dist_km": 635.66,
    "feasibility_score": 55.0,
    "flood_q10_cfs": null,
    "flow_score": 24.6973,
    "flow_velocity_ms": 0.1505,
    "generation_score": 13.7507,
    "impact_score": 48.182,
    "impervious_pct": 2.97,
    "land_ownership": 0.5,
    "lat": 35.4659,
    "litter_complaint_density": 0.0,
    "lon": -83.0338,
    "navigable_dist_m": null,
    "npdes_points": 0,
    "pixel_col": 226.0,
    "pixel_row": 754.0,
    "population_density": 174.0,
    "position_along": 0.25,
    "protected_area_score": 8.763,
    "rank": 31,
    "road_access_m": 156.6,
    "road_access_score": 1.0,
    "road_density_km_km2": 5.582,
    "robustness_pct": 0.0,
    "runoff_coeff_C": 0.0767,
    "seasonal_cv": 0.4756,
    "segment_id": 17,
    "segment_length_m": 3086.2032,
    "stream_order": 3,
    "superfund_score": 0.0692,
    "tourism_amenity_density": 0.2387,
    "tri_facility_density": 0.0,
    "usgs_mean_q_cfs": 4.906,
    "velocity_feasibility": 0.7,
    "water_intake_score": 2.0607
   },
   "type": "Feature"
  },
  {
   "geometry": {
    "coordinates": [
     -82.990895,
     35.520789
    ],
    "type": "Point"
   },
   "properties": {
    "accumulation": 44977.0,
    "bank_slope_deg": 17.39,
    "bank_slope_score": 0.5,
    "bank_slope_source": "nc-dps-lidar-dem03-cross-section",
    "beach_dist_km": 496.31,
    "bridge_proximity_bonus": 0.0,
    "catchment_area_km2": 4.4897,
    "channel_width_m": 5.82,
    "channel_width_score": 1.0,
    "composite_score": 32.8424,
    "cso_density": 0.0,
    "ej_index": 0.4136,
    "elevation_m": 793.595,
    "estuary_dist_km": 632.04,
    "feasibility_score": 48.75,
    "flood_q10_cfs": null,
    "flow_score": 26.6557,
    "flow_velocity_ms": 0.1942,
    "generation_score": 20.0253,
    "impact_score": 42.8612,
    "impervious_pct": 3.87,
    "land_ownership": 0.5,
    "lat": 35.5208,
    "litter_complaint_density": 0.0,
    "lon": -82.9909,
    "navigable_dist_m": null,
    "npdes_points": 0,
    "pixel_col": 628.0,
    "pixel_row": 152.0,
    "population_density": 205.9,
    "position_along": 0.75,
    "protected_area_score": 10.5039,
    "rank": 32,
    "road_access_m": 43.1,
    "road_access_score": 1.0,
    "road_density_km_km2": 7.434,
    "robustness_pct": 0.0,
    "runoff_coeff_C": 0.0848,
    "seasonal_cv": 0.4692,
    "segment_id": 6,
    "segment_length_m": 3032.6469,
    "stream_order": 3,
    "superfund_score": 0.0181,
    "tourism_amenity_density": 1.0345,
    "tri_facility_density": 0.0,
    "usgs_mean_q_cfs": 3.806,
    "velocity_feasibility": 0.7,
    "water_intake_score": 1.6338
   },
   "type": "Feature"
  },
  {
   "geometry": {
    "coordinates": [
     -83.019048,
     35.477762
    ],
    "type": "Point"
   },
   "properties": {
    "accumulation": 51087.0,
    "bank_slope_deg": 6.26,
    "bank_slope_score": 1.0,
    "bank_slope_source": "nc-dps-lidar-dem03-cross-section",
    "beach_dist_km": 497.51,
    "bridge_proximity_bonus": 0.0,
    "catchment_area_km2": 5.0996,
    "channel_width_m": 6.13,
    "channel_width_score": 1.0,
    "composite_score": 32.4579,
    "cso_density": 0.0,
    "ej_index": 0.5006,
    "elevation_m": 847.9563,
    "estuary_dist_km": 634.38,
    "feasibility_score": 45.0,
    "flood_q10_cfs": null,
    "flow_score": 31.0462,
    "flow_velocity_ms": 0.2423,
    "generation_score": 14.0021,
    "impact_score": 45.819,
    "impervious_pct": 1.53,
    "land_ownership": 1.0,
    "lat": 35.4778,
    "litter_complaint_density": 0.0,
    "lon": -83.019,
    "navigable_dist_m": null,
    "npdes_points": 0,
    "pixel_col": 363.0,
    "pixel_row": 624.0,
    "population_density": 179.2,
    "position_along": 0.75,
    "protected_area_score": 8.5044,
    "rank": 33,
    "road_access_m": 249.4,
    "road_access_score": 0.8,
    "road_density_km_km2": 7.097,
    "robustness_pct": 0.0,
    "runoff_coeff_C": 0.0638,
    "seasonal_cv": 0.3721,
    "segment_id": 10,
    "segment_length_m": 4442.6434,
    "stream_order": 3,
    "superfund_score": 0.1634,
    "tourism_amenity_density": 0.9549,
    "tri_facility_density": 0.0,
    "usgs_mean_q_cfs": 9.915,
    "velocity_feasibility": 0.7,
    "water_intake_score": 1.9718
   },
   "type": "Feature"
  },
  {
   "geometry": {
    "coordinates": [
     -83.029026,
     35.527896
    ],
    "type": "Point"
   },
   "properties": {
    "accumulation": 106162.0,
    "bank_slope_deg": 30.33,
    "bank_slope_score": 0.2,
    "bank_slope_source": "nc-dps-lidar-dem03-cross-section",
    "beach_dist_km": 499.85,
    "bridge_proximity_bonus": 0.0,
    "catchment_area_km2": 10.5974,
    "channel_width_m": 8.31,
    "channel_width_score": 1.0,
    "composite_score": 31.5872,
    "cso_density": 0.0,
    "ej_index": 0.4353,
    "elevation_m": 826.44,
    "estuary_dist_km": 635.53,
    "feasibility_score": 45.0,
    "flood_q10_cfs": null,
    "flow_score": 48.8407,
    "flow_velocity_ms": 0.2209,
    "generation_score": 11.5437,
    "impact_score": 30.5464,
    "impervious_pct": 1.75,
    "land_ownership": 0.5,
    "lat": 35.5279,
    "litter_complaint_density": 0.0,
    "lon": -83.029,
    "navigable_dist_m": null,
    "npdes_points": 1,
    "pixel_col": 282.0,
    "pixel_row": 64.0,
    "population_density": 113.3,
    "position_along": 0.5,
    "protected_area_score": 9.0375,
    "rank": 34,
    "road_access_m": 150.1,
    "road_access_score": 1.0,
    "road_density_km_km2": 4.186,
    "robustness_pct": 0.0,
    "runoff_coeff_C": 0.0658,
    "seasonal_cv": 0.3507,
    "segment_id": 4,
    "segment_length_m": 1230.7445,
    "stream_order": 3,
    "superfund_score": 0.0136,
    "tourism_amenity_density": 0.557,
    "tri_facility_density": 0.0,
    "usgs_mean_q_cfs": 101.225,
    "velocity_feasibility": 0.7,
    "water_intake_score": 1.7927
   },
   "type": "Feature"
  },
  {
   "geometry": {
    "coordinates": [
     -83.030328,
     35.520949
    ],
    "type": "Point"
   },
   "properties": {
    "accumulation": 22360.0,
    "bank_slope_deg": 14.71,
    "bank_slope_score": 1.0,
    "bank_slope_source": "nc-dps-lidar-dem03-cross-section",
    "beach_dist_km": 499.75,
    "bridge_proximity_bonus": 0.0,
    "catchment_area_km2": 2.232,
    "channel_width_m": 4.35,
    "channel_width_score": 1.0,
    "composite_score": 29.9905,
    "cso_density": 0.0,
    "ej_index": 0.4818,
    "elevation_m": 841.7483,
    "estuary_dist_km": 635.61,
    "feasibility_score": 55.0,
    "flood_q10_cfs": null,
    "flow_score": 26.7416,
    "flow_velocity_ms": 0.2114,
    "generation_score": 15.7165,
    "impact_score": 34.4672,
    "impervious_pct": 2.75,
    "land_ownership": 0.5,
    "lat": 35.5209,
    "litter_complaint_density": 0.0,
    "lon": -83.0303,
    "navigable_dist_m": null,
    "npdes_points": 0,
    "pixel_col": 269.0,
    "pixel_row": 141.0,
    "population_density": 130.2,
    "position_along": 0.5,
    "protected_area_score": 8.9595,
    "rank": 35,
    "road_access_m": 84.4,
    "road_access_score": 1.0,
    "road_density_km_km2": 8.051,
    "robustness_pct": 0.0,
    "runoff_coeff_C": 0.0747,
    "seasonal_cv": 0.4391,
    "segment_id": 2,
    "segment_length_m": 577.477,
    "stream_order": 3,
    "superfund_score": 0.0166,
    "tourism_amenity_density": 0.6366,
    "tri_facility_density": 0.0,
    "usgs_mean_q_cfs": 2.782,
    "velocity_feasibility": 0.7,
    "water_intake_score": 1.8493
   },
   "type": "Feature"
  },
  {
   "geometry": {
    "coordinates": [
     -82.958261,
     35.476423
    ],
    "type": "Point"
   },
   "properties": {
    "accumulation": 26135.0,
    "bank_slope_deg": 20.42,
    "bank_slope_score": 0.5,
    "bank_slope_source": "nc-dps-lidar-dem03-cross-section",
    "beach_dist_km": 492.16,
    "bridge_proximity_bonus": 0.0,
    "catchment_area_km2": 2.6089,
    "channel_width_m": 4.64,
    "channel_width_score": 1.0,
    "composite_score": 29.8859,
    "cso_density": 0.0,
    "ej_index": 0.4243,
    "elevation_m": 825.7782,
    "estuary_dist_km": 628.87,
    "feasibility_score": 48.75,
    "flood_q10_cfs": null,
    "flow_score": 25.1554,
    "flow_velocity_ms": 0.1878,
    "generation_score": 5.001,
    "impact_score": 49.2808,
    "impervious_pct": 0.69,
    "land_ownership": 0.5,
    "lat": 35.4764,
    "litter_complaint_density": 0.0,
    "lon": -82.9583,
    "navigable_dist_m": null,
    "npdes_points": 0,
    "pixel_col": 910.0,
    "pixel_row": 650.0,
    "population_density": 129.2,
    "position_along": 0.5,
    "protected_area_score": 9.7687,
    "rank": 36,
    "road_access_m": 142.2,
    "road_access_score": 1.0,
    "road_density_km_km2": 4.077,
    "robustness_pct": 0.0,
    "runoff_coeff_C": 0.0562,
    "seasonal_cv": 0.4519,
    "segment_id": 13,
    "segment_length_m": 1142.9545,
    "stream_order": 3,
    "superfund_score": 0.0323,
    "tourism_amenity_density": 0.0,
    "tri_facility_density": 0.0,
    "usgs_mean_q_cfs": 3.781,
    "velocity_feasibility": 0.7,
    "water_intake_score": 1.6948
   },
   "type": "Feature"
  },
  {
   "geometry": {
    "coordinates": [
     -83.039253,
     35.475518
    ],
    "type": "Point"
   },
   "properties": {
    "accumulation": 36950.0,
    "bank_slope_deg": 6.57,
    "bank_slope_score": 1.0,
    "bank_slope_source": "nc-dps-lidar-dem03-cross-section",
    "beach_dist_km": 499.21,
    "bridge_proximity_bonus": 0.0,
    "catchment_area_km2": 3.6884,
    "channel_width_m": 5.36,
    "channel_width_score": 1.0,
    "composite_score": 28.6045,
    "cso_density": 0.0,
    "ej_index": 0.391,
    "elevation_m": 911.4378,
    "estuary_dist_km": 636.2,
    "feasibility_score": 55.0,
    "flood_q10_cfs": null,
    "flow_score": 30.7059,
    "flow_velocity_ms": 0.2434,
    "generation_score": 7.2128,
    "impact_score": 35.0473,
    "impervious_pct": 1.53,
    "land_ownership": 0.5,
    "lat": 35.4755,
    "litter_complaint_density": 0.0,
    "lon": -83.0393,
    "navigable_dist_m": null,
    "npdes_points": 0,
    "pixel_col": 179.0,
    "pixel_row": 647.0,
    "population_density": 101.6,
    "position_along": 0.25,
    "protected_area_score": 8.5364,
    "rank": 37,
    "road_access_m": 69.4,
    "road_access_score": 1.0,
    "road_density_km_km2": 5.17,
    "robustness_pct": 0.0,
    "runoff_coeff_C": 0.0638,
    "seasonal_cv": 0.3721,
    "segment_id": 10,
    "segment_length_m": 4442.6434,
    "stream_order": 3,
    "superfund_score": 0.0543,
    "tourism_amenity_density": 0.1592,
    "tri_facility_density": 0.0,
    "usgs_mean_q_cfs": 9.915,
    "velocity_feasibility": 0.7,
    "water_intake_score": 2.0592
   },
   "type": "Feature"
  },
  {
   "geometry": {
    "coordinates": [
     -83.004443,
     35.515227
    ],
    "type": "Point"
   },
   "properties": {
    "accumulation": 29566.0,
    "bank_slope_deg": 12.62,
    "bank_slope_score": 1.0,
    "bank_slope_source": "nc-dps-lidar-dem03-cross-section",
    "beach_dist_km": 497.33,
    "bridge_proximity_bonus": 0.0,
    "catchment_area_km2": 2.9514,
    "channel_width_m": 4.89,
    "channel_width_score": 1.0,
    "composite_score": 28.4099,
    "cso_density": 0.0,
    "ej_index": 0.3674,
    "elevation_m": 835.8453,
    "estuary_dist_km": 633.24,
    "feasibility_score": 55.0,
    "flood_q10_cfs": null,
    "flow_score": 26.232,
    "flow_velocity_ms": 0.2119,
    "generation_score": 10.3016,
    "impact_score": 35.0381,
    "impervious_pct": 1.87,
    "land_ownership": 0.5,
    "lat": 35.5152,
    "litter_complaint_density": 0.0,
    "lon": -83.0044,
    "navigable_dist_m": null,
    "npdes_points": 0,
    "pixel_col": 504.0,
    "pixel_row": 210.0,
    "population_density": 165.0,
    "position_along": 0.25,
    "protected_area_score": 9.8763,
    "rank": 38,
    "road_access_m": 69.3,
    "road_access_score": 1.0,
    "road_density_km_km2": 4.979,
    "robustness_pct": 0.0,
    "runoff_coeff_C": 0.0668,
    "seasonal_cv": 0.4603,
    "segment_id": 6,
    "segment_length_m": 3032.6469,
    "stream_order": 3,
    "superfund_score": 0.024,
    "tourism_amenity_density": 0.2387,
    "tri_facility_density": 0.0,
    "usgs_mean_q_cfs": 3.033,
    "velocity_feasibility": 0.7,
    "water_intake_score": 1.7224
   },
   "type": "Feature"
  },
  {
   "geometry": {
    "coordinates": [
     -82.954186,
     35.50408
    ],
    "type": "Point"
   },
   "properties": {
    "accumulation": 41813.0,
    "bank_slope_deg": 9.4,
    "bank_slope_score": 1.0,
    "bank_slope_source": "nc-dps-lidar-dem03-cross-section",
    "beach_dist_km": 492.61,
    "bridge_proximity_bonus": 0.0,
    "catchment_area_km2": 4.1739,
    "channel_width_m": 5.65,
    "channel_width_score": 1.0,
    "composite_score": 25.2643,
    "cso_density": 0.0,
    "ej_index": 0.1781,
    "elevation_m": 799.3786,
    "estuary_dist_km": 628.64,
    "feasibility_score": 30.0,
    "flood_q10_cfs": null,
    "flow_score": 24.0166,
    "flow_velocity_ms": 0.1498,
    "generation_score": 7.565,
    "impact_score": 41.6357,
    "impervious_pct": 1.34,
    "land_ownership": 0.5,
    "lat": 35.5041,
    "litter_complaint_density": 0.0,
    "lon": -82.9542,
    "navigable_dist_m": null,
    "npdes_points": 1,
    "pixel_col": 957.0,
    "pixel_row": 342.0,
    "population_density": 83.1,
    "position_along": 0.5,
    "protected_area_score": 10.9947,
    "rank": 39,
    "road_access_m": 443.4,
    "road_access_score": 0.8,
    "road_density_km_km2": 3.097,
    "robustness_pct": 0.0,
    "runoff_coeff_C": 0.0621,
    "seasonal_cv": 0.4998,
    "segment_id": 8,
    "segment_length_m": 2344.1416,
    "stream_order": 3,
    "superfund_score": 0.0168,
    "tourism_amenity_density": 0.1592,
    "tri_facility_density": 0.0,
    "usgs_mean_q_cfs": 6.659,
    "velocity_feasibility": 0.7,
    "water_intake_score": 1.5977
   },
   "type": "Feature"
  }
 ],
 "note": "GRIME region 'Waynesville, NC' \u2014 real-data pipeline (DEM\u2192streams\u2192candidates\u2192stream mask (sites confined to \u00b1150 m of mapped OSM/NHD waterways)\u2192region-appropriate real parameters\u2192shipped scoring, math unchanged). Width curve: Bieger et al. 2015 JAWRA Table 3, Appalachian Highlands. Flood: not applicable here (documented fallback). NC Blue Ridge (outside SIR 2014-5030 urban coverage)",
 "provenance": {
  "candidates_pre_gate": 39,
  "constant": [
   "cso_density",
   "flood_q10_cfs",
   "litter_complaint_density"
  ],
  "gated_navigable": 0,
  "hard_gate_removed": 0,
  "n_parameters": 27,
  "parameters": {
   "bank_slope_score": {
    "kind": "real",
    "n_3dep_10m_fallback": 0,
    "n_nc_lidar_3_125ft": 39,
    "n_real": 39,
    "n_sites": 39,
    "source": "NC OneMap / NC DPS DEM03 statewide lidar-derived 3.125-ft (0.953 m) elevations (perpendicular 50 m transect; robust 5 m bank-rise metric); unavailable profiles use the region 10 m 3DEP DEM-gradient fallback",
    "source_mosaics": [
     "Haywood_QL1_2025_03ft_CountywideRaster"
    ]
   },
   "beach_dist_km": {
    "kind": "real",
    "n_real": 39,
    "n_sites": 39,
    "source": "haversine to region ref: Wrightsville Beach (shipped NC reference)"
   },
   "bridge_proximity_bonus": {
    "kind": "real",
    "n_real": 39,
    "n_sites": 39,
    "source": "FHWA/BTS NBI (NTAD), 50 m proximity"
   },
   "catchment_area_km2": {
    "kind": "real",
    "n_real": 39,
    "n_sites": 39,
    "source": "DEM flow accumulation (pipeline)"
   },
   "channel_width_score": {
    "kind": "real",
    "n_real": 39,
    "n_sites": 39,
    "source": "Bieger 2015 AHI width curve on DEM drainage area \u2192 shipped width curve"
   },
   "cso_density": {
    "kind": "real",
    "n_real": 39,
    "n_sites": 39,
    "source": "EPA ECHO open CSO/TCS outfall PF coordinates states=NC, Cauchy proximity"
   },
   "ej_index": {
    "kind": "real",
    "n_real": 39,
    "n_sites": 39,
    "source": "Census ACS C17002+B03002 two-component demographic index, percentile-ranked within region"
   },
   "estuary_dist_km": {
    "kind": "real",
    "n_real": 39,
    "n_sites": 39,
    "source": "haversine to region ref: Pamlico Sound (shipped NC reference)"
   },
   "flood_q10_cfs": {
    "impervious_fallback_reason": "StreamCat imperviousness unavailable; the existing regression-input fallback of 0.0% impervious was used and is disclosed here",
    "kind": "fallback",
    "n_impervious_fallback": 5,
    "n_real": 0,
    "n_sites": 39,
    "source": "flood regression not valid here (NC Blue Ridge (outside SIR 2014-5030 urban coverage)...) \u2014 NaN, dropped by constant-column handling"
   },
   "flow_velocity_ms": {
    "fallback_reason": "EROM/DEM continuity input unavailable; shipped 0.5 m/s default used",
    "kind": "real",
    "n_fallback": 5,
    "n_real": 34,
    "n_sites": 39,
    "source": "Manning (region DEM/D8) blended with EROM continuity (shipped M4 logic)"
   },
   "impervious_pct": {
    "fallback_reason": "NLDI/StreamCat did not return a snap-compatible catchment value; value remains null and is removed by constant-column handling",
    "kind": "real",
    "n_fallback": 5,
    "n_real": 34,
    "n_sites": 39,
    "source": "EPA StreamCat pctimp2019 (per NHDPlus watershed)"
   },
   "land_ownership": {
    "fallback_reason": "no containing parcel owner returned; shipped unknown ownership 0.5 used",
    "kind": "real",
    "n_fallback": 10,
    "n_real": 29,
    "n_sites": 39,
    "source": "NC OneMap statewide parcels (NC Parcels Transformer) ownname"
   },
   "litter_complaint_density": {
    "kind": "fallback",
    "n_real": 0,
    "n_sites": 39,
    "source": "no public machine-readable litter/illegal-dumping feed for this region"
   },
   "navigable_dist_m": {
    "kind": "real",
    "n_real": 39,
    "n_sites": 39,
    "source": "USACE/BTS NWN (NTAD): no navigable segment within this bbox (+2 km) \u2014 computed absence, gate passes all sites"
   },
   "npdes_points": {
    "kind": "real",
    "n_real": 39,
    "n_sites": 39,
    "source": "EPA ECHO active NPDES outfalls states=NC (types NPD/GPC/NGP; statuses ADC/EFF/EXP), per catchment"
   },
   "population_density": {
    "kind": "real",
    "n_real": 39,
    "n_sites": 39,
    "source": "Census ACS 2022 B01003 block groups (bbox, multi-county), area-weighted"
   },
   "protected_area_score": {
    "kind": "real",
    "n_real": 39,
    "n_sites": 39,
    "source": "USGS PAD-US 4.1 state GDB; states=NC; shipped designation-weighted proximity curve"
   },
   "road_access_score": {
    "kind": "real",
    "n_real": 39,
    "n_sites": 39,
    "source": "OSM drive network nearest-node distance"
   },
   "road_density_km_km2": {
    "kind": "real",
    "n_real": 39,
    "n_sites": 39,
    "source": "OSM drive network (osmnx, cached) clipped per catchment"
   },
   "runoff_coeff_C": {
    "fallback_reason": "source impervious_pct was unavailable; derived value remains null",
    "kind": "real",
    "n_fallback": 5,
    "n_real": 34,
    "n_sites": 39,
    "source": "derived from real impervious_pct (C=0.05+0.009*I)"
   },
   "seasonal_cv": {
    "fallback_reason": "NHDPlus monthly EROM was unavailable or failed the drainage-area snap guard; value remains null",
    "kind": "real",
    "n_fallback": 5,
    "n_real": 34,
    "n_sites": 39,
    "source": "CV of NHDPlus EROM monthly flows per COMID"
   },
   "stream_order": {
    "kind": "real",
    "n_real": 39,
    "n_sites": 39,
    "source": "DEM stream-network confluence heuristic (pipeline)"
   },
   "superfund_score": {
    "kind": "real",
    "n_real": 39,
    "n_sites": 39,
    "source": "EPA DataMap SEMS active sites states=NC (non-archived, georeferenced), shipped 500 m inverse-distance curve"
   },
   "tourism_amenity_density": {
    "kind": "real",
    "n_real": 39,
    "n_sites": 39,
    "source": "OSM leisure/tourism features per 2 km radius"
   },
   "tri_facility_density": {
    "kind": "real",
    "n_real": 39,
    "n_sites": 39,
    "source": "EPA DataMap TRI open facilities states=NC (preferred decimal or packed-DMS recovery), per catchment"
   },
   "usgs_mean_q_cfs": {
    "fallback_reason": "NHDPlus EROM was unavailable or failed the drainage-area snap guard; value remains null",
    "kind": "real",
    "n_fallback": 5,
    "n_real": 34,
    "n_sites": 39,
    "source": "NHDPlus EROM qe_ma per COMID (snap-guarded)"
   },
   "velocity_feasibility": {
    "fallback_reason": "derived from the shipped 0.5 m/s velocity fallback",
    "kind": "real",
    "n_fallback": 5,
    "n_real": 34,
    "n_sites": 39,
    "source": "shipped step curve on the computed velocity"
   },
   "velocity_transport_favorability": {
    "fallback_reason": "EROM/DEM continuity input unavailable; shipped 0.5 m/s default used",
    "kind": "derived",
    "n_fallback": 5,
    "n_real": 34,
    "n_sites": 39,
    "source": "scored form of flow_velocity_ms inside the Flow family \u2014 peaked Gaussian exp(-((v-0.9)/0.6)^2), model.json curves.velocity_transport_favorability; construct: transport/delivery favorability, deliberately distinct from velocity_feasibility (device operability)"
   },
   "water_intake_score": {
    "kind": "real",
    "n_real": 39,
    "n_sites": 39,
    "source": "NC OneMap / NC DEQ SWAP public water supply sources (source_typ='Surface Water'), shipped exp(-d/10km) curve"
   }
  },
  "stream_mask": {
   "buffer_m": 150.0,
   "pre_mask": 39,
   "removed": 0,
   "sources": [
    "osm-overpass (all waterway ways)",
    "usgs-nhdplus flowlines"
   ]
  },
  "varying": [
   "bank_slope_score",
   "beach_dist_km",
   "bridge_proximity_bonus",
   "catchment_area_km2",
   "channel_width_score",
   "ej_index",
   "estuary_dist_km",
   "flow_velocity_ms",
   "impervious_pct",
   "land_ownership",
   "npdes_points",
   "population_density",
   "protected_area_score",
   "road_access_score",
   "road_density_km_km2",
   "runoff_coeff_C",
   "seasonal_cv",
   "stream_order",
   "superfund_score",
   "tourism_amenity_density",
   "tri_facility_density",
   "usgs_mean_q_cfs",
   "velocity_feasibility",
   "water_intake_score"
  ]
 },
 "region": {
  "bbox": [
   -83.0578,
   35.4379,
   -82.9406,
   35.5334
  ],
  "beach_ref": {
   "label": "Wrightsville Beach (shipped NC reference)",
   "lat": 34.21,
   "lon": -77.79
  },
  "center": [
   -82.999206,
   35.485663
  ],
  "estuary_ref": {
   "label": "Pamlico Sound (shipped NC reference)",
   "lat": 35.05,
   "lon": -76.05
  },
  "flood_method": "none",
  "name": "Waynesville, NC",
  "notes": "NC Blue Ridge (outside SIR 2014-5030 urban coverage)",
  "slug": "waynesville",
  "state": "NC",
  "utm_epsg": 32617,
  "width_curve": {
   "a": 3.12,
   "b": 0.415,
   "code": "AHI",
   "source": "Bieger et al. 2015 JAWRA Table 3, Appalachian Highlands"
  }
 },
 "type": "FeatureCollection"
}
