{
 "features": [
  {
   "geometry": {
    "coordinates": [
     -82.568405,
     35.686782
    ],
    "type": "Point"
   },
   "properties": {
    "accumulation": 191683.0,
    "bank_slope_deg": 25.51,
    "bank_slope_score": 0.5,
    "bank_slope_source": "nc-dps-lidar-dem03-cross-section",
    "beach_dist_km": 465.38,
    "bridge_proximity_bonus": 0.0,
    "catchment_area_km2": 19.1158,
    "channel_width_m": 10.62,
    "channel_width_score": 1.0,
    "composite_score": 58.248,
    "cso_density": 0.0,
    "ej_index": 0.3109,
    "elevation_m": 612.0668,
    "estuary_dist_km": 595.16,
    "feasibility_score": 57.398,
    "flood_q10_cfs": null,
    "flow_score": 62.9056,
    "flow_velocity_ms": 0.1353,
    "generation_score": 59.2634,
    "impact_score": 53.7763,
    "impervious_pct": 2.05,
    "land_ownership": 0.5,
    "lat": 35.6868,
    "litter_complaint_density": 0.0,
    "lon": -82.5684,
    "navigable_dist_m": null,
    "npdes_points": 5,
    "pixel_col": 240.0,
    "pixel_row": 493.0,
    "population_density": 340.7,
    "position_along": 0.25,
    "protected_area_score": 14.752,
    "rank": 1,
    "road_access_m": 90.2,
    "road_access_score": 1.0,
    "road_density_km_km2": 6.12,
    "robustness_pct": 100.0,
    "runoff_coeff_C": 0.0684,
    "seasonal_cv": 0.5737,
    "segment_id": 8,
    "segment_length_m": 3572.449,
    "stream_order": 3,
    "superfund_score": 0.4402,
    "tourism_amenity_density": 2.7852,
    "tri_facility_density": 0.1569,
    "usgs_mean_q_cfs": 36.919,
    "velocity_feasibility": 0.7,
    "water_intake_score": 1.3996
   },
   "type": "Feature"
  },
  {
   "geometry": {
    "coordinates": [
     -82.557157,
     35.687829
    ],
    "type": "Point"
   },
   "properties": {
    "accumulation": 128257.0,
    "bank_slope_deg": 16.54,
    "bank_slope_score": 0.5,
    "bank_slope_source": "nc-dps-lidar-dem03-cross-section",
    "beach_dist_km": 464.46,
    "bridge_proximity_bonus": 0.0,
    "catchment_area_km2": 12.7906,
    "channel_width_m": 8.98,
    "channel_width_score": 1.0,
    "composite_score": 54.7084,
    "cso_density": 0.0,
    "ej_index": 0.3178,
    "elevation_m": 619.191,
    "estuary_dist_km": 594.16,
    "feasibility_score": 57.398,
    "flood_q10_cfs": null,
    "flow_score": 55.5687,
    "flow_velocity_ms": 0.1602,
    "generation_score": 51.198,
    "impact_score": 56.1571,
    "impervious_pct": 1.38,
    "land_ownership": 0.5,
    "lat": 35.6878,
    "litter_complaint_density": 0.0,
    "lon": -82.5572,
    "navigable_dist_m": null,
    "npdes_points": 2,
    "pixel_col": 342.0,
    "pixel_row": 487.0,
    "population_density": 355.5,
    "position_along": 0.75,
    "protected_area_score": 14.5043,
    "rank": 2,
    "road_access_m": 127.2,
    "road_access_score": 1.0,
    "road_density_km_km2": 5.799,
    "robustness_pct": 100.0,
    "runoff_coeff_C": 0.0624,
    "seasonal_cv": 0.5524,
    "segment_id": 5,
    "segment_length_m": 3007.3665,
    "stream_order": 3,
    "superfund_score": 0.3251,
    "tourism_amenity_density": 2.069,
    "tri_facility_density": 0.1564,
    "usgs_mean_q_cfs": 32.653,
    "velocity_feasibility": 0.7,
    "water_intake_score": 1.4685
   },
   "type": "Feature"
  },
  {
   "geometry": {
    "coordinates": [
     -82.544009,
     35.686321
    ],
    "type": "Point"
   },
   "properties": {
    "accumulation": 94406.0,
    "bank_slope_deg": 22.1,
    "bank_slope_score": 0.5,
    "bank_slope_source": "nc-dps-lidar-dem03-cross-section",
    "beach_dist_km": 463.29,
    "bridge_proximity_bonus": 0.0,
    "catchment_area_km2": 9.4147,
    "channel_width_m": 7.91,
    "channel_width_score": 1.0,
    "composite_score": 51.7085,
    "cso_density": 0.0,
    "ej_index": 0.3589,
    "elevation_m": 626.7795,
    "estuary_dist_km": 592.96,
    "feasibility_score": 57.398,
    "flood_q10_cfs": null,
    "flow_score": 51.9238,
    "flow_velocity_ms": 0.1357,
    "generation_score": 39.9513,
    "impact_score": 60.4416,
    "impervious_pct": 1.38,
    "land_ownership": 0.5,
    "lat": 35.6863,
    "litter_complaint_density": 0.0,
    "lon": -82.544,
    "navigable_dist_m": null,
    "npdes_points": 3,
    "pixel_col": 461.0,
    "pixel_row": 503.0,
    "population_density": 265.7,
    "position_along": 0.25,
    "protected_area_score": 14.452,
    "rank": 3,
    "road_access_m": 183.7,
    "road_access_score": 1.0,
    "road_density_km_km2": 5.146,
    "robustness_pct": 99.0,
    "runoff_coeff_C": 0.0624,
    "seasonal_cv": 0.5524,
    "segment_id": 5,
    "segment_length_m": 3007.3665,
    "stream_order": 3,
    "superfund_score": 0.1097,
    "tourism_amenity_density": 1.1937,
    "tri_facility_density": 0.1062,
    "usgs_mean_q_cfs": 32.653,
    "velocity_feasibility": 0.7,
    "water_intake_score": 1.5547
   },
   "type": "Feature"
  },
  {
   "geometry": {
    "coordinates": [
     -82.590723,
     35.690914
    ],
    "type": "Point"
   },
   "properties": {
    "accumulation": 268203.0,
    "bank_slope_deg": 27.61,
    "bank_slope_score": 0.5,
    "bank_slope_source": "nc-dps-lidar-dem03-cross-section",
    "beach_dist_km": 467.44,
    "bridge_proximity_bonus": 0.0,
    "catchment_area_km2": 26.7469,
    "channel_width_m": 12.2,
    "channel_width_score": 1.0,
    "composite_score": 50.6427,
    "cso_density": 0.0,
    "ej_index": 0.3698,
    "elevation_m": 592.4429,
    "estuary_dist_km": 597.21,
    "feasibility_score": 57.398,
    "flood_q10_cfs": null,
    "flow_score": 71.1088,
    "flow_velocity_ms": 0.1568,
    "generation_score": 46.3887,
    "impact_score": 34.464,
    "impervious_pct": 3.01,
    "land_ownership": 0.5,
    "lat": 35.6909,
    "litter_complaint_density": 0.0,
    "lon": -82.5907,
    "navigable_dist_m": null,
    "npdes_points": 6,
    "pixel_col": 40.0,
    "pixel_row": 447.0,
    "population_density": 267.9,
    "position_along": 0.5,
    "protected_area_score": 15.9607,
    "rank": 4,
    "road_access_m": 113.4,
    "road_access_score": 1.0,
    "road_density_km_km2": 3.875,
    "robustness_pct": 75.5,
    "runoff_coeff_C": 0.0771,
    "seasonal_cv": 0.5816,
    "segment_id": 9,
    "segment_length_m": 1361.0971,
    "stream_order": 3,
    "superfund_score": 0.1654,
    "tourism_amenity_density": 1.2732,
    "tri_facility_density": 0.1122,
    "usgs_mean_q_cfs": 38.24,
    "velocity_feasibility": 0.7,
    "water_intake_score": 1.2801
   },
   "type": "Feature"
  },
  {
   "geometry": {
    "coordinates": [
     -82.532187,
     35.689071
    ],
    "type": "Point"
   },
   "properties": {
    "accumulation": 38797.0,
    "bank_slope_deg": 15.08,
    "bank_slope_score": 0.5,
    "bank_slope_source": "nc-dps-lidar-dem03-cross-section",
    "beach_dist_km": 462.38,
    "bridge_proximity_bonus": 0.0,
    "catchment_area_km2": 3.8691,
    "channel_width_m": 5.47,
    "channel_width_score": 1.0,
    "composite_score": 49.7951,
    "cso_density": 0.0,
    "ej_index": 0.4304,
    "elevation_m": 635.5403,
    "estuary_dist_km": 591.92,
    "feasibility_score": 69.6429,
    "flood_q10_cfs": null,
    "flow_score": 47.8842,
    "flow_velocity_ms": 0.5,
    "generation_score": 19.8758,
    "impact_score": 71.3829,
    "impervious_pct": null,
    "land_ownership": 0.5,
    "lat": 35.6891,
    "litter_complaint_density": 0.0,
    "lon": -82.5322,
    "navigable_dist_m": null,
    "npdes_points": 2,
    "pixel_col": 570.0,
    "pixel_row": 476.0,
    "population_density": 151.4,
    "position_along": 0.5,
    "protected_area_score": 14.6144,
    "rank": 5,
    "road_access_m": 134.5,
    "road_access_score": 1.0,
    "road_density_km_km2": 5.745,
    "robustness_pct": 53.0,
    "runoff_coeff_C": null,
    "seasonal_cv": null,
    "segment_id": 3,
    "segment_length_m": 1373.5065,
    "stream_order": 3,
    "superfund_score": 0.0565,
    "tourism_amenity_density": 0.7162,
    "tri_facility_density": 0.0,
    "usgs_mean_q_cfs": null,
    "velocity_feasibility": 1.0,
    "water_intake_score": 1.6481
   },
   "type": "Feature"
  },
  {
   "geometry": {
    "coordinates": [
     -82.58215,
     35.692179
    ],
    "type": "Point"
   },
   "properties": {
    "accumulation": 221852.0,
    "bank_slope_deg": 30.08,
    "bank_slope_score": 0.2,
    "bank_slope_source": "nc-dps-lidar-dem03-cross-section",
    "beach_dist_km": 466.75,
    "bridge_proximity_bonus": 0.0,
    "catchment_area_km2": 22.1244,
    "channel_width_m": 11.28,
    "channel_width_score": 1.0,
    "composite_score": 47.5171,
    "cso_density": 0.0,
    "ej_index": 0.3146,
    "elevation_m": 600.4127,
    "estuary_dist_km": 596.45,
    "feasibility_score": 16.3265,
    "flood_q10_cfs": null,
    "flow_score": 66.0893,
    "flow_velocity_ms": 0.1552,
    "generation_score": 54.2425,
    "impact_score": 40.9103,
    "impervious_pct": 2.05,
    "land_ownership": 0.5,
    "lat": 35.6922,
    "litter_complaint_density": 0.0,
    "lon": -82.5822,
    "navigable_dist_m": null,
    "npdes_points": 6,
    "pixel_col": 117.0,
    "pixel_row": 432.0,
    "population_density": 301.7,
    "position_along": 0.75,
    "protected_area_score": 14.9638,
    "rank": 6,
    "road_access_m": 346.0,
    "road_access_score": 0.8,
    "road_density_km_km2": 5.301,
    "robustness_pct": 50.0,
    "runoff_coeff_C": 0.0684,
    "seasonal_cv": 0.5737,
    "segment_id": 8,
    "segment_length_m": 3572.449,
    "stream_order": 3,
    "superfund_score": 0.4101,
    "tourism_amenity_density": 1.9894,
    "tri_facility_density": 0.1356,
    "usgs_mean_q_cfs": 36.919,
    "velocity_feasibility": 0.7,
    "water_intake_score": 1.3277
   },
   "type": "Feature"
  },
  {
   "geometry": {
    "coordinates": [
     -82.55754,
     35.679822
    ],
    "type": "Point"
   },
   "properties": {
    "accumulation": 26236.0,
    "bank_slope_deg": 16.91,
    "bank_slope_score": 0.5,
    "bank_slope_source": "nc-dps-lidar-dem03-cross-section",
    "beach_dist_km": 464.2,
    "bridge_proximity_bonus": 0.0,
    "catchment_area_km2": 2.6164,
    "channel_width_m": 4.65,
    "channel_width_score": 1.0,
    "composite_score": 43.6715,
    "cso_density": 0.0,
    "ej_index": 0.389,
    "elevation_m": 623.66,
    "estuary_dist_km": 594.12,
    "feasibility_score": 57.398,
    "flood_q10_cfs": null,
    "flow_score": 23.6438,
    "flow_velocity_ms": 0.1048,
    "generation_score": 38.6083,
    "impact_score": 58.5614,
    "impervious_pct": 1.28,
    "land_ownership": 0.5,
    "lat": 35.6798,
    "litter_complaint_density": 0.0,
    "lon": -82.5575,
    "navigable_dist_m": null,
    "npdes_points": 0,
    "pixel_col": 339.0,
    "pixel_row": 571.0,
    "population_density": 192.3,
    "position_along": 0.5,
    "protected_area_score": 14.9218,
    "rank": 7,
    "road_access_m": 167.2,
    "road_access_score": 1.0,
    "road_density_km_km2": 4.155,
    "robustness_pct": 3.5,
    "runoff_coeff_C": 0.0615,
    "seasonal_cv": 0.6488,
    "segment_id": 7,
    "segment_length_m": 1343.2536,
    "stream_order": 3,
    "superfund_score": 0.1474,
    "tourism_amenity_density": 2.3077,
    "tri_facility_density": 0.3822,
    "usgs_mean_q_cfs": 2.654,
    "velocity_feasibility": 0.7,
    "water_intake_score": 1.4522
   },
   "type": "Feature"
  },
  {
   "geometry": {
    "coordinates": [
     -82.533119,
     35.684483
    ],
    "type": "Point"
   },
   "properties": {
    "accumulation": 26248.0,
    "bank_slope_deg": 4.57,
    "bank_slope_score": 1.0,
    "bank_slope_source": "nc-dps-lidar-dem03-cross-section",
    "beach_dist_km": 462.29,
    "bridge_proximity_bonus": 0.0,
    "catchment_area_km2": 2.6176,
    "channel_width_m": 4.65,
    "channel_width_score": 1.0,
    "composite_score": 42.0311,
    "cso_density": 0.0,
    "ej_index": 0.3823,
    "elevation_m": 646.2986,
    "estuary_dist_km": 591.96,
    "feasibility_score": 66.3265,
    "flood_q10_cfs": null,
    "flow_score": 24.5543,
    "flow_velocity_ms": 0.1205,
    "generation_score": 17.0448,
    "impact_score": 69.4336,
    "impervious_pct": 1.04,
    "land_ownership": 0.5,
    "lat": 35.6845,
    "litter_complaint_density": 0.0,
    "lon": -82.5331,
    "navigable_dist_m": null,
    "npdes_points": 2,
    "pixel_col": 562.0,
    "pixel_row": 523.0,
    "population_density": 120.2,
    "position_along": 0.5,
    "protected_area_score": 14.7344,
    "rank": 8,
    "road_access_m": 92.9,
    "road_access_score": 1.0,
    "road_density_km_km2": 5.397,
    "robustness_pct": 14.0,
    "runoff_coeff_C": 0.0594,
    "seasonal_cv": 0.5908,
    "segment_id": 4,
    "segment_length_m": 1320.4422,
    "stream_order": 3,
    "superfund_score": 0.0554,
    "tourism_amenity_density": 0.8754,
    "tri_facility_density": 0.0,
    "usgs_mean_q_cfs": 2.11,
    "velocity_feasibility": 0.7,
    "water_intake_score": 1.6293
   },
   "type": "Feature"
  },
  {
   "geometry": {
    "coordinates": [
     -82.581116,
     35.696264
    ],
    "type": "Point"
   },
   "properties": {
    "accumulation": 31362.0,
    "bank_slope_deg": 8.6,
    "bank_slope_score": 1.0,
    "bank_slope_source": "nc-dps-lidar-dem03-cross-section",
    "beach_dist_km": 466.81,
    "bridge_proximity_bonus": 0.0,
    "catchment_area_km2": 3.1276,
    "channel_width_m": 5.01,
    "channel_width_score": 1.0,
    "composite_score": 40.5898,
    "cso_density": 0.0,
    "ej_index": 0.1532,
    "elevation_m": 614.6149,
    "estuary_dist_km": 596.4,
    "feasibility_score": 52.0408,
    "flood_q10_cfs": null,
    "flow_score": 26.3523,
    "flow_velocity_ms": 0.0884,
    "generation_score": 56.0249,
    "impact_score": 31.2937,
    "impervious_pct": 20.83,
    "land_ownership": 1.0,
    "lat": 35.6963,
    "litter_complaint_density": 0.0,
    "lon": -82.5811,
    "navigable_dist_m": null,
    "npdes_points": 2,
    "pixel_col": 127.0,
    "pixel_row": 388.0,
    "population_density": 268.4,
    "position_along": 0.5,
    "protected_area_score": 14.7303,
    "rank": 9,
    "road_access_m": 280.6,
    "road_access_score": 0.8,
    "road_density_km_km2": 5.425,
    "robustness_pct": 4.0,
    "runoff_coeff_C": 0.2375,
    "seasonal_cv": 0.7433,
    "segment_id": 2,
    "segment_length_m": 2234.873,
    "stream_order": 3,
    "superfund_score": 0.2614,
    "tourism_amenity_density": 2.1486,
    "tri_facility_density": 0.0,
    "usgs_mean_q_cfs": 1.156,
    "velocity_feasibility": 0.7,
    "water_intake_score": 1.3444
   },
   "type": "Feature"
  },
  {
   "geometry": {
    "coordinates": [
     -82.590954,
     35.682477
    ],
    "type": "Point"
   },
   "properties": {
    "accumulation": 27677.0,
    "bank_slope_deg": 16.61,
    "bank_slope_score": 0.5,
    "bank_slope_source": "nc-dps-lidar-dem03-cross-section",
    "beach_dist_km": 467.15,
    "bridge_proximity_bonus": 0.0,
    "catchment_area_km2": 2.7601,
    "channel_width_m": 4.75,
    "channel_width_score": 1.0,
    "composite_score": 36.2105,
    "cso_density": 0.0,
    "ej_index": 0.2509,
    "elevation_m": 610.1128,
    "estuary_dist_km": 597.15,
    "feasibility_score": 57.398,
    "flood_q10_cfs": null,
    "flow_score": 8.6676,
    "flow_velocity_ms": 0.1125,
    "generation_score": 53.3223,
    "impact_score": 31.4573,
    "impervious_pct": 13.73,
    "land_ownership": 0.5,
    "lat": 35.6825,
    "litter_complaint_density": 0.0,
    "lon": -82.591,
    "navigable_dist_m": null,
    "npdes_points": 4,
    "pixel_col": 36.0,
    "pixel_row": 537.0,
    "population_density": 270.0,
    "position_along": 0.5,
    "protected_area_score": 16.0382,
    "rank": 10,
    "road_access_m": 60.0,
    "road_access_score": 1.0,
    "road_density_km_km2": 5.674,
    "robustness_pct": 1.0,
    "runoff_coeff_C": 0.1736,
    "seasonal_cv": 0.7377,
    "segment_id": 6,
    "segment_length_m": 1541.5602,
    "stream_order": 1,
    "superfund_score": 0.146,
    "tourism_amenity_density": 1.8303,
    "tri_facility_density": 0.0,
    "usgs_mean_q_cfs": 1.234,
    "velocity_feasibility": 0.7,
    "water_intake_score": 1.2681
   },
   "type": "Feature"
  },
  {
   "geometry": {
    "coordinates": [
     -82.55606,
     35.71809
    ],
    "type": "Point"
   },
   "properties": {
    "accumulation": 69285.0,
    "bank_slope_deg": 14.62,
    "bank_slope_score": 1.0,
    "bank_slope_source": "nc-dps-lidar-dem03-cross-section",
    "beach_dist_km": 465.49,
    "bridge_proximity_bonus": 0.0,
    "catchment_area_km2": 6.9095,
    "channel_width_m": 6.96,
    "channel_width_score": 1.0,
    "composite_score": 32.7879,
    "cso_density": 0.0,
    "ej_index": 0.462,
    "elevation_m": 643.0489,
    "estuary_dist_km": 594.36,
    "feasibility_score": 66.3265,
    "flood_q10_cfs": null,
    "flow_score": 11.9951,
    "flow_velocity_ms": 0.1196,
    "generation_score": 18.4509,
    "impact_score": 47.6832,
    "impervious_pct": 3.28,
    "land_ownership": 0.5,
    "lat": 35.7181,
    "litter_complaint_density": 0.0,
    "lon": -82.5561,
    "navigable_dist_m": null,
    "npdes_points": 0,
    "pixel_col": 358.0,
    "pixel_row": 147.0,
    "population_density": 149.1,
    "position_along": 0.375,
    "protected_area_score": 13.0605,
    "rank": 11,
    "road_access_m": 133.6,
    "road_access_score": 1.0,
    "road_density_km_km2": 5.709,
    "robustness_pct": 0.0,
    "runoff_coeff_C": 0.0795,
    "seasonal_cv": 0.6719,
    "segment_id": 1,
    "segment_length_m": 6952.269,
    "stream_order": 1,
    "superfund_score": 0.0568,
    "tourism_amenity_density": 0.6366,
    "tri_facility_density": 0.0,
    "usgs_mean_q_cfs": 3.217,
    "velocity_feasibility": 0.7,
    "water_intake_score": 1.5678
   },
   "type": "Feature"
  },
  {
   "geometry": {
    "coordinates": [
     -82.568375,
     35.725751
    ],
    "type": "Point"
   },
   "properties": {
    "accumulation": 83893.0,
    "bank_slope_deg": 11.55,
    "bank_slope_score": 1.0,
    "bank_slope_source": "nc-dps-lidar-dem03-cross-section",
    "beach_dist_km": 466.83,
    "bridge_proximity_bonus": 0.0,
    "catchment_area_km2": 8.3663,
    "channel_width_m": 7.53,
    "channel_width_score": 1.0,
    "composite_score": 28.2557,
    "cso_density": 0.0,
    "ej_index": 0.4149,
    "elevation_m": 620.9334,
    "estuary_dist_km": 595.55,
    "feasibility_score": 66.3265,
    "flood_q10_cfs": null,
    "flow_score": 14.5144,
    "flow_velocity_ms": 0.1616,
    "generation_score": 13.2195,
    "impact_score": 35.7075,
    "impervious_pct": 3.28,
    "land_ownership": 0.5,
    "lat": 35.7258,
    "litter_complaint_density": 0.0,
    "lon": -82.5684,
    "navigable_dist_m": null,
    "npdes_points": 1,
    "pixel_col": 251.0,
    "pixel_row": 62.0,
    "population_density": 128.2,
    "position_along": 0.625,
    "protected_area_score": 12.7611,
    "rank": 12,
    "road_access_m": 72.7,
    "road_access_score": 1.0,
    "road_density_km_km2": 3.807,
    "robustness_pct": 0.0,
    "runoff_coeff_C": 0.0795,
    "seasonal_cv": 0.6719,
    "segment_id": 1,
    "segment_length_m": 6952.269,
    "stream_order": 1,
    "superfund_score": 0.0364,
    "tourism_amenity_density": 0.7958,
    "tri_facility_density": 0.0,
    "usgs_mean_q_cfs": 3.217,
    "velocity_feasibility": 0.7,
    "water_intake_score": 1.5179
   },
   "type": "Feature"
  },
  {
   "geometry": {
    "coordinates": [
     -82.542447,
     35.710976
    ],
    "type": "Point"
   },
   "properties": {
    "accumulation": 32072.0,
    "bank_slope_deg": 10.18,
    "bank_slope_score": 1.0,
    "bank_slope_source": "nc-dps-lidar-dem03-cross-section",
    "beach_dist_km": 464.07,
    "bridge_proximity_bonus": 0.0,
    "catchment_area_km2": 3.1984,
    "channel_width_m": 5.05,
    "channel_width_score": 1.0,
    "composite_score": 27.4943,
    "cso_density": 0.0,
    "ej_index": 0.5565,
    "elevation_m": 679.686,
    "estuary_dist_km": 593.06,
    "feasibility_score": 30.6122,
    "flood_q10_cfs": null,
    "flow_score": 8.2375,
    "flow_velocity_ms": 0.1292,
    "generation_score": 4.9694,
    "impact_score": 64.5077,
    "impervious_pct": 0.92,
    "land_ownership": 0.5,
    "lat": 35.711,
    "litter_complaint_density": 0.0,
    "lon": -82.5424,
    "navigable_dist_m": null,
    "npdes_points": 0,
    "pixel_col": 480.0,
    "pixel_row": 229.0,
    "population_density": 145.4,
    "position_along": 0.125,
    "protected_area_score": 13.5062,
    "rank": 13,
    "road_access_m": 267.6,
    "road_access_score": 0.8,
    "road_density_km_km2": 2.328,
    "robustness_pct": 0.0,
    "runoff_coeff_C": 0.0583,
    "seasonal_cv": 0.6442,
    "segment_id": 1,
    "segment_length_m": 6952.269,
    "stream_order": 1,
    "superfund_score": 0.0622,
    "tourism_amenity_density": 0.7162,
    "tri_facility_density": 0.0,
    "usgs_mean_q_cfs": 2.218,
    "velocity_feasibility": 0.7,
    "water_intake_score": 1.6332
   },
   "type": "Feature"
  },
  {
   "geometry": {
    "coordinates": [
     -82.577625,
     35.728759
    ],
    "type": "Point"
   },
   "properties": {
    "accumulation": 98022.0,
    "bank_slope_deg": 14.07,
    "bank_slope_score": 1.0,
    "bank_slope_source": "nc-dps-lidar-dem03-cross-section",
    "beach_dist_km": 467.73,
    "bridge_proximity_bonus": 0.0,
    "catchment_area_km2": 9.7754,
    "channel_width_m": 8.04,
    "channel_width_score": 1.0,
    "composite_score": 26.361,
    "cso_density": 0.0,
    "ej_index": 0.4115,
    "elevation_m": 608.5428,
    "estuary_dist_km": 596.41,
    "feasibility_score": 66.3265,
    "flood_q10_cfs": null,
    "flow_score": 20.3959,
    "flow_velocity_ms": 0.1233,
    "generation_score": 7.0413,
    "impact_score": 30.6688,
    "impervious_pct": 2.45,
    "land_ownership": 0.5,
    "lat": 35.7288,
    "litter_complaint_density": 0.0,
    "lon": -82.5776,
    "navigable_dist_m": null,
    "npdes_points": 1,
    "pixel_col": 165.0,
    "pixel_row": 29.0,
    "population_density": 135.1,
    "position_along": 0.875,
    "protected_area_score": 13.5957,
    "rank": 14,
    "road_access_m": 165.5,
    "road_access_score": 1.0,
    "road_density_km_km2": 1.876,
    "robustness_pct": 0.0,
    "runoff_coeff_C": 0.0721,
    "seasonal_cv": 0.6546,
    "segment_id": 1,
    "segment_length_m": 6952.269,
    "stream_order": 1,
    "superfund_score": 0.0293,
    "tourism_amenity_density": 0.3183,
    "tri_facility_density": 0.0,
    "usgs_mean_q_cfs": 11.879,
    "velocity_feasibility": 0.7,
    "water_intake_score": 1.4686
   },
   "type": "Feature"
  },
  {
   "geometry": {
    "coordinates": [
     -82.588864,
     35.718302
    ],
    "type": "Point"
   },
   "properties": {
    "accumulation": 22697.0,
    "bank_slope_deg": 17.28,
    "bank_slope_score": 0.5,
    "bank_slope_source": "nc-dps-lidar-dem03-cross-section",
    "beach_dist_km": 468.29,
    "bridge_proximity_bonus": 0.0,
    "catchment_area_km2": 2.2635,
    "channel_width_m": 4.38,
    "channel_width_score": 1.0,
    "composite_score": 21.9643,
    "cso_density": 0.0,
    "ej_index": 0.3931,
    "elevation_m": 600.6643,
    "estuary_dist_km": 597.31,
    "feasibility_score": 41.0714,
    "flood_q10_cfs": null,
    "flow_score": 4.4071,
    "flow_velocity_ms": 0.0258,
    "generation_score": 23.5356,
    "impact_score": 25.4704,
    "impervious_pct": 7.42,
    "land_ownership": 0.5,
    "lat": 35.7183,
    "litter_complaint_density": 0.0,
    "lon": -82.5889,
    "navigable_dist_m": null,
    "npdes_points": 0,
    "pixel_col": 60.0,
    "pixel_row": 140.0,
    "population_density": 179.2,
    "position_along": 0.5,
    "protected_area_score": 14.5942,
    "rank": 15,
    "road_access_m": 159.5,
    "road_access_score": 1.0,
    "road_density_km_km2": 4.728,
    "robustness_pct": 0.0,
    "runoff_coeff_C": 0.1168,
    "seasonal_cv": 0.7517,
    "segment_id": 0,
    "segment_length_m": 1241.5555,
    "stream_order": 1,
    "superfund_score": 0.0405,
    "tourism_amenity_density": 0.4775,
    "tri_facility_density": 0.0,
    "usgs_mean_q_cfs": 1.459,
    "velocity_feasibility": 0.3,
    "water_intake_score": 1.3536
   },
   "type": "Feature"
  }
 ],
 "note": "GRIME region 'Weaverville, NC' \u2014 real-data pipeline (DEM\u2192streams\u2192candidates\u2192stream mask (sites confined to \u00b1150 m of mapped OSM/NHD waterways)\u2192region-appropriate real parameters\u2192shipped scoring, math unchanged). Width curve: Bieger et al. 2015 JAWRA Table 3, Appalachian Highlands. Flood: not applicable here (documented fallback). NC Blue Ridge (outside SIR 2014-5030 urban coverage)",
 "provenance": {
  "candidates_pre_gate": 15,
  "constant": [
   "bridge_proximity_bonus",
   "channel_width_score",
   "cso_density",
   "flood_q10_cfs",
   "litter_complaint_density"
  ],
  "gated_navigable": 0,
  "hard_gate_removed": 0,
  "n_parameters": 27,
  "parameters": {
   "bank_slope_score": {
    "kind": "real",
    "n_3dep_10m_fallback": 0,
    "n_nc_lidar_3_125ft": 15,
    "n_real": 15,
    "n_sites": 15,
    "source": "NC OneMap / NC DPS DEM03 statewide lidar-derived 3.125-ft (0.953 m) elevations (perpendicular 50 m transect; robust 5 m bank-rise metric); unavailable profiles use the region 10 m 3DEP DEM-gradient fallback",
    "source_mosaics": [
     "Buncombe_QL1_2025_03ft_CountywideRaster"
    ]
   },
   "beach_dist_km": {
    "kind": "real",
    "n_real": 15,
    "n_sites": 15,
    "source": "haversine to region ref: Wrightsville Beach (shipped NC reference)"
   },
   "bridge_proximity_bonus": {
    "kind": "real",
    "n_real": 15,
    "n_sites": 15,
    "source": "FHWA/BTS NBI (NTAD), 50 m proximity"
   },
   "catchment_area_km2": {
    "kind": "real",
    "n_real": 15,
    "n_sites": 15,
    "source": "DEM flow accumulation (pipeline)"
   },
   "channel_width_score": {
    "kind": "real",
    "n_real": 15,
    "n_sites": 15,
    "source": "Bieger 2015 AHI width curve on DEM drainage area \u2192 shipped width curve"
   },
   "cso_density": {
    "kind": "real",
    "n_real": 15,
    "n_sites": 15,
    "source": "EPA ECHO open CSO/TCS outfall PF coordinates states=NC, Cauchy proximity"
   },
   "ej_index": {
    "kind": "real",
    "n_real": 15,
    "n_sites": 15,
    "source": "Census ACS C17002+B03002 two-component demographic index, percentile-ranked within region"
   },
   "estuary_dist_km": {
    "kind": "real",
    "n_real": 15,
    "n_sites": 15,
    "source": "haversine to region ref: Pamlico Sound (shipped NC reference)"
   },
   "flood_q10_cfs": {
    "impervious_fallback_reason": "StreamCat imperviousness unavailable; the existing regression-input fallback of 0.0% impervious was used and is disclosed here",
    "kind": "fallback",
    "n_impervious_fallback": 1,
    "n_real": 0,
    "n_sites": 15,
    "source": "flood regression not valid here (NC Blue Ridge (outside SIR 2014-5030 urban coverage)...) \u2014 NaN, dropped by constant-column handling"
   },
   "flow_velocity_ms": {
    "fallback_reason": "EROM/DEM continuity input unavailable; shipped 0.5 m/s default used",
    "kind": "real",
    "n_fallback": 1,
    "n_real": 14,
    "n_sites": 15,
    "source": "Manning (region DEM/D8) blended with EROM continuity (shipped M4 logic)"
   },
   "impervious_pct": {
    "fallback_reason": "NLDI/StreamCat did not return a snap-compatible catchment value; value remains null and is removed by constant-column handling",
    "kind": "real",
    "n_fallback": 1,
    "n_real": 14,
    "n_sites": 15,
    "source": "EPA StreamCat pctimp2019 (per NHDPlus watershed)"
   },
   "land_ownership": {
    "kind": "real",
    "n_fallback": 0,
    "n_real": 15,
    "n_sites": 15,
    "source": "NC OneMap statewide parcels (NC Parcels Transformer) ownname"
   },
   "litter_complaint_density": {
    "kind": "fallback",
    "n_real": 0,
    "n_sites": 15,
    "source": "no public machine-readable litter/illegal-dumping feed for this region"
   },
   "navigable_dist_m": {
    "kind": "real",
    "n_real": 15,
    "n_sites": 15,
    "source": "USACE/BTS NWN (NTAD): no navigable segment within this bbox (+2 km) \u2014 computed absence, gate passes all sites"
   },
   "npdes_points": {
    "kind": "real",
    "n_real": 15,
    "n_sites": 15,
    "source": "EPA ECHO active NPDES outfalls states=NC (types NPD/GPC/NGP; statuses ADC/EFF/EXP), per catchment"
   },
   "population_density": {
    "kind": "real",
    "n_real": 15,
    "n_sites": 15,
    "source": "Census ACS 2022 B01003 block groups (bbox, multi-county), area-weighted"
   },
   "protected_area_score": {
    "kind": "real",
    "n_real": 15,
    "n_sites": 15,
    "source": "USGS PAD-US 4.1 state GDB; states=NC; shipped designation-weighted proximity curve"
   },
   "road_access_score": {
    "kind": "real",
    "n_real": 15,
    "n_sites": 15,
    "source": "OSM drive network nearest-node distance"
   },
   "road_density_km_km2": {
    "kind": "real",
    "n_real": 15,
    "n_sites": 15,
    "source": "OSM drive network (osmnx, cached) clipped per catchment"
   },
   "runoff_coeff_C": {
    "fallback_reason": "source impervious_pct was unavailable; derived value remains null",
    "kind": "real",
    "n_fallback": 1,
    "n_real": 14,
    "n_sites": 15,
    "source": "derived from real impervious_pct (C=0.05+0.009*I)"
   },
   "seasonal_cv": {
    "fallback_reason": "NHDPlus monthly EROM was unavailable or failed the drainage-area snap guard; value remains null",
    "kind": "real",
    "n_fallback": 1,
    "n_real": 14,
    "n_sites": 15,
    "source": "CV of NHDPlus EROM monthly flows per COMID"
   },
   "stream_order": {
    "kind": "real",
    "n_real": 15,
    "n_sites": 15,
    "source": "DEM stream-network confluence heuristic (pipeline)"
   },
   "superfund_score": {
    "kind": "real",
    "n_real": 15,
    "n_sites": 15,
    "source": "EPA DataMap SEMS active sites states=NC (non-archived, georeferenced), shipped 500 m inverse-distance curve"
   },
   "tourism_amenity_density": {
    "kind": "real",
    "n_real": 15,
    "n_sites": 15,
    "source": "OSM leisure/tourism features per 2 km radius"
   },
   "tri_facility_density": {
    "kind": "real",
    "n_real": 15,
    "n_sites": 15,
    "source": "EPA DataMap TRI open facilities states=NC (preferred decimal or packed-DMS recovery), per catchment"
   },
   "usgs_mean_q_cfs": {
    "fallback_reason": "NHDPlus EROM was unavailable or failed the drainage-area snap guard; value remains null",
    "kind": "real",
    "n_fallback": 1,
    "n_real": 14,
    "n_sites": 15,
    "source": "NHDPlus EROM qe_ma per COMID (snap-guarded)"
   },
   "velocity_feasibility": {
    "fallback_reason": "derived from the shipped 0.5 m/s velocity fallback",
    "kind": "real",
    "n_fallback": 1,
    "n_real": 14,
    "n_sites": 15,
    "source": "shipped step curve on the computed velocity"
   },
   "velocity_transport_favorability": {
    "fallback_reason": "EROM/DEM continuity input unavailable; shipped 0.5 m/s default used",
    "kind": "derived",
    "n_fallback": 1,
    "n_real": 14,
    "n_sites": 15,
    "source": "scored form of flow_velocity_ms inside the Flow family \u2014 peaked Gaussian exp(-((v-0.9)/0.6)^2), model.json curves.velocity_transport_favorability; construct: transport/delivery favorability, deliberately distinct from velocity_feasibility (device operability)"
   },
   "water_intake_score": {
    "kind": "real",
    "n_real": 15,
    "n_sites": 15,
    "source": "NC OneMap / NC DEQ SWAP public water supply sources (source_typ='Surface Water'), shipped exp(-d/10km) curve"
   }
  },
  "stream_mask": {
   "buffer_m": 150.0,
   "pre_mask": 15,
   "removed": 0,
   "sources": [
    "osm-overpass (all waterway ways)",
    "usgs-nhdplus flowlines"
   ]
  },
  "varying": [
   "bank_slope_score",
   "beach_dist_km",
   "catchment_area_km2",
   "ej_index",
   "estuary_dist_km",
   "flow_velocity_ms",
   "impervious_pct",
   "land_ownership",
   "npdes_points",
   "population_density",
   "protected_area_score",
   "road_access_score",
   "road_density_km_km2",
   "runoff_coeff_C",
   "seasonal_cv",
   "stream_order",
   "superfund_score",
   "tourism_amenity_density",
   "tri_facility_density",
   "usgs_mean_q_cfs",
   "velocity_feasibility",
   "water_intake_score"
  ]
 },
 "region": {
  "bbox": [
   -82.5948,
   35.6676,
   -82.5167,
   35.731
  ],
  "beach_ref": {
   "label": "Wrightsville Beach (shipped NC reference)",
   "lat": 34.21,
   "lon": -77.79
  },
  "center": [
   -82.555719,
   35.699321
  ],
  "estuary_ref": {
   "label": "Pamlico Sound (shipped NC reference)",
   "lat": 35.05,
   "lon": -76.05
  },
  "flood_method": "none",
  "name": "Weaverville, NC",
  "notes": "NC Blue Ridge (outside SIR 2014-5030 urban coverage)",
  "slug": "weaverville",
  "state": "NC",
  "utm_epsg": 32617,
  "width_curve": {
   "a": 3.12,
   "b": 0.415,
   "code": "AHI",
   "source": "Bieger et al. 2015 JAWRA Table 3, Appalachian Highlands"
  }
 },
 "type": "FeatureCollection"
}
