{
 "features": [
  {
   "geometry": {
    "coordinates": [
     -81.489847,
     36.405015
    ],
    "type": "Point"
   },
   "properties": {
    "accumulation": 29877.0,
    "bank_slope_deg": 1.33,
    "bank_slope_score": 1.0,
    "bank_slope_source": "nc-dps-lidar-dem03-cross-section",
    "beach_dist_km": 415.02,
    "bridge_proximity_bonus": 0.0,
    "catchment_area_km2": 2.9776,
    "channel_width_m": 4.91,
    "channel_width_score": 1.0,
    "composite_score": 52.549,
    "cso_density": 0.0,
    "ej_index": 0.7878,
    "elevation_m": 898.4434,
    "estuary_dist_km": 513.55,
    "feasibility_score": 41.6667,
    "flood_q10_cfs": null,
    "flow_score": 25.9262,
    "flow_velocity_ms": 0.1876,
    "generation_score": 83.7534,
    "impact_score": 48.9715,
    "impervious_pct": 8.5,
    "land_ownership": 0.5,
    "lat": 36.405,
    "litter_complaint_density": 0.0,
    "lon": -81.4898,
    "navigable_dist_m": null,
    "npdes_points": 0,
    "pixel_col": 262.0,
    "pixel_row": 15.0,
    "population_density": 133.1,
    "position_along": 0.5,
    "protected_area_score": 13.912,
    "rank": 1,
    "road_access_m": 56.1,
    "road_access_score": 1.0,
    "road_density_km_km2": 4.745,
    "robustness_pct": 100.0,
    "runoff_coeff_C": 0.1265,
    "seasonal_cv": 0.7263,
    "segment_id": 0,
    "segment_length_m": 364.9445,
    "stream_order": 1,
    "superfund_score": 0.0,
    "tourism_amenity_density": 2.1486,
    "tri_facility_density": 0.6717,
    "usgs_mean_q_cfs": 10.226,
    "velocity_feasibility": 0.7,
    "water_intake_score": 1.0566
   },
   "type": "Feature"
  },
  {
   "geometry": {
    "coordinates": [
     -81.472828,
     36.37501
    ],
    "type": "Point"
   },
   "properties": {
    "accumulation": 148484.0,
    "bank_slope_deg": 12.75,
    "bank_slope_score": 1.0,
    "bank_slope_source": "nc-dps-lidar-dem03-cross-section",
    "beach_dist_km": 411.86,
    "bridge_proximity_bonus": 0.0,
    "catchment_area_km2": 14.7982,
    "channel_width_m": 9.55,
    "channel_width_score": 1.0,
    "composite_score": 47.9011,
    "cso_density": 0.0,
    "ej_index": 0.433,
    "elevation_m": 895.3877,
    "estuary_dist_km": 511.2,
    "feasibility_score": 25.0,
    "flood_q10_cfs": null,
    "flow_score": 74.4911,
    "flow_velocity_ms": 0.2156,
    "generation_score": 28.5947,
    "impact_score": 56.4996,
    "impervious_pct": 4.14,
    "land_ownership": 1.0,
    "lat": 36.375,
    "litter_complaint_density": 0.0,
    "lon": -81.4728,
    "navigable_dist_m": null,
    "npdes_points": 1,
    "pixel_col": 415.0,
    "pixel_row": 352.0,
    "population_density": 77.6,
    "position_along": 0.5,
    "protected_area_score": 13.2502,
    "rank": 2,
    "road_access_m": 235.9,
    "road_access_score": 0.8,
    "road_density_km_km2": 2.209,
    "robustness_pct": 100.0,
    "runoff_coeff_C": 0.0873,
    "seasonal_cv": 0.6687,
    "segment_id": 3,
    "segment_length_m": 382.4883,
    "stream_order": 3,
    "superfund_score": 0.0,
    "tourism_amenity_density": 0.557,
    "tri_facility_density": 0.0,
    "usgs_mean_q_cfs": 21.197,
    "velocity_feasibility": 0.7,
    "water_intake_score": 1.1938
   },
   "type": "Feature"
  },
  {
   "geometry": {
    "coordinates": [
     -81.476968,
     36.377155
    ],
    "type": "Point"
   },
   "properties": {
    "accumulation": 34742.0,
    "bank_slope_deg": 1.86,
    "bank_slope_score": 1.0,
    "bank_slope_source": "nc-dps-lidar-dem03-cross-section",
    "beach_dist_km": 412.3,
    "bridge_proximity_bonus": 0.0,
    "catchment_area_km2": 3.4624,
    "channel_width_m": 5.22,
    "channel_width_score": 1.0,
    "composite_score": 43.3683,
    "cso_density": 0.0,
    "ej_index": 0.496,
    "elevation_m": 902.9041,
    "estuary_dist_km": 511.62,
    "feasibility_score": 41.6667,
    "flood_q10_cfs": null,
    "flow_score": 30.1099,
    "flow_velocity_ms": 0.0548,
    "generation_score": 40.1103,
    "impact_score": 58.5259,
    "impervious_pct": 7.61,
    "land_ownership": 0.5,
    "lat": 36.3772,
    "litter_complaint_density": 0.0,
    "lon": -81.477,
    "navigable_dist_m": null,
    "npdes_points": 0,
    "pixel_col": 376.0,
    "pixel_row": 329.0,
    "population_density": 91.9,
    "position_along": 0.5,
    "protected_area_score": 13.3015,
    "rank": 3,
    "road_access_m": 103.9,
    "road_access_score": 1.0,
    "road_density_km_km2": 3.552,
    "robustness_pct": 100.0,
    "runoff_coeff_C": 0.1185,
    "seasonal_cv": 0.7984,
    "segment_id": 2,
    "segment_length_m": 739.872,
    "stream_order": 3,
    "superfund_score": 0.0,
    "tourism_amenity_density": 1.1141,
    "tri_facility_density": 0.0,
    "usgs_mean_q_cfs": 4.047,
    "velocity_feasibility": 0.7,
    "water_intake_score": 1.1866
   },
   "type": "Feature"
  },
  {
   "geometry": {
    "coordinates": [
     -81.484211,
     36.378555
    ],
    "type": "Point"
   },
   "properties": {
    "accumulation": 103008.0,
    "bank_slope_deg": 0.82,
    "bank_slope_score": 1.0,
    "bank_slope_source": "nc-dps-lidar-dem03-cross-section",
    "beach_dist_km": 412.93,
    "bridge_proximity_bonus": 0.0,
    "catchment_area_km2": 10.2659,
    "channel_width_m": 8.2,
    "channel_width_score": 1.0,
    "composite_score": 42.8312,
    "cso_density": 0.0,
    "ej_index": 0.4269,
    "elevation_m": 904.1424,
    "estuary_dist_km": 512.29,
    "feasibility_score": 0.0,
    "flood_q10_cfs": null,
    "flow_score": 59.6648,
    "flow_velocity_ms": 0.2792,
    "generation_score": 42.5271,
    "impact_score": 50.5228,
    "impervious_pct": 3.9,
    "land_ownership": 0.5,
    "lat": 36.3786,
    "litter_complaint_density": 0.0,
    "lon": -81.4842,
    "navigable_dist_m": null,
    "npdes_points": 2,
    "pixel_col": 312.0,
    "pixel_row": 314.0,
    "population_density": 84.4,
    "position_along": 0.75,
    "protected_area_score": 13.3189,
    "rank": 4,
    "road_access_m": 211.2,
    "road_access_score": 0.8,
    "road_density_km_km2": 3.877,
    "robustness_pct": 97.0,
    "runoff_coeff_C": 0.0851,
    "seasonal_cv": 0.7051,
    "segment_id": 1,
    "segment_length_m": 4463.161,
    "stream_order": 3,
    "superfund_score": 0.0,
    "tourism_amenity_density": 1.1141,
    "tri_facility_density": 0.0,
    "usgs_mean_q_cfs": 13.433,
    "velocity_feasibility": 0.7,
    "water_intake_score": 1.1805
   },
   "type": "Feature"
  },
  {
   "geometry": {
    "coordinates": [
     -81.502457,
     36.377379
    ],
    "type": "Point"
   },
   "properties": {
    "accumulation": 29169.0,
    "bank_slope_deg": 9.61,
    "bank_slope_score": 1.0,
    "bank_slope_source": "nc-dps-lidar-dem03-cross-section",
    "beach_dist_km": 414.2,
    "bridge_proximity_bonus": 0.0,
    "catchment_area_km2": 2.907,
    "channel_width_m": 4.86,
    "channel_width_score": 1.0,
    "composite_score": 31.2035,
    "cso_density": 0.0,
    "ej_index": 0.2692,
    "elevation_m": 920.9293,
    "estuary_dist_km": 513.83,
    "feasibility_score": 41.6667,
    "flood_q10_cfs": null,
    "flow_score": 31.4888,
    "flow_velocity_ms": 0.1999,
    "generation_score": 20.2413,
    "impact_score": 36.6963,
    "impervious_pct": 2.46,
    "land_ownership": 0.5,
    "lat": 36.3774,
    "litter_complaint_density": 0.0,
    "lon": -81.5025,
    "navigable_dist_m": null,
    "npdes_points": 0,
    "pixel_col": 146.0,
    "pixel_row": 326.0,
    "population_density": 68.1,
    "position_along": 0.25,
    "protected_area_score": 13.535,
    "rank": 5,
    "road_access_m": 19.4,
    "road_access_score": 1.0,
    "road_density_km_km2": 5.061,
    "robustness_pct": 66.0,
    "runoff_coeff_C": 0.0721,
    "seasonal_cv": 0.8,
    "segment_id": 1,
    "segment_length_m": 4463.161,
    "stream_order": 3,
    "superfund_score": 0.0,
    "tourism_amenity_density": 0.4775,
    "tri_facility_density": 0.0,
    "usgs_mean_q_cfs": 4.446,
    "velocity_feasibility": 0.7,
    "water_intake_score": 1.1888
   },
   "type": "Feature"
  },
  {
   "geometry": {
    "coordinates": [
     -81.460752,
     36.373393
    ],
    "type": "Point"
   },
   "properties": {
    "accumulation": 20093.0,
    "bank_slope_deg": 11.42,
    "bank_slope_score": 1.0,
    "bank_slope_source": "nc-dps-lidar-dem03-cross-section",
    "beach_dist_km": 410.87,
    "bridge_proximity_bonus": 0.0,
    "catchment_area_km2": 2.0025,
    "channel_width_m": 4.16,
    "channel_width_score": 1.0,
    "composite_score": 30.0512,
    "cso_density": 0.0,
    "ej_index": 0.4055,
    "elevation_m": 887.9823,
    "estuary_dist_km": 510.11,
    "feasibility_score": 33.3333,
    "flood_q10_cfs": null,
    "flow_score": 30.2326,
    "flow_velocity_ms": 0.5,
    "generation_score": 0.9941,
    "impact_score": 57.3161,
    "impervious_pct": null,
    "land_ownership": 0.5,
    "lat": 36.3734,
    "litter_complaint_density": 0.0,
    "lon": -81.4608,
    "navigable_dist_m": null,
    "npdes_points": 0,
    "pixel_col": 522.0,
    "pixel_row": 370.0,
    "population_density": 70.9,
    "position_along": 0.5,
    "protected_area_score": 13.0504,
    "rank": 6,
    "road_access_m": 263.5,
    "road_access_score": 0.8,
    "road_density_km_km2": 0.361,
    "robustness_pct": 37.0,
    "runoff_coeff_C": null,
    "seasonal_cv": null,
    "segment_id": 4,
    "segment_length_m": 14.1182,
    "stream_order": 1,
    "superfund_score": 0.0,
    "tourism_amenity_density": 0.0796,
    "tri_facility_density": 0.0,
    "usgs_mean_q_cfs": null,
    "velocity_feasibility": 1.0,
    "water_intake_score": 1.1987
   },
   "type": "Feature"
  }
 ],
 "note": "GRIME region 'West Jefferson, NC' \u2014 real-data pipeline (DEM\u2192streams\u2192candidates\u2192stream mask (sites confined to \u00b1150 m of mapped OSM/NHD waterways)\u2192region-appropriate real parameters\u2192shipped scoring, math unchanged). Width curve: Bieger et al. 2015 JAWRA Table 3, Appalachian Highlands. Flood: not applicable here (documented fallback). NC Blue Ridge (outside SIR 2014-5030 urban coverage)",
 "provenance": {
  "candidates_pre_gate": 6,
  "constant": [
   "bank_slope_score",
   "bridge_proximity_bonus",
   "channel_width_score",
   "cso_density",
   "flood_q10_cfs",
   "litter_complaint_density",
   "superfund_score"
  ],
  "gated_navigable": 0,
  "hard_gate_removed": 0,
  "n_parameters": 27,
  "parameters": {
   "bank_slope_score": {
    "kind": "real",
    "n_3dep_10m_fallback": 0,
    "n_nc_lidar_3_125ft": 6,
    "n_real": 6,
    "n_sites": 6,
    "source": "NC OneMap / NC DPS DEM03 statewide lidar-derived 3.125-ft (0.953 m) elevations (perpendicular 50 m transect; robust 5 m bank-rise metric); unavailable profiles use the region 10 m 3DEP DEM-gradient fallback",
    "source_mosaics": [
     "Ashe_QL1_2025_03ft_CountywideRaster"
    ]
   },
   "beach_dist_km": {
    "kind": "real",
    "n_real": 6,
    "n_sites": 6,
    "source": "haversine to region ref: Wrightsville Beach (shipped NC reference)"
   },
   "bridge_proximity_bonus": {
    "kind": "real",
    "n_real": 6,
    "n_sites": 6,
    "source": "FHWA/BTS NBI (NTAD), 50 m proximity"
   },
   "catchment_area_km2": {
    "kind": "real",
    "n_real": 6,
    "n_sites": 6,
    "source": "DEM flow accumulation (pipeline)"
   },
   "channel_width_score": {
    "kind": "real",
    "n_real": 6,
    "n_sites": 6,
    "source": "Bieger 2015 AHI width curve on DEM drainage area \u2192 shipped width curve"
   },
   "cso_density": {
    "kind": "real",
    "n_real": 6,
    "n_sites": 6,
    "source": "EPA ECHO open CSO/TCS outfall PF coordinates states=NC, Cauchy proximity"
   },
   "ej_index": {
    "kind": "real",
    "n_real": 6,
    "n_sites": 6,
    "source": "Census ACS C17002+B03002 two-component demographic index, percentile-ranked within region"
   },
   "estuary_dist_km": {
    "kind": "real",
    "n_real": 6,
    "n_sites": 6,
    "source": "haversine to region ref: Pamlico Sound (shipped NC reference)"
   },
   "flood_q10_cfs": {
    "impervious_fallback_reason": "StreamCat imperviousness unavailable; the existing regression-input fallback of 0.0% impervious was used and is disclosed here",
    "kind": "fallback",
    "n_impervious_fallback": 1,
    "n_real": 0,
    "n_sites": 6,
    "source": "flood regression not valid here (NC Blue Ridge (outside SIR 2014-5030 urban coverage)...) \u2014 NaN, dropped by constant-column handling"
   },
   "flow_velocity_ms": {
    "fallback_reason": "EROM/DEM continuity input unavailable; shipped 0.5 m/s default used",
    "kind": "real",
    "n_fallback": 1,
    "n_real": 5,
    "n_sites": 6,
    "source": "Manning (region DEM/D8) blended with EROM continuity (shipped M4 logic)"
   },
   "impervious_pct": {
    "fallback_reason": "NLDI/StreamCat did not return a snap-compatible catchment value; value remains null and is removed by constant-column handling",
    "kind": "real",
    "n_fallback": 1,
    "n_real": 5,
    "n_sites": 6,
    "source": "EPA StreamCat pctimp2019 (per NHDPlus watershed)"
   },
   "land_ownership": {
    "kind": "real",
    "n_fallback": 0,
    "n_real": 6,
    "n_sites": 6,
    "source": "NC OneMap statewide parcels (NC Parcels Transformer) ownname"
   },
   "litter_complaint_density": {
    "kind": "fallback",
    "n_real": 0,
    "n_sites": 6,
    "source": "no public machine-readable litter/illegal-dumping feed for this region"
   },
   "navigable_dist_m": {
    "kind": "real",
    "n_real": 6,
    "n_sites": 6,
    "source": "USACE/BTS NWN (NTAD): no navigable segment within this bbox (+2 km) \u2014 computed absence, gate passes all sites"
   },
   "npdes_points": {
    "kind": "real",
    "n_real": 6,
    "n_sites": 6,
    "source": "EPA ECHO active NPDES outfalls states=NC (types NPD/GPC/NGP; statuses ADC/EFF/EXP), per catchment"
   },
   "population_density": {
    "kind": "real",
    "n_real": 6,
    "n_sites": 6,
    "source": "Census ACS 2022 B01003 block groups (bbox, multi-county), area-weighted"
   },
   "protected_area_score": {
    "kind": "real",
    "n_real": 6,
    "n_sites": 6,
    "source": "USGS PAD-US 4.1 state GDB; states=NC; shipped designation-weighted proximity curve"
   },
   "road_access_score": {
    "kind": "real",
    "n_real": 6,
    "n_sites": 6,
    "source": "OSM drive network nearest-node distance"
   },
   "road_density_km_km2": {
    "kind": "real",
    "n_real": 6,
    "n_sites": 6,
    "source": "OSM drive network (osmnx, cached) clipped per catchment"
   },
   "runoff_coeff_C": {
    "fallback_reason": "source impervious_pct was unavailable; derived value remains null",
    "kind": "real",
    "n_fallback": 1,
    "n_real": 5,
    "n_sites": 6,
    "source": "derived from real impervious_pct (C=0.05+0.009*I)"
   },
   "seasonal_cv": {
    "fallback_reason": "NHDPlus monthly EROM was unavailable or failed the drainage-area snap guard; value remains null",
    "kind": "real",
    "n_fallback": 1,
    "n_real": 5,
    "n_sites": 6,
    "source": "CV of NHDPlus EROM monthly flows per COMID"
   },
   "stream_order": {
    "kind": "real",
    "n_real": 6,
    "n_sites": 6,
    "source": "DEM stream-network confluence heuristic (pipeline)"
   },
   "superfund_score": {
    "kind": "real",
    "n_real": 6,
    "n_sites": 6,
    "source": "EPA DataMap SEMS active sites states=NC (non-archived, georeferenced), shipped 500 m inverse-distance curve"
   },
   "tourism_amenity_density": {
    "kind": "real",
    "n_real": 6,
    "n_sites": 6,
    "source": "OSM leisure/tourism features per 2 km radius"
   },
   "tri_facility_density": {
    "kind": "real",
    "n_real": 6,
    "n_sites": 6,
    "source": "EPA DataMap TRI open facilities states=NC (preferred decimal or packed-DMS recovery), per catchment"
   },
   "usgs_mean_q_cfs": {
    "fallback_reason": "NHDPlus EROM was unavailable or failed the drainage-area snap guard; value remains null",
    "kind": "real",
    "n_fallback": 1,
    "n_real": 5,
    "n_sites": 6,
    "source": "NHDPlus EROM qe_ma per COMID (snap-guarded)"
   },
   "velocity_feasibility": {
    "fallback_reason": "derived from the shipped 0.5 m/s velocity fallback",
    "kind": "real",
    "n_fallback": 1,
    "n_real": 5,
    "n_sites": 6,
    "source": "shipped step curve on the computed velocity"
   },
   "velocity_transport_favorability": {
    "fallback_reason": "EROM/DEM continuity input unavailable; shipped 0.5 m/s default used",
    "kind": "derived",
    "n_fallback": 1,
    "n_real": 5,
    "n_sites": 6,
    "source": "scored form of flow_velocity_ms inside the Flow family \u2014 peaked Gaussian exp(-((v-0.9)/0.6)^2), model.json curves.velocity_transport_favorability; construct: transport/delivery favorability, deliberately distinct from velocity_feasibility (device operability)"
   },
   "water_intake_score": {
    "kind": "real",
    "n_real": 6,
    "n_sites": 6,
    "source": "NC OneMap / NC DEQ SWAP public water supply sources (source_typ='Surface Water'), shipped exp(-d/10km) curve"
   }
  },
  "stream_mask": {
   "buffer_m": 150.0,
   "pre_mask": 6,
   "removed": 0,
   "sources": [
    "osm-overpass (all waterway ways)",
    "usgs-nhdplus flowlines"
   ]
  },
  "varying": [
   "beach_dist_km",
   "catchment_area_km2",
   "ej_index",
   "estuary_dist_km",
   "flow_velocity_ms",
   "impervious_pct",
   "land_ownership",
   "npdes_points",
   "population_density",
   "protected_area_score",
   "road_access_score",
   "road_density_km_km2",
   "runoff_coeff_C",
   "seasonal_cv",
   "stream_order",
   "tourism_amenity_density",
   "tri_facility_density",
   "usgs_mean_q_cfs",
   "velocity_feasibility",
   "water_intake_score"
  ]
 },
 "region": {
  "bbox": [
   -81.5187,
   36.3597,
   -81.4606,
   36.4065
  ],
  "beach_ref": {
   "label": "Wrightsville Beach (shipped NC reference)",
   "lat": 34.21,
   "lon": -77.79
  },
  "center": [
   -81.489617,
   36.383092
  ],
  "estuary_ref": {
   "label": "Pamlico Sound (shipped NC reference)",
   "lat": 35.05,
   "lon": -76.05
  },
  "flood_method": "none",
  "name": "West Jefferson, NC",
  "notes": "NC Blue Ridge (outside SIR 2014-5030 urban coverage)",
  "slug": "west-jefferson",
  "state": "NC",
  "utm_epsg": 32617,
  "width_curve": {
   "a": 3.12,
   "b": 0.415,
   "code": "AHI",
   "source": "Bieger et al. 2015 JAWRA Table 3, Appalachian Highlands"
  }
 },
 "type": "FeatureCollection"
}
