{
 "features": [
  {
   "geometry": {
    "coordinates": [
     -78.714066,
     34.332716
    ],
    "type": "Point"
   },
   "properties": {
    "accumulation": 41689.0,
    "bank_slope_deg": 10.16,
    "bank_slope_score": 1.0,
    "bank_slope_source": "nc-dps-lidar-dem03-cross-section",
    "beach_dist_km": 86.0,
    "bridge_proximity_bonus": 0.0,
    "catchment_area_km2": 4.1629,
    "channel_width_m": 3.73,
    "channel_width_score": 1.0,
    "composite_score": 64.1804,
    "cso_density": 0.0,
    "ej_index": 0.6458,
    "elevation_m": 18.8052,
    "estuary_dist_km": 256.29,
    "feasibility_score": 45.4545,
    "flood_q10_cfs": 372.23,
    "flow_score": 44.0561,
    "flow_velocity_ms": 0.1564,
    "generation_score": 100.0,
    "impact_score": 54.4939,
    "impervious_pct": 15.18,
    "land_ownership": 0.5,
    "lat": 34.3327,
    "litter_complaint_density": 0.0,
    "lon": -78.7141,
    "navigable_dist_m": null,
    "npdes_points": 2,
    "pixel_col": 312.0,
    "pixel_row": 406.0,
    "population_density": 321.4,
    "position_along": 0.5,
    "protected_area_score": 3.8075,
    "rank": 1,
    "road_access_m": 86.0,
    "road_access_score": 1.0,
    "road_density_km_km2": 6.776,
    "robustness_pct": 100.0,
    "runoff_coeff_C": 0.1866,
    "seasonal_cv": 0.4814,
    "segment_id": 2,
    "segment_length_m": 1958.1128,
    "stream_order": 1,
    "superfund_score": 0.0,
    "tourism_amenity_density": 1.5915,
    "tri_facility_density": 0.0,
    "usgs_mean_q_cfs": 2.913,
    "velocity_feasibility": 0.7,
    "water_intake_score": 0.1066
   },
   "type": "Feature"
  },
  {
   "geometry": {
    "coordinates": [
     -78.708942,
     34.318407
    ],
    "type": "Point"
   },
   "properties": {
    "accumulation": 59699.0,
    "bank_slope_deg": 7.43,
    "bank_slope_score": 1.0,
    "bank_slope_source": "nc-dps-lidar-dem03-cross-section",
    "beach_dist_km": 85.3,
    "bridge_proximity_bonus": 0.2,
    "catchment_area_km2": 5.9612,
    "channel_width_m": 4.24,
    "channel_width_score": 1.0,
    "composite_score": 54.6113,
    "cso_density": 0.0,
    "ej_index": 0.7297,
    "elevation_m": 15.7101,
    "estuary_dist_km": 256.36,
    "feasibility_score": 77.2727,
    "flood_q10_cfs": 324.43,
    "flow_score": 62.9931,
    "flow_velocity_ms": 0.5,
    "generation_score": 34.4289,
    "impact_score": 56.4781,
    "impervious_pct": null,
    "land_ownership": 0.5,
    "lat": 34.3184,
    "litter_complaint_density": 0.0,
    "lon": -78.7089,
    "navigable_dist_m": null,
    "npdes_points": 1,
    "pixel_col": 364.0,
    "pixel_row": 564.0,
    "population_density": 166.9,
    "position_along": 0.5,
    "protected_area_score": 3.9837,
    "rank": 2,
    "road_access_m": 292.2,
    "road_access_score": 0.8,
    "road_density_km_km2": 5.282,
    "robustness_pct": 100.0,
    "runoff_coeff_C": null,
    "seasonal_cv": null,
    "segment_id": 6,
    "segment_length_m": 2775.6316,
    "stream_order": 1,
    "superfund_score": 0.0,
    "tourism_amenity_density": 1.3528,
    "tri_facility_density": 0.0,
    "usgs_mean_q_cfs": null,
    "velocity_feasibility": 1.0,
    "water_intake_score": 0.0985
   },
   "type": "Feature"
  },
  {
   "geometry": {
    "coordinates": [
     -78.682944,
     34.32697
    ],
    "type": "Point"
   },
   "properties": {
    "accumulation": 31070.0,
    "bank_slope_deg": 2.96,
    "bank_slope_score": 1.0,
    "bank_slope_source": "nc-dps-lidar-dem03-cross-section",
    "beach_dist_km": 83.08,
    "bridge_proximity_bonus": 0.0,
    "catchment_area_km2": 3.1025,
    "channel_width_m": 3.35,
    "channel_width_score": 1.0,
    "composite_score": 48.9337,
    "cso_density": 0.0,
    "ej_index": 0.8562,
    "elevation_m": 16.1579,
    "estuary_dist_km": 253.79,
    "feasibility_score": 59.0909,
    "flood_q10_cfs": 219.19,
    "flow_score": 36.4846,
    "flow_velocity_ms": 0.5,
    "generation_score": 10.1293,
    "impact_score": 93.0338,
    "impervious_pct": null,
    "land_ownership": 0.5,
    "lat": 34.327,
    "litter_complaint_density": 0.0,
    "lon": -78.6829,
    "navigable_dist_m": null,
    "npdes_points": 0,
    "pixel_col": 599.0,
    "pixel_row": 464.0,
    "population_density": 131.6,
    "position_along": 0.5,
    "protected_area_score": 4.001,
    "rank": 3,
    "road_access_m": 306.1,
    "road_access_score": 0.8,
    "road_density_km_km2": 1.602,
    "robustness_pct": 100.0,
    "runoff_coeff_C": null,
    "seasonal_cv": null,
    "segment_id": 3,
    "segment_length_m": 2811.8795,
    "stream_order": 1,
    "superfund_score": 0.0,
    "tourism_amenity_density": 1.6711,
    "tri_facility_density": 0.0,
    "usgs_mean_q_cfs": null,
    "velocity_feasibility": 1.0,
    "water_intake_score": 0.1301
   },
   "type": "Feature"
  },
  {
   "geometry": {
    "coordinates": [
     -78.693037,
     34.297776
    ],
    "type": "Point"
   },
   "properties": {
    "accumulation": 29414.0,
    "bank_slope_deg": 1.66,
    "bank_slope_score": 1.0,
    "bank_slope_source": "nc-dps-lidar-dem03-cross-section",
    "beach_dist_km": 83.57,
    "bridge_proximity_bonus": 0.0,
    "catchment_area_km2": 2.9371,
    "channel_width_m": 3.28,
    "channel_width_score": 1.0,
    "composite_score": 36.4715,
    "cso_density": 0.0,
    "ej_index": 0.8341,
    "elevation_m": 14.7807,
    "estuary_dist_km": 255.75,
    "feasibility_score": 22.7273,
    "flood_q10_cfs": 287.51,
    "flow_score": 26.9494,
    "flow_velocity_ms": 0.0614,
    "generation_score": 28.722,
    "impact_score": 59.0283,
    "impervious_pct": 13.08,
    "land_ownership": 0.5,
    "lat": 34.2978,
    "litter_complaint_density": 0.0,
    "lon": -78.693,
    "navigable_dist_m": null,
    "npdes_points": 0,
    "pixel_col": 516.0,
    "pixel_row": 790.0,
    "population_density": 65.5,
    "position_along": 0.5,
    "protected_area_score": 3.9749,
    "rank": 4,
    "road_access_m": 483.2,
    "road_access_score": 0.8,
    "road_density_km_km2": 0.74,
    "robustness_pct": 100.0,
    "runoff_coeff_C": 0.1677,
    "seasonal_cv": 0.4867,
    "segment_id": 7,
    "segment_length_m": 1747.2607,
    "stream_order": 1,
    "superfund_score": 0.0,
    "tourism_amenity_density": 0.0,
    "tri_facility_density": 0.0,
    "usgs_mean_q_cfs": 3.5,
    "velocity_feasibility": 0.7,
    "water_intake_score": 0.1036
   },
   "type": "Feature"
  },
  {
   "geometry": {
    "coordinates": [
     -78.685441,
     34.353993
    ],
    "type": "Point"
   },
   "properties": {
    "accumulation": 37270.0,
    "bank_slope_deg": 8.54,
    "bank_slope_score": 1.0,
    "bank_slope_source": "nc-dps-lidar-dem03-cross-section",
    "beach_dist_km": 83.81,
    "bridge_proximity_bonus": 0.0,
    "catchment_area_km2": 3.7216,
    "channel_width_m": 3.58,
    "channel_width_score": 1.0,
    "composite_score": 33.2989,
    "cso_density": 0.0,
    "ej_index": 0.0868,
    "elevation_m": 16.6364,
    "estuary_dist_km": 253.04,
    "feasibility_score": 22.7273,
    "flood_q10_cfs": 279.15,
    "flow_score": 28.1335,
    "flow_velocity_ms": 0.1103,
    "generation_score": 16.6926,
    "impact_score": 59.4955,
    "impervious_pct": 5.7,
    "land_ownership": 0.5,
    "lat": 34.354,
    "litter_complaint_density": 0.0,
    "lon": -78.6854,
    "navigable_dist_m": null,
    "npdes_points": 0,
    "pixel_col": 572.0,
    "pixel_row": 162.0,
    "population_density": 73.4,
    "position_along": 0.5,
    "protected_area_score": 3.6282,
    "rank": 5,
    "road_access_m": 200.6,
    "road_access_score": 0.8,
    "road_density_km_km2": 1.917,
    "robustness_pct": 98.5,
    "runoff_coeff_C": 0.1013,
    "seasonal_cv": 0.4727,
    "segment_id": 0,
    "segment_length_m": 2755.0578,
    "stream_order": 1,
    "superfund_score": 0.0,
    "tourism_amenity_density": 0.1592,
    "tri_facility_density": 0.0,
    "usgs_mean_q_cfs": 2.809,
    "velocity_feasibility": 0.7,
    "water_intake_score": 0.1385
   },
   "type": "Feature"
  },
  {
   "geometry": {
    "coordinates": [
     -78.729887,
     34.330825
    ],
    "type": "Point"
   },
   "properties": {
    "accumulation": 23848.0,
    "bank_slope_deg": 1.48,
    "bank_slope_score": 1.0,
    "bank_slope_source": "nc-dps-lidar-dem03-cross-section",
    "beach_dist_km": 87.4,
    "bridge_proximity_bonus": 0.0,
    "catchment_area_km2": 2.3813,
    "channel_width_m": 3.04,
    "channel_width_score": 1.0,
    "composite_score": 23.9878,
    "cso_density": 0.0,
    "ej_index": 0.7324,
    "elevation_m": 17.5694,
    "estuary_dist_km": 257.73,
    "feasibility_score": 22.7273,
    "flood_q10_cfs": 197.32,
    "flow_score": 29.6023,
    "flow_velocity_ms": 0.0717,
    "generation_score": 11.1817,
    "impact_score": 32.7455,
    "impervious_pct": 2.31,
    "land_ownership": 0.5,
    "lat": 34.3308,
    "litter_complaint_density": 0.0,
    "lon": -78.7299,
    "navigable_dist_m": null,
    "npdes_points": 0,
    "pixel_col": 165.0,
    "pixel_row": 431.0,
    "population_density": 76.3,
    "position_along": 0.5,
    "protected_area_score": 3.5728,
    "rank": 6,
    "road_access_m": 352.7,
    "road_access_score": 0.8,
    "road_density_km_km2": 2.494,
    "robustness_pct": 0.0,
    "runoff_coeff_C": 0.0708,
    "seasonal_cv": 0.44,
    "segment_id": 4,
    "segment_length_m": 1066.6274,
    "stream_order": 1,
    "superfund_score": 0.0,
    "tourism_amenity_density": 0.9549,
    "tri_facility_density": 0.0,
    "usgs_mean_q_cfs": 9.909,
    "velocity_feasibility": 0.7,
    "water_intake_score": 0.0956
   },
   "type": "Feature"
  },
  {
   "geometry": {
    "coordinates": [
     -78.738586,
     34.344897
    ],
    "type": "Point"
   },
   "properties": {
    "accumulation": 35746.0,
    "bank_slope_deg": 6.24,
    "bank_slope_score": 1.0,
    "bank_slope_source": "nc-dps-lidar-dem03-cross-section",
    "beach_dist_km": 88.44,
    "bridge_proximity_bonus": 0.0,
    "catchment_area_km2": 3.5694,
    "channel_width_m": 3.52,
    "channel_width_score": 1.0,
    "composite_score": 17.011,
    "cso_density": 0.0,
    "ej_index": 0.4437,
    "elevation_m": 20.484,
    "estuary_dist_km": 257.99,
    "feasibility_score": 0.0,
    "flood_q10_cfs": 251.6,
    "flow_score": 43.1393,
    "flow_velocity_ms": 0.1268,
    "generation_score": 10.1257,
    "impact_score": 10.6283,
    "impervious_pct": 2.31,
    "land_ownership": 0.5,
    "lat": 34.3449,
    "litter_complaint_density": 0.0,
    "lon": -78.7386,
    "navigable_dist_m": null,
    "npdes_points": 0,
    "pixel_col": 82.0,
    "pixel_row": 276.0,
    "population_density": 92.8,
    "position_along": 0.5,
    "protected_area_score": 3.306,
    "rank": 7,
    "road_access_m": 579.6,
    "road_access_score": 0.6,
    "road_density_km_km2": 1.411,
    "robustness_pct": 1.5,
    "runoff_coeff_C": 0.0708,
    "seasonal_cv": 0.44,
    "segment_id": 1,
    "segment_length_m": 1963.3781,
    "stream_order": 1,
    "superfund_score": 0.0,
    "tourism_amenity_density": 0.2387,
    "tri_facility_density": 0.0,
    "usgs_mean_q_cfs": 9.909,
    "velocity_feasibility": 0.7,
    "water_intake_score": 0.0954
   },
   "type": "Feature"
  }
 ],
 "note": "GRIME region 'Whiteville, NC' \u2014 real-data pipeline (DEM\u2192streams\u2192candidates\u2192stream mask (sites confined to \u00b1150 m of mapped OSM/NHD waterways)\u2192region-appropriate real parameters\u2192shipped scoring, math unchanged). Width curve: Bieger et al. 2015 JAWRA Table 3, Atlantic Plain. Flood: SIR 2014-5030 HR4 (I24H50Y: NOAA Atlas 14). NC Coastal Plain (SIR 2014-5030 HR4; I24H50Y from NOAA Atlas 14 at region center)",
 "provenance": {
  "candidates_pre_gate": 7,
  "constant": [
   "bank_slope_score",
   "channel_width_score",
   "cso_density",
   "land_ownership",
   "litter_complaint_density",
   "stream_order",
   "superfund_score",
   "tri_facility_density"
  ],
  "gated_navigable": 0,
  "hard_gate_removed": 0,
  "n_parameters": 27,
  "parameters": {
   "bank_slope_score": {
    "kind": "real",
    "n_3dep_10m_fallback": 0,
    "n_nc_lidar_3_125ft": 7,
    "n_real": 7,
    "n_sites": 7,
    "source": "NC OneMap / NC DPS DEM03 statewide lidar-derived 3.125-ft (0.953 m) elevations (perpendicular 50 m transect; robust 5 m bank-rise metric); unavailable profiles use the region 10 m 3DEP DEM-gradient fallback",
    "source_mosaics": [
     "Columbus_Ground_3ft"
    ]
   },
   "beach_dist_km": {
    "kind": "real",
    "n_real": 7,
    "n_sites": 7,
    "source": "haversine to region ref: Wrightsville Beach (shipped NC reference)"
   },
   "bridge_proximity_bonus": {
    "kind": "real",
    "n_real": 7,
    "n_sites": 7,
    "source": "FHWA/BTS NBI (NTAD), 50 m proximity"
   },
   "catchment_area_km2": {
    "kind": "real",
    "n_real": 7,
    "n_sites": 7,
    "source": "DEM flow accumulation (pipeline)"
   },
   "channel_width_score": {
    "kind": "real",
    "n_real": 7,
    "n_sites": 7,
    "source": "Bieger 2015 APL width curve on DEM drainage area \u2192 shipped width curve"
   },
   "cso_density": {
    "kind": "real",
    "n_real": 7,
    "n_sites": 7,
    "source": "EPA ECHO open CSO/TCS outfall PF coordinates states=NC, Cauchy proximity"
   },
   "ej_index": {
    "kind": "real",
    "n_real": 7,
    "n_sites": 7,
    "source": "Census ACS C17002+B03002 two-component demographic index, percentile-ranked within region"
   },
   "estuary_dist_km": {
    "kind": "real",
    "n_real": 7,
    "n_sites": 7,
    "source": "haversine to region ref: Pamlico Sound (shipped NC reference)"
   },
   "flood_q10_cfs": {
    "impervious_fallback_reason": "StreamCat imperviousness unavailable; the existing regression-input fallback of 0.0% impervious was used and is disclosed here",
    "kind": "real",
    "n_impervious_fallback": 2,
    "n_real": 7,
    "n_sites": 7,
    "source": "USGS SIR 2014-5030 Table 7 HR4 (NC Coastal Plain; I24H50Y from NOAA Atlas 14 at region center)"
   },
   "flow_velocity_ms": {
    "fallback_reason": "EROM/DEM continuity input unavailable; shipped 0.5 m/s default used",
    "kind": "real",
    "n_fallback": 2,
    "n_real": 5,
    "n_sites": 7,
    "source": "Manning (region DEM/D8) blended with EROM continuity (shipped M4 logic)"
   },
   "impervious_pct": {
    "fallback_reason": "NLDI/StreamCat did not return a snap-compatible catchment value; value remains null and is removed by constant-column handling",
    "kind": "real",
    "n_fallback": 2,
    "n_real": 5,
    "n_sites": 7,
    "source": "EPA StreamCat pctimp2019 (per NHDPlus watershed)"
   },
   "land_ownership": {
    "fallback_reason": "no containing parcel owner returned; shipped unknown ownership 0.5 used",
    "kind": "real",
    "n_fallback": 1,
    "n_real": 6,
    "n_sites": 7,
    "source": "NC OneMap statewide parcels (NC Parcels Transformer) ownname"
   },
   "litter_complaint_density": {
    "kind": "fallback",
    "n_real": 0,
    "n_sites": 7,
    "source": "no public machine-readable litter/illegal-dumping feed for this region"
   },
   "navigable_dist_m": {
    "kind": "real",
    "n_real": 7,
    "n_sites": 7,
    "source": "USACE/BTS NWN (NTAD): no navigable segment within this bbox (+2 km) \u2014 computed absence, gate passes all sites"
   },
   "npdes_points": {
    "kind": "real",
    "n_real": 7,
    "n_sites": 7,
    "source": "EPA ECHO active NPDES outfalls states=NC (types NPD/GPC/NGP; statuses ADC/EFF/EXP), per catchment"
   },
   "population_density": {
    "kind": "real",
    "n_real": 7,
    "n_sites": 7,
    "source": "Census ACS 2022 B01003 block groups (bbox, multi-county), area-weighted"
   },
   "protected_area_score": {
    "kind": "real",
    "n_real": 7,
    "n_sites": 7,
    "source": "USGS PAD-US 4.1 state GDB; states=NC; shipped designation-weighted proximity curve"
   },
   "road_access_score": {
    "kind": "real",
    "n_real": 7,
    "n_sites": 7,
    "source": "OSM drive network nearest-node distance"
   },
   "road_density_km_km2": {
    "kind": "real",
    "n_real": 7,
    "n_sites": 7,
    "source": "OSM drive network (osmnx, cached) clipped per catchment"
   },
   "runoff_coeff_C": {
    "fallback_reason": "source impervious_pct was unavailable; derived value remains null",
    "kind": "real",
    "n_fallback": 2,
    "n_real": 5,
    "n_sites": 7,
    "source": "derived from real impervious_pct (C=0.05+0.009*I)"
   },
   "seasonal_cv": {
    "fallback_reason": "NHDPlus monthly EROM was unavailable or failed the drainage-area snap guard; value remains null",
    "kind": "real",
    "n_fallback": 2,
    "n_real": 5,
    "n_sites": 7,
    "source": "CV of NHDPlus EROM monthly flows per COMID"
   },
   "stream_order": {
    "kind": "real",
    "n_real": 7,
    "n_sites": 7,
    "source": "DEM stream-network confluence heuristic (pipeline)"
   },
   "superfund_score": {
    "kind": "real",
    "n_real": 7,
    "n_sites": 7,
    "source": "EPA DataMap SEMS active sites states=NC (non-archived, georeferenced), shipped 500 m inverse-distance curve"
   },
   "tourism_amenity_density": {
    "kind": "real",
    "n_real": 7,
    "n_sites": 7,
    "source": "OSM leisure/tourism features per 2 km radius"
   },
   "tri_facility_density": {
    "kind": "real",
    "n_real": 7,
    "n_sites": 7,
    "source": "EPA DataMap TRI open facilities states=NC (preferred decimal or packed-DMS recovery), per catchment"
   },
   "usgs_mean_q_cfs": {
    "fallback_reason": "NHDPlus EROM was unavailable or failed the drainage-area snap guard; value remains null",
    "kind": "real",
    "n_fallback": 2,
    "n_real": 5,
    "n_sites": 7,
    "source": "NHDPlus EROM qe_ma per COMID (snap-guarded)"
   },
   "velocity_feasibility": {
    "fallback_reason": "derived from the shipped 0.5 m/s velocity fallback",
    "kind": "real",
    "n_fallback": 2,
    "n_real": 5,
    "n_sites": 7,
    "source": "shipped step curve on the computed velocity"
   },
   "velocity_transport_favorability": {
    "fallback_reason": "EROM/DEM continuity input unavailable; shipped 0.5 m/s default used",
    "kind": "derived",
    "n_fallback": 2,
    "n_real": 5,
    "n_sites": 7,
    "source": "scored form of flow_velocity_ms inside the Flow family \u2014 peaked Gaussian exp(-((v-0.9)/0.6)^2), model.json curves.velocity_transport_favorability; construct: transport/delivery favorability, deliberately distinct from velocity_feasibility (device operability)"
   },
   "water_intake_score": {
    "kind": "real",
    "n_real": 7,
    "n_sites": 7,
    "source": "NC OneMap / NC DEQ SWAP public water supply sources (source_typ='Surface Water'), shipped exp(-d/10km) curve"
   }
  },
  "stream_mask": {
   "buffer_m": 150.0,
   "pre_mask": 8,
   "removed": 1,
   "sources": [
    "osm-overpass (all waterway ways)",
    "usgs-nhdplus flowlines"
   ]
  },
  "varying": [
   "beach_dist_km",
   "bridge_proximity_bonus",
   "catchment_area_km2",
   "ej_index",
   "estuary_dist_km",
   "flood_q10_cfs",
   "flow_velocity_ms",
   "impervious_pct",
   "npdes_points",
   "population_density",
   "protected_area_score",
   "road_access_score",
   "road_density_km_km2",
   "runoff_coeff_C",
   "seasonal_cv",
   "tourism_amenity_density",
   "usgs_mean_q_cfs",
   "velocity_feasibility",
   "water_intake_score"
  ]
 },
 "region": {
  "bbox": [
   -78.747,
   34.2929,
   -78.6559,
   34.3681
  ],
  "beach_ref": {
   "label": "Wrightsville Beach (shipped NC reference)",
   "lat": 34.21,
   "lon": -77.79
  },
  "center": [
   -78.701435,
   34.330456
  ],
  "estuary_ref": {
   "label": "Pamlico Sound (shipped NC reference)",
   "lat": 35.05,
   "lon": -76.05
  },
  "flood_method": "sir2014_hr4",
  "name": "Whiteville, NC",
  "notes": "NC Coastal Plain (SIR 2014-5030 HR4; I24H50Y from NOAA Atlas 14 at region center)",
  "slug": "whiteville",
  "state": "NC",
  "utm_epsg": 32617,
  "width_curve": {
   "a": 2.22,
   "b": 0.363,
   "code": "APL",
   "source": "Bieger et al. 2015 JAWRA Table 3, Atlantic Plain"
  }
 },
 "type": "FeatureCollection"
}
