{
 "features": [
  {
   "geometry": {
    "coordinates": [
     -79.543405,
     36.076724
    ],
    "type": "Point"
   },
   "properties": {
    "accumulation": 97953.0,
    "bank_slope_deg": 12.32,
    "bank_slope_score": 1.0,
    "bank_slope_source": "nc-dps-lidar-dem03-cross-section",
    "beach_dist_km": 261.72,
    "bridge_proximity_bonus": 0.0,
    "catchment_area_km2": 9.7605,
    "channel_width_m": 8.03,
    "channel_width_score": 1.0,
    "composite_score": 58.4824,
    "cso_density": 0.0,
    "ej_index": 0.4182,
    "elevation_m": 177.3578,
    "estuary_dist_km": 335.96,
    "feasibility_score": 50.0,
    "flood_q10_cfs": 1150.29,
    "flow_score": 32.6305,
    "flow_velocity_ms": 0.0957,
    "generation_score": 64.9684,
    "impact_score": 77.7808,
    "impervious_pct": 9.47,
    "land_ownership": 0.5,
    "lat": 36.0767,
    "litter_complaint_density": 0.0,
    "lon": -79.5434,
    "navigable_dist_m": null,
    "npdes_points": 14,
    "pixel_col": 553.0,
    "pixel_row": 314.0,
    "population_density": 469.8,
    "position_along": 0.5,
    "protected_area_score": 11.6621,
    "rank": 1,
    "road_access_m": 173.9,
    "road_access_score": 1.0,
    "road_density_km_km2": 2.507,
    "robustness_pct": 100.0,
    "runoff_coeff_C": 0.1352,
    "seasonal_cv": 0.4068,
    "segment_id": 3,
    "segment_length_m": 864.8567,
    "stream_order": 3,
    "superfund_score": 0.004,
    "tourism_amenity_density": 1.2732,
    "tri_facility_density": 0.0,
    "usgs_mean_q_cfs": 6.685,
    "velocity_feasibility": 0.7,
    "water_intake_score": 1.5279
   },
   "type": "Feature"
  },
  {
   "geometry": {
    "coordinates": [
     -79.573549,
     36.054196
    ],
    "type": "Point"
   },
   "properties": {
    "accumulation": 159313.0,
    "bank_slope_deg": 3.89,
    "bank_slope_score": 1.0,
    "bank_slope_source": "nc-dps-lidar-dem03-cross-section",
    "beach_dist_km": 261.44,
    "bridge_proximity_bonus": 0.0,
    "catchment_area_km2": 15.8747,
    "channel_width_m": 9.83,
    "channel_width_score": 1.0,
    "composite_score": 48.1154,
    "cso_density": 0.0,
    "ej_index": 0.3945,
    "elevation_m": 168.2339,
    "estuary_dist_km": 337.73,
    "feasibility_score": 35.7143,
    "flood_q10_cfs": 1453.82,
    "flow_score": 66.828,
    "flow_velocity_ms": 0.0766,
    "generation_score": 39.4615,
    "impact_score": 47.376,
    "impervious_pct": 6.92,
    "land_ownership": 1.0,
    "lat": 36.0542,
    "litter_complaint_density": 0.0,
    "lon": -79.5735,
    "navigable_dist_m": null,
    "npdes_points": 36,
    "pixel_col": 285.0,
    "pixel_row": 567.0,
    "population_density": 140.8,
    "position_along": 0.5,
    "protected_area_score": 12.6868,
    "rank": 2,
    "road_access_m": 601.6,
    "road_access_score": 0.6,
    "road_density_km_km2": 1.676,
    "robustness_pct": 99.0,
    "runoff_coeff_C": 0.1123,
    "seasonal_cv": 0.4523,
    "segment_id": 7,
    "segment_length_m": 416.244,
    "stream_order": 3,
    "superfund_score": 0.0025,
    "tourism_amenity_density": 0.1592,
    "tri_facility_density": 0.0,
    "usgs_mean_q_cfs": 65.568,
    "velocity_feasibility": 0.7,
    "water_intake_score": 1.3708
   },
   "type": "Feature"
  },
  {
   "geometry": {
    "coordinates": [
     -79.547702,
     36.084214
    ],
    "type": "Point"
   },
   "properties": {
    "accumulation": 24452.0,
    "bank_slope_deg": 4.37,
    "bank_slope_score": 1.0,
    "bank_slope_source": "nc-dps-lidar-dem03-cross-section",
    "beach_dist_km": 262.61,
    "bridge_proximity_bonus": 0.0,
    "catchment_area_km2": 2.4365,
    "channel_width_m": 4.52,
    "channel_width_score": 1.0,
    "composite_score": 45.4319,
    "cso_density": 0.0,
    "ej_index": 0.3691,
    "elevation_m": 186.2725,
    "estuary_dist_km": 336.59,
    "feasibility_score": 32.1429,
    "flood_q10_cfs": 487.45,
    "flow_score": 12.6377,
    "flow_velocity_ms": 0.0987,
    "generation_score": 60.4818,
    "impact_score": 64.3551,
    "impervious_pct": 16.71,
    "land_ownership": 0.5,
    "lat": 36.0842,
    "litter_complaint_density": 0.0,
    "lon": -79.5477,
    "navigable_dist_m": null,
    "npdes_points": 1,
    "pixel_col": 512.0,
    "pixel_row": 231.0,
    "population_density": 331.1,
    "position_along": 0.5,
    "protected_area_score": 12.1034,
    "rank": 3,
    "road_access_m": 240.7,
    "road_access_score": 0.8,
    "road_density_km_km2": 2.706,
    "robustness_pct": 99.0,
    "runoff_coeff_C": 0.2004,
    "seasonal_cv": 0.3918,
    "segment_id": 2,
    "segment_length_m": 1247.6069,
    "stream_order": 3,
    "superfund_score": 0.0051,
    "tourism_amenity_density": 1.1937,
    "tri_facility_density": 0.0,
    "usgs_mean_q_cfs": 1.662,
    "velocity_feasibility": 0.7,
    "water_intake_score": 1.4859
   },
   "type": "Feature"
  },
  {
   "geometry": {
    "coordinates": [
     -79.584644,
     36.056577
    ],
    "type": "Point"
   },
   "properties": {
    "accumulation": 116286.0,
    "bank_slope_deg": 0.0,
    "bank_slope_score": 1.0,
    "bank_slope_source": "nc-dps-lidar-dem03-cross-section",
    "beach_dist_km": 262.27,
    "bridge_proximity_bonus": 0.0,
    "catchment_area_km2": 11.5873,
    "channel_width_m": 8.62,
    "channel_width_score": 1.0,
    "composite_score": 45.2668,
    "cso_density": 0.0,
    "ej_index": 0.3995,
    "elevation_m": 168.1021,
    "estuary_dist_km": 338.76,
    "feasibility_score": 82.1429,
    "flood_q10_cfs": 1109.84,
    "flow_score": 55.9218,
    "flow_velocity_ms": 0.5,
    "generation_score": 16.3026,
    "impact_score": 46.9138,
    "impervious_pct": null,
    "land_ownership": 1.0,
    "lat": 36.0566,
    "litter_complaint_density": 0.0,
    "lon": -79.5846,
    "navigable_dist_m": null,
    "npdes_points": 15,
    "pixel_col": 185.0,
    "pixel_row": 540.0,
    "population_density": 133.5,
    "position_along": 0.8333,
    "protected_area_score": 13.4881,
    "rank": 4,
    "road_access_m": 264.7,
    "road_access_score": 0.8,
    "road_density_km_km2": 2.428,
    "robustness_pct": 89.0,
    "runoff_coeff_C": null,
    "seasonal_cv": null,
    "segment_id": 5,
    "segment_length_m": 5725.0999,
    "stream_order": 3,
    "superfund_score": 0.0026,
    "tourism_amenity_density": 0.6366,
    "tri_facility_density": 0.0,
    "usgs_mean_q_cfs": null,
    "velocity_feasibility": 1.0,
    "water_intake_score": 1.3099
   },
   "type": "Feature"
  },
  {
   "geometry": {
    "coordinates": [
     -79.556349,
     36.084222
    ],
    "type": "Point"
   },
   "properties": {
    "accumulation": 41270.0,
    "bank_slope_deg": 11.44,
    "bank_slope_score": 1.0,
    "bank_slope_source": "nc-dps-lidar-dem03-cross-section",
    "beach_dist_km": 263.09,
    "bridge_proximity_bonus": 0.0,
    "catchment_area_km2": 4.1123,
    "channel_width_m": 5.61,
    "channel_width_score": 1.0,
    "composite_score": 36.2896,
    "cso_density": 0.0,
    "ej_index": 0.3335,
    "elevation_m": 188.9166,
    "estuary_dist_km": 337.33,
    "feasibility_score": 32.1429,
    "flood_q10_cfs": 581.9,
    "flow_score": 13.4228,
    "flow_velocity_ms": 0.1037,
    "generation_score": 41.6866,
    "impact_score": 52.0217,
    "impervious_pct": 4.29,
    "land_ownership": 0.5,
    "lat": 36.0842,
    "litter_complaint_density": 0.0,
    "lon": -79.5563,
    "navigable_dist_m": null,
    "npdes_points": 3,
    "pixel_col": 434.0,
    "pixel_row": 232.0,
    "population_density": 324.1,
    "position_along": 0.5,
    "protected_area_score": 12.3746,
    "rank": 5,
    "road_access_m": 228.8,
    "road_access_score": 0.8,
    "road_density_km_km2": 3.952,
    "robustness_pct": 25.0,
    "runoff_coeff_C": 0.0886,
    "seasonal_cv": 0.3969,
    "segment_id": 0,
    "segment_length_m": 2874.6604,
    "stream_order": 3,
    "superfund_score": 0.0055,
    "tourism_amenity_density": 1.1937,
    "tri_facility_density": 0.0,
    "usgs_mean_q_cfs": 3.571,
    "velocity_feasibility": 0.7,
    "water_intake_score": 1.4375
   },
   "type": "Feature"
  },
  {
   "geometry": {
    "coordinates": [
     -79.573093,
     36.06103
    ],
    "type": "Point"
   },
   "properties": {
    "accumulation": 31400.0,
    "bank_slope_deg": 10.24,
    "bank_slope_score": 1.0,
    "bank_slope_source": "nc-dps-lidar-dem03-cross-section",
    "beach_dist_km": 262.01,
    "bridge_proximity_bonus": 0.0,
    "catchment_area_km2": 3.1289,
    "channel_width_m": 5.01,
    "channel_width_score": 1.0,
    "composite_score": 35.8803,
    "cso_density": 0.0,
    "ej_index": 0.423,
    "elevation_m": 175.9408,
    "estuary_dist_km": 337.93,
    "feasibility_score": 32.1429,
    "flood_q10_cfs": 497.1,
    "flow_score": 12.4321,
    "flow_velocity_ms": 0.1486,
    "generation_score": 34.2887,
    "impact_score": 58.881,
    "impervious_pct": 7.06,
    "land_ownership": 0.5,
    "lat": 36.061,
    "litter_complaint_density": 0.0,
    "lon": -79.5731,
    "navigable_dist_m": null,
    "npdes_points": 13,
    "pixel_col": 287.0,
    "pixel_row": 492.0,
    "population_density": 150.6,
    "position_along": 0.5,
    "protected_area_score": 12.9244,
    "rank": 6,
    "road_access_m": 254.9,
    "road_access_score": 0.8,
    "road_density_km_km2": 3.231,
    "robustness_pct": 33.0,
    "runoff_coeff_C": 0.1135,
    "seasonal_cv": 0.3911,
    "segment_id": 6,
    "segment_length_m": 1498.5816,
    "stream_order": 3,
    "superfund_score": 0.003,
    "tourism_amenity_density": 0.7162,
    "tri_facility_density": 0.0,
    "usgs_mean_q_cfs": 1.878,
    "velocity_feasibility": 0.7,
    "water_intake_score": 1.3754
   },
   "type": "Feature"
  },
  {
   "geometry": {
    "coordinates": [
     -79.598177,
     36.065194
    ],
    "type": "Point"
   },
   "properties": {
    "accumulation": 87356.0,
    "bank_slope_deg": 4.67,
    "bank_slope_score": 1.0,
    "bank_slope_source": "nc-dps-lidar-dem03-cross-section",
    "beach_dist_km": 263.79,
    "bridge_proximity_bonus": 0.0,
    "catchment_area_km2": 8.7046,
    "channel_width_m": 7.66,
    "channel_width_score": 1.0,
    "composite_score": 35.2938,
    "cso_density": 0.0,
    "ej_index": 0.3416,
    "elevation_m": 174.4202,
    "estuary_dist_km": 340.22,
    "feasibility_score": 50.0,
    "flood_q10_cfs": 1005.32,
    "flow_score": 32.5747,
    "flow_velocity_ms": 0.1491,
    "generation_score": 36.9448,
    "impact_score": 28.5557,
    "impervious_pct": 4.31,
    "land_ownership": 0.5,
    "lat": 36.0652,
    "litter_complaint_density": 0.0,
    "lon": -79.5982,
    "navigable_dist_m": null,
    "npdes_points": 10,
    "pixel_col": 61.0,
    "pixel_row": 449.0,
    "population_density": 243.2,
    "position_along": 0.5,
    "protected_area_score": 14.2112,
    "rank": 7,
    "road_access_m": 196.2,
    "road_access_score": 1.0,
    "road_density_km_km2": 3.595,
    "robustness_pct": 45.0,
    "runoff_coeff_C": 0.0888,
    "seasonal_cv": 0.4224,
    "segment_id": 5,
    "segment_length_m": 5725.0999,
    "stream_order": 3,
    "superfund_score": 0.0031,
    "tourism_amenity_density": 0.557,
    "tri_facility_density": 0.0,
    "usgs_mean_q_cfs": 17.062,
    "velocity_feasibility": 0.7,
    "water_intake_score": 1.2764
   },
   "type": "Feature"
  },
  {
   "geometry": {
    "coordinates": [
     -79.596058,
     36.078976
    ],
    "type": "Point"
   },
   "properties": {
    "accumulation": 64037.0,
    "bank_slope_deg": 19.17,
    "bank_slope_score": 0.5,
    "bank_slope_source": "nc-dps-lidar-dem03-cross-section",
    "beach_dist_km": 264.86,
    "bridge_proximity_bonus": 0.0,
    "catchment_area_km2": 6.381,
    "channel_width_m": 6.73,
    "channel_width_score": 1.0,
    "composite_score": 34.6142,
    "cso_density": 0.0,
    "ej_index": 0.3647,
    "elevation_m": 178.3332,
    "estuary_dist_km": 340.52,
    "feasibility_score": 35.7143,
    "flood_q10_cfs": 791.49,
    "flow_score": 21.3372,
    "flow_velocity_ms": 0.0717,
    "generation_score": 44.9788,
    "impact_score": 34.7639,
    "impervious_pct": 2.95,
    "land_ownership": 0.5,
    "lat": 36.079,
    "litter_complaint_density": 0.0,
    "lon": -79.5961,
    "navigable_dist_m": null,
    "npdes_points": 3,
    "pixel_col": 75.0,
    "pixel_row": 296.0,
    "population_density": 372.1,
    "position_along": 0.1667,
    "protected_area_score": 14.3352,
    "rank": 8,
    "road_access_m": 103.5,
    "road_access_score": 1.0,
    "road_density_km_km2": 4.336,
    "robustness_pct": 10.0,
    "runoff_coeff_C": 0.0766,
    "seasonal_cv": 0.4138,
    "segment_id": 5,
    "segment_length_m": 5725.0999,
    "stream_order": 3,
    "superfund_score": 0.0045,
    "tourism_amenity_density": 0.557,
    "tri_facility_density": 0.0,
    "usgs_mean_q_cfs": 11.626,
    "velocity_feasibility": 0.7,
    "water_intake_score": 1.2924
   },
   "type": "Feature"
  },
  {
   "geometry": {
    "coordinates": [
     -79.595927,
     36.087373
    ],
    "type": "Point"
   },
   "properties": {
    "accumulation": 21728.0,
    "bank_slope_deg": 12.74,
    "bank_slope_score": 1.0,
    "bank_slope_source": "nc-dps-lidar-dem03-cross-section",
    "beach_dist_km": 265.58,
    "bridge_proximity_bonus": 0.0,
    "catchment_area_km2": 2.1651,
    "channel_width_m": 4.3,
    "channel_width_score": 1.0,
    "composite_score": 27.0215,
    "cso_density": 0.0,
    "ej_index": 0.4206,
    "elevation_m": 181.4176,
    "estuary_dist_km": 340.81,
    "feasibility_score": 32.1429,
    "flood_q10_cfs": 338.63,
    "flow_score": 5.0837,
    "flow_velocity_ms": 0.107,
    "generation_score": 24.7736,
    "impact_score": 44.9904,
    "impervious_pct": 0.98,
    "land_ownership": 0.5,
    "lat": 36.0874,
    "litter_complaint_density": 0.0,
    "lon": -79.5959,
    "navigable_dist_m": null,
    "npdes_points": 1,
    "pixel_col": 74.0,
    "pixel_row": 202.0,
    "population_density": 377.7,
    "position_along": 0.5,
    "protected_area_score": 14.3104,
    "rank": 9,
    "road_access_m": 456.1,
    "road_access_score": 0.8,
    "road_density_km_km2": 0.77,
    "robustness_pct": 0.0,
    "runoff_coeff_C": 0.0588,
    "seasonal_cv": 0.394,
    "segment_id": 4,
    "segment_length_m": 310.868,
    "stream_order": 3,
    "superfund_score": 0.0058,
    "tourism_amenity_density": 0.3979,
    "tri_facility_density": 0.0,
    "usgs_mean_q_cfs": 1.075,
    "velocity_feasibility": 0.7,
    "water_intake_score": 1.2961
   },
   "type": "Feature"
  },
  {
   "geometry": {
    "coordinates": [
     -79.597098,
     36.088398
    ],
    "type": "Point"
   },
   "properties": {
    "accumulation": 21165.0,
    "bank_slope_deg": 15.7,
    "bank_slope_score": 0.5,
    "bank_slope_source": "nc-dps-lidar-dem03-cross-section",
    "beach_dist_km": 265.73,
    "bridge_proximity_bonus": 0.0,
    "catchment_area_km2": 2.109,
    "channel_width_m": 4.25,
    "channel_width_score": 1.0,
    "composite_score": 22.7203,
    "cso_density": 0.0,
    "ej_index": 0.3823,
    "elevation_m": 180.5094,
    "estuary_dist_km": 340.94,
    "feasibility_score": 17.8571,
    "flood_q10_cfs": 334.15,
    "flow_score": 7.5103,
    "flow_velocity_ms": 0.0972,
    "generation_score": 23.0855,
    "impact_score": 37.4618,
    "impervious_pct": 1.35,
    "land_ownership": 0.5,
    "lat": 36.0884,
    "litter_complaint_density": 0.0,
    "lon": -79.5971,
    "navigable_dist_m": null,
    "npdes_points": 1,
    "pixel_col": 66.0,
    "pixel_row": 191.0,
    "population_density": 362.1,
    "position_along": 0.5,
    "protected_area_score": 14.4762,
    "rank": 10,
    "road_access_m": 411.3,
    "road_access_score": 0.8,
    "road_density_km_km2": 0.534,
    "robustness_pct": 0.0,
    "runoff_coeff_C": 0.0622,
    "seasonal_cv": 0.4065,
    "segment_id": 1,
    "segment_length_m": 418.9599,
    "stream_order": 3,
    "superfund_score": 0.0059,
    "tourism_amenity_density": 0.3979,
    "tri_facility_density": 0.0,
    "usgs_mean_q_cfs": 8.918,
    "velocity_feasibility": 0.7,
    "water_intake_score": 1.2936
   },
   "type": "Feature"
  }
 ],
 "note": "GRIME region 'Whitsett, NC' \u2014 real-data pipeline (DEM\u2192streams\u2192candidates\u2192stream mask (sites confined to \u00b1150 m of mapped OSM/NHD waterways)\u2192region-appropriate real parameters\u2192shipped scoring, math unchanged). Width curve: Bieger et al. 2015 JAWRA Table 3, Appalachian Highlands. Flood: SIR 2014-5030 HR1. NC Piedmont (DEQ physiography polygon)",
 "provenance": {
  "candidates_pre_gate": 10,
  "constant": [
   "bridge_proximity_bonus",
   "channel_width_score",
   "cso_density",
   "litter_complaint_density",
   "stream_order",
   "tri_facility_density"
  ],
  "gated_navigable": 0,
  "hard_gate_removed": 0,
  "n_parameters": 27,
  "parameters": {
   "bank_slope_score": {
    "kind": "real",
    "n_3dep_10m_fallback": 0,
    "n_nc_lidar_3_125ft": 10,
    "n_real": 10,
    "n_sites": 10,
    "source": "NC OneMap / NC DPS DEM03 statewide lidar-derived 3.125-ft (0.953 m) elevations (perpendicular 50 m transect; robust 5 m bank-rise metric); unavailable profiles use the region 10 m 3DEP DEM-gradient fallback",
    "source_mosaics": [
     "Guilford_QL1_2024_03ft_CountywideRaster"
    ]
   },
   "beach_dist_km": {
    "kind": "real",
    "n_real": 10,
    "n_sites": 10,
    "source": "haversine to region ref: Wrightsville Beach (shipped NC reference)"
   },
   "bridge_proximity_bonus": {
    "kind": "real",
    "n_real": 10,
    "n_sites": 10,
    "source": "FHWA/BTS NBI (NTAD), 50 m proximity"
   },
   "catchment_area_km2": {
    "kind": "real",
    "n_real": 10,
    "n_sites": 10,
    "source": "DEM flow accumulation (pipeline)"
   },
   "channel_width_score": {
    "kind": "real",
    "n_real": 10,
    "n_sites": 10,
    "source": "Bieger 2015 AHI width curve on DEM drainage area \u2192 shipped width curve"
   },
   "cso_density": {
    "kind": "real",
    "n_real": 10,
    "n_sites": 10,
    "source": "EPA ECHO open CSO/TCS outfall PF coordinates states=NC, Cauchy proximity"
   },
   "ej_index": {
    "kind": "real",
    "n_real": 10,
    "n_sites": 10,
    "source": "Census ACS C17002+B03002 two-component demographic index, percentile-ranked within region"
   },
   "estuary_dist_km": {
    "kind": "real",
    "n_real": 10,
    "n_sites": 10,
    "source": "haversine to region ref: Pamlico Sound (shipped NC reference)"
   },
   "flood_q10_cfs": {
    "impervious_fallback_reason": "StreamCat imperviousness unavailable; the existing regression-input fallback of 0.0% impervious was used and is disclosed here",
    "kind": "real",
    "n_impervious_fallback": 1,
    "n_real": 10,
    "n_sites": 10,
    "source": "USGS SIR 2014-5030 Table 7 HR1 (NC Piedmont)"
   },
   "flow_velocity_ms": {
    "fallback_reason": "EROM/DEM continuity input unavailable; shipped 0.5 m/s default used",
    "kind": "real",
    "n_fallback": 1,
    "n_real": 9,
    "n_sites": 10,
    "source": "Manning (region DEM/D8) blended with EROM continuity (shipped M4 logic)"
   },
   "impervious_pct": {
    "fallback_reason": "NLDI/StreamCat did not return a snap-compatible catchment value; value remains null and is removed by constant-column handling",
    "kind": "real",
    "n_fallback": 1,
    "n_real": 9,
    "n_sites": 10,
    "source": "EPA StreamCat pctimp2019 (per NHDPlus watershed)"
   },
   "land_ownership": {
    "kind": "real",
    "n_fallback": 0,
    "n_real": 10,
    "n_sites": 10,
    "source": "NC OneMap statewide parcels (NC Parcels Transformer) ownname"
   },
   "litter_complaint_density": {
    "kind": "fallback",
    "n_real": 0,
    "n_sites": 10,
    "source": "no public machine-readable litter/illegal-dumping feed for this region"
   },
   "navigable_dist_m": {
    "kind": "real",
    "n_real": 10,
    "n_sites": 10,
    "source": "USACE/BTS NWN (NTAD): no navigable segment within this bbox (+2 km) \u2014 computed absence, gate passes all sites"
   },
   "npdes_points": {
    "kind": "real",
    "n_real": 10,
    "n_sites": 10,
    "source": "EPA ECHO active NPDES outfalls states=NC (types NPD/GPC/NGP; statuses ADC/EFF/EXP), per catchment"
   },
   "population_density": {
    "kind": "real",
    "n_real": 10,
    "n_sites": 10,
    "source": "Census ACS 2022 B01003 block groups (bbox, multi-county), area-weighted"
   },
   "protected_area_score": {
    "kind": "real",
    "n_real": 10,
    "n_sites": 10,
    "source": "USGS PAD-US 4.1 state GDB; states=NC; shipped designation-weighted proximity curve"
   },
   "road_access_score": {
    "kind": "real",
    "n_real": 10,
    "n_sites": 10,
    "source": "OSM drive network nearest-node distance"
   },
   "road_density_km_km2": {
    "kind": "real",
    "n_real": 10,
    "n_sites": 10,
    "source": "OSM drive network (osmnx, cached) clipped per catchment"
   },
   "runoff_coeff_C": {
    "fallback_reason": "source impervious_pct was unavailable; derived value remains null",
    "kind": "real",
    "n_fallback": 1,
    "n_real": 9,
    "n_sites": 10,
    "source": "derived from real impervious_pct (C=0.05+0.009*I)"
   },
   "seasonal_cv": {
    "fallback_reason": "NHDPlus monthly EROM was unavailable or failed the drainage-area snap guard; value remains null",
    "kind": "real",
    "n_fallback": 1,
    "n_real": 9,
    "n_sites": 10,
    "source": "CV of NHDPlus EROM monthly flows per COMID"
   },
   "stream_order": {
    "kind": "real",
    "n_real": 10,
    "n_sites": 10,
    "source": "DEM stream-network confluence heuristic (pipeline)"
   },
   "superfund_score": {
    "kind": "real",
    "n_real": 10,
    "n_sites": 10,
    "source": "EPA DataMap SEMS active sites states=NC (non-archived, georeferenced), shipped 500 m inverse-distance curve"
   },
   "tourism_amenity_density": {
    "kind": "real",
    "n_real": 10,
    "n_sites": 10,
    "source": "OSM leisure/tourism features per 2 km radius"
   },
   "tri_facility_density": {
    "kind": "real",
    "n_real": 10,
    "n_sites": 10,
    "source": "EPA DataMap TRI open facilities states=NC (preferred decimal or packed-DMS recovery), per catchment"
   },
   "usgs_mean_q_cfs": {
    "fallback_reason": "NHDPlus EROM was unavailable or failed the drainage-area snap guard; value remains null",
    "kind": "real",
    "n_fallback": 1,
    "n_real": 9,
    "n_sites": 10,
    "source": "NHDPlus EROM qe_ma per COMID (snap-guarded)"
   },
   "velocity_feasibility": {
    "fallback_reason": "derived from the shipped 0.5 m/s velocity fallback",
    "kind": "real",
    "n_fallback": 1,
    "n_real": 9,
    "n_sites": 10,
    "source": "shipped step curve on the computed velocity"
   },
   "velocity_transport_favorability": {
    "fallback_reason": "EROM/DEM continuity input unavailable; shipped 0.5 m/s default used",
    "kind": "derived",
    "n_fallback": 1,
    "n_real": 9,
    "n_sites": 10,
    "source": "scored form of flow_velocity_ms inside the Flow family \u2014 peaked Gaussian exp(-((v-0.9)/0.6)^2), model.json curves.velocity_transport_favorability; construct: transport/delivery favorability, deliberately distinct from velocity_feasibility (device operability)"
   },
   "water_intake_score": {
    "kind": "real",
    "n_real": 10,
    "n_sites": 10,
    "source": "NC OneMap / NC DEQ SWAP public water supply sources (source_typ='Surface Water'), shipped exp(-d/10km) curve"
   }
  },
  "stream_mask": {
   "buffer_m": 150.0,
   "pre_mask": 10,
   "removed": 0,
   "sources": [
    "osm-overpass (all waterway ways)",
    "usgs-nhdplus flowlines"
   ]
  },
  "varying": [
   "bank_slope_score",
   "beach_dist_km",
   "catchment_area_km2",
   "ej_index",
   "estuary_dist_km",
   "flood_q10_cfs",
   "flow_velocity_ms",
   "impervious_pct",
   "land_ownership",
   "npdes_points",
   "population_density",
   "protected_area_score",
   "road_access_score",
   "road_density_km_km2",
   "runoff_coeff_C",
   "seasonal_cv",
   "superfund_score",
   "tourism_amenity_density",
   "usgs_mean_q_cfs",
   "velocity_feasibility",
   "water_intake_score"
  ]
 },
 "region": {
  "bbox": [
   -79.6041,
   36.0535,
   -79.5406,
   36.1048
  ],
  "beach_ref": {
   "label": "Wrightsville Beach (shipped NC reference)",
   "lat": 34.21,
   "lon": -77.79
  },
  "center": [
   -79.572345,
   36.07918
  ],
  "estuary_ref": {
   "label": "Pamlico Sound (shipped NC reference)",
   "lat": 35.05,
   "lon": -76.05
  },
  "flood_method": "sir2014_hr1",
  "name": "Whitsett, NC",
  "notes": "NC Piedmont (DEQ physiography polygon)",
  "slug": "whitsett",
  "state": "NC",
  "utm_epsg": 32617,
  "width_curve": {
   "a": 3.12,
   "b": 0.415,
   "code": "AHI",
   "source": "Bieger et al. 2015 JAWRA Table 3, Appalachian Highlands"
  }
 },
 "type": "FeatureCollection"
}
