{
 "features": [
  {
   "geometry": {
    "coordinates": [
     -81.157935,
     36.153078
    ],
    "type": "Point"
   },
   "properties": {
    "accumulation": 390832.0,
    "bank_slope_deg": 7.45,
    "bank_slope_score": 1.0,
    "bank_slope_source": "nc-dps-lidar-dem03-cross-section",
    "beach_dist_km": 374.62,
    "bridge_proximity_bonus": 0.0,
    "catchment_area_km2": 38.9831,
    "channel_width_m": 14.27,
    "channel_width_score": 1.0,
    "composite_score": 65.279,
    "cso_density": 0.0,
    "ej_index": 0.701,
    "elevation_m": 287.9625,
    "estuary_dist_km": 477.76,
    "feasibility_score": 60.7143,
    "flood_q10_cfs": 2173.23,
    "flow_score": 67.4419,
    "flow_velocity_ms": 0.5,
    "generation_score": 50.5381,
    "impact_score": 80.4999,
    "impervious_pct": null,
    "land_ownership": 0.5,
    "lat": 36.1531,
    "litter_complaint_density": 0.0,
    "lon": -81.1579,
    "navigable_dist_m": null,
    "npdes_points": 6,
    "pixel_col": 630.0,
    "pixel_row": 339.0,
    "population_density": 207.0,
    "position_along": 0.75,
    "protected_area_score": 5.2411,
    "rank": 1,
    "road_access_m": 223.5,
    "road_access_score": 0.8,
    "road_density_km_km2": 4.423,
    "robustness_pct": 99.5,
    "runoff_coeff_C": null,
    "seasonal_cv": null,
    "segment_id": 16,
    "segment_length_m": 3737.1118,
    "stream_order": 3,
    "superfund_score": 0.0,
    "tourism_amenity_density": 4.5359,
    "tri_facility_density": 0.2309,
    "usgs_mean_q_cfs": null,
    "velocity_feasibility": 1.0,
    "water_intake_score": 1.987
   },
   "type": "Feature"
  },
  {
   "geometry": {
    "coordinates": [
     -81.15168,
     36.144756
    ],
    "type": "Point"
   },
   "properties": {
    "accumulation": 144601.0,
    "bank_slope_deg": 12.59,
    "bank_slope_score": 1.0,
    "bank_slope_source": "nc-dps-lidar-dem03-cross-section",
    "beach_dist_km": 373.64,
    "bridge_proximity_bonus": 0.0,
    "catchment_area_km2": 14.423,
    "channel_width_m": 9.44,
    "channel_width_score": 1.0,
    "composite_score": 64.8072,
    "cso_density": 0.0,
    "ej_index": 0.66,
    "elevation_m": 294.0789,
    "estuary_dist_km": 477.0,
    "feasibility_score": 66.3265,
    "flood_q10_cfs": 1353.7,
    "flow_score": 40.0042,
    "flow_velocity_ms": 0.1259,
    "generation_score": 70.4063,
    "impact_score": 79.1176,
    "impervious_pct": 5.6,
    "land_ownership": 0.5,
    "lat": 36.1448,
    "litter_complaint_density": 0.0,
    "lon": -81.1517,
    "navigable_dist_m": null,
    "npdes_points": 3,
    "pixel_col": 685.0,
    "pixel_row": 428.0,
    "population_density": 244.8,
    "position_along": 0.75,
    "protected_area_score": 5.3432,
    "rank": 2,
    "road_access_m": 99.9,
    "road_access_score": 1.0,
    "road_density_km_km2": 5.809,
    "robustness_pct": 100.0,
    "runoff_coeff_C": 0.1004,
    "seasonal_cv": 0.3576,
    "segment_id": 14,
    "segment_length_m": 3306.6593,
    "stream_order": 3,
    "superfund_score": 0.0,
    "tourism_amenity_density": 4.6951,
    "tri_facility_density": 0.416,
    "usgs_mean_q_cfs": 23.95,
    "velocity_feasibility": 0.7,
    "water_intake_score": 1.8832
   },
   "type": "Feature"
  },
  {
   "geometry": {
    "coordinates": [
     -81.148033,
     36.153825
    ],
    "type": "Point"
   },
   "properties": {
    "accumulation": 106087.0,
    "bank_slope_deg": 31.23,
    "bank_slope_score": 0.2,
    "bank_slope_source": "nc-dps-lidar-dem03-cross-section",
    "beach_dist_km": 373.93,
    "bridge_proximity_bonus": 0.0,
    "catchment_area_km2": 10.5815,
    "channel_width_m": 8.31,
    "channel_width_score": 1.0,
    "composite_score": 61.8595,
    "cso_density": 0.0,
    "ej_index": 0.6541,
    "elevation_m": 287.9852,
    "estuary_dist_km": 476.91,
    "feasibility_score": 64.2857,
    "flood_q10_cfs": 1055.4,
    "flow_score": 41.3228,
    "flow_velocity_ms": 0.5,
    "generation_score": 59.5168,
    "impact_score": 80.1031,
    "impervious_pct": null,
    "land_ownership": 0.5,
    "lat": 36.1538,
    "litter_complaint_density": 0.0,
    "lon": -81.148,
    "navigable_dist_m": null,
    "npdes_points": 1,
    "pixel_col": 719.0,
    "pixel_row": 331.0,
    "population_density": 274.8,
    "position_along": 0.75,
    "protected_area_score": 5.3041,
    "rank": 3,
    "road_access_m": 155.5,
    "road_access_score": 1.0,
    "road_density_km_km2": 5.795,
    "robustness_pct": 93.5,
    "runoff_coeff_C": null,
    "seasonal_cv": null,
    "segment_id": 2,
    "segment_length_m": 4239.8474,
    "stream_order": 3,
    "superfund_score": 0.0,
    "tourism_amenity_density": 5.4113,
    "tri_facility_density": 0.4725,
    "usgs_mean_q_cfs": null,
    "velocity_feasibility": 1.0,
    "water_intake_score": 1.9104
   },
   "type": "Feature"
  },
  {
   "geometry": {
    "coordinates": [
     -81.137143,
     36.148463
    ],
    "type": "Point"
   },
   "properties": {
    "accumulation": 58176.0,
    "bank_slope_deg": 9.05,
    "bank_slope_score": 1.0,
    "bank_slope_source": "nc-dps-lidar-dem03-cross-section",
    "beach_dist_km": 372.79,
    "bridge_proximity_bonus": 0.0,
    "catchment_area_km2": 5.8027,
    "channel_width_m": 6.47,
    "channel_width_score": 1.0,
    "composite_score": 60.4708,
    "cso_density": 0.0,
    "ej_index": 0.7662,
    "elevation_m": 291.1829,
    "estuary_dist_km": 475.82,
    "feasibility_score": 87.7551,
    "flood_q10_cfs": 745.11,
    "flow_score": 21.7001,
    "flow_velocity_ms": 0.1505,
    "generation_score": 53.211,
    "impact_score": 86.3973,
    "impervious_pct": 3.59,
    "land_ownership": 1.0,
    "lat": 36.1485,
    "litter_complaint_density": 0.0,
    "lon": -81.1371,
    "navigable_dist_m": null,
    "npdes_points": 0,
    "pixel_col": 815.0,
    "pixel_row": 387.0,
    "population_density": 216.1,
    "position_along": 0.75,
    "protected_area_score": 5.3057,
    "rank": 4,
    "road_access_m": 197.1,
    "road_access_score": 1.0,
    "road_density_km_km2": 3.173,
    "robustness_pct": 64.0,
    "runoff_coeff_C": 0.0823,
    "seasonal_cv": 0.3883,
    "segment_id": 6,
    "segment_length_m": 4318.9133,
    "stream_order": 3,
    "superfund_score": 0.0,
    "tourism_amenity_density": 5.2521,
    "tri_facility_density": 0.517,
    "usgs_mean_q_cfs": 11.527,
    "velocity_feasibility": 0.7,
    "water_intake_score": 1.7627
   },
   "type": "Feature"
  },
  {
   "geometry": {
    "coordinates": [
     -81.153211,
     36.132903
    ],
    "type": "Point"
   },
   "properties": {
    "accumulation": 106115.0,
    "bank_slope_deg": 0.1,
    "bank_slope_score": 1.0,
    "bank_slope_source": "nc-dps-lidar-dem03-cross-section",
    "beach_dist_km": 373.01,
    "bridge_proximity_bonus": 0.0,
    "catchment_area_km2": 10.5843,
    "channel_width_m": 8.31,
    "channel_width_score": 1.0,
    "composite_score": 58.0566,
    "cso_density": 0.0,
    "ej_index": 0.5998,
    "elevation_m": 302.905,
    "estuary_dist_km": 476.83,
    "feasibility_score": 66.3265,
    "flood_q10_cfs": 1140.46,
    "flow_score": 34.0965,
    "flow_velocity_ms": 0.0579,
    "generation_score": 67.854,
    "impact_score": 64.0911,
    "impervious_pct": 5.6,
    "land_ownership": 0.5,
    "lat": 36.1329,
    "litter_complaint_density": 0.0,
    "lon": -81.1532,
    "navigable_dist_m": null,
    "npdes_points": 2,
    "pixel_col": 671.0,
    "pixel_row": 560.0,
    "population_density": 223.3,
    "position_along": 0.25,
    "protected_area_score": 5.1746,
    "rank": 5,
    "road_access_m": 159.1,
    "road_access_score": 1.0,
    "road_density_km_km2": 5.765,
    "robustness_pct": 49.0,
    "runoff_coeff_C": 0.1004,
    "seasonal_cv": 0.3576,
    "segment_id": 14,
    "segment_length_m": 3306.6593,
    "stream_order": 3,
    "superfund_score": 0.0,
    "tourism_amenity_density": 3.0239,
    "tri_facility_density": 0.4724,
    "usgs_mean_q_cfs": 23.95,
    "velocity_feasibility": 0.7,
    "water_intake_score": 1.765
   },
   "type": "Feature"
  },
  {
   "geometry": {
    "coordinates": [
     -81.175801,
     36.151871
    ],
    "type": "Point"
   },
   "properties": {
    "accumulation": 361627.0,
    "bank_slope_deg": 21.94,
    "bank_slope_score": 0.5,
    "bank_slope_source": "nc-dps-lidar-dem03-cross-section",
    "beach_dist_km": 375.87,
    "bridge_proximity_bonus": 0.0,
    "catchment_area_km2": 36.07,
    "channel_width_m": 13.82,
    "channel_width_score": 1.0,
    "composite_score": 58.0312,
    "cso_density": 0.0,
    "ej_index": 0.6218,
    "elevation_m": 288.6772,
    "estuary_dist_km": 479.29,
    "feasibility_score": 69.6429,
    "flood_q10_cfs": 2081.72,
    "flow_score": 64.9686,
    "flow_velocity_ms": 0.5,
    "generation_score": 45.819,
    "impact_score": 58.6562,
    "impervious_pct": null,
    "land_ownership": 0.5,
    "lat": 36.1519,
    "litter_complaint_density": 0.0,
    "lon": -81.1758,
    "navigable_dist_m": null,
    "npdes_points": 5,
    "pixel_col": 469.0,
    "pixel_row": 351.0,
    "population_density": 204.1,
    "position_along": 0.25,
    "protected_area_score": 4.9158,
    "rank": 6,
    "road_access_m": 142.3,
    "road_access_score": 1.0,
    "road_density_km_km2": 4.348,
    "robustness_pct": 47.5,
    "runoff_coeff_C": null,
    "seasonal_cv": null,
    "segment_id": 16,
    "segment_length_m": 3737.1118,
    "stream_order": 3,
    "superfund_score": 0.0,
    "tourism_amenity_density": 2.5465,
    "tri_facility_density": 0.1941,
    "usgs_mean_q_cfs": null,
    "velocity_feasibility": 1.0,
    "water_intake_score": 2.0068
   },
   "type": "Feature"
  },
  {
   "geometry": {
    "coordinates": [
     -81.179457,
     36.144764
    ],
    "type": "Point"
   },
   "properties": {
    "accumulation": 249660.0,
    "bank_slope_deg": 14.81,
    "bank_slope_score": 1.0,
    "bank_slope_source": "nc-dps-lidar-dem03-cross-section",
    "beach_dist_km": 375.7,
    "bridge_proximity_bonus": 0.0,
    "catchment_area_km2": 24.902,
    "channel_width_m": 11.85,
    "channel_width_score": 1.0,
    "composite_score": 56.365,
    "cso_density": 0.0,
    "ej_index": 0.6384,
    "elevation_m": 290.1328,
    "estuary_dist_km": 479.43,
    "feasibility_score": 78.5714,
    "flood_q10_cfs": 1695.49,
    "flow_score": 55.1722,
    "flow_velocity_ms": 0.5,
    "generation_score": 38.7949,
    "impact_score": 63.8258,
    "impervious_pct": null,
    "land_ownership": 0.5,
    "lat": 36.1448,
    "litter_complaint_density": 0.0,
    "lon": -81.1795,
    "navigable_dist_m": null,
    "npdes_points": 3,
    "pixel_col": 436.0,
    "pixel_row": 430.0,
    "population_density": 174.6,
    "position_along": 0.5,
    "protected_area_score": 4.9498,
    "rank": 7,
    "road_access_m": 91.2,
    "road_access_score": 1.0,
    "road_density_km_km2": 4.071,
    "robustness_pct": 23.0,
    "runoff_coeff_C": null,
    "seasonal_cv": null,
    "segment_id": 11,
    "segment_length_m": 356.8212,
    "stream_order": 3,
    "superfund_score": 0.0,
    "tourism_amenity_density": 3.8197,
    "tri_facility_density": 0.2409,
    "usgs_mean_q_cfs": null,
    "velocity_feasibility": 1.0,
    "water_intake_score": 2.0201
   },
   "type": "Feature"
  },
  {
   "geometry": {
    "coordinates": [
     -81.134172,
     36.163497
    ],
    "type": "Point"
   },
   "properties": {
    "accumulation": 198604.0,
    "bank_slope_deg": 13.33,
    "bank_slope_score": 1.0,
    "bank_slope_source": "nc-dps-lidar-dem03-cross-section",
    "beach_dist_km": 373.52,
    "bridge_proximity_bonus": 0.0,
    "catchment_area_km2": 19.8095,
    "channel_width_m": 10.77,
    "channel_width_score": 1.0,
    "composite_score": 55.6843,
    "cso_density": 0.0,
    "ej_index": 0.7561,
    "elevation_m": 285.3882,
    "estuary_dist_km": 475.95,
    "feasibility_score": 60.7143,
    "flood_q10_cfs": 1493.68,
    "flow_score": 50.4767,
    "flow_velocity_ms": 0.5,
    "generation_score": 35.765,
    "impact_score": 77.4281,
    "impervious_pct": null,
    "land_ownership": 0.5,
    "lat": 36.1635,
    "litter_complaint_density": 0.0,
    "lon": -81.1342,
    "navigable_dist_m": null,
    "npdes_points": 2,
    "pixel_col": 842.0,
    "pixel_row": 220.0,
    "population_density": 201.1,
    "position_along": 0.5,
    "protected_area_score": 5.2032,
    "rank": 8,
    "road_access_m": 229.9,
    "road_access_score": 0.8,
    "road_density_km_km2": 3.407,
    "robustness_pct": 23.5,
    "runoff_coeff_C": null,
    "seasonal_cv": null,
    "segment_id": 7,
    "segment_length_m": 2769.6531,
    "stream_order": 3,
    "superfund_score": 0.0,
    "tourism_amenity_density": 3.581,
    "tri_facility_density": 0.2019,
    "usgs_mean_q_cfs": null,
    "velocity_feasibility": 1.0,
    "water_intake_score": 1.7405
   },
   "type": "Feature"
  },
  {
   "geometry": {
    "coordinates": [
     -81.162026,
     36.165032
    ],
    "type": "Point"
   },
   "properties": {
    "accumulation": 78292.0,
    "bank_slope_deg": 9.38,
    "bank_slope_score": 1.0,
    "bank_slope_source": "nc-dps-lidar-dem03-cross-section",
    "beach_dist_km": 375.67,
    "bridge_proximity_bonus": 0.0,
    "catchment_area_km2": 7.8091,
    "channel_width_m": 7.32,
    "channel_width_score": 1.0,
    "composite_score": 48.3649,
    "cso_density": 0.0,
    "ej_index": 0.6726,
    "elevation_m": 297.2632,
    "estuary_dist_km": 478.42,
    "feasibility_score": 60.7143,
    "flood_q10_cfs": 891.93,
    "flow_score": 38.2899,
    "flow_velocity_ms": 0.5,
    "generation_score": 35.0432,
    "impact_score": 63.9079,
    "impervious_pct": null,
    "land_ownership": 0.5,
    "lat": 36.165,
    "litter_complaint_density": 0.0,
    "lon": -81.162,
    "navigable_dist_m": null,
    "npdes_points": 2,
    "pixel_col": 594.0,
    "pixel_row": 207.0,
    "population_density": 247.2,
    "position_along": 0.25,
    "protected_area_score": 4.9814,
    "rank": 9,
    "road_access_m": 295.4,
    "road_access_score": 0.8,
    "road_density_km_km2": 4.657,
    "robustness_pct": 0.0,
    "runoff_coeff_C": null,
    "seasonal_cv": null,
    "segment_id": 2,
    "segment_length_m": 4239.8474,
    "stream_order": 3,
    "superfund_score": 0.0,
    "tourism_amenity_density": 1.9894,
    "tri_facility_density": 0.0,
    "usgs_mean_q_cfs": null,
    "velocity_feasibility": 1.0,
    "water_intake_score": 1.9819
   },
   "type": "Feature"
  },
  {
   "geometry": {
    "coordinates": [
     -81.187389,
     36.150785
    ],
    "type": "Point"
   },
   "properties": {
    "accumulation": 64225.0,
    "bank_slope_deg": 36.27,
    "bank_slope_score": 0.2,
    "bank_slope_source": "nc-dps-lidar-dem03-cross-section",
    "beach_dist_km": 376.67,
    "bridge_proximity_bonus": 0.0,
    "catchment_area_km2": 6.406,
    "channel_width_m": 6.74,
    "channel_width_score": 1.0,
    "composite_score": 47.3981,
    "cso_density": 0.0,
    "ej_index": 0.7543,
    "elevation_m": 304.28,
    "estuary_dist_km": 480.27,
    "feasibility_score": 52.0408,
    "flood_q10_cfs": 936.43,
    "flow_score": 25.5594,
    "flow_velocity_ms": 0.2416,
    "generation_score": 48.977,
    "impact_score": 61.6966,
    "impervious_pct": 12.39,
    "land_ownership": 0.5,
    "lat": 36.1508,
    "litter_complaint_density": 0.0,
    "lon": -81.1874,
    "navigable_dist_m": null,
    "npdes_points": 1,
    "pixel_col": 365.0,
    "pixel_row": 363.0,
    "population_density": 174.9,
    "position_along": 0.75,
    "protected_area_score": 4.8247,
    "rank": 10,
    "road_access_m": 189.2,
    "road_access_score": 1.0,
    "road_density_km_km2": 4.225,
    "robustness_pct": 0.0,
    "runoff_coeff_C": 0.1615,
    "seasonal_cv": 0.4608,
    "segment_id": 3,
    "segment_length_m": 4351.4199,
    "stream_order": 3,
    "superfund_score": 0.0,
    "tourism_amenity_density": 3.8197,
    "tri_facility_density": 0.0,
    "usgs_mean_q_cfs": 5.917,
    "velocity_feasibility": 0.7,
    "water_intake_score": 1.913
   },
   "type": "Feature"
  },
  {
   "geometry": {
    "coordinates": [
     -81.178307,
     36.137693
    ],
    "type": "Point"
   },
   "properties": {
    "accumulation": 89753.0,
    "bank_slope_deg": 32.4,
    "bank_slope_score": 0.2,
    "bank_slope_source": "nc-dps-lidar-dem03-cross-section",
    "beach_dist_km": 375.18,
    "bridge_proximity_bonus": 0.0,
    "catchment_area_km2": 8.9523,
    "channel_width_m": 7.75,
    "channel_width_score": 1.0,
    "composite_score": 45.5511,
    "cso_density": 0.0,
    "ej_index": 0.5453,
    "elevation_m": 293.9732,
    "estuary_dist_km": 479.15,
    "feasibility_score": 52.0408,
    "flood_q10_cfs": 994.48,
    "flow_score": 44.9347,
    "flow_velocity_ms": 0.1391,
    "generation_score": 33.7816,
    "impact_score": 54.5893,
    "impervious_pct": 2.4,
    "land_ownership": 0.5,
    "lat": 36.1377,
    "litter_complaint_density": 0.0,
    "lon": -81.1783,
    "navigable_dist_m": null,
    "npdes_points": 0,
    "pixel_col": 446.0,
    "pixel_row": 506.0,
    "population_density": 134.8,
    "position_along": 0.8333,
    "protected_area_score": 4.9596,
    "rank": 11,
    "road_access_m": 147.1,
    "road_access_score": 1.0,
    "road_density_km_km2": 5.23,
    "robustness_pct": 0.0,
    "runoff_coeff_C": 0.0716,
    "seasonal_cv": 0.3337,
    "segment_id": 15,
    "segment_length_m": 5889.5673,
    "stream_order": 3,
    "superfund_score": 0.0,
    "tourism_amenity_density": 4.0585,
    "tri_facility_density": 0.2234,
    "usgs_mean_q_cfs": 43.668,
    "velocity_feasibility": 0.7,
    "water_intake_score": 1.9098
   },
   "type": "Feature"
  },
  {
   "geometry": {
    "coordinates": [
     -81.140862,
     36.135604
    ],
    "type": "Point"
   },
   "properties": {
    "accumulation": 33570.0,
    "bank_slope_deg": 14.68,
    "bank_slope_score": 1.0,
    "bank_slope_source": "nc-dps-lidar-dem03-cross-section",
    "beach_dist_km": 372.26,
    "bridge_proximity_bonus": 0.0,
    "catchment_area_km2": 3.3484,
    "channel_width_m": 5.15,
    "channel_width_score": 1.0,
    "composite_score": 44.416,
    "cso_density": 0.0,
    "ej_index": 0.6769,
    "elevation_m": 301.4833,
    "estuary_dist_km": 475.82,
    "feasibility_score": 66.3265,
    "flood_q10_cfs": 485.16,
    "flow_score": 14.2609,
    "flow_velocity_ms": 0.1433,
    "generation_score": 34.9226,
    "impact_score": 68.0834,
    "impervious_pct": 2.75,
    "land_ownership": 0.5,
    "lat": 36.1356,
    "litter_complaint_density": 0.0,
    "lon": -81.1409,
    "navigable_dist_m": null,
    "npdes_points": 2,
    "pixel_col": 782.0,
    "pixel_row": 530.0,
    "population_density": 211.0,
    "position_along": 0.25,
    "protected_area_score": 5.0805,
    "rank": 12,
    "road_access_m": 112.2,
    "road_access_score": 1.0,
    "road_density_km_km2": 3.952,
    "robustness_pct": 0.0,
    "runoff_coeff_C": 0.0747,
    "seasonal_cv": 0.4245,
    "segment_id": 6,
    "segment_length_m": 4318.9133,
    "stream_order": 3,
    "superfund_score": 0.0,
    "tourism_amenity_density": 2.7056,
    "tri_facility_density": 0.0,
    "usgs_mean_q_cfs": 7.487,
    "velocity_feasibility": 0.7,
    "water_intake_score": 1.7041
   },
   "type": "Feature"
  },
  {
   "geometry": {
    "coordinates": [
     -81.191477,
     36.145874
    ],
    "type": "Point"
   },
   "properties": {
    "accumulation": 159589.0,
    "bank_slope_deg": 14.16,
    "bank_slope_score": 1.0,
    "bank_slope_source": "nc-dps-lidar-dem03-cross-section",
    "beach_dist_km": 376.67,
    "bridge_proximity_bonus": 0.0,
    "catchment_area_km2": 15.918,
    "channel_width_m": 9.84,
    "channel_width_score": 1.0,
    "composite_score": 43.2055,
    "cso_density": 0.0,
    "ej_index": 0.637,
    "elevation_m": 290.6514,
    "estuary_dist_km": 480.5,
    "feasibility_score": 60.7143,
    "flood_q10_cfs": 1323.26,
    "flow_score": 46.7445,
    "flow_velocity_ms": 0.5,
    "generation_score": 24.2702,
    "impact_score": 50.4372,
    "impervious_pct": null,
    "land_ownership": 0.5,
    "lat": 36.1459,
    "litter_complaint_density": 0.0,
    "lon": -81.1915,
    "navigable_dist_m": null,
    "npdes_points": 1,
    "pixel_col": 328.0,
    "pixel_row": 417.0,
    "population_density": 150.7,
    "position_along": 0.5,
    "protected_area_score": 4.827,
    "rank": 13,
    "road_access_m": 257.8,
    "road_access_score": 0.8,
    "road_density_km_km2": 3.442,
    "robustness_pct": 0.0,
    "runoff_coeff_C": null,
    "seasonal_cv": null,
    "segment_id": 10,
    "segment_length_m": 2098.9708,
    "stream_order": 3,
    "superfund_score": 0.0,
    "tourism_amenity_density": 3.8197,
    "tri_facility_density": 0.1256,
    "usgs_mean_q_cfs": null,
    "velocity_feasibility": 1.0,
    "water_intake_score": 1.8621
   },
   "type": "Feature"
  },
  {
   "geometry": {
    "coordinates": [
     -81.15864,
     36.119775
    ],
    "type": "Point"
   },
   "properties": {
    "accumulation": 45344.0,
    "bank_slope_deg": 4.76,
    "bank_slope_score": 1.0,
    "bank_slope_source": "nc-dps-lidar-dem03-cross-section",
    "beach_dist_km": 372.6,
    "bridge_proximity_bonus": 0.0,
    "catchment_area_km2": 4.5228,
    "channel_width_m": 5.84,
    "channel_width_score": 1.0,
    "composite_score": 39.0098,
    "cso_density": 0.0,
    "ej_index": 0.6447,
    "elevation_m": 307.1847,
    "estuary_dist_km": 476.98,
    "feasibility_score": 50.0,
    "flood_q10_cfs": 603.22,
    "flow_score": 19.5903,
    "flow_velocity_ms": 0.0486,
    "generation_score": 38.9365,
    "impact_score": 49.7711,
    "impervious_pct": 2.25,
    "land_ownership": 0.5,
    "lat": 36.1198,
    "litter_complaint_density": 0.0,
    "lon": -81.1586,
    "navigable_dist_m": null,
    "npdes_points": 0,
    "pixel_col": 621.0,
    "pixel_row": 705.0,
    "population_density": 222.4,
    "position_along": 0.5,
    "protected_area_score": 4.8334,
    "rank": 14,
    "road_access_m": 173.2,
    "road_access_score": 1.0,
    "road_density_km_km2": 3.571,
    "robustness_pct": 0.0,
    "runoff_coeff_C": 0.0703,
    "seasonal_cv": 0.3814,
    "segment_id": 13,
    "segment_length_m": 2373.299,
    "stream_order": 3,
    "superfund_score": 0.0,
    "tourism_amenity_density": 1.0345,
    "tri_facility_density": 0.2211,
    "usgs_mean_q_cfs": 16.734,
    "velocity_feasibility": 0.3,
    "water_intake_score": 1.609
   },
   "type": "Feature"
  },
  {
   "geometry": {
    "coordinates": [
     -81.148302,
     36.119303
    ],
    "type": "Point"
   },
   "properties": {
    "accumulation": 42418.0,
    "bank_slope_deg": 11.55,
    "bank_slope_score": 1.0,
    "bank_slope_source": "nc-dps-lidar-dem03-cross-section",
    "beach_dist_km": 371.8,
    "bridge_proximity_bonus": 0.0,
    "catchment_area_km2": 4.2309,
    "channel_width_m": 5.68,
    "channel_width_score": 1.0,
    "composite_score": 38.7866,
    "cso_density": 0.0,
    "ej_index": 0.5934,
    "elevation_m": 311.4666,
    "estuary_dist_km": 476.06,
    "feasibility_score": 66.3265,
    "flood_q10_cfs": 591.28,
    "flow_score": 13.5836,
    "flow_velocity_ms": 0.1597,
    "generation_score": 38.7662,
    "impact_score": 46.0394,
    "impervious_pct": 3.98,
    "land_ownership": 0.5,
    "lat": 36.1193,
    "litter_complaint_density": 0.0,
    "lon": -81.1483,
    "navigable_dist_m": null,
    "npdes_points": 2,
    "pixel_col": 714.0,
    "pixel_row": 711.0,
    "population_density": 226.6,
    "position_along": 0.5,
    "protected_area_score": 4.8091,
    "rank": 15,
    "road_access_m": 177.9,
    "road_access_score": 1.0,
    "road_density_km_km2": 3.778,
    "robustness_pct": 0.0,
    "runoff_coeff_C": 0.0858,
    "seasonal_cv": 0.4795,
    "segment_id": 12,
    "segment_length_m": 1972.2705,
    "stream_order": 3,
    "superfund_score": 0.0,
    "tourism_amenity_density": 0.6366,
    "tri_facility_density": 0.0,
    "usgs_mean_q_cfs": 4.235,
    "velocity_feasibility": 0.7,
    "water_intake_score": 1.5612
   },
   "type": "Feature"
  },
  {
   "geometry": {
    "coordinates": [
     -81.170254,
     36.172621
    ],
    "type": "Point"
   },
   "properties": {
    "accumulation": 22514.0,
    "bank_slope_deg": 18.2,
    "bank_slope_score": 0.5,
    "bank_slope_source": "nc-dps-lidar-dem03-cross-section",
    "beach_dist_km": 376.76,
    "bridge_proximity_bonus": 0.0,
    "catchment_area_km2": 2.2456,
    "channel_width_m": 4.36,
    "channel_width_score": 1.0,
    "composite_score": 38.0921,
    "cso_density": 0.0,
    "ej_index": 0.7063,
    "elevation_m": 297.6654,
    "estuary_dist_km": 479.34,
    "feasibility_score": 69.6429,
    "flood_q10_cfs": 342.16,
    "flow_score": 30.2326,
    "flow_velocity_ms": 0.5,
    "generation_score": 17.7764,
    "impact_score": 49.1821,
    "impervious_pct": null,
    "land_ownership": 0.5,
    "lat": 36.1726,
    "litter_complaint_density": 0.0,
    "lon": -81.1703,
    "navigable_dist_m": null,
    "npdes_points": 0,
    "pixel_col": 518.0,
    "pixel_row": 122.0,
    "population_density": 209.3,
    "position_along": 0.5,
    "protected_area_score": 4.7974,
    "rank": 16,
    "road_access_m": 196.9,
    "road_access_score": 1.0,
    "road_density_km_km2": 1.521,
    "robustness_pct": 0.0,
    "runoff_coeff_C": null,
    "seasonal_cv": null,
    "segment_id": 0,
    "segment_length_m": 490.7913,
    "stream_order": 3,
    "superfund_score": 0.0,
    "tourism_amenity_density": 0.1592,
    "tri_facility_density": 0.0,
    "usgs_mean_q_cfs": null,
    "velocity_feasibility": 1.0,
    "water_intake_score": 1.85
   },
   "type": "Feature"
  },
  {
   "geometry": {
    "coordinates": [
     -81.173496,
     36.169622
    ],
    "type": "Point"
   },
   "properties": {
    "accumulation": 29950.0,
    "bank_slope_deg": 5.46,
    "bank_slope_score": 1.0,
    "bank_slope_source": "nc-dps-lidar-dem03-cross-section",
    "beach_dist_km": 376.81,
    "bridge_proximity_bonus": 0.0,
    "catchment_area_km2": 2.9873,
    "channel_width_m": 4.91,
    "channel_width_score": 1.0,
    "composite_score": 35.2405,
    "cso_density": 0.0,
    "ej_index": 0.7397,
    "elevation_m": 301.4825,
    "estuary_dist_km": 479.54,
    "feasibility_score": 48.4694,
    "flood_q10_cfs": 458.62,
    "flow_score": 9.7686,
    "flow_velocity_ms": 0.1595,
    "generation_score": 31.2473,
    "impact_score": 53.8459,
    "impervious_pct": 4.45,
    "land_ownership": 0.5,
    "lat": 36.1696,
    "litter_complaint_density": 0.0,
    "lon": -81.1735,
    "navigable_dist_m": null,
    "npdes_points": 1,
    "pixel_col": 490.0,
    "pixel_row": 154.0,
    "population_density": 217.9,
    "position_along": 0.5,
    "protected_area_score": 4.8772,
    "rank": 17,
    "road_access_m": 257.8,
    "road_access_score": 0.8,
    "road_density_km_km2": 1.814,
    "robustness_pct": 0.0,
    "runoff_coeff_C": 0.09,
    "seasonal_cv": 0.522,
    "segment_id": 1,
    "segment_length_m": 710.9251,
    "stream_order": 3,
    "superfund_score": 0.0,
    "tourism_amenity_density": 0.1592,
    "tri_facility_density": 0.0,
    "usgs_mean_q_cfs": 2.263,
    "velocity_feasibility": 0.7,
    "water_intake_score": 1.873
   },
   "type": "Feature"
  },
  {
   "geometry": {
    "coordinates": [
     -81.202857,
     36.136155
    ],
    "type": "Point"
   },
   "properties": {
    "accumulation": 96120.0,
    "bank_slope_deg": 18.77,
    "bank_slope_score": 0.5,
    "bank_slope_source": "nc-dps-lidar-dem03-cross-section",
    "beach_dist_km": 376.92,
    "bridge_proximity_bonus": 0.0,
    "catchment_area_km2": 9.5874,
    "channel_width_m": 7.97,
    "channel_width_score": 1.0,
    "composite_score": 32.5722,
    "cso_density": 0.0,
    "ej_index": 0.587,
    "elevation_m": 291.6405,
    "estuary_dist_km": 481.25,
    "feasibility_score": 51.7857,
    "flood_q10_cfs": 999.27,
    "flow_score": 40.2574,
    "flow_velocity_ms": 0.5,
    "generation_score": 9.1725,
    "impact_score": 39.9607,
    "impervious_pct": null,
    "land_ownership": 0.5,
    "lat": 36.1362,
    "litter_complaint_density": 0.0,
    "lon": -81.2029,
    "navigable_dist_m": null,
    "npdes_points": 0,
    "pixel_col": 224.0,
    "pixel_row": 523.0,
    "population_density": 75.4,
    "position_along": 0.5,
    "protected_area_score": 5.0335,
    "rank": 18,
    "road_access_m": 281.5,
    "road_access_score": 0.8,
    "road_density_km_km2": 2.176,
    "robustness_pct": 0.0,
    "runoff_coeff_C": null,
    "seasonal_cv": null,
    "segment_id": 9,
    "segment_length_m": 1544.4136,
    "stream_order": 3,
    "superfund_score": 0.0,
    "tourism_amenity_density": 3.2627,
    "tri_facility_density": 0.1043,
    "usgs_mean_q_cfs": null,
    "velocity_feasibility": 1.0,
    "water_intake_score": 1.6671
   },
   "type": "Feature"
  },
  {
   "geometry": {
    "coordinates": [
     -81.199064,
     36.164307
    ],
    "type": "Point"
   },
   "properties": {
    "accumulation": 44257.0,
    "bank_slope_deg": 14.83,
    "bank_slope_score": 1.0,
    "bank_slope_source": "nc-dps-lidar-dem03-cross-section",
    "beach_dist_km": 378.38,
    "bridge_proximity_bonus": 0.0,
    "catchment_area_km2": 4.4144,
    "channel_width_m": 5.78,
    "channel_width_score": 1.0,
    "composite_score": 32.279,
    "cso_density": 0.0,
    "ej_index": 0.5141,
    "elevation_m": 338.7755,
    "estuary_dist_km": 481.64,
    "feasibility_score": 48.4694,
    "flood_q10_cfs": 707.29,
    "flow_score": 19.7217,
    "flow_velocity_ms": 0.1696,
    "generation_score": 50.7573,
    "impact_score": 16.1701,
    "impervious_pct": 12.39,
    "land_ownership": 0.5,
    "lat": 36.1643,
    "litter_complaint_density": 0.0,
    "lon": -81.1991,
    "navigable_dist_m": null,
    "npdes_points": 0,
    "pixel_col": 259.0,
    "pixel_row": 214.0,
    "population_density": 232.2,
    "position_along": 0.25,
    "protected_area_score": 4.5504,
    "rank": 19,
    "road_access_m": 331.7,
    "road_access_score": 0.8,
    "road_density_km_km2": 3.418,
    "robustness_pct": 0.0,
    "runoff_coeff_C": 0.1615,
    "seasonal_cv": 0.4608,
    "segment_id": 3,
    "segment_length_m": 4351.4199,
    "stream_order": 3,
    "superfund_score": 0.0,
    "tourism_amenity_density": 0.2387,
    "tri_facility_density": 0.0,
    "usgs_mean_q_cfs": 5.917,
    "velocity_feasibility": 0.7,
    "water_intake_score": 1.7139
   },
   "type": "Feature"
  },
  {
   "geometry": {
    "coordinates": [
     -81.216649,
     36.154023
    ],
    "type": "Point"
   },
   "properties": {
    "accumulation": 29456.0,
    "bank_slope_deg": 22.18,
    "bank_slope_score": 0.5,
    "bank_slope_source": "nc-dps-lidar-dem03-cross-section",
    "beach_dist_km": 379.05,
    "bridge_proximity_bonus": 0.0,
    "catchment_area_km2": 2.9381,
    "channel_width_m": 4.88,
    "channel_width_score": 1.0,
    "composite_score": 30.5261,
    "cso_density": 0.0,
    "ej_index": 0.6939,
    "elevation_m": 343.8911,
    "estuary_dist_km": 482.91,
    "feasibility_score": 39.5408,
    "flood_q10_cfs": 478.24,
    "flow_score": 15.8087,
    "flow_velocity_ms": 0.206,
    "generation_score": 40.6845,
    "impact_score": 28.1249,
    "impervious_pct": 7.56,
    "land_ownership": 0.5,
    "lat": 36.154,
    "litter_complaint_density": 0.0,
    "lon": -81.2166,
    "navigable_dist_m": null,
    "npdes_points": 0,
    "pixel_col": 101.0,
    "pixel_row": 328.0,
    "population_density": 241.3,
    "position_along": 0.25,
    "protected_area_score": 4.955,
    "rank": 20,
    "road_access_m": 496.8,
    "road_access_score": 0.8,
    "road_density_km_km2": 2.986,
    "robustness_pct": 0.0,
    "runoff_coeff_C": 0.118,
    "seasonal_cv": 0.4802,
    "segment_id": 4,
    "segment_length_m": 3202.3567,
    "stream_order": 3,
    "superfund_score": 0.0,
    "tourism_amenity_density": 0.3183,
    "tri_facility_density": 0.0,
    "usgs_mean_q_cfs": 5.893,
    "velocity_feasibility": 0.7,
    "water_intake_score": 1.5571
   },
   "type": "Feature"
  },
  {
   "geometry": {
    "coordinates": [
     -81.207406,
     36.143555
    ],
    "type": "Point"
   },
   "properties": {
    "accumulation": 45861.0,
    "bank_slope_deg": 12.42,
    "bank_slope_score": 1.0,
    "bank_slope_source": "nc-dps-lidar-dem03-cross-section",
    "beach_dist_km": 377.71,
    "bridge_proximity_bonus": 0.0,
    "catchment_area_km2": 4.5743,
    "channel_width_m": 5.86,
    "channel_width_score": 1.0,
    "composite_score": 28.6604,
    "cso_density": 0.0,
    "ej_index": 0.5546,
    "elevation_m": 299.3361,
    "estuary_dist_km": 481.84,
    "feasibility_score": 48.4694,
    "flood_q10_cfs": 667.64,
    "flow_score": 17.7897,
    "flow_velocity_ms": 0.1885,
    "generation_score": 23.6516,
    "impact_score": 32.8236,
    "impervious_pct": 7.56,
    "land_ownership": 0.5,
    "lat": 36.1436,
    "litter_complaint_density": 0.0,
    "lon": -81.2074,
    "navigable_dist_m": null,
    "npdes_points": 0,
    "pixel_col": 184.0,
    "pixel_row": 444.0,
    "population_density": 95.1,
    "position_along": 0.75,
    "protected_area_score": 4.9455,
    "rank": 21,
    "road_access_m": 246.4,
    "road_access_score": 0.8,
    "road_density_km_km2": 2.689,
    "robustness_pct": 0.0,
    "runoff_coeff_C": 0.118,
    "seasonal_cv": 0.4802,
    "segment_id": 4,
    "segment_length_m": 3202.3567,
    "stream_order": 3,
    "superfund_score": 0.0,
    "tourism_amenity_density": 3.4218,
    "tri_facility_density": 0.0,
    "usgs_mean_q_cfs": 5.893,
    "velocity_feasibility": 0.7,
    "water_intake_score": 1.6564
   },
   "type": "Feature"
  },
  {
   "geometry": {
    "coordinates": [
     -81.213883,
     36.135253
    ],
    "type": "Point"
   },
   "properties": {
    "accumulation": 36272.0,
    "bank_slope_deg": 7.94,
    "bank_slope_score": 1.0,
    "bank_slope_source": "nc-dps-lidar-dem03-cross-section",
    "beach_dist_km": 377.69,
    "bridge_proximity_bonus": 0.0,
    "catchment_area_km2": 3.6179,
    "channel_width_m": 5.32,
    "channel_width_score": 1.0,
    "composite_score": 28.4167,
    "cso_density": 0.0,
    "ej_index": 0.5554,
    "elevation_m": 292.5849,
    "estuary_dist_km": 482.2,
    "feasibility_score": 78.5714,
    "flood_q10_cfs": 490.14,
    "flow_score": 32.33,
    "flow_velocity_ms": 0.5,
    "generation_score": 3.8653,
    "impact_score": 24.6297,
    "impervious_pct": null,
    "land_ownership": 0.5,
    "lat": 36.1353,
    "litter_complaint_density": 0.0,
    "lon": -81.2139,
    "navigable_dist_m": null,
    "npdes_points": 0,
    "pixel_col": 126.0,
    "pixel_row": 535.0,
    "population_density": 67.6,
    "position_along": 0.5,
    "protected_area_score": 4.8973,
    "rank": 22,
    "road_access_m": 155.7,
    "road_access_score": 1.0,
    "road_density_km_km2": 2.262,
    "robustness_pct": 0.0,
    "runoff_coeff_C": null,
    "seasonal_cv": null,
    "segment_id": 5,
    "segment_length_m": 955.464,
    "stream_order": 3,
    "superfund_score": 0.0,
    "tourism_amenity_density": 2.6261,
    "tri_facility_density": 0.0,
    "usgs_mean_q_cfs": null,
    "velocity_feasibility": 1.0,
    "water_intake_score": 1.5403
   },
   "type": "Feature"
  },
  {
   "geometry": {
    "coordinates": [
     -81.187272,
     36.126481
    ],
    "type": "Point"
   },
   "properties": {
    "accumulation": 56611.0,
    "bank_slope_deg": 10.56,
    "bank_slope_score": 1.0,
    "bank_slope_source": "nc-dps-lidar-dem03-cross-section",
    "beach_dist_km": 375.16,
    "bridge_proximity_bonus": 0.0,
    "catchment_area_km2": 5.6466,
    "channel_width_m": 6.4,
    "channel_width_score": 1.0,
    "composite_score": 27.8369,
    "cso_density": 0.0,
    "ej_index": 0.5041,
    "elevation_m": 299.7795,
    "estuary_dist_km": 479.65,
    "feasibility_score": 42.8571,
    "flood_q10_cfs": 685.5,
    "flow_score": 35.2226,
    "flow_velocity_ms": 0.5,
    "generation_score": 2.2275,
    "impact_score": 39.7813,
    "impervious_pct": null,
    "land_ownership": 0.5,
    "lat": 36.1265,
    "litter_complaint_density": 0.0,
    "lon": -81.1873,
    "navigable_dist_m": null,
    "npdes_points": 0,
    "pixel_col": 364.0,
    "pixel_row": 630.0,
    "population_density": 87.6,
    "position_along": 0.5,
    "protected_area_score": 4.9515,
    "rank": 23,
    "road_access_m": 574.4,
    "road_access_score": 0.6,
    "road_density_km_km2": 0.731,
    "robustness_pct": 0.0,
    "runoff_coeff_C": null,
    "seasonal_cv": null,
    "segment_id": 15,
    "segment_length_m": 5889.5673,
    "stream_order": 3,
    "superfund_score": 0.0,
    "tourism_amenity_density": 3.3423,
    "tri_facility_density": 0.0,
    "usgs_mean_q_cfs": null,
    "velocity_feasibility": 1.0,
    "water_intake_score": 1.6914
   },
   "type": "Feature"
  },
  {
   "geometry": {
    "coordinates": [
     -81.19435,
     36.115927
    ],
    "type": "Point"
   },
   "properties": {
    "accumulation": 34573.0,
    "bank_slope_deg": 9.06,
    "bank_slope_score": 1.0,
    "bank_slope_source": "nc-dps-lidar-dem03-cross-section",
    "beach_dist_km": 375.04,
    "bridge_proximity_bonus": 0.0,
    "catchment_area_km2": 3.4484,
    "channel_width_m": 5.22,
    "channel_width_score": 1.0,
    "composite_score": 27.3209,
    "cso_density": 0.0,
    "ej_index": 0.5026,
    "elevation_m": 307.3067,
    "estuary_dist_km": 480.01,
    "feasibility_score": 60.7143,
    "flood_q10_cfs": 472.73,
    "flow_score": 32.0787,
    "flow_velocity_ms": 0.5,
    "generation_score": 3.1677,
    "impact_score": 30.8125,
    "impervious_pct": null,
    "land_ownership": 0.5,
    "lat": 36.1159,
    "litter_complaint_density": 0.0,
    "lon": -81.1944,
    "navigable_dist_m": null,
    "npdes_points": 0,
    "pixel_col": 301.0,
    "pixel_row": 748.0,
    "population_density": 87.7,
    "position_along": 0.1667,
    "protected_area_score": 5.1207,
    "rank": 24,
    "road_access_m": 358.3,
    "road_access_score": 0.8,
    "road_density_km_km2": 1.099,
    "robustness_pct": 0.0,
    "runoff_coeff_C": null,
    "seasonal_cv": null,
    "segment_id": 15,
    "segment_length_m": 5889.5673,
    "stream_order": 3,
    "superfund_score": 0.0,
    "tourism_amenity_density": 0.9549,
    "tri_facility_density": 0.0,
    "usgs_mean_q_cfs": null,
    "velocity_feasibility": 1.0,
    "water_intake_score": 1.5208
   },
   "type": "Feature"
  },
  {
   "geometry": {
    "coordinates": [
     -81.211445,
     36.128662
    ],
    "type": "Point"
   },
   "properties": {
    "accumulation": 44851.0,
    "bank_slope_deg": 4.55,
    "bank_slope_score": 1.0,
    "bank_slope_source": "nc-dps-lidar-dem03-cross-section",
    "beach_dist_km": 377.1,
    "bridge_proximity_bonus": 0.0,
    "catchment_area_km2": 4.4736,
    "channel_width_m": 5.81,
    "channel_width_score": 1.0,
    "composite_score": 24.3709,
    "cso_density": 0.0,
    "ej_index": 0.6134,
    "elevation_m": 306.6555,
    "estuary_dist_km": 481.82,
    "feasibility_score": 66.3265,
    "flood_q10_cfs": 586.87,
    "flow_score": 14.0586,
    "flow_velocity_ms": 0.2162,
    "generation_score": 6.7081,
    "impact_score": 29.6495,
    "impervious_pct": 1.15,
    "land_ownership": 0.5,
    "lat": 36.1287,
    "litter_complaint_density": 0.0,
    "lon": -81.2114,
    "navigable_dist_m": null,
    "npdes_points": 0,
    "pixel_col": 144.0,
    "pixel_row": 606.0,
    "population_density": 74.0,
    "position_along": 0.75,
    "protected_area_score": 4.9621,
    "rank": 25,
    "road_access_m": 94.4,
    "road_access_score": 1.0,
    "road_density_km_km2": 2.163,
    "robustness_pct": 0.0,
    "runoff_coeff_C": 0.0604,
    "seasonal_cv": 0.4927,
    "segment_id": 8,
    "segment_length_m": 3122.7533,
    "stream_order": 3,
    "superfund_score": 0.0,
    "tourism_amenity_density": 1.8303,
    "tri_facility_density": 0.0,
    "usgs_mean_q_cfs": 3.833,
    "velocity_feasibility": 0.7,
    "water_intake_score": 1.5177
   },
   "type": "Feature"
  },
  {
   "geometry": {
    "coordinates": [
     -81.209334,
     36.11696
    ],
    "type": "Point"
   },
   "properties": {
    "accumulation": 24746.0,
    "bank_slope_deg": 18.33,
    "bank_slope_score": 0.5,
    "bank_slope_source": "nc-dps-lidar-dem03-cross-section",
    "beach_dist_km": 376.23,
    "bridge_proximity_bonus": 0.0,
    "catchment_area_km2": 2.4683,
    "channel_width_m": 4.54,
    "channel_width_score": 1.0,
    "composite_score": 16.1836,
    "cso_density": 0.0,
    "ej_index": 0.6364,
    "elevation_m": 321.5793,
    "estuary_dist_km": 481.35,
    "feasibility_score": 21.6837,
    "flood_q10_cfs": 374.89,
    "flow_score": 9.0617,
    "flow_velocity_ms": 0.1607,
    "generation_score": 5.2899,
    "impact_score": 30.2621,
    "impervious_pct": 1.15,
    "land_ownership": 0.5,
    "lat": 36.117,
    "litter_complaint_density": 0.0,
    "lon": -81.2093,
    "navigable_dist_m": null,
    "npdes_points": 0,
    "pixel_col": 166.0,
    "pixel_row": 736.0,
    "population_density": 76.5,
    "position_along": 0.25,
    "protected_area_score": 5.0858,
    "rank": 26,
    "road_access_m": 525.2,
    "road_access_score": 0.6,
    "road_density_km_km2": 1.491,
    "robustness_pct": 0.0,
    "runoff_coeff_C": 0.0604,
    "seasonal_cv": 0.4927,
    "segment_id": 8,
    "segment_length_m": 3122.7533,
    "stream_order": 3,
    "superfund_score": 0.0,
    "tourism_amenity_density": 0.2387,
    "tri_facility_density": 0.0,
    "usgs_mean_q_cfs": 3.833,
    "velocity_feasibility": 0.7,
    "water_intake_score": 1.4432
   },
   "type": "Feature"
  }
 ],
 "note": "GRIME region 'Wilkesboro, NC' \u2014 real-data pipeline (DEM\u2192streams\u2192candidates\u2192stream mask (sites confined to \u00b1150 m of mapped OSM/NHD waterways)\u2192region-appropriate real parameters\u2192shipped scoring, math unchanged). Width curve: Bieger et al. 2015 JAWRA Table 3, Appalachian Highlands. Flood: SIR 2014-5030 HR1. NC Piedmont (DEQ physiography polygon)",
 "provenance": {
  "candidates_pre_gate": 26,
  "constant": [
   "bridge_proximity_bonus",
   "channel_width_score",
   "cso_density",
   "litter_complaint_density",
   "stream_order",
   "superfund_score"
  ],
  "gated_navigable": 0,
  "hard_gate_removed": 0,
  "n_parameters": 27,
  "parameters": {
   "bank_slope_score": {
    "kind": "real",
    "n_3dep_10m_fallback": 0,
    "n_nc_lidar_3_125ft": 26,
    "n_real": 26,
    "n_sites": 26,
    "source": "NC OneMap / NC DPS DEM03 statewide lidar-derived 3.125-ft (0.953 m) elevations (perpendicular 50 m transect; robust 5 m bank-rise metric); unavailable profiles use the region 10 m 3DEP DEM-gradient fallback",
    "source_mosaics": [
     "Wilkes_Ground_3ft"
    ]
   },
   "beach_dist_km": {
    "kind": "real",
    "n_real": 26,
    "n_sites": 26,
    "source": "haversine to region ref: Wrightsville Beach (shipped NC reference)"
   },
   "bridge_proximity_bonus": {
    "kind": "real",
    "n_real": 26,
    "n_sites": 26,
    "source": "FHWA/BTS NBI (NTAD), 50 m proximity"
   },
   "catchment_area_km2": {
    "kind": "real",
    "n_real": 26,
    "n_sites": 26,
    "source": "DEM flow accumulation (pipeline)"
   },
   "channel_width_score": {
    "kind": "real",
    "n_real": 26,
    "n_sites": 26,
    "source": "Bieger 2015 AHI width curve on DEM drainage area \u2192 shipped width curve"
   },
   "cso_density": {
    "kind": "real",
    "n_real": 26,
    "n_sites": 26,
    "source": "EPA ECHO open CSO/TCS outfall PF coordinates states=NC, Cauchy proximity"
   },
   "ej_index": {
    "kind": "real",
    "n_real": 26,
    "n_sites": 26,
    "source": "Census ACS C17002+B03002 two-component demographic index, percentile-ranked within region"
   },
   "estuary_dist_km": {
    "kind": "real",
    "n_real": 26,
    "n_sites": 26,
    "source": "haversine to region ref: Pamlico Sound (shipped NC reference)"
   },
   "flood_q10_cfs": {
    "impervious_fallback_reason": "StreamCat imperviousness unavailable; the existing regression-input fallback of 0.0% impervious was used and is disclosed here",
    "kind": "real",
    "n_impervious_fallback": 12,
    "n_real": 26,
    "n_sites": 26,
    "source": "USGS SIR 2014-5030 Table 7 HR1 (NC Piedmont)"
   },
   "flow_velocity_ms": {
    "fallback_reason": "EROM/DEM continuity input unavailable; shipped 0.5 m/s default used",
    "kind": "real",
    "n_fallback": 12,
    "n_real": 14,
    "n_sites": 26,
    "source": "Manning (region DEM/D8) blended with EROM continuity (shipped M4 logic)"
   },
   "impervious_pct": {
    "fallback_reason": "NLDI/StreamCat did not return a snap-compatible catchment value; value remains null and is removed by constant-column handling",
    "kind": "real",
    "n_fallback": 12,
    "n_real": 14,
    "n_sites": 26,
    "source": "EPA StreamCat pctimp2019 (per NHDPlus watershed)"
   },
   "land_ownership": {
    "fallback_reason": "no containing parcel owner returned; shipped unknown ownership 0.5 used",
    "kind": "real",
    "n_fallback": 10,
    "n_real": 16,
    "n_sites": 26,
    "source": "NC OneMap statewide parcels (NC Parcels Transformer) ownname"
   },
   "litter_complaint_density": {
    "kind": "fallback",
    "n_real": 0,
    "n_sites": 26,
    "source": "no public machine-readable litter/illegal-dumping feed for this region"
   },
   "navigable_dist_m": {
    "kind": "real",
    "n_real": 26,
    "n_sites": 26,
    "source": "USACE/BTS NWN (NTAD): no navigable segment within this bbox (+2 km) \u2014 computed absence, gate passes all sites"
   },
   "npdes_points": {
    "kind": "real",
    "n_real": 26,
    "n_sites": 26,
    "source": "EPA ECHO active NPDES outfalls states=NC (types NPD/GPC/NGP; statuses ADC/EFF/EXP), per catchment"
   },
   "population_density": {
    "kind": "real",
    "n_real": 26,
    "n_sites": 26,
    "source": "Census ACS 2022 B01003 block groups (bbox, multi-county), area-weighted"
   },
   "protected_area_score": {
    "kind": "real",
    "n_real": 26,
    "n_sites": 26,
    "source": "USGS PAD-US 4.1 state GDB; states=NC; shipped designation-weighted proximity curve"
   },
   "road_access_score": {
    "kind": "real",
    "n_real": 26,
    "n_sites": 26,
    "source": "OSM drive network nearest-node distance"
   },
   "road_density_km_km2": {
    "kind": "real",
    "n_real": 26,
    "n_sites": 26,
    "source": "OSM drive network (osmnx, cached) clipped per catchment"
   },
   "runoff_coeff_C": {
    "fallback_reason": "source impervious_pct was unavailable; derived value remains null",
    "kind": "real",
    "n_fallback": 12,
    "n_real": 14,
    "n_sites": 26,
    "source": "derived from real impervious_pct (C=0.05+0.009*I)"
   },
   "seasonal_cv": {
    "fallback_reason": "NHDPlus monthly EROM was unavailable or failed the drainage-area snap guard; value remains null",
    "kind": "real",
    "n_fallback": 12,
    "n_real": 14,
    "n_sites": 26,
    "source": "CV of NHDPlus EROM monthly flows per COMID"
   },
   "stream_order": {
    "kind": "real",
    "n_real": 26,
    "n_sites": 26,
    "source": "DEM stream-network confluence heuristic (pipeline)"
   },
   "superfund_score": {
    "kind": "real",
    "n_real": 26,
    "n_sites": 26,
    "source": "EPA DataMap SEMS active sites states=NC (non-archived, georeferenced), shipped 500 m inverse-distance curve"
   },
   "tourism_amenity_density": {
    "kind": "real",
    "n_real": 26,
    "n_sites": 26,
    "source": "OSM leisure/tourism features per 2 km radius"
   },
   "tri_facility_density": {
    "kind": "real",
    "n_real": 26,
    "n_sites": 26,
    "source": "EPA DataMap TRI open facilities states=NC (preferred decimal or packed-DMS recovery), per catchment"
   },
   "usgs_mean_q_cfs": {
    "fallback_reason": "NHDPlus EROM was unavailable or failed the drainage-area snap guard; value remains null",
    "kind": "real",
    "n_fallback": 12,
    "n_real": 14,
    "n_sites": 26,
    "source": "NHDPlus EROM qe_ma per COMID (snap-guarded)"
   },
   "velocity_feasibility": {
    "fallback_reason": "derived from the shipped 0.5 m/s velocity fallback",
    "kind": "real",
    "n_fallback": 12,
    "n_real": 14,
    "n_sites": 26,
    "source": "shipped step curve on the computed velocity"
   },
   "velocity_transport_favorability": {
    "fallback_reason": "EROM/DEM continuity input unavailable; shipped 0.5 m/s default used",
    "kind": "derived",
    "n_fallback": 12,
    "n_real": 14,
    "n_sites": 26,
    "source": "scored form of flow_velocity_ms inside the Flow family \u2014 peaked Gaussian exp(-((v-0.9)/0.6)^2), model.json curves.velocity_transport_favorability; construct: transport/delivery favorability, deliberately distinct from velocity_feasibility (device operability)"
   },
   "water_intake_score": {
    "kind": "real",
    "n_real": 26,
    "n_sites": 26,
    "source": "NC OneMap / NC DEQ SWAP public water supply sources (source_typ='Surface Water'), shipped exp(-d/10km) curve"
   }
  },
  "stream_mask": {
   "buffer_m": 150.0,
   "pre_mask": 26,
   "removed": 0,
   "sources": [
    "osm-overpass (all waterway ways)",
    "usgs-nhdplus flowlines"
   ]
  },
  "varying": [
   "bank_slope_score",
   "beach_dist_km",
   "catchment_area_km2",
   "ej_index",
   "estuary_dist_km",
   "flood_q10_cfs",
   "flow_velocity_ms",
   "impervious_pct",
   "land_ownership",
   "npdes_points",
   "population_density",
   "protected_area_score",
   "road_access_score",
   "road_density_km_km2",
   "runoff_coeff_C",
   "seasonal_cv",
   "tourism_amenity_density",
   "tri_facility_density",
   "usgs_mean_q_cfs",
   "velocity_feasibility",
   "water_intake_score"
  ]
 },
 "region": {
  "bbox": [
   -81.2276,
   36.1015,
   -81.1262,
   36.1834
  ],
  "beach_ref": {
   "label": "Wrightsville Beach (shipped NC reference)",
   "lat": 34.21,
   "lon": -77.79
  },
  "center": [
   -81.176895,
   36.142425
  ],
  "estuary_ref": {
   "label": "Pamlico Sound (shipped NC reference)",
   "lat": 35.05,
   "lon": -76.05
  },
  "flood_method": "sir2014_hr1",
  "name": "Wilkesboro, NC",
  "notes": "NC Piedmont (DEQ physiography polygon)",
  "slug": "wilkesboro",
  "state": "NC",
  "utm_epsg": 32617,
  "width_curve": {
   "a": 3.12,
   "b": 0.415,
   "code": "AHI",
   "source": "Bieger et al. 2015 JAWRA Table 3, Appalachian Highlands"
  }
 },
 "type": "FeatureCollection"
}
