{
 "features": [
  {
   "geometry": {
    "coordinates": [
     -78.320085,
     35.578848
    ],
    "type": "Point"
   },
   "properties": {
    "accumulation": 195399.0,
    "bank_slope_deg": 0.2,
    "bank_slope_score": 1.0,
    "bank_slope_source": "nc-dps-lidar-dem03-cross-section",
    "beach_dist_km": 159.7,
    "bridge_proximity_bonus": 0.0,
    "catchment_area_km2": 19.5177,
    "channel_width_m": 10.71,
    "channel_width_score": 1.0,
    "composite_score": 52.4684,
    "cso_density": 0.0,
    "ej_index": 0.6177,
    "elevation_m": 34.2294,
    "estuary_dist_km": 214.2,
    "feasibility_score": 58.1633,
    "flood_q10_cfs": 1481.45,
    "flow_score": 71.3717,
    "flow_velocity_ms": 0.5,
    "generation_score": 20.2619,
    "impact_score": 66.0747,
    "impervious_pct": null,
    "land_ownership": 0.5,
    "lat": 35.5788,
    "litter_complaint_density": 0.0,
    "lon": -78.3201,
    "navigable_dist_m": null,
    "npdes_points": 6,
    "pixel_col": 852.0,
    "pixel_row": 532.0,
    "population_density": 113.3,
    "position_along": 0.5,
    "protected_area_score": 7.7052,
    "rank": 1,
    "road_access_m": 861.2,
    "road_access_score": 0.6,
    "road_density_km_km2": 1.033,
    "robustness_pct": 95.0,
    "runoff_coeff_C": null,
    "seasonal_cv": null,
    "segment_id": 6,
    "segment_length_m": 2811.0181,
    "stream_order": 3,
    "superfund_score": 0.0075,
    "tourism_amenity_density": 0.0,
    "tri_facility_density": 0.0,
    "usgs_mean_q_cfs": null,
    "velocity_feasibility": 1.0,
    "water_intake_score": 2.5084
   },
   "type": "Feature"
  },
  {
   "geometry": {
    "coordinates": [
     -78.327221,
     35.554291
    ],
    "type": "Point"
   },
   "properties": {
    "accumulation": 30467.0,
    "bank_slope_deg": 15.24,
    "bank_slope_score": 0.5,
    "bank_slope_source": "nc-dps-lidar-dem03-cross-section",
    "beach_dist_km": 157.31,
    "bridge_proximity_bonus": 0.0,
    "catchment_area_km2": 3.0432,
    "channel_width_m": 4.95,
    "channel_width_score": 1.0,
    "composite_score": 51.103,
    "cso_density": 0.0,
    "ej_index": 0.5745,
    "elevation_m": 33.8882,
    "estuary_dist_km": 214.12,
    "feasibility_score": 65.3061,
    "flood_q10_cfs": 430.23,
    "flow_score": 28.0559,
    "flow_velocity_ms": 0.5,
    "generation_score": 48.5327,
    "impact_score": 65.7777,
    "impervious_pct": null,
    "land_ownership": 1.0,
    "lat": 35.5543,
    "litter_complaint_density": 0.0,
    "lon": -78.3272,
    "navigable_dist_m": null,
    "npdes_points": 8,
    "pixel_col": 796.0,
    "pixel_row": 805.0,
    "population_density": 148.7,
    "position_along": 0.5,
    "protected_area_score": 7.6581,
    "rank": 2,
    "road_access_m": 664.2,
    "road_access_score": 0.6,
    "road_density_km_km2": 1.014,
    "robustness_pct": 97.0,
    "runoff_coeff_C": null,
    "seasonal_cv": null,
    "segment_id": 15,
    "segment_length_m": 2127.316,
    "stream_order": 1,
    "superfund_score": 0.0109,
    "tourism_amenity_density": 0.0,
    "tri_facility_density": 0.3286,
    "usgs_mean_q_cfs": null,
    "velocity_feasibility": 1.0,
    "water_intake_score": 2.254
   },
   "type": "Feature"
  },
  {
   "geometry": {
    "coordinates": [
     -78.35933,
     35.547522
    ],
    "type": "Point"
   },
   "properties": {
    "accumulation": 185539.0,
    "bank_slope_deg": 0.87,
    "bank_slope_score": 1.0,
    "bank_slope_source": "nc-dps-lidar-dem03-cross-section",
    "beach_dist_km": 157.53,
    "bridge_proximity_bonus": 0.0,
    "catchment_area_km2": 18.5328,
    "channel_width_m": 10.48,
    "channel_width_score": 1.0,
    "composite_score": 43.8211,
    "cso_density": 0.0,
    "ej_index": 0.5994,
    "elevation_m": 38.4752,
    "estuary_dist_km": 216.75,
    "feasibility_score": 14.2857,
    "flood_q10_cfs": 1535.08,
    "flow_score": 71.0117,
    "flow_velocity_ms": 0.1263,
    "generation_score": 30.3259,
    "impact_score": 49.425,
    "impervious_pct": 4.65,
    "land_ownership": 0.5,
    "lat": 35.5475,
    "litter_complaint_density": 0.0,
    "lon": -78.3593,
    "navigable_dist_m": null,
    "npdes_points": 4,
    "pixel_col": 507.0,
    "pixel_row": 888.0,
    "population_density": 144.4,
    "position_along": 0.5,
    "protected_area_score": 7.2138,
    "rank": 3,
    "road_access_m": 1301.0,
    "road_access_score": 0.3,
    "road_density_km_km2": 0.989,
    "robustness_pct": 62.0,
    "runoff_coeff_C": 0.0919,
    "seasonal_cv": 0.4516,
    "segment_id": 13,
    "segment_length_m": 1987.1015,
    "stream_order": 3,
    "superfund_score": 0.0061,
    "tourism_amenity_density": 0.0,
    "tri_facility_density": 0.0,
    "usgs_mean_q_cfs": 13.008,
    "velocity_feasibility": 0.7,
    "water_intake_score": 2.1062
   },
   "type": "Feature"
  },
  {
   "geometry": {
    "coordinates": [
     -78.372737,
     35.555686
    ],
    "type": "Point"
   },
   "properties": {
    "accumulation": 104638.0,
    "bank_slope_deg": 4.13,
    "bank_slope_score": 1.0,
    "bank_slope_source": "nc-dps-lidar-dem03-cross-section",
    "beach_dist_km": 158.79,
    "bridge_proximity_bonus": 0.0,
    "catchment_area_km2": 10.4519,
    "channel_width_m": 8.26,
    "channel_width_score": 1.0,
    "composite_score": 43.5867,
    "cso_density": 0.0,
    "ej_index": 0.5846,
    "elevation_m": 43.51,
    "estuary_dist_km": 218.15,
    "feasibility_score": 50.0,
    "flood_q10_cfs": 1146.55,
    "flow_score": 45.5051,
    "flow_velocity_ms": 0.1427,
    "generation_score": 39.0415,
    "impact_score": 43.3267,
    "impervious_pct": 6.49,
    "land_ownership": 0.5,
    "lat": 35.5557,
    "litter_complaint_density": 0.0,
    "lon": -78.3727,
    "navigable_dist_m": null,
    "npdes_points": 5,
    "pixel_col": 382.0,
    "pixel_row": 802.0,
    "population_density": 141.0,
    "position_along": 0.9,
    "protected_area_score": 7.2768,
    "rank": 4,
    "road_access_m": 192.8,
    "road_access_score": 1.0,
    "road_density_km_km2": 2.315,
    "robustness_pct": 71.5,
    "runoff_coeff_C": 0.1084,
    "seasonal_cv": 0.4296,
    "segment_id": 4,
    "segment_length_m": 8339.3105,
    "stream_order": 3,
    "superfund_score": 0.0052,
    "tourism_amenity_density": 0.0796,
    "tri_facility_density": 0.0,
    "usgs_mean_q_cfs": 4.709,
    "velocity_feasibility": 0.7,
    "water_intake_score": 1.9983
   },
   "type": "Feature"
  },
  {
   "geometry": {
    "coordinates": [
     -78.340544,
     35.587941
    ],
    "type": "Point"
   },
   "properties": {
    "accumulation": 36146.0,
    "bank_slope_deg": 13.62,
    "bank_slope_score": 1.0,
    "bank_slope_source": "nc-dps-lidar-dem03-cross-section",
    "beach_dist_km": 161.24,
    "bridge_proximity_bonus": 0.0,
    "catchment_area_km2": 3.6105,
    "channel_width_m": 5.32,
    "channel_width_score": 1.0,
    "composite_score": 42.1908,
    "cso_density": 0.0,
    "ej_index": 0.7627,
    "elevation_m": 45.5341,
    "estuary_dist_km": 216.25,
    "feasibility_score": 50.0,
    "flood_q10_cfs": 512.16,
    "flow_score": 25.1125,
    "flow_velocity_ms": 0.1101,
    "generation_score": 25.7235,
    "impact_score": 68.9854,
    "impervious_pct": 2.6,
    "land_ownership": 0.5,
    "lat": 35.5879,
    "litter_complaint_density": 0.0,
    "lon": -78.3405,
    "navigable_dist_m": null,
    "npdes_points": 1,
    "pixel_col": 665.0,
    "pixel_row": 434.0,
    "population_density": 154.0,
    "position_along": 0.5,
    "protected_area_score": 8.0773,
    "rank": 5,
    "road_access_m": 151.3,
    "road_access_score": 1.0,
    "road_density_km_km2": 1.563,
    "robustness_pct": 41.0,
    "runoff_coeff_C": 0.0734,
    "seasonal_cv": 0.4195,
    "segment_id": 5,
    "segment_length_m": 2928.4029,
    "stream_order": 3,
    "superfund_score": 0.0059,
    "tourism_amenity_density": 0.2387,
    "tri_facility_density": 0.0,
    "usgs_mean_q_cfs": 2.21,
    "velocity_feasibility": 0.7,
    "water_intake_score": 2.3833
   },
   "type": "Feature"
  },
  {
   "geometry": {
    "coordinates": [
     -78.36591,
     35.619153
    ],
    "type": "Point"
   },
   "properties": {
    "accumulation": 25405.0,
    "bank_slope_deg": 1.5,
    "bank_slope_score": 1.0,
    "bank_slope_source": "nc-dps-lidar-dem03-cross-section",
    "beach_dist_km": 165.25,
    "bridge_proximity_bonus": 0.0,
    "catchment_area_km2": 2.5376,
    "channel_width_m": 4.59,
    "channel_width_score": 1.0,
    "composite_score": 40.4665,
    "cso_density": 0.0,
    "ej_index": 0.5734,
    "elevation_m": 47.4706,
    "estuary_dist_km": 219.4,
    "feasibility_score": 50.0,
    "flood_q10_cfs": 392.85,
    "flow_score": 21.1658,
    "flow_velocity_ms": 0.1117,
    "generation_score": 43.7057,
    "impact_score": 48.5445,
    "impervious_pct": 2.63,
    "land_ownership": 0.5,
    "lat": 35.6192,
    "litter_complaint_density": 0.0,
    "lon": -78.3659,
    "navigable_dist_m": null,
    "npdes_points": 2,
    "pixel_col": 424.0,
    "pixel_row": 92.0,
    "population_density": 182.7,
    "position_along": 0.5,
    "protected_area_score": 8.9285,
    "rank": 6,
    "road_access_m": 127.5,
    "road_access_score": 1.0,
    "road_density_km_km2": 4.19,
    "robustness_pct": 20.0,
    "runoff_coeff_C": 0.0737,
    "seasonal_cv": 0.4152,
    "segment_id": 1,
    "segment_length_m": 819.6549,
    "stream_order": 3,
    "superfund_score": 0.0075,
    "tourism_amenity_density": 0.4775,
    "tri_facility_density": 0.0,
    "usgs_mean_q_cfs": 1.272,
    "velocity_feasibility": 0.7,
    "water_intake_score": 1.6955
   },
   "type": "Feature"
  },
  {
   "geometry": {
    "coordinates": [
     -78.32932,
     35.59628
    ],
    "type": "Point"
   },
   "properties": {
    "accumulation": 105313.0,
    "bank_slope_deg": 8.2,
    "bank_slope_score": 1.0,
    "bank_slope_source": "nc-dps-lidar-dem03-cross-section",
    "beach_dist_km": 161.8,
    "bridge_proximity_bonus": 0.0,
    "catchment_area_km2": 10.5193,
    "channel_width_m": 8.28,
    "channel_width_score": 1.0,
    "composite_score": 40.2695,
    "cso_density": 0.0,
    "ej_index": 0.5973,
    "elevation_m": 34.9358,
    "estuary_dist_km": 215.52,
    "feasibility_score": 42.8571,
    "flood_q10_cfs": 1051.96,
    "flow_score": 57.0545,
    "flow_velocity_ms": 0.5,
    "generation_score": 8.828,
    "impact_score": 56.4297,
    "impervious_pct": null,
    "land_ownership": 0.5,
    "lat": 35.5963,
    "litter_complaint_density": 0.0,
    "lon": -78.3293,
    "navigable_dist_m": null,
    "npdes_points": 1,
    "pixel_col": 763.0,
    "pixel_row": 341.0,
    "population_density": 111.5,
    "position_along": 0.75,
    "protected_area_score": 8.0526,
    "rank": 7,
    "road_access_m": 1071.0,
    "road_access_score": 0.3,
    "road_density_km_km2": 0.643,
    "robustness_pct": 37.5,
    "runoff_coeff_C": null,
    "seasonal_cv": null,
    "segment_id": 3,
    "segment_length_m": 4118.6792,
    "stream_order": 3,
    "superfund_score": 0.0056,
    "tourism_amenity_density": 0.0,
    "tri_facility_density": 0.0,
    "usgs_mean_q_cfs": null,
    "velocity_feasibility": 1.0,
    "water_intake_score": 2.3291
   },
   "type": "Feature"
  },
  {
   "geometry": {
    "coordinates": [
     -78.383579,
     35.563296
    ],
    "type": "Point"
   },
   "properties": {
    "accumulation": 92701.0,
    "bank_slope_deg": 2.26,
    "bank_slope_score": 1.0,
    "bank_slope_source": "nc-dps-lidar-dem03-cross-section",
    "beach_dist_km": 159.92,
    "bridge_proximity_bonus": 0.0,
    "catchment_area_km2": 9.2595,
    "channel_width_m": 7.86,
    "channel_width_score": 1.0,
    "composite_score": 39.8465,
    "cso_density": 0.0,
    "ej_index": 0.5138,
    "elevation_m": 49.8121,
    "estuary_dist_km": 219.31,
    "feasibility_score": 39.7959,
    "flood_q10_cfs": 1072.15,
    "flow_score": 42.7637,
    "flow_velocity_ms": 0.1189,
    "generation_score": 41.8462,
    "impact_score": 35.4412,
    "impervious_pct": 6.49,
    "land_ownership": 0.5,
    "lat": 35.5633,
    "litter_complaint_density": 0.0,
    "lon": -78.3836,
    "navigable_dist_m": null,
    "npdes_points": 6,
    "pixel_col": 282.0,
    "pixel_row": 720.0,
    "population_density": 129.7,
    "position_along": 0.7,
    "protected_area_score": 7.4135,
    "rank": 8,
    "road_access_m": 296.1,
    "road_access_score": 0.8,
    "road_density_km_km2": 3.269,
    "robustness_pct": 22.0,
    "runoff_coeff_C": 0.1084,
    "seasonal_cv": 0.4296,
    "segment_id": 4,
    "segment_length_m": 8339.3105,
    "stream_order": 3,
    "superfund_score": 0.0051,
    "tourism_amenity_density": 0.0796,
    "tri_facility_density": 0.0,
    "usgs_mean_q_cfs": 4.709,
    "velocity_feasibility": 0.7,
    "water_intake_score": 1.8839
   },
   "type": "Feature"
  },
  {
   "geometry": {
    "coordinates": [
     -78.321017,
     35.559523
    ],
    "type": "Point"
   },
   "properties": {
    "accumulation": 21720.0,
    "bank_slope_deg": 25.82,
    "bank_slope_score": 0.5,
    "bank_slope_source": "nc-dps-lidar-dem03-cross-section",
    "beach_dist_km": 157.68,
    "bridge_proximity_bonus": 0.0,
    "catchment_area_km2": 2.1695,
    "channel_width_m": 4.3,
    "channel_width_score": 1.0,
    "composite_score": 39.254,
    "cso_density": 0.0,
    "ej_index": 0.6544,
    "elevation_m": 34.5859,
    "estuary_dist_km": 213.72,
    "feasibility_score": 15.3061,
    "flood_q10_cfs": 340.1,
    "flow_score": 5.7672,
    "flow_velocity_ms": 0.1255,
    "generation_score": 48.6305,
    "impact_score": 69.7573,
    "impervious_pct": 1.14,
    "land_ownership": 0.5,
    "lat": 35.5595,
    "litter_complaint_density": 0.0,
    "lon": -78.321,
    "navigable_dist_m": null,
    "npdes_points": 5,
    "pixel_col": 850.0,
    "pixel_row": 747.0,
    "population_density": 134.4,
    "position_along": 0.5,
    "protected_area_score": 7.6045,
    "rank": 9,
    "road_access_m": 789.4,
    "road_access_score": 0.6,
    "road_density_km_km2": 1.228,
    "robustness_pct": 27.5,
    "runoff_coeff_C": 0.0603,
    "seasonal_cv": 0.4182,
    "segment_id": 14,
    "segment_length_m": 736.271,
    "stream_order": 1,
    "superfund_score": 0.0114,
    "tourism_amenity_density": 0.0,
    "tri_facility_density": 0.4609,
    "usgs_mean_q_cfs": 1.097,
    "velocity_feasibility": 0.7,
    "water_intake_score": 2.2851
   },
   "type": "Feature"
  },
  {
   "geometry": {
    "coordinates": [
     -78.371466,
     35.620699
    ],
    "type": "Point"
   },
   "properties": {
    "accumulation": 24534.0,
    "bank_slope_deg": 12.63,
    "bank_slope_score": 1.0,
    "bank_slope_source": "nc-dps-lidar-dem03-cross-section",
    "beach_dist_km": 165.58,
    "bridge_proximity_bonus": 0.0,
    "catchment_area_km2": 2.4506,
    "channel_width_m": 4.53,
    "channel_width_score": 1.0,
    "composite_score": 38.9448,
    "cso_density": 0.0,
    "ej_index": 0.4544,
    "elevation_m": 51.309,
    "estuary_dist_km": 219.93,
    "feasibility_score": 50.0,
    "flood_q10_cfs": 398.23,
    "flow_score": 22.3686,
    "flow_velocity_ms": 0.1021,
    "generation_score": 43.7387,
    "impact_score": 42.4369,
    "impervious_pct": 4.91,
    "land_ownership": 0.5,
    "lat": 35.6207,
    "litter_complaint_density": 0.0,
    "lon": -78.3715,
    "navigable_dist_m": null,
    "npdes_points": 2,
    "pixel_col": 375.0,
    "pixel_row": 79.0,
    "population_density": 177.7,
    "position_along": 0.5,
    "protected_area_score": 8.9081,
    "rank": 10,
    "road_access_m": 105.0,
    "road_access_score": 1.0,
    "road_density_km_km2": 3.563,
    "robustness_pct": 5.0,
    "runoff_coeff_C": 0.0942,
    "seasonal_cv": 0.4159,
    "segment_id": 0,
    "segment_length_m": 1456.9873,
    "stream_order": 3,
    "superfund_score": 0.0085,
    "tourism_amenity_density": 0.4775,
    "tri_facility_density": 0.0,
    "usgs_mean_q_cfs": 1.792,
    "velocity_feasibility": 0.7,
    "water_intake_score": 1.6376
   },
   "type": "Feature"
  },
  {
   "geometry": {
    "coordinates": [
     -78.36638,
     35.555837
    ],
    "type": "Point"
   },
   "properties": {
    "accumulation": 57986.0,
    "bank_slope_deg": 6.73,
    "bank_slope_score": 1.0,
    "bank_slope_source": "nc-dps-lidar-dem03-cross-section",
    "beach_dist_km": 158.62,
    "bridge_proximity_bonus": 0.0,
    "catchment_area_km2": 5.792,
    "channel_width_m": 6.47,
    "channel_width_score": 1.0,
    "composite_score": 38.8268,
    "cso_density": 0.0,
    "ej_index": 0.5622,
    "elevation_m": 42.2645,
    "estuary_dist_km": 217.59,
    "feasibility_score": 39.7959,
    "flood_q10_cfs": 754.3,
    "flow_score": 36.1385,
    "flow_velocity_ms": 0.104,
    "generation_score": 33.6153,
    "impact_score": 45.7939,
    "impervious_pct": 4.37,
    "land_ownership": 0.5,
    "lat": 35.5558,
    "litter_complaint_density": 0.0,
    "lon": -78.3664,
    "navigable_dist_m": null,
    "npdes_points": 3,
    "pixel_col": 440.0,
    "pixel_row": 799.0,
    "population_density": 154.9,
    "position_along": 0.5,
    "protected_area_score": 7.302,
    "rank": 11,
    "road_access_m": 392.6,
    "road_access_score": 0.8,
    "road_density_km_km2": 1.888,
    "robustness_pct": 0.0,
    "runoff_coeff_C": 0.0893,
    "seasonal_cv": 0.4326,
    "segment_id": 12,
    "segment_length_m": 1088.4967,
    "stream_order": 3,
    "superfund_score": 0.0055,
    "tourism_amenity_density": 0.0796,
    "tri_facility_density": 0.0,
    "usgs_mean_q_cfs": 5.705,
    "velocity_feasibility": 0.7,
    "water_intake_score": 2.0659
   },
   "type": "Feature"
  },
  {
   "geometry": {
    "coordinates": [
     -78.364232,
     35.578738
    ],
    "type": "Point"
   },
   "properties": {
    "accumulation": 35302.0,
    "bank_slope_deg": 6.15,
    "bank_slope_score": 1.0,
    "bank_slope_source": "nc-dps-lidar-dem03-cross-section",
    "beach_dist_km": 160.95,
    "bridge_proximity_bonus": 0.0,
    "catchment_area_km2": 3.5262,
    "channel_width_m": 5.26,
    "channel_width_score": 1.0,
    "composite_score": 38.6772,
    "cso_density": 0.0,
    "ej_index": 0.6724,
    "elevation_m": 58.5041,
    "estuary_dist_km": 218.05,
    "feasibility_score": 50.0,
    "flood_q10_cfs": 516.77,
    "flow_score": 12.9202,
    "flow_velocity_ms": 0.1,
    "generation_score": 37.0415,
    "impact_score": 56.1156,
    "impervious_pct": 4.13,
    "land_ownership": 0.5,
    "lat": 35.5787,
    "litter_complaint_density": 0.0,
    "lon": -78.3642,
    "navigable_dist_m": null,
    "npdes_points": 1,
    "pixel_col": 452.0,
    "pixel_row": 544.0,
    "population_density": 152.1,
    "position_along": 0.5,
    "protected_area_score": 7.8389,
    "rank": 12,
    "road_access_m": 115.6,
    "road_access_score": 1.0,
    "road_density_km_km2": 4.176,
    "robustness_pct": 8.5,
    "runoff_coeff_C": 0.0872,
    "seasonal_cv": 0.4235,
    "segment_id": 8,
    "segment_length_m": 2072.6163,
    "stream_order": 1,
    "superfund_score": 0.0057,
    "tourism_amenity_density": 0.3183,
    "tri_facility_density": 0.0,
    "usgs_mean_q_cfs": 3.258,
    "velocity_feasibility": 0.7,
    "water_intake_score": 2.1039
   },
   "type": "Feature"
  },
  {
   "geometry": {
    "coordinates": [
     -78.360657,
     35.622715
    ],
    "type": "Point"
   },
   "properties": {
    "accumulation": 61777.0,
    "bank_slope_deg": 11.74,
    "bank_slope_score": 1.0,
    "bank_slope_source": "nc-dps-lidar-dem03-cross-section",
    "beach_dist_km": 165.48,
    "bridge_proximity_bonus": 0.0,
    "catchment_area_km2": 6.1707,
    "channel_width_m": 6.64,
    "channel_width_score": 1.0,
    "composite_score": 38.6759,
    "cso_density": 0.0,
    "ej_index": 0.3744,
    "elevation_m": 38.4678,
    "estuary_dist_km": 219.05,
    "feasibility_score": 50.0,
    "flood_q10_cfs": 789.23,
    "flow_score": 32.8613,
    "flow_velocity_ms": 0.1044,
    "generation_score": 36.4837,
    "impact_score": 40.0515,
    "impervious_pct": 4.23,
    "land_ownership": 0.5,
    "lat": 35.6227,
    "litter_complaint_density": 0.0,
    "lon": -78.3607,
    "navigable_dist_m": null,
    "npdes_points": 1,
    "pixel_col": 472.0,
    "pixel_row": 51.0,
    "population_density": 178.5,
    "position_along": 0.5,
    "protected_area_score": 8.8894,
    "rank": 13,
    "road_access_m": 120.7,
    "road_access_score": 1.0,
    "road_density_km_km2": 2.321,
    "robustness_pct": 0.0,
    "runoff_coeff_C": 0.0881,
    "seasonal_cv": 0.4231,
    "segment_id": 2,
    "segment_length_m": 1668.2883,
    "stream_order": 3,
    "superfund_score": 0.0069,
    "tourism_amenity_density": 0.4775,
    "tri_facility_density": 0.0,
    "usgs_mean_q_cfs": 3.185,
    "velocity_feasibility": 0.7,
    "water_intake_score": 1.6812
   },
   "type": "Feature"
  },
  {
   "geometry": {
    "coordinates": [
     -78.385696,
     35.57543
    ],
    "type": "Point"
   },
   "properties": {
    "accumulation": 69075.0,
    "bank_slope_deg": 5.03,
    "bank_slope_score": 1.0,
    "bank_slope_source": "nc-dps-lidar-dem03-cross-section",
    "beach_dist_km": 161.26,
    "bridge_proximity_bonus": 0.0,
    "catchment_area_km2": 6.8996,
    "channel_width_m": 6.95,
    "channel_width_score": 1.0,
    "composite_score": 37.9363,
    "cso_density": 0.0,
    "ej_index": 0.5654,
    "elevation_m": 58.7801,
    "estuary_dist_km": 219.83,
    "feasibility_score": 50.0,
    "flood_q10_cfs": 893.16,
    "flow_score": 38.2835,
    "flow_velocity_ms": 0.1209,
    "generation_score": 33.2054,
    "impact_score": 36.346,
    "impervious_pct": 6.49,
    "land_ownership": 0.5,
    "lat": 35.5754,
    "litter_complaint_density": 0.0,
    "lon": -78.3857,
    "navigable_dist_m": null,
    "npdes_points": 2,
    "pixel_col": 258.0,
    "pixel_row": 586.0,
    "population_density": 137.3,
    "position_along": 0.5,
    "protected_area_score": 7.4639,
    "rank": 14,
    "road_access_m": 191.0,
    "road_access_score": 1.0,
    "road_density_km_km2": 2.529,
    "robustness_pct": 0.0,
    "runoff_coeff_C": 0.1084,
    "seasonal_cv": 0.4296,
    "segment_id": 4,
    "segment_length_m": 8339.3105,
    "stream_order": 3,
    "superfund_score": 0.0056,
    "tourism_amenity_density": 0.1592,
    "tri_facility_density": 0.0,
    "usgs_mean_q_cfs": 4.709,
    "velocity_feasibility": 0.7,
    "water_intake_score": 1.8469
   },
   "type": "Feature"
  },
  {
   "geometry": {
    "coordinates": [
     -78.339494,
     35.609812
    ],
    "type": "Point"
   },
   "properties": {
    "accumulation": 47643.0,
    "bank_slope_deg": 12.11,
    "bank_slope_score": 1.0,
    "bank_slope_source": "nc-dps-lidar-dem03-cross-section",
    "beach_dist_km": 163.52,
    "bridge_proximity_bonus": 0.0,
    "catchment_area_km2": 4.7589,
    "channel_width_m": 5.96,
    "channel_width_score": 1.0,
    "composite_score": 37.9352,
    "cso_density": 0.0,
    "ej_index": 0.466,
    "elevation_m": 35.3806,
    "estuary_dist_km": 216.82,
    "feasibility_score": 58.1633,
    "flood_q10_cfs": 602.6,
    "flow_score": 45.8458,
    "flow_velocity_ms": 0.5,
    "generation_score": 17.252,
    "impact_score": 41.9122,
    "impervious_pct": null,
    "land_ownership": 0.5,
    "lat": 35.6098,
    "litter_complaint_density": 0.0,
    "lon": -78.3395,
    "navigable_dist_m": null,
    "npdes_points": 1,
    "pixel_col": 667.0,
    "pixel_row": 193.0,
    "population_density": 142.0,
    "position_along": 0.25,
    "protected_area_score": 8.4129,
    "rank": 15,
    "road_access_m": 778.1,
    "road_access_score": 0.6,
    "road_density_km_km2": 1.057,
    "robustness_pct": 5.5,
    "runoff_coeff_C": null,
    "seasonal_cv": null,
    "segment_id": 3,
    "segment_length_m": 4118.6792,
    "stream_order": 3,
    "superfund_score": 0.0053,
    "tourism_amenity_density": 0.0,
    "tri_facility_density": 0.0,
    "usgs_mean_q_cfs": null,
    "velocity_feasibility": 1.0,
    "water_intake_score": 2.007
   },
   "type": "Feature"
  },
  {
   "geometry": {
    "coordinates": [
     -78.362504,
     35.563102
    ],
    "type": "Point"
   },
   "properties": {
    "accumulation": 24746.0,
    "bank_slope_deg": 4.79,
    "bank_slope_score": 1.0,
    "bank_slope_source": "nc-dps-lidar-dem03-cross-section",
    "beach_dist_km": 159.26,
    "bridge_proximity_bonus": 0.0,
    "catchment_area_km2": 2.4718,
    "channel_width_m": 4.54,
    "channel_width_score": 1.0,
    "composite_score": 37.2134,
    "cso_density": 0.0,
    "ej_index": 0.5411,
    "elevation_m": 45.9681,
    "estuary_dist_km": 217.46,
    "feasibility_score": 50.0,
    "flood_q10_cfs": 398.44,
    "flow_score": 25.6311,
    "flow_velocity_ms": 0.0724,
    "generation_score": 31.3568,
    "impact_score": 46.3286,
    "impervious_pct": 4.57,
    "land_ownership": 0.5,
    "lat": 35.5631,
    "litter_complaint_density": 0.0,
    "lon": -78.3625,
    "navigable_dist_m": null,
    "npdes_points": 0,
    "pixel_col": 471.0,
    "pixel_row": 717.0,
    "population_density": 159.1,
    "position_along": 0.5,
    "protected_area_score": 7.359,
    "rank": 16,
    "road_access_m": 125.1,
    "road_access_score": 1.0,
    "road_density_km_km2": 2.512,
    "robustness_pct": 0.0,
    "runoff_coeff_C": 0.0911,
    "seasonal_cv": 0.4274,
    "segment_id": 9,
    "segment_length_m": 1201.5693,
    "stream_order": 3,
    "superfund_score": 0.0057,
    "tourism_amenity_density": 0.0796,
    "tri_facility_density": 0.0,
    "usgs_mean_q_cfs": 4.323,
    "velocity_feasibility": 0.7,
    "water_intake_score": 2.1237
   },
   "type": "Feature"
  },
  {
   "geometry": {
    "coordinates": [
     -78.392543,
     35.583974
    ],
    "type": "Point"
   },
   "properties": {
    "accumulation": 49813.0,
    "bank_slope_deg": 4.89,
    "bank_slope_score": 1.0,
    "bank_slope_source": "nc-dps-lidar-dem03-cross-section",
    "beach_dist_km": 162.36,
    "bridge_proximity_bonus": 0.0,
    "catchment_area_km2": 4.9756,
    "channel_width_m": 6.07,
    "channel_width_score": 1.0,
    "composite_score": 34.3698,
    "cso_density": 0.0,
    "ej_index": 0.5686,
    "elevation_m": 65.9965,
    "estuary_dist_km": 220.67,
    "feasibility_score": 39.7959,
    "flood_q10_cfs": 698.12,
    "flow_score": 33.3739,
    "flow_velocity_ms": 0.0954,
    "generation_score": 34.1583,
    "impact_score": 32.6981,
    "impervious_pct": 6.49,
    "land_ownership": 0.5,
    "lat": 35.584,
    "litter_complaint_density": 0.0,
    "lon": -78.3925,
    "navigable_dist_m": null,
    "npdes_points": 0,
    "pixel_col": 194.0,
    "pixel_row": 493.0,
    "population_density": 135.8,
    "position_along": 0.3,
    "protected_area_score": 7.7509,
    "rank": 17,
    "road_access_m": 308.2,
    "road_access_score": 0.8,
    "road_density_km_km2": 3.951,
    "robustness_pct": 0.0,
    "runoff_coeff_C": 0.1084,
    "seasonal_cv": 0.4296,
    "segment_id": 4,
    "segment_length_m": 8339.3105,
    "stream_order": 3,
    "superfund_score": 0.0065,
    "tourism_amenity_density": 0.0796,
    "tri_facility_density": 0.0,
    "usgs_mean_q_cfs": 4.709,
    "velocity_feasibility": 0.7,
    "water_intake_score": 1.7418
   },
   "type": "Feature"
  },
  {
   "geometry": {
    "coordinates": [
     -78.367656,
     35.561326
    ],
    "type": "Point"
   },
   "properties": {
    "accumulation": 21661.0,
    "bank_slope_deg": 9.56,
    "bank_slope_score": 1.0,
    "bank_slope_source": "nc-dps-lidar-dem03-cross-section",
    "beach_dist_km": 159.23,
    "bridge_proximity_bonus": 0.0,
    "catchment_area_km2": 2.1636,
    "channel_width_m": 4.3,
    "channel_width_score": 1.0,
    "composite_score": 34.2951,
    "cso_density": 0.0,
    "ej_index": 0.5441,
    "elevation_m": 45.8315,
    "estuary_dist_km": 217.86,
    "feasibility_score": 39.7959,
    "flood_q10_cfs": 357.77,
    "flow_score": 20.1629,
    "flow_velocity_ms": 0.0862,
    "generation_score": 34.8518,
    "impact_score": 42.7649,
    "impervious_pct": 4.15,
    "land_ownership": 0.5,
    "lat": 35.5613,
    "litter_complaint_density": 0.0,
    "lon": -78.3677,
    "navigable_dist_m": null,
    "npdes_points": 0,
    "pixel_col": 427.0,
    "pixel_row": 738.0,
    "population_density": 158.4,
    "position_along": 0.5,
    "protected_area_score": 7.1782,
    "rank": 18,
    "road_access_m": 232.9,
    "road_access_score": 0.8,
    "road_density_km_km2": 3.698,
    "robustness_pct": 0.0,
    "runoff_coeff_C": 0.0874,
    "seasonal_cv": 0.4187,
    "segment_id": 11,
    "segment_length_m": 894.4651,
    "stream_order": 3,
    "superfund_score": 0.0055,
    "tourism_amenity_density": 0.0796,
    "tri_facility_density": 0.0,
    "usgs_mean_q_cfs": 1.324,
    "velocity_feasibility": 0.7,
    "water_intake_score": 2.064
   },
   "type": "Feature"
  },
  {
   "geometry": {
    "coordinates": [
     -78.408974,
     35.586407
    ],
    "type": "Point"
   },
   "properties": {
    "accumulation": 27157.0,
    "bank_slope_deg": 6.05,
    "bank_slope_score": 1.0,
    "bank_slope_source": "nc-dps-lidar-dem03-cross-section",
    "beach_dist_km": 163.13,
    "bridge_proximity_bonus": 0.0,
    "catchment_area_km2": 2.7126,
    "channel_width_m": 4.72,
    "channel_width_score": 1.0,
    "composite_score": 33.7301,
    "cso_density": 0.0,
    "ej_index": 0.4112,
    "elevation_m": 69.6762,
    "estuary_dist_km": 222.18,
    "feasibility_score": 71.4286,
    "flood_q10_cfs": 531.39,
    "flow_score": 13.7252,
    "flow_velocity_ms": 0.0901,
    "generation_score": 40.7936,
    "impact_score": 24.4882,
    "impervious_pct": 17.02,
    "land_ownership": 1.0,
    "lat": 35.5864,
    "litter_complaint_density": 0.0,
    "lon": -78.409,
    "navigable_dist_m": null,
    "npdes_points": 1,
    "pixel_col": 41.0,
    "pixel_row": 469.0,
    "population_density": 105.8,
    "position_along": 0.5,
    "protected_area_score": 8.3005,
    "rank": 19,
    "road_access_m": 198.1,
    "road_access_score": 1.0,
    "road_density_km_km2": 2.751,
    "robustness_pct": 7.5,
    "runoff_coeff_C": 0.2032,
    "seasonal_cv": 0.4178,
    "segment_id": 7,
    "segment_length_m": 1170.5819,
    "stream_order": 1,
    "superfund_score": 0.0074,
    "tourism_amenity_density": 0.0796,
    "tri_facility_density": 0.0,
    "usgs_mean_q_cfs": 2.17,
    "velocity_feasibility": 0.7,
    "water_intake_score": 1.563
   },
   "type": "Feature"
  },
  {
   "geometry": {
    "coordinates": [
     -78.392778,
     35.595056
    ],
    "type": "Point"
   },
   "properties": {
    "accumulation": 32900.0,
    "bank_slope_deg": 5.31,
    "bank_slope_score": 1.0,
    "bank_slope_source": "nc-dps-lidar-dem03-cross-section",
    "beach_dist_km": 163.53,
    "bridge_proximity_bonus": 0.0,
    "catchment_area_km2": 3.2863,
    "channel_width_m": 5.11,
    "channel_width_score": 1.0,
    "composite_score": 32.2218,
    "cso_density": 0.0,
    "ej_index": 0.551,
    "elevation_m": 73.5041,
    "estuary_dist_km": 221.01,
    "feasibility_score": 39.7959,
    "flood_q10_cfs": 513.58,
    "flow_score": 25.2074,
    "flow_velocity_ms": 0.0877,
    "generation_score": 30.4798,
    "impact_score": 36.0219,
    "impervious_pct": 6.81,
    "land_ownership": 0.5,
    "lat": 35.5951,
    "litter_complaint_density": 0.0,
    "lon": -78.3928,
    "navigable_dist_m": null,
    "npdes_points": 0,
    "pixel_col": 188.0,
    "pixel_row": 370.0,
    "population_density": 123.8,
    "position_along": 0.1,
    "protected_area_score": 8.4857,
    "rank": 20,
    "road_access_m": 432.2,
    "road_access_score": 0.8,
    "road_density_km_km2": 3.554,
    "robustness_pct": 0.0,
    "runoff_coeff_C": 0.1113,
    "seasonal_cv": 0.4173,
    "segment_id": 4,
    "segment_length_m": 8339.3105,
    "stream_order": 3,
    "superfund_score": 0.008,
    "tourism_amenity_density": 0.0796,
    "tri_facility_density": 0.0,
    "usgs_mean_q_cfs": 2.086,
    "velocity_feasibility": 0.7,
    "water_intake_score": 1.6839
   },
   "type": "Feature"
  },
  {
   "geometry": {
    "coordinates": [
     -78.387199,
     35.550127
    ],
    "type": "Point"
   },
   "properties": {
    "accumulation": 29615.0,
    "bank_slope_deg": 0.85,
    "bank_slope_score": 1.0,
    "bank_slope_source": "nc-dps-lidar-dem03-cross-section",
    "beach_dist_km": 158.66,
    "bridge_proximity_bonus": 0.0,
    "catchment_area_km2": 2.9581,
    "channel_width_m": 4.89,
    "channel_width_score": 1.0,
    "composite_score": 29.3504,
    "cso_density": 0.0,
    "ej_index": 0.5501,
    "elevation_m": 42.2118,
    "estuary_dist_km": 219.26,
    "feasibility_score": 39.7959,
    "flood_q10_cfs": 493.49,
    "flow_score": 17.7382,
    "flow_velocity_ms": 0.0936,
    "generation_score": 32.003,
    "impact_score": 31.1518,
    "impervious_pct": 9.06,
    "land_ownership": 0.5,
    "lat": 35.5501,
    "litter_complaint_density": 0.0,
    "lon": -78.3872,
    "navigable_dist_m": null,
    "npdes_points": 4,
    "pixel_col": 253.0,
    "pixel_row": 867.0,
    "population_density": 99.3,
    "position_along": 0.5,
    "protected_area_score": 6.9086,
    "rank": 21,
    "road_access_m": 470.8,
    "road_access_score": 0.8,
    "road_density_km_km2": 2.449,
    "robustness_pct": 0.0,
    "runoff_coeff_C": 0.1315,
    "seasonal_cv": 0.4362,
    "segment_id": 16,
    "segment_length_m": 1475.9714,
    "stream_order": 1,
    "superfund_score": 0.0046,
    "tourism_amenity_density": 0.0,
    "tri_facility_density": 0.0,
    "usgs_mean_q_cfs": 6.099,
    "velocity_feasibility": 0.7,
    "water_intake_score": 1.8283
   },
   "type": "Feature"
  },
  {
   "geometry": {
    "coordinates": [
     -78.402029,
     35.565773
    ],
    "type": "Point"
   },
   "properties": {
    "accumulation": 20765.0,
    "bank_slope_deg": 7.65,
    "bank_slope_score": 1.0,
    "bank_slope_source": "nc-dps-lidar-dem03-cross-section",
    "beach_dist_km": 160.76,
    "bridge_proximity_bonus": 0.0,
    "catchment_area_km2": 2.0741,
    "channel_width_m": 4.22,
    "channel_width_score": 1.0,
    "composite_score": 19.066,
    "cso_density": 0.0,
    "ej_index": 0.278,
    "elevation_m": 52.4498,
    "estuary_dist_km": 220.99,
    "feasibility_score": 39.7959,
    "flood_q10_cfs": 377.65,
    "flow_score": 15.1323,
    "flow_velocity_ms": 0.0792,
    "generation_score": 16.631,
    "impact_score": 14.4141,
    "impervious_pct": 9.06,
    "land_ownership": 0.5,
    "lat": 35.5658,
    "litter_complaint_density": 0.0,
    "lon": -78.402,
    "navigable_dist_m": null,
    "npdes_points": 0,
    "pixel_col": 113.0,
    "pixel_row": 697.0,
    "population_density": 81.1,
    "position_along": 0.5,
    "protected_area_score": 7.2039,
    "rank": 22,
    "road_access_m": 267.0,
    "road_access_score": 0.8,
    "road_density_km_km2": 1.468,
    "robustness_pct": 0.0,
    "runoff_coeff_C": 0.1315,
    "seasonal_cv": 0.4362,
    "segment_id": 10,
    "segment_length_m": 153.0499,
    "stream_order": 1,
    "superfund_score": 0.005,
    "tourism_amenity_density": 0.0,
    "tri_facility_density": 0.0,
    "usgs_mean_q_cfs": 6.099,
    "velocity_feasibility": 0.7,
    "water_intake_score": 1.6765
   },
   "type": "Feature"
  }
 ],
 "note": "GRIME region 'Wilson's Mills, NC' \u2014 real-data pipeline (DEM\u2192streams\u2192candidates\u2192stream mask (sites confined to \u00b1150 m of mapped OSM/NHD waterways)\u2192region-appropriate real parameters\u2192shipped scoring, math unchanged). Width curve: Bieger et al. 2015 JAWRA Table 3, Appalachian Highlands. Flood: SIR 2014-5030 HR1. NC Piedmont (DEQ physiography polygon)",
 "provenance": {
  "candidates_pre_gate": 22,
  "constant": [
   "bridge_proximity_bonus",
   "channel_width_score",
   "cso_density",
   "litter_complaint_density"
  ],
  "gated_navigable": 0,
  "hard_gate_removed": 0,
  "n_parameters": 27,
  "parameters": {
   "bank_slope_score": {
    "kind": "real",
    "n_3dep_10m_fallback": 0,
    "n_nc_lidar_3_125ft": 22,
    "n_real": 22,
    "n_sites": 22,
    "source": "NC OneMap / NC DPS DEM03 statewide lidar-derived 3.125-ft (0.953 m) elevations (perpendicular 50 m transect; robust 5 m bank-rise metric); unavailable profiles use the region 10 m 3DEP DEM-gradient fallback",
    "source_mosaics": [
     "Johnston_Ground_3ft"
    ]
   },
   "beach_dist_km": {
    "kind": "real",
    "n_real": 22,
    "n_sites": 22,
    "source": "haversine to region ref: Wrightsville Beach (shipped NC reference)"
   },
   "bridge_proximity_bonus": {
    "kind": "real",
    "n_real": 22,
    "n_sites": 22,
    "source": "FHWA/BTS NBI (NTAD), 50 m proximity"
   },
   "catchment_area_km2": {
    "kind": "real",
    "n_real": 22,
    "n_sites": 22,
    "source": "DEM flow accumulation (pipeline)"
   },
   "channel_width_score": {
    "kind": "real",
    "n_real": 22,
    "n_sites": 22,
    "source": "Bieger 2015 AHI width curve on DEM drainage area \u2192 shipped width curve"
   },
   "cso_density": {
    "kind": "real",
    "n_real": 22,
    "n_sites": 22,
    "source": "EPA ECHO open CSO/TCS outfall PF coordinates states=NC, Cauchy proximity"
   },
   "ej_index": {
    "kind": "real",
    "n_real": 22,
    "n_sites": 22,
    "source": "Census ACS C17002+B03002 two-component demographic index, percentile-ranked within region"
   },
   "estuary_dist_km": {
    "kind": "real",
    "n_real": 22,
    "n_sites": 22,
    "source": "haversine to region ref: Pamlico Sound (shipped NC reference)"
   },
   "flood_q10_cfs": {
    "impervious_fallback_reason": "StreamCat imperviousness unavailable; the existing regression-input fallback of 0.0% impervious was used and is disclosed here",
    "kind": "real",
    "n_impervious_fallback": 4,
    "n_real": 22,
    "n_sites": 22,
    "source": "USGS SIR 2014-5030 Table 7 HR1 (NC Piedmont)"
   },
   "flow_velocity_ms": {
    "fallback_reason": "EROM/DEM continuity input unavailable; shipped 0.5 m/s default used",
    "kind": "real",
    "n_fallback": 4,
    "n_real": 18,
    "n_sites": 22,
    "source": "Manning (region DEM/D8) blended with EROM continuity (shipped M4 logic)"
   },
   "impervious_pct": {
    "fallback_reason": "NLDI/StreamCat did not return a snap-compatible catchment value; value remains null and is removed by constant-column handling",
    "kind": "real",
    "n_fallback": 4,
    "n_real": 18,
    "n_sites": 22,
    "source": "EPA StreamCat pctimp2019 (per NHDPlus watershed)"
   },
   "land_ownership": {
    "fallback_reason": "no containing parcel owner returned; shipped unknown ownership 0.5 used",
    "kind": "real",
    "n_fallback": 2,
    "n_real": 20,
    "n_sites": 22,
    "source": "NC OneMap statewide parcels (NC Parcels Transformer) ownname"
   },
   "litter_complaint_density": {
    "kind": "fallback",
    "n_real": 0,
    "n_sites": 22,
    "source": "no public machine-readable litter/illegal-dumping feed for this region"
   },
   "navigable_dist_m": {
    "kind": "real",
    "n_real": 22,
    "n_sites": 22,
    "source": "USACE/BTS NWN (NTAD): no navigable segment within this bbox (+2 km) \u2014 computed absence, gate passes all sites"
   },
   "npdes_points": {
    "kind": "real",
    "n_real": 22,
    "n_sites": 22,
    "source": "EPA ECHO active NPDES outfalls states=NC (types NPD/GPC/NGP; statuses ADC/EFF/EXP), per catchment"
   },
   "population_density": {
    "kind": "real",
    "n_real": 22,
    "n_sites": 22,
    "source": "Census ACS 2022 B01003 block groups (bbox, multi-county), area-weighted"
   },
   "protected_area_score": {
    "kind": "real",
    "n_real": 22,
    "n_sites": 22,
    "source": "USGS PAD-US 4.1 state GDB; states=NC; shipped designation-weighted proximity curve"
   },
   "road_access_score": {
    "kind": "real",
    "n_real": 22,
    "n_sites": 22,
    "source": "OSM drive network nearest-node distance"
   },
   "road_density_km_km2": {
    "kind": "real",
    "n_real": 22,
    "n_sites": 22,
    "source": "OSM drive network (osmnx, cached) clipped per catchment"
   },
   "runoff_coeff_C": {
    "fallback_reason": "source impervious_pct was unavailable; derived value remains null",
    "kind": "real",
    "n_fallback": 4,
    "n_real": 18,
    "n_sites": 22,
    "source": "derived from real impervious_pct (C=0.05+0.009*I)"
   },
   "seasonal_cv": {
    "fallback_reason": "NHDPlus monthly EROM was unavailable or failed the drainage-area snap guard; value remains null",
    "kind": "real",
    "n_fallback": 4,
    "n_real": 18,
    "n_sites": 22,
    "source": "CV of NHDPlus EROM monthly flows per COMID"
   },
   "stream_order": {
    "kind": "real",
    "n_real": 22,
    "n_sites": 22,
    "source": "DEM stream-network confluence heuristic (pipeline)"
   },
   "superfund_score": {
    "kind": "real",
    "n_real": 22,
    "n_sites": 22,
    "source": "EPA DataMap SEMS active sites states=NC (non-archived, georeferenced), shipped 500 m inverse-distance curve"
   },
   "tourism_amenity_density": {
    "kind": "real",
    "n_real": 22,
    "n_sites": 22,
    "source": "OSM leisure/tourism features per 2 km radius"
   },
   "tri_facility_density": {
    "kind": "real",
    "n_real": 22,
    "n_sites": 22,
    "source": "EPA DataMap TRI open facilities states=NC (preferred decimal or packed-DMS recovery), per catchment"
   },
   "usgs_mean_q_cfs": {
    "fallback_reason": "NHDPlus EROM was unavailable or failed the drainage-area snap guard; value remains null",
    "kind": "real",
    "n_fallback": 4,
    "n_real": 18,
    "n_sites": 22,
    "source": "NHDPlus EROM qe_ma per COMID (snap-guarded)"
   },
   "velocity_feasibility": {
    "fallback_reason": "derived from the shipped 0.5 m/s velocity fallback",
    "kind": "real",
    "n_fallback": 4,
    "n_real": 18,
    "n_sites": 22,
    "source": "shipped step curve on the computed velocity"
   },
   "velocity_transport_favorability": {
    "fallback_reason": "EROM/DEM continuity input unavailable; shipped 0.5 m/s default used",
    "kind": "derived",
    "n_fallback": 4,
    "n_real": 18,
    "n_sites": 22,
    "source": "scored form of flow_velocity_ms inside the Flow family \u2014 peaked Gaussian exp(-((v-0.9)/0.6)^2), model.json curves.velocity_transport_favorability; construct: transport/delivery favorability, deliberately distinct from velocity_feasibility (device operability)"
   },
   "water_intake_score": {
    "kind": "real",
    "n_real": 22,
    "n_sites": 22,
    "source": "NC OneMap / NC DEQ SWAP public water supply sources (source_typ='Surface Water'), shipped exp(-d/10km) curve"
   }
  },
  "stream_mask": {
   "buffer_m": 150.0,
   "pre_mask": 22,
   "removed": 0,
   "sources": [
    "osm-overpass (all waterway ways)",
    "usgs-nhdplus flowlines"
   ]
  },
  "varying": [
   "bank_slope_score",
   "beach_dist_km",
   "catchment_area_km2",
   "ej_index",
   "estuary_dist_km",
   "flood_q10_cfs",
   "flow_velocity_ms",
   "impervious_pct",
   "land_ownership",
   "npdes_points",
   "population_density",
   "protected_area_score",
   "road_access_score",
   "road_density_km_km2",
   "runoff_coeff_C",
   "seasonal_cv",
   "stream_order",
   "superfund_score",
   "tourism_amenity_density",
   "tri_facility_density",
   "usgs_mean_q_cfs",
   "velocity_feasibility",
   "water_intake_score"
  ]
 },
 "region": {
  "bbox": [
   -78.4125,
   35.5459,
   -78.3134,
   35.6265
  ],
  "beach_ref": {
   "label": "Wrightsville Beach (shipped NC reference)",
   "lat": 34.21,
   "lon": -77.79
  },
  "center": [
   -78.362987,
   35.586155
  ],
  "estuary_ref": {
   "label": "Pamlico Sound (shipped NC reference)",
   "lat": 35.05,
   "lon": -76.05
  },
  "flood_method": "sir2014_hr1",
  "name": "Wilson's Mills, NC",
  "notes": "NC Piedmont (DEQ physiography polygon)",
  "slug": "wilsons-mills",
  "state": "NC",
  "utm_epsg": 32617,
  "width_curve": {
   "a": 3.12,
   "b": 0.415,
   "code": "AHI",
   "source": "Bieger et al. 2015 JAWRA Table 3, Appalachian Highlands"
  }
 },
 "type": "FeatureCollection"
}
