{
 "features": [
  {
   "geometry": {
    "coordinates": [
     -80.636561,
     36.131387
    ],
    "type": "Point"
   },
   "properties": {
    "accumulation": 35348.0,
    "bank_slope_deg": 7.14,
    "bank_slope_score": 1.0,
    "bank_slope_source": "nc-dps-lidar-dem03-cross-section",
    "beach_dist_km": 335.52,
    "bridge_proximity_bonus": 0.0,
    "catchment_area_km2": 3.5282,
    "channel_width_m": 5.26,
    "channel_width_score": 1.0,
    "composite_score": 54.5565,
    "cso_density": 0.0,
    "ej_index": 0.7772,
    "elevation_m": 257.0699,
    "estuary_dist_km": 431.76,
    "feasibility_score": 40.9091,
    "flood_q10_cfs": 627.95,
    "flow_score": 22.7938,
    "flow_velocity_ms": 0.125,
    "generation_score": 78.5713,
    "impact_score": 63.8345,
    "impervious_pct": 15.24,
    "land_ownership": 0.5,
    "lat": 36.1314,
    "litter_complaint_density": 0.0,
    "lon": -80.6366,
    "navigable_dist_m": null,
    "npdes_points": 0,
    "pixel_col": 512.0,
    "pixel_row": 303.0,
    "population_density": 137.8,
    "position_along": 0.5,
    "protected_area_score": 4.1882,
    "rank": 1,
    "road_access_m": 263.5,
    "road_access_score": 0.8,
    "road_density_km_km2": 3.334,
    "robustness_pct": 94.0,
    "runoff_coeff_C": 0.1872,
    "seasonal_cv": 0.3813,
    "segment_id": 4,
    "segment_length_m": 2815.0227,
    "stream_order": 1,
    "superfund_score": 0.0119,
    "tourism_amenity_density": 1.0345,
    "tri_facility_density": 0.2834,
    "usgs_mean_q_cfs": 2.968,
    "velocity_feasibility": 0.7,
    "water_intake_score": 1.7421
   },
   "type": "Feature"
  },
  {
   "geometry": {
    "coordinates": [
     -80.637485,
     36.13822
    ],
    "type": "Point"
   },
   "properties": {
    "accumulation": 70092.0,
    "bank_slope_deg": 2.6,
    "bank_slope_score": 1.0,
    "bank_slope_source": "nc-dps-lidar-dem03-cross-section",
    "beach_dist_km": 336.06,
    "bridge_proximity_bonus": 0.0,
    "catchment_area_km2": 6.9962,
    "channel_width_m": 6.99,
    "channel_width_score": 1.0,
    "composite_score": 52.743,
    "cso_density": 0.0,
    "ej_index": 0.6523,
    "elevation_m": 245.6572,
    "estuary_dist_km": 432.04,
    "feasibility_score": 77.2727,
    "flood_q10_cfs": 805.66,
    "flow_score": 56.659,
    "flow_velocity_ms": 0.5,
    "generation_score": 42.1343,
    "impact_score": 47.8233,
    "impervious_pct": null,
    "land_ownership": 0.5,
    "lat": 36.1382,
    "litter_complaint_density": 0.0,
    "lon": -80.6375,
    "navigable_dist_m": null,
    "npdes_points": 0,
    "pixel_col": 503.0,
    "pixel_row": 230.0,
    "population_density": 106.1,
    "position_along": 0.5,
    "protected_area_score": 4.2922,
    "rank": 2,
    "road_access_m": 286.5,
    "road_access_score": 0.8,
    "road_density_km_km2": 2.212,
    "robustness_pct": 100.0,
    "runoff_coeff_C": null,
    "seasonal_cv": null,
    "segment_id": 3,
    "segment_length_m": 2910.4972,
    "stream_order": 3,
    "superfund_score": 0.0151,
    "tourism_amenity_density": 0.0796,
    "tri_facility_density": 0.2859,
    "usgs_mean_q_cfs": null,
    "velocity_feasibility": 1.0,
    "water_intake_score": 1.6821
   },
   "type": "Feature"
  },
  {
   "geometry": {
    "coordinates": [
     -80.65036,
     36.143898
    ],
    "type": "Point"
   },
   "properties": {
    "accumulation": 22582.0,
    "bank_slope_deg": 15.72,
    "bank_slope_score": 0.5,
    "bank_slope_source": "nc-dps-lidar-dem03-cross-section",
    "beach_dist_km": 337.35,
    "bridge_proximity_bonus": 0.0,
    "catchment_area_km2": 2.254,
    "channel_width_m": 4.37,
    "channel_width_score": 1.0,
    "composite_score": 48.3644,
    "cso_density": 0.0,
    "ej_index": 0.5345,
    "elevation_m": 250.7379,
    "estuary_dist_km": 433.32,
    "feasibility_score": 45.4545,
    "flood_q10_cfs": 528.28,
    "flow_score": 27.9384,
    "flow_velocity_ms": 0.116,
    "generation_score": 70.8516,
    "impact_score": 44.3537,
    "impervious_pct": 24.66,
    "land_ownership": 0.5,
    "lat": 36.1439,
    "litter_complaint_density": 0.0,
    "lon": -80.6504,
    "navigable_dist_m": null,
    "npdes_points": 0,
    "pixel_col": 387.0,
    "pixel_row": 169.0,
    "population_density": 76.2,
    "position_along": 0.5,
    "protected_area_score": 4.5628,
    "rank": 3,
    "road_access_m": 178.8,
    "road_access_score": 1.0,
    "road_density_km_km2": 2.035,
    "robustness_pct": 79.5,
    "runoff_coeff_C": 0.2719,
    "seasonal_cv": 0.398,
    "segment_id": 2,
    "segment_length_m": 919.2656,
    "stream_order": 3,
    "superfund_score": 0.0326,
    "tourism_amenity_density": 0.7958,
    "tri_facility_density": 0.4437,
    "usgs_mean_q_cfs": 1.323,
    "velocity_feasibility": 0.7,
    "water_intake_score": 1.6117
   },
   "type": "Feature"
  },
  {
   "geometry": {
    "coordinates": [
     -80.649677,
     36.14551
    ],
    "type": "Point"
   },
   "properties": {
    "accumulation": 23331.0,
    "bank_slope_deg": 18.97,
    "bank_slope_score": 0.5,
    "bank_slope_source": "nc-dps-lidar-dem03-cross-section",
    "beach_dist_km": 337.42,
    "bridge_proximity_bonus": 0.0,
    "catchment_area_km2": 2.3288,
    "channel_width_m": 4.43,
    "channel_width_score": 1.0,
    "composite_score": 46.1786,
    "cso_density": 0.0,
    "ej_index": 0.5345,
    "elevation_m": 248.6697,
    "estuary_dist_km": 433.3,
    "feasibility_score": 81.8182,
    "flood_q10_cfs": 351.66,
    "flow_score": 40.1357,
    "flow_velocity_ms": 0.5,
    "generation_score": 36.311,
    "impact_score": 43.2623,
    "impervious_pct": null,
    "land_ownership": 0.5,
    "lat": 36.1455,
    "litter_complaint_density": 0.0,
    "lon": -80.6497,
    "navigable_dist_m": null,
    "npdes_points": 0,
    "pixel_col": 393.0,
    "pixel_row": 151.0,
    "population_density": 76.2,
    "position_along": 0.5,
    "protected_area_score": 4.5449,
    "rank": 4,
    "road_access_m": 168.4,
    "road_access_score": 1.0,
    "road_density_km_km2": 1.503,
    "robustness_pct": 90.0,
    "runoff_coeff_C": null,
    "seasonal_cv": null,
    "segment_id": 1,
    "segment_length_m": 1432.341,
    "stream_order": 3,
    "superfund_score": 0.0337,
    "tourism_amenity_density": 0.7958,
    "tri_facility_density": 0.4294,
    "usgs_mean_q_cfs": null,
    "velocity_feasibility": 1.0,
    "water_intake_score": 1.6007
   },
   "type": "Feature"
  },
  {
   "geometry": {
    "coordinates": [
     -80.662364,
     36.111992
    ],
    "type": "Point"
   },
   "properties": {
    "accumulation": 66156.0,
    "bank_slope_deg": 11.79,
    "bank_slope_score": 1.0,
    "bank_slope_source": "nc-dps-lidar-dem03-cross-section",
    "beach_dist_km": 335.99,
    "bridge_proximity_bonus": 0.0,
    "catchment_area_km2": 6.6033,
    "channel_width_m": 6.83,
    "channel_width_score": 1.0,
    "composite_score": 43.531,
    "cso_density": 0.0,
    "ej_index": 0.5376,
    "elevation_m": 239.2999,
    "estuary_dist_km": 433.46,
    "feasibility_score": 63.6364,
    "flood_q10_cfs": 899.58,
    "flow_score": 45.2559,
    "flow_velocity_ms": 0.196,
    "generation_score": 33.8385,
    "impact_score": 41.7334,
    "impervious_pct": 8.79,
    "land_ownership": 0.5,
    "lat": 36.112,
    "litter_complaint_density": 0.0,
    "lon": -80.6624,
    "navigable_dist_m": null,
    "npdes_points": 0,
    "pixel_col": 280.0,
    "pixel_row": 522.0,
    "population_density": 57.6,
    "position_along": 0.375,
    "protected_area_score": 4.0518,
    "rank": 5,
    "road_access_m": 140.2,
    "road_access_score": 1.0,
    "road_density_km_km2": 3.109,
    "robustness_pct": 74.5,
    "runoff_coeff_C": 0.1291,
    "seasonal_cv": 0.3852,
    "segment_id": 5,
    "segment_length_m": 7165.7215,
    "stream_order": 1,
    "superfund_score": 0.0091,
    "tourism_amenity_density": 0.1592,
    "tri_facility_density": 0.1514,
    "usgs_mean_q_cfs": 6.058,
    "velocity_feasibility": 0.7,
    "water_intake_score": 1.8779
   },
   "type": "Feature"
  },
  {
   "geometry": {
    "coordinates": [
     -80.647082,
     36.110664
    ],
    "type": "Point"
   },
   "properties": {
    "accumulation": 92951.0,
    "bank_slope_deg": 21.58,
    "bank_slope_score": 0.5,
    "bank_slope_source": "nc-dps-lidar-dem03-cross-section",
    "beach_dist_km": 334.82,
    "bridge_proximity_bonus": 0.0,
    "catchment_area_km2": 9.2778,
    "channel_width_m": 7.86,
    "channel_width_score": 1.0,
    "composite_score": 40.1635,
    "cso_density": 0.0,
    "ej_index": 0.4528,
    "elevation_m": 228.3634,
    "estuary_dist_km": 432.09,
    "feasibility_score": 22.7273,
    "flood_q10_cfs": 1107.97,
    "flow_score": 52.0911,
    "flow_velocity_ms": 0.1425,
    "generation_score": 26.853,
    "impact_score": 52.2525,
    "impervious_pct": 8.79,
    "land_ownership": 0.5,
    "lat": 36.1107,
    "litter_complaint_density": 0.0,
    "lon": -80.6471,
    "navigable_dist_m": null,
    "npdes_points": 0,
    "pixel_col": 418.0,
    "pixel_row": 537.0,
    "population_density": 57.6,
    "position_along": 0.625,
    "protected_area_score": 3.9546,
    "rank": 6,
    "road_access_m": 406.3,
    "road_access_score": 0.8,
    "road_density_km_km2": 2.427,
    "robustness_pct": 26.5,
    "runoff_coeff_C": 0.1291,
    "seasonal_cv": 0.3852,
    "segment_id": 5,
    "segment_length_m": 7165.7215,
    "stream_order": 1,
    "superfund_score": 0.0073,
    "tourism_amenity_density": 1.4324,
    "tri_facility_density": 0.1078,
    "usgs_mean_q_cfs": 6.058,
    "velocity_feasibility": 0.7,
    "water_intake_score": 1.9227
   },
   "type": "Feature"
  },
  {
   "geometry": {
    "coordinates": [
     -80.631601,
     36.110434
    ],
    "type": "Point"
   },
   "properties": {
    "accumulation": 121981.0,
    "bank_slope_deg": 16.45,
    "bank_slope_score": 0.5,
    "bank_slope_source": "nc-dps-lidar-dem03-cross-section",
    "beach_dist_km": 333.72,
    "bridge_proximity_bonus": 0.0,
    "catchment_area_km2": 12.1754,
    "channel_width_m": 8.8,
    "channel_width_score": 1.0,
    "composite_score": 38.5192,
    "cso_density": 0.0,
    "ej_index": 0.4502,
    "elevation_m": 225.6136,
    "estuary_dist_km": 430.74,
    "feasibility_score": 36.3636,
    "flood_q10_cfs": 1140.69,
    "flow_score": 58.0,
    "flow_velocity_ms": 0.5,
    "generation_score": 1.9043,
    "impact_score": 59.978,
    "impervious_pct": null,
    "land_ownership": 0.5,
    "lat": 36.1104,
    "litter_complaint_density": 0.0,
    "lon": -80.6316,
    "navigable_dist_m": null,
    "npdes_points": 0,
    "pixel_col": 557.0,
    "pixel_row": 536.0,
    "population_density": 63.2,
    "position_along": 0.875,
    "protected_area_score": 4.1527,
    "rank": 7,
    "road_access_m": 923.0,
    "road_access_score": 0.6,
    "road_density_km_km2": 0.934,
    "robustness_pct": 26.5,
    "runoff_coeff_C": null,
    "seasonal_cv": null,
    "segment_id": 5,
    "segment_length_m": 7165.7215,
    "stream_order": 1,
    "superfund_score": 0.0058,
    "tourism_amenity_density": 1.3528,
    "tri_facility_density": 0.0,
    "usgs_mean_q_cfs": null,
    "velocity_feasibility": 1.0,
    "water_intake_score": 1.8701
   },
   "type": "Feature"
  },
  {
   "geometry": {
    "coordinates": [
     -80.675334,
     36.154283
    ],
    "type": "Point"
   },
   "properties": {
    "accumulation": 27566.0,
    "bank_slope_deg": 0.71,
    "bank_slope_score": 1.0,
    "bank_slope_source": "nc-dps-lidar-dem03-cross-section",
    "beach_dist_km": 339.83,
    "bridge_proximity_bonus": 0.0,
    "catchment_area_km2": 2.7515,
    "channel_width_m": 4.75,
    "channel_width_score": 1.0,
    "composite_score": 33.2785,
    "cso_density": 0.0,
    "ej_index": 0.4975,
    "elevation_m": 261.6479,
    "estuary_dist_km": 435.78,
    "feasibility_score": 100.0,
    "flood_q10_cfs": 398.77,
    "flow_score": 27.7385,
    "flow_velocity_ms": 0.5,
    "generation_score": 13.8504,
    "impact_score": 23.9626,
    "impervious_pct": null,
    "land_ownership": 0.5,
    "lat": 36.1543,
    "litter_complaint_density": 0.0,
    "lon": -80.6753,
    "navigable_dist_m": null,
    "npdes_points": 0,
    "pixel_col": 162.0,
    "pixel_row": 51.0,
    "population_density": 80.6,
    "position_along": 0.5,
    "protected_area_score": 4.4177,
    "rank": 8,
    "road_access_m": 109.2,
    "road_access_score": 1.0,
    "road_density_km_km2": 1.889,
    "robustness_pct": 9.0,
    "runoff_coeff_C": null,
    "seasonal_cv": null,
    "segment_id": 0,
    "segment_length_m": 1092.9516,
    "stream_order": 1,
    "superfund_score": 0.6115,
    "tourism_amenity_density": 0.2387,
    "tri_facility_density": 0.0,
    "usgs_mean_q_cfs": null,
    "velocity_feasibility": 1.0,
    "water_intake_score": 1.4852
   },
   "type": "Feature"
  },
  {
   "geometry": {
    "coordinates": [
     -80.674139,
     36.11959
    ],
    "type": "Point"
   },
   "properties": {
    "accumulation": 25096.0,
    "bank_slope_deg": 9.94,
    "bank_slope_score": 1.0,
    "bank_slope_source": "nc-dps-lidar-dem03-cross-section",
    "beach_dist_km": 337.34,
    "bridge_proximity_bonus": 0.0,
    "catchment_area_km2": 2.5049,
    "channel_width_m": 4.57,
    "channel_width_score": 1.0,
    "composite_score": 28.7949,
    "cso_density": 0.0,
    "ej_index": 0.6034,
    "elevation_m": 264.2278,
    "estuary_dist_km": 434.69,
    "feasibility_score": 40.9091,
    "flood_q10_cfs": 433.31,
    "flow_score": 27.5625,
    "flow_velocity_ms": 0.1333,
    "generation_score": 20.4544,
    "impact_score": 32.1054,
    "impervious_pct": 8.79,
    "land_ownership": 0.5,
    "lat": 36.1196,
    "litter_complaint_density": 0.0,
    "lon": -80.6741,
    "navigable_dist_m": null,
    "npdes_points": 0,
    "pixel_col": 174.0,
    "pixel_row": 438.0,
    "population_density": 58.9,
    "position_along": 0.125,
    "protected_area_score": 4.0575,
    "rank": 9,
    "road_access_m": 321.2,
    "road_access_score": 0.8,
    "road_density_km_km2": 2.393,
    "robustness_pct": 0.0,
    "runoff_coeff_C": 0.1291,
    "seasonal_cv": 0.3852,
    "segment_id": 5,
    "segment_length_m": 7165.7215,
    "stream_order": 1,
    "superfund_score": 0.0137,
    "tourism_amenity_density": 0.2387,
    "tri_facility_density": 0.0,
    "usgs_mean_q_cfs": 6.058,
    "velocity_feasibility": 0.7,
    "water_intake_score": 1.7192
   },
   "type": "Feature"
  }
 ],
 "note": "GRIME region 'Yadkinville, NC' \u2014 real-data pipeline (DEM\u2192streams\u2192candidates\u2192stream mask (sites confined to \u00b1150 m of mapped OSM/NHD waterways)\u2192region-appropriate real parameters\u2192shipped scoring, math unchanged). Width curve: Bieger et al. 2015 JAWRA Table 3, Appalachian Highlands. Flood: SIR 2014-5030 HR1. NC Piedmont (DEQ physiography polygon)",
 "provenance": {
  "candidates_pre_gate": 9,
  "constant": [
   "bridge_proximity_bonus",
   "channel_width_score",
   "cso_density",
   "land_ownership",
   "litter_complaint_density",
   "npdes_points"
  ],
  "gated_navigable": 0,
  "hard_gate_removed": 0,
  "n_parameters": 27,
  "parameters": {
   "bank_slope_score": {
    "kind": "real",
    "n_3dep_10m_fallback": 0,
    "n_nc_lidar_3_125ft": 9,
    "n_real": 9,
    "n_sites": 9,
    "source": "NC OneMap / NC DPS DEM03 statewide lidar-derived 3.125-ft (0.953 m) elevations (perpendicular 50 m transect; robust 5 m bank-rise metric); unavailable profiles use the region 10 m 3DEP DEM-gradient fallback",
    "source_mosaics": [
     "Yadkin_Ground_3ft"
    ]
   },
   "beach_dist_km": {
    "kind": "real",
    "n_real": 9,
    "n_sites": 9,
    "source": "haversine to region ref: Wrightsville Beach (shipped NC reference)"
   },
   "bridge_proximity_bonus": {
    "kind": "real",
    "n_real": 9,
    "n_sites": 9,
    "source": "FHWA/BTS NBI (NTAD), 50 m proximity"
   },
   "catchment_area_km2": {
    "kind": "real",
    "n_real": 9,
    "n_sites": 9,
    "source": "DEM flow accumulation (pipeline)"
   },
   "channel_width_score": {
    "kind": "real",
    "n_real": 9,
    "n_sites": 9,
    "source": "Bieger 2015 AHI width curve on DEM drainage area \u2192 shipped width curve"
   },
   "cso_density": {
    "kind": "real",
    "n_real": 9,
    "n_sites": 9,
    "source": "EPA ECHO open CSO/TCS outfall PF coordinates states=NC, Cauchy proximity"
   },
   "ej_index": {
    "kind": "real",
    "n_real": 9,
    "n_sites": 9,
    "source": "Census ACS C17002+B03002 two-component demographic index, percentile-ranked within region"
   },
   "estuary_dist_km": {
    "kind": "real",
    "n_real": 9,
    "n_sites": 9,
    "source": "haversine to region ref: Pamlico Sound (shipped NC reference)"
   },
   "flood_q10_cfs": {
    "impervious_fallback_reason": "StreamCat imperviousness unavailable; the existing regression-input fallback of 0.0% impervious was used and is disclosed here",
    "kind": "real",
    "n_impervious_fallback": 4,
    "n_real": 9,
    "n_sites": 9,
    "source": "USGS SIR 2014-5030 Table 7 HR1 (NC Piedmont)"
   },
   "flow_velocity_ms": {
    "fallback_reason": "EROM/DEM continuity input unavailable; shipped 0.5 m/s default used",
    "kind": "real",
    "n_fallback": 4,
    "n_real": 5,
    "n_sites": 9,
    "source": "Manning (region DEM/D8) blended with EROM continuity (shipped M4 logic)"
   },
   "impervious_pct": {
    "fallback_reason": "NLDI/StreamCat did not return a snap-compatible catchment value; value remains null and is removed by constant-column handling",
    "kind": "real",
    "n_fallback": 4,
    "n_real": 5,
    "n_sites": 9,
    "source": "EPA StreamCat pctimp2019 (per NHDPlus watershed)"
   },
   "land_ownership": {
    "fallback_reason": "no containing parcel owner returned; shipped unknown ownership 0.5 used",
    "kind": "real",
    "n_fallback": 1,
    "n_real": 8,
    "n_sites": 9,
    "source": "NC OneMap statewide parcels (NC Parcels Transformer) ownname"
   },
   "litter_complaint_density": {
    "kind": "fallback",
    "n_real": 0,
    "n_sites": 9,
    "source": "no public machine-readable litter/illegal-dumping feed for this region"
   },
   "navigable_dist_m": {
    "kind": "real",
    "n_real": 9,
    "n_sites": 9,
    "source": "USACE/BTS NWN (NTAD): no navigable segment within this bbox (+2 km) \u2014 computed absence, gate passes all sites"
   },
   "npdes_points": {
    "kind": "real",
    "n_real": 9,
    "n_sites": 9,
    "source": "EPA ECHO active NPDES outfalls states=NC (types NPD/GPC/NGP; statuses ADC/EFF/EXP), per catchment"
   },
   "population_density": {
    "kind": "real",
    "n_real": 9,
    "n_sites": 9,
    "source": "Census ACS 2022 B01003 block groups (bbox, multi-county), area-weighted"
   },
   "protected_area_score": {
    "kind": "real",
    "n_real": 9,
    "n_sites": 9,
    "source": "USGS PAD-US 4.1 state GDB; states=NC; shipped designation-weighted proximity curve"
   },
   "road_access_score": {
    "kind": "real",
    "n_real": 9,
    "n_sites": 9,
    "source": "OSM drive network nearest-node distance"
   },
   "road_density_km_km2": {
    "kind": "real",
    "n_real": 9,
    "n_sites": 9,
    "source": "OSM drive network (osmnx, cached) clipped per catchment"
   },
   "runoff_coeff_C": {
    "fallback_reason": "source impervious_pct was unavailable; derived value remains null",
    "kind": "real",
    "n_fallback": 4,
    "n_real": 5,
    "n_sites": 9,
    "source": "derived from real impervious_pct (C=0.05+0.009*I)"
   },
   "seasonal_cv": {
    "fallback_reason": "NHDPlus monthly EROM was unavailable or failed the drainage-area snap guard; value remains null",
    "kind": "real",
    "n_fallback": 4,
    "n_real": 5,
    "n_sites": 9,
    "source": "CV of NHDPlus EROM monthly flows per COMID"
   },
   "stream_order": {
    "kind": "real",
    "n_real": 9,
    "n_sites": 9,
    "source": "DEM stream-network confluence heuristic (pipeline)"
   },
   "superfund_score": {
    "kind": "real",
    "n_real": 9,
    "n_sites": 9,
    "source": "EPA DataMap SEMS active sites states=NC (non-archived, georeferenced), shipped 500 m inverse-distance curve"
   },
   "tourism_amenity_density": {
    "kind": "real",
    "n_real": 9,
    "n_sites": 9,
    "source": "OSM leisure/tourism features per 2 km radius"
   },
   "tri_facility_density": {
    "kind": "real",
    "n_real": 9,
    "n_sites": 9,
    "source": "EPA DataMap TRI open facilities states=NC (preferred decimal or packed-DMS recovery), per catchment"
   },
   "usgs_mean_q_cfs": {
    "fallback_reason": "NHDPlus EROM was unavailable or failed the drainage-area snap guard; value remains null",
    "kind": "real",
    "n_fallback": 4,
    "n_real": 5,
    "n_sites": 9,
    "source": "NHDPlus EROM qe_ma per COMID (snap-guarded)"
   },
   "velocity_feasibility": {
    "fallback_reason": "derived from the shipped 0.5 m/s velocity fallback",
    "kind": "real",
    "n_fallback": 4,
    "n_real": 5,
    "n_sites": 9,
    "source": "shipped step curve on the computed velocity"
   },
   "velocity_transport_favorability": {
    "fallback_reason": "EROM/DEM continuity input unavailable; shipped 0.5 m/s default used",
    "kind": "derived",
    "n_fallback": 4,
    "n_real": 5,
    "n_sites": 9,
    "source": "scored form of flow_velocity_ms inside the Flow family \u2014 peaked Gaussian exp(-((v-0.9)/0.6)^2), model.json curves.velocity_transport_favorability; construct: transport/delivery favorability, deliberately distinct from velocity_feasibility (device operability)"
   },
   "water_intake_score": {
    "kind": "real",
    "n_real": 9,
    "n_sites": 9,
    "source": "NC OneMap / NC DEQ SWAP public water supply sources (source_typ='Surface Water'), shipped exp(-d/10km) curve"
   }
  },
  "stream_mask": {
   "buffer_m": 150.0,
   "pre_mask": 9,
   "removed": 0,
   "sources": [
    "osm-overpass (all waterway ways)",
    "usgs-nhdplus flowlines"
   ]
  },
  "varying": [
   "bank_slope_score",
   "beach_dist_km",
   "catchment_area_km2",
   "ej_index",
   "estuary_dist_km",
   "flood_q10_cfs",
   "flow_velocity_ms",
   "impervious_pct",
   "population_density",
   "protected_area_score",
   "road_access_score",
   "road_density_km_km2",
   "runoff_coeff_C",
   "seasonal_cv",
   "stream_order",
   "superfund_score",
   "tourism_amenity_density",
   "tri_facility_density",
   "usgs_mean_q_cfs",
   "velocity_feasibility",
   "water_intake_score"
  ]
 },
 "region": {
  "bbox": [
   -80.6931,
   36.1043,
   -80.6255,
   36.1589
  ],
  "beach_ref": {
   "label": "Wrightsville Beach (shipped NC reference)",
   "lat": 34.21,
   "lon": -77.79
  },
  "center": [
   -80.659328,
   36.131563
  ],
  "estuary_ref": {
   "label": "Pamlico Sound (shipped NC reference)",
   "lat": 35.05,
   "lon": -76.05
  },
  "flood_method": "sir2014_hr1",
  "name": "Yadkinville, NC",
  "notes": "NC Piedmont (DEQ physiography polygon)",
  "slug": "yadkinville",
  "state": "NC",
  "utm_epsg": 32617,
  "width_curve": {
   "a": 3.12,
   "b": 0.415,
   "code": "AHI",
   "source": "Bieger et al. 2015 JAWRA Table 3, Appalachian Highlands"
  }
 },
 "type": "FeatureCollection"
}
