{
 "features": [
  {
   "geometry": {
    "coordinates": [
     -79.336181,
     36.38663
    ],
    "type": "Point"
   },
   "properties": {
    "accumulation": 88350.0,
    "bank_slope_deg": 1.33,
    "bank_slope_score": 1.0,
    "bank_slope_source": "nc-dps-lidar-dem03-cross-section",
    "beach_dist_km": 279.75,
    "bridge_proximity_bonus": 0.0,
    "catchment_area_km2": 8.8105,
    "channel_width_m": 7.7,
    "channel_width_score": 1.0,
    "composite_score": 54.8966,
    "cso_density": 0.0,
    "ej_index": 0.7712,
    "elevation_m": 130.7441,
    "estuary_dist_km": 331.79,
    "feasibility_score": 89.7959,
    "flood_q10_cfs": 953.57,
    "flow_score": 52.9175,
    "flow_velocity_ms": 0.5,
    "generation_score": 21.7909,
    "impact_score": 72.202,
    "impervious_pct": null,
    "land_ownership": 1.0,
    "lat": 36.3866,
    "litter_complaint_density": 0.0,
    "lon": -79.3362,
    "navigable_dist_m": null,
    "npdes_points": 0,
    "pixel_col": 421.0,
    "pixel_row": 737.0,
    "population_density": 73.3,
    "position_along": 0.5,
    "protected_area_score": 3.0369,
    "rank": 1,
    "road_access_m": 464.7,
    "road_access_score": 0.8,
    "road_density_km_km2": 1.03,
    "robustness_pct": 96.0,
    "runoff_coeff_C": null,
    "seasonal_cv": null,
    "segment_id": 12,
    "segment_length_m": 1714.8417,
    "stream_order": 3,
    "superfund_score": 0.0038,
    "tourism_amenity_density": 0.7958,
    "tri_facility_density": 0.0,
    "usgs_mean_q_cfs": null,
    "velocity_feasibility": 1.0,
    "water_intake_score": 1.2859
   },
   "type": "Feature"
  },
  {
   "geometry": {
    "coordinates": [
     -79.351177,
     36.393814
    ],
    "type": "Point"
   },
   "properties": {
    "accumulation": 37337.0,
    "bank_slope_deg": 1.05,
    "bank_slope_score": 1.0,
    "bank_slope_source": "nc-dps-lidar-dem03-cross-section",
    "beach_dist_km": 281.12,
    "bridge_proximity_bonus": 0.0,
    "catchment_area_km2": 3.7233,
    "channel_width_m": 5.38,
    "channel_width_score": 1.0,
    "composite_score": 54.6512,
    "cso_density": 0.0,
    "ej_index": 0.8653,
    "elevation_m": 140.0309,
    "estuary_dist_km": 333.35,
    "feasibility_score": 67.3469,
    "flood_q10_cfs": 532.87,
    "flow_score": 25.4878,
    "flow_velocity_ms": 0.1234,
    "generation_score": 56.5167,
    "impact_score": 70.7408,
    "impervious_pct": 3.54,
    "land_ownership": 1.0,
    "lat": 36.3938,
    "litter_complaint_density": 0.0,
    "lon": -79.3512,
    "navigable_dist_m": null,
    "npdes_points": 0,
    "pixel_col": 285.0,
    "pixel_row": 662.0,
    "population_density": 157.4,
    "position_along": 0.5,
    "protected_area_score": 2.9294,
    "rank": 2,
    "road_access_m": 591.2,
    "road_access_score": 0.6,
    "road_density_km_km2": 1.519,
    "robustness_pct": 90.0,
    "runoff_coeff_C": 0.0819,
    "seasonal_cv": 0.394,
    "segment_id": 8,
    "segment_length_m": 2635.986,
    "stream_order": 3,
    "superfund_score": 0.0045,
    "tourism_amenity_density": 0.3183,
    "tri_facility_density": 0.0,
    "usgs_mean_q_cfs": 2.059,
    "velocity_feasibility": 0.7,
    "water_intake_score": 1.3384
   },
   "type": "Feature"
  },
  {
   "geometry": {
    "coordinates": [
     -79.322639,
     36.411274
    ],
    "type": "Point"
   },
   "properties": {
    "accumulation": 40643.0,
    "bank_slope_deg": 2.0,
    "bank_slope_score": 1.0,
    "bank_slope_source": "nc-dps-lidar-dem03-cross-section",
    "beach_dist_km": 281.51,
    "bridge_proximity_bonus": 0.0,
    "catchment_area_km2": 4.053,
    "channel_width_m": 5.58,
    "channel_width_score": 1.0,
    "composite_score": 52.8976,
    "cso_density": 0.0,
    "ej_index": 0.6564,
    "elevation_m": 156.8949,
    "estuary_dist_km": 331.9,
    "feasibility_score": 45.9184,
    "flood_q10_cfs": 620.1,
    "flow_score": 29.8977,
    "flow_velocity_ms": 0.1447,
    "generation_score": 62.8886,
    "impact_score": 65.5629,
    "impervious_pct": 8.55,
    "land_ownership": 0.5,
    "lat": 36.4113,
    "litter_complaint_density": 0.0,
    "lon": -79.3226,
    "navigable_dist_m": null,
    "npdes_points": 0,
    "pixel_col": 538.0,
    "pixel_row": 460.0,
    "population_density": 71.9,
    "position_along": 0.1667,
    "protected_area_score": 3.2502,
    "rank": 3,
    "road_access_m": 529.3,
    "road_access_score": 0.6,
    "road_density_km_km2": 1.991,
    "robustness_pct": 72.5,
    "runoff_coeff_C": 0.127,
    "seasonal_cv": 0.3943,
    "segment_id": 5,
    "segment_length_m": 4774.2081,
    "stream_order": 3,
    "superfund_score": 0.0022,
    "tourism_amenity_density": 2.069,
    "tri_facility_density": 0.0,
    "usgs_mean_q_cfs": 3.451,
    "velocity_feasibility": 0.7,
    "water_intake_score": 1.1196
   },
   "type": "Feature"
  },
  {
   "geometry": {
    "coordinates": [
     -79.299077,
     36.399702
    ],
    "type": "Point"
   },
   "properties": {
    "accumulation": 224429.0,
    "bank_slope_deg": 33.28,
    "bank_slope_score": 0.2,
    "bank_slope_source": "nc-dps-lidar-dem03-cross-section",
    "beach_dist_km": 279.34,
    "bridge_proximity_bonus": 0.0,
    "catchment_area_km2": 22.3806,
    "channel_width_m": 11.33,
    "channel_width_score": 1.0,
    "composite_score": 51.7191,
    "cso_density": 0.0,
    "ej_index": 0.7469,
    "elevation_m": 126.476,
    "estuary_dist_km": 329.44,
    "feasibility_score": 75.5102,
    "flood_q10_cfs": 1598.13,
    "flow_score": 72.0,
    "flow_velocity_ms": 0.5,
    "generation_score": 8.7606,
    "impact_score": 65.8814,
    "impervious_pct": null,
    "land_ownership": 1.0,
    "lat": 36.3997,
    "litter_complaint_density": 0.0,
    "lon": -79.2991,
    "navigable_dist_m": null,
    "npdes_points": 0,
    "pixel_col": 749.0,
    "pixel_row": 584.0,
    "population_density": 12.5,
    "position_along": 0.5,
    "protected_area_score": 3.3319,
    "rank": 4,
    "road_access_m": 378.7,
    "road_access_score": 0.8,
    "road_density_km_km2": 0.927,
    "robustness_pct": 71.0,
    "runoff_coeff_C": null,
    "seasonal_cv": null,
    "segment_id": 15,
    "segment_length_m": 2114.5797,
    "stream_order": 3,
    "superfund_score": 0.0018,
    "tourism_amenity_density": 0.1592,
    "tri_facility_density": 0.0,
    "usgs_mean_q_cfs": null,
    "velocity_feasibility": 1.0,
    "water_intake_score": 1.1054
   },
   "type": "Feature"
  },
  {
   "geometry": {
    "coordinates": [
     -79.321022,
     36.387814
    ],
    "type": "Point"
   },
   "properties": {
    "accumulation": 153985.0,
    "bank_slope_deg": 17.31,
    "bank_slope_score": 0.5,
    "bank_slope_source": "nc-dps-lidar-dem03-cross-section",
    "beach_dist_km": 279.18,
    "bridge_proximity_bonus": 0.0,
    "catchment_area_km2": 15.3557,
    "channel_width_m": 9.69,
    "channel_width_score": 1.0,
    "composite_score": 50.1843,
    "cso_density": 0.0,
    "ej_index": 0.767,
    "elevation_m": 128.9608,
    "estuary_dist_km": 330.63,
    "feasibility_score": 58.4184,
    "flood_q10_cfs": 1310.67,
    "flow_score": 61.5861,
    "flow_velocity_ms": 0.0502,
    "generation_score": 15.2574,
    "impact_score": 71.4926,
    "impervious_pct": 0.75,
    "land_ownership": 1.0,
    "lat": 36.3878,
    "litter_complaint_density": 0.0,
    "lon": -79.321,
    "navigable_dist_m": null,
    "npdes_points": 0,
    "pixel_col": 557.0,
    "pixel_row": 724.0,
    "population_density": 40.6,
    "position_along": 0.25,
    "protected_area_score": 3.1815,
    "rank": 5,
    "road_access_m": 947.9,
    "road_access_score": 0.6,
    "road_density_km_km2": 0.682,
    "robustness_pct": 61.5,
    "runoff_coeff_C": 0.0568,
    "seasonal_cv": 0.447,
    "segment_id": 14,
    "segment_length_m": 3005.5934,
    "stream_order": 3,
    "superfund_score": 0.0028,
    "tourism_amenity_density": 0.7162,
    "tri_facility_density": 0.0,
    "usgs_mean_q_cfs": 62.924,
    "velocity_feasibility": 0.7,
    "water_intake_score": 1.2102
   },
   "type": "Feature"
  },
  {
   "geometry": {
    "coordinates": [
     -79.345594,
     36.387861
    ],
    "type": "Point"
   },
   "properties": {
    "accumulation": 23019.0,
    "bank_slope_deg": 17.98,
    "bank_slope_score": 0.5,
    "bank_slope_source": "nc-dps-lidar-dem03-cross-section",
    "beach_dist_km": 280.3,
    "bridge_proximity_bonus": 0.0,
    "catchment_area_km2": 2.2955,
    "channel_width_m": 4.4,
    "channel_width_score": 1.0,
    "composite_score": 48.4321,
    "cso_density": 0.0,
    "ej_index": 0.7839,
    "elevation_m": 132.5692,
    "estuary_dist_km": 332.61,
    "feasibility_score": 49.2347,
    "flood_q10_cfs": 347.87,
    "flow_score": 40.5098,
    "flow_velocity_ms": 0.5,
    "generation_score": 32.2261,
    "impact_score": 70.8386,
    "impervious_pct": null,
    "land_ownership": 0.5,
    "lat": 36.3879,
    "litter_complaint_density": 0.0,
    "lon": -79.3456,
    "navigable_dist_m": null,
    "npdes_points": 0,
    "pixel_col": 336.0,
    "pixel_row": 724.0,
    "population_density": 103.9,
    "position_along": 0.5,
    "protected_area_score": 2.9713,
    "rank": 6,
    "road_access_m": 603.9,
    "road_access_score": 0.6,
    "road_density_km_km2": 1.545,
    "robustness_pct": 30.5,
    "runoff_coeff_C": null,
    "seasonal_cv": null,
    "segment_id": 11,
    "segment_length_m": 569.3295,
    "stream_order": 3,
    "superfund_score": 0.0045,
    "tourism_amenity_density": 0.3183,
    "tri_facility_density": 0.0,
    "usgs_mean_q_cfs": null,
    "velocity_feasibility": 1.0,
    "water_intake_score": 1.3397
   },
   "type": "Feature"
  },
  {
   "geometry": {
    "coordinates": [
     -79.311597,
     36.419776
    ],
    "type": "Point"
   },
   "properties": {
    "accumulation": 64974.0,
    "bank_slope_deg": 7.57,
    "bank_slope_score": 1.0,
    "bank_slope_source": "nc-dps-lidar-dem03-cross-section",
    "beach_dist_km": 281.83,
    "bridge_proximity_bonus": 0.0,
    "catchment_area_km2": 6.4793,
    "channel_width_m": 6.78,
    "channel_width_score": 1.0,
    "composite_score": 48.1039,
    "cso_density": 0.0,
    "ej_index": 0.5466,
    "elevation_m": 148.8793,
    "estuary_dist_km": 331.43,
    "feasibility_score": 45.9184,
    "flood_q10_cfs": 883.11,
    "flow_score": 34.2851,
    "flow_velocity_ms": 0.1197,
    "generation_score": 62.2444,
    "impact_score": 46.5718,
    "impervious_pct": 8.55,
    "land_ownership": 0.5,
    "lat": 36.4198,
    "litter_complaint_density": 0.0,
    "lon": -79.3116,
    "navigable_dist_m": null,
    "npdes_points": 1,
    "pixel_col": 635.0,
    "pixel_row": 365.0,
    "population_density": 17.1,
    "position_along": 0.5,
    "protected_area_score": 3.0826,
    "rank": 7,
    "road_access_m": 624.8,
    "road_access_score": 0.6,
    "road_density_km_km2": 0.835,
    "robustness_pct": 37.0,
    "runoff_coeff_C": 0.127,
    "seasonal_cv": 0.3943,
    "segment_id": 5,
    "segment_length_m": 4774.2081,
    "stream_order": 3,
    "superfund_score": 0.0017,
    "tourism_amenity_density": 0.1592,
    "tri_facility_density": 0.0,
    "usgs_mean_q_cfs": 3.451,
    "velocity_feasibility": 0.7,
    "water_intake_score": 1.0513
   },
   "type": "Feature"
  },
  {
   "geometry": {
    "coordinates": [
     -79.310767,
     36.39352
    ],
    "type": "Point"
   },
   "properties": {
    "accumulation": 167167.0,
    "bank_slope_deg": 11.03,
    "bank_slope_score": 1.0,
    "bank_slope_source": "nc-dps-lidar-dem03-cross-section",
    "beach_dist_km": 279.27,
    "bridge_proximity_bonus": 0.0,
    "catchment_area_km2": 16.6703,
    "channel_width_m": 10.03,
    "channel_width_score": 1.0,
    "composite_score": 46.8726,
    "cso_density": 0.0,
    "ej_index": 0.7681,
    "elevation_m": 127.4747,
    "estuary_dist_km": 330.08,
    "feasibility_score": 30.6122,
    "flood_q10_cfs": 1371.68,
    "flow_score": 64.0445,
    "flow_velocity_ms": 0.0803,
    "generation_score": 16.669,
    "impact_score": 70.8965,
    "impervious_pct": 0.75,
    "land_ownership": 0.5,
    "lat": 36.3935,
    "litter_complaint_density": 0.0,
    "lon": -79.3108,
    "navigable_dist_m": null,
    "npdes_points": 0,
    "pixel_col": 644.0,
    "pixel_row": 655.0,
    "population_density": 27.2,
    "position_along": 0.75,
    "protected_area_score": 3.3118,
    "rank": 8,
    "road_access_m": 1527.1,
    "road_access_score": 0.3,
    "road_density_km_km2": 1.171,
    "robustness_pct": 27.5,
    "runoff_coeff_C": 0.0568,
    "seasonal_cv": 0.447,
    "segment_id": 14,
    "segment_length_m": 3005.5934,
    "stream_order": 3,
    "superfund_score": 0.0023,
    "tourism_amenity_density": 0.6366,
    "tri_facility_density": 0.0,
    "usgs_mean_q_cfs": 62.924,
    "velocity_feasibility": 0.7,
    "water_intake_score": 1.1602
   },
   "type": "Feature"
  },
  {
   "geometry": {
    "coordinates": [
     -79.301449,
     36.429138
    ],
    "type": "Point"
   },
   "properties": {
    "accumulation": 91050.0,
    "bank_slope_deg": 23.1,
    "bank_slope_score": 0.5,
    "bank_slope_source": "nc-dps-lidar-dem03-cross-section",
    "beach_dist_km": 282.29,
    "bridge_proximity_bonus": 0.0,
    "catchment_area_km2": 9.0797,
    "channel_width_m": 7.79,
    "channel_width_score": 1.0,
    "composite_score": 42.6803,
    "cso_density": 0.0,
    "ej_index": 0.5629,
    "elevation_m": 138.7928,
    "estuary_dist_km": 331.08,
    "feasibility_score": 47.1939,
    "flood_q10_cfs": 1013.01,
    "flow_score": 38.5021,
    "flow_velocity_ms": 0.1413,
    "generation_score": 43.5643,
    "impact_score": 43.0212,
    "impervious_pct": 3.17,
    "land_ownership": 0.5,
    "lat": 36.4291,
    "litter_complaint_density": 0.0,
    "lon": -79.3014,
    "navigable_dist_m": null,
    "npdes_points": 1,
    "pixel_col": 724.0,
    "pixel_row": 258.0,
    "population_density": 13.8,
    "position_along": 0.8333,
    "protected_area_score": 3.0405,
    "rank": 9,
    "road_access_m": 418.6,
    "road_access_score": 0.8,
    "road_density_km_km2": 1.188,
    "robustness_pct": 8.0,
    "runoff_coeff_C": 0.0785,
    "seasonal_cv": 0.4087,
    "segment_id": 5,
    "segment_length_m": 4774.2081,
    "stream_order": 3,
    "superfund_score": 0.0014,
    "tourism_amenity_density": 0.0796,
    "tri_facility_density": 0.0,
    "usgs_mean_q_cfs": 10.746,
    "velocity_feasibility": 0.7,
    "water_intake_score": 0.9932
   },
   "type": "Feature"
  },
  {
   "geometry": {
    "coordinates": [
     -79.335291,
     36.382824
    ],
    "type": "Point"
   },
   "properties": {
    "accumulation": 35998.0,
    "bank_slope_deg": 11.54,
    "bank_slope_score": 1.0,
    "bank_slope_source": "nc-dps-lidar-dem03-cross-section",
    "beach_dist_km": 279.35,
    "bridge_proximity_bonus": 0.0,
    "catchment_area_km2": 3.5898,
    "channel_width_m": 5.3,
    "channel_width_score": 1.0,
    "composite_score": 41.6672,
    "cso_density": 0.0,
    "ej_index": 0.7124,
    "elevation_m": 131.9966,
    "estuary_dist_km": 331.54,
    "feasibility_score": 77.551,
    "flood_q10_cfs": 490.34,
    "flow_score": 23.3759,
    "flow_velocity_ms": 0.0876,
    "generation_score": 12.9891,
    "impact_score": 67.6462,
    "impervious_pct": 0.36,
    "land_ownership": 1.0,
    "lat": 36.3828,
    "litter_complaint_density": 0.0,
    "lon": -79.3353,
    "navigable_dist_m": null,
    "npdes_points": 0,
    "pixel_col": 430.0,
    "pixel_row": 777.0,
    "population_density": 37.7,
    "position_along": 0.5,
    "protected_area_score": 3.0123,
    "rank": 10,
    "road_access_m": 472.6,
    "road_access_score": 0.8,
    "road_density_km_km2": 0.662,
    "robustness_pct": 4.5,
    "runoff_coeff_C": 0.0532,
    "seasonal_cv": 0.3976,
    "segment_id": 13,
    "segment_length_m": 2137.3907,
    "stream_order": 3,
    "superfund_score": 0.0039,
    "tourism_amenity_density": 0.1592,
    "tri_facility_density": 0.0,
    "usgs_mean_q_cfs": 4.228,
    "velocity_feasibility": 0.7,
    "water_intake_score": 1.2828
   },
   "type": "Feature"
  },
  {
   "geometry": {
    "coordinates": [
     -79.302077,
     36.379096
    ],
    "type": "Point"
   },
   "properties": {
    "accumulation": 30443.0,
    "bank_slope_deg": 25.15,
    "bank_slope_score": 0.5,
    "bank_slope_source": "nc-dps-lidar-dem03-cross-section",
    "beach_dist_km": 277.49,
    "bridge_proximity_bonus": 0.0,
    "catchment_area_km2": 3.0358,
    "channel_width_m": 4.95,
    "channel_width_score": 1.0,
    "composite_score": 40.065,
    "cso_density": 0.0,
    "ej_index": 0.75,
    "elevation_m": 128.5999,
    "estuary_dist_km": 328.68,
    "feasibility_score": 70.6633,
    "flood_q10_cfs": 429.45,
    "flow_score": 28.0594,
    "flow_velocity_ms": 0.5,
    "generation_score": 3.2982,
    "impact_score": 71.5374,
    "impervious_pct": null,
    "land_ownership": 1.0,
    "lat": 36.3791,
    "litter_complaint_density": 0.0,
    "lon": -79.3021,
    "navigable_dist_m": null,
    "npdes_points": 0,
    "pixel_col": 725.0,
    "pixel_row": 814.0,
    "population_density": 7.5,
    "position_along": 0.5,
    "protected_area_score": 3.2337,
    "rank": 11,
    "road_access_m": 595.2,
    "road_access_score": 0.6,
    "road_density_km_km2": 0.394,
    "robustness_pct": 1.5,
    "runoff_coeff_C": null,
    "seasonal_cv": null,
    "segment_id": 16,
    "segment_length_m": 1176.1803,
    "stream_order": 1,
    "superfund_score": 0.0022,
    "tourism_amenity_density": 0.2387,
    "tri_facility_density": 0.0,
    "usgs_mean_q_cfs": null,
    "velocity_feasibility": 1.0,
    "water_intake_score": 1.1642
   },
   "type": "Feature"
  },
  {
   "geometry": {
    "coordinates": [
     -79.305792,
     36.392103
    ],
    "type": "Point"
   },
   "properties": {
    "accumulation": 22077.0,
    "bank_slope_deg": 25.67,
    "bank_slope_score": 0.5,
    "bank_slope_source": "nc-dps-lidar-dem03-cross-section",
    "beach_dist_km": 278.91,
    "bridge_proximity_bonus": 0.0,
    "catchment_area_km2": 2.2016,
    "channel_width_m": 4.33,
    "channel_width_score": 1.0,
    "composite_score": 38.9377,
    "cso_density": 0.0,
    "ej_index": 0.75,
    "elevation_m": 126.8208,
    "estuary_dist_km": 329.61,
    "feasibility_score": 55.3571,
    "flood_q10_cfs": 337.09,
    "flow_score": 40.3085,
    "flow_velocity_ms": 0.5,
    "generation_score": 0.0,
    "impact_score": 68.5235,
    "impervious_pct": null,
    "land_ownership": 1.0,
    "lat": 36.3921,
    "litter_complaint_density": 0.0,
    "lon": -79.3058,
    "navigable_dist_m": null,
    "npdes_points": 0,
    "pixel_col": 689.0,
    "pixel_row": 670.0,
    "population_density": 7.5,
    "position_along": 0.5,
    "protected_area_score": 3.3029,
    "rank": 12,
    "road_access_m": 1406.8,
    "road_access_score": 0.3,
    "road_density_km_km2": 0.0,
    "robustness_pct": 0.0,
    "runoff_coeff_C": null,
    "seasonal_cv": null,
    "segment_id": 10,
    "segment_length_m": 768.0478,
    "stream_order": 3,
    "superfund_score": 0.0021,
    "tourism_amenity_density": 0.2387,
    "tri_facility_density": 0.0,
    "usgs_mean_q_cfs": null,
    "velocity_feasibility": 1.0,
    "water_intake_score": 1.1475
   },
   "type": "Feature"
  },
  {
   "geometry": {
    "coordinates": [
     -79.29413,
     36.443604
    ],
    "type": "Point"
   },
   "properties": {
    "accumulation": 138421.0,
    "bank_slope_deg": 17.23,
    "bank_slope_score": 0.5,
    "bank_slope_source": "nc-dps-lidar-dem03-cross-section",
    "beach_dist_km": 283.37,
    "bridge_proximity_bonus": 0.0,
    "catchment_area_km2": 13.8036,
    "channel_width_m": 9.27,
    "channel_width_score": 1.0,
    "composite_score": 33.774,
    "cso_density": 0.0,
    "ej_index": 0.555,
    "elevation_m": 131.2545,
    "estuary_dist_km": 331.22,
    "feasibility_score": 36.9898,
    "flood_q10_cfs": 1277.56,
    "flow_score": 46.5985,
    "flow_velocity_ms": 0.1777,
    "generation_score": 18.7575,
    "impact_score": 36.4955,
    "impervious_pct": 3.17,
    "land_ownership": 0.5,
    "lat": 36.4436,
    "litter_complaint_density": 0.0,
    "lon": -79.2941,
    "navigable_dist_m": null,
    "npdes_points": 0,
    "pixel_col": 787.0,
    "pixel_row": 99.0,
    "population_density": 14.0,
    "position_along": 0.5,
    "protected_area_score": 2.97,
    "rank": 13,
    "road_access_m": 619.0,
    "road_access_score": 0.6,
    "road_density_km_km2": 0.609,
    "robustness_pct": 0.0,
    "runoff_coeff_C": 0.0785,
    "seasonal_cv": 0.4087,
    "segment_id": 6,
    "segment_length_m": 2895.7463,
    "stream_order": 3,
    "superfund_score": 0.0011,
    "tourism_amenity_density": 0.0796,
    "tri_facility_density": 0.0,
    "usgs_mean_q_cfs": 10.746,
    "velocity_feasibility": 0.7,
    "water_intake_score": 0.922
   },
   "type": "Feature"
  },
  {
   "geometry": {
    "coordinates": [
     -79.286124,
     36.411511
    ],
    "type": "Point"
   },
   "properties": {
    "accumulation": 38258.0,
    "bank_slope_deg": 18.51,
    "bank_slope_score": 0.5,
    "bank_slope_source": "nc-dps-lidar-dem03-cross-section",
    "beach_dist_km": 279.91,
    "bridge_proximity_bonus": 0.0,
    "catchment_area_km2": 3.8152,
    "channel_width_m": 5.44,
    "channel_width_score": 1.0,
    "composite_score": 33.5543,
    "cso_density": 0.0,
    "ej_index": 0.75,
    "elevation_m": 125.2356,
    "estuary_dist_km": 328.98,
    "feasibility_score": 49.2347,
    "flood_q10_cfs": 510.14,
    "flow_score": 29.634,
    "flow_velocity_ms": 0.5,
    "generation_score": 1.4314,
    "impact_score": 61.1038,
    "impervious_pct": null,
    "land_ownership": 0.5,
    "lat": 36.4115,
    "litter_complaint_density": 0.0,
    "lon": -79.2861,
    "navigable_dist_m": null,
    "npdes_points": 0,
    "pixel_col": 864.0,
    "pixel_row": 451.0,
    "population_density": 7.5,
    "position_along": 0.5,
    "protected_area_score": 3.2364,
    "rank": 14,
    "road_access_m": 797.3,
    "road_access_score": 0.6,
    "road_density_km_km2": 0.171,
    "robustness_pct": 0.0,
    "runoff_coeff_C": null,
    "seasonal_cv": null,
    "segment_id": 7,
    "segment_length_m": 2220.7061,
    "stream_order": 1,
    "superfund_score": 0.0014,
    "tourism_amenity_density": 0.0796,
    "tri_facility_density": 0.0,
    "usgs_mean_q_cfs": null,
    "velocity_feasibility": 1.0,
    "water_intake_score": 1.0507
   },
   "type": "Feature"
  },
  {
   "geometry": {
    "coordinates": [
     -79.300193,
     36.434887
    ],
    "type": "Point"
   },
   "properties": {
    "accumulation": 20645.0,
    "bank_slope_deg": 21.99,
    "bank_slope_score": 0.5,
    "bank_slope_source": "nc-dps-lidar-dem03-cross-section",
    "beach_dist_km": 282.79,
    "bridge_proximity_bonus": 0.0,
    "catchment_area_km2": 2.0588,
    "channel_width_m": 4.21,
    "channel_width_score": 1.0,
    "composite_score": 31.3591,
    "cso_density": 0.0,
    "ej_index": 0.4927,
    "elevation_m": 137.3084,
    "estuary_dist_km": 331.27,
    "feasibility_score": 49.2347,
    "flood_q10_cfs": 320.48,
    "flow_score": 40.0,
    "flow_velocity_ms": 0.5,
    "generation_score": 8.7695,
    "impact_score": 37.81,
    "impervious_pct": null,
    "land_ownership": 0.5,
    "lat": 36.4349,
    "litter_complaint_density": 0.0,
    "lon": -79.3002,
    "navigable_dist_m": null,
    "npdes_points": 0,
    "pixel_col": 735.0,
    "pixel_row": 196.0,
    "population_density": 16.1,
    "position_along": 0.5,
    "protected_area_score": 3.0083,
    "rank": 15,
    "road_access_m": 569.8,
    "road_access_score": 0.6,
    "road_density_km_km2": 0.842,
    "robustness_pct": 0.0,
    "runoff_coeff_C": null,
    "seasonal_cv": null,
    "segment_id": 1,
    "segment_length_m": 367.4784,
    "stream_order": 3,
    "superfund_score": 0.0013,
    "tourism_amenity_density": 0.0796,
    "tri_facility_density": 0.0,
    "usgs_mean_q_cfs": null,
    "velocity_feasibility": 1.0,
    "water_intake_score": 0.9645
   },
   "type": "Feature"
  },
  {
   "geometry": {
    "coordinates": [
     -79.372734,
     36.396185
    ],
    "type": "Point"
   },
   "properties": {
    "accumulation": 26118.0,
    "bank_slope_deg": 9.54,
    "bank_slope_score": 1.0,
    "bank_slope_source": "nc-dps-lidar-dem03-cross-section",
    "beach_dist_km": 282.34,
    "bridge_proximity_bonus": 0.0,
    "catchment_area_km2": 2.6045,
    "channel_width_m": 4.64,
    "channel_width_score": 1.0,
    "composite_score": 24.5925,
    "cso_density": 0.0,
    "ej_index": 0.6389,
    "elevation_m": 147.1116,
    "estuary_dist_km": 335.2,
    "feasibility_score": 29.5918,
    "flood_q10_cfs": 393.27,
    "flow_score": 6.3591,
    "flow_velocity_ms": 0.0359,
    "generation_score": 6.4749,
    "impact_score": 55.405,
    "impervious_pct": 1.57,
    "land_ownership": 0.5,
    "lat": 36.3962,
    "litter_complaint_density": 0.0,
    "lon": -79.3727,
    "navigable_dist_m": null,
    "npdes_points": 0,
    "pixel_col": 91.0,
    "pixel_row": 639.0,
    "population_density": 8.6,
    "position_along": 0.5,
    "protected_area_score": 2.712,
    "rank": 16,
    "road_access_m": 871.0,
    "road_access_score": 0.6,
    "road_density_km_km2": 0.016,
    "robustness_pct": 0.0,
    "runoff_coeff_C": 0.0641,
    "seasonal_cv": 0.3941,
    "segment_id": 9,
    "segment_length_m": 1040.8052,
    "stream_order": 1,
    "superfund_score": 0.0064,
    "tourism_amenity_density": 0.0796,
    "tri_facility_density": 0.0,
    "usgs_mean_q_cfs": 2.478,
    "velocity_feasibility": 0.3,
    "water_intake_score": 1.3008
   },
   "type": "Feature"
  },
  {
   "geometry": {
    "coordinates": [
     -79.333532,
     36.446789
    ],
    "type": "Point"
   },
   "properties": {
    "accumulation": 76722.0,
    "bank_slope_deg": 13.09,
    "bank_slope_score": 1.0,
    "bank_slope_source": "nc-dps-lidar-dem03-cross-section",
    "beach_dist_km": 285.42,
    "bridge_proximity_bonus": 0.0,
    "catchment_area_km2": 7.6509,
    "channel_width_m": 7.26,
    "channel_width_score": 1.0,
    "composite_score": 23.8825,
    "cso_density": 0.0,
    "ej_index": 0.3333,
    "elevation_m": 141.6443,
    "estuary_dist_km": 334.53,
    "feasibility_score": 56.1224,
    "flood_q10_cfs": 889.11,
    "flow_score": 20.8378,
    "flow_velocity_ms": 0.1309,
    "generation_score": 13.7679,
    "impact_score": 20.4144,
    "impervious_pct": 1.78,
    "land_ownership": 0.5,
    "lat": 36.4468,
    "litter_complaint_density": 0.0,
    "lon": -79.3335,
    "navigable_dist_m": null,
    "npdes_points": 0,
    "pixel_col": 430.0,
    "pixel_row": 67.0,
    "population_density": 21.5,
    "position_along": 0.75,
    "protected_area_score": 2.857,
    "rank": 17,
    "road_access_m": 351.6,
    "road_access_score": 0.8,
    "road_density_km_km2": 0.481,
    "robustness_pct": 0.0,
    "runoff_coeff_C": 0.066,
    "seasonal_cv": 0.4072,
    "segment_id": 2,
    "segment_length_m": 3995.7585,
    "stream_order": 1,
    "superfund_score": 0.0015,
    "tourism_amenity_density": 0.3183,
    "tri_facility_density": 0.0,
    "usgs_mean_q_cfs": 10.136,
    "velocity_feasibility": 0.7,
    "water_intake_score": 0.9008
   },
   "type": "Feature"
  },
  {
   "geometry": {
    "coordinates": [
     -79.344076,
     36.437664
    ],
    "type": "Point"
   },
   "properties": {
    "accumulation": 27894.0,
    "bank_slope_deg": 18.76,
    "bank_slope_score": 0.5,
    "bank_slope_source": "nc-dps-lidar-dem03-cross-section",
    "beach_dist_km": 285.01,
    "bridge_proximity_bonus": 0.0,
    "catchment_area_km2": 2.7817,
    "channel_width_m": 4.77,
    "channel_width_score": 1.0,
    "composite_score": 23.575,
    "cso_density": 0.0,
    "ej_index": 0.3333,
    "elevation_m": 153.6685,
    "estuary_dist_km": 334.92,
    "feasibility_score": 58.4184,
    "flood_q10_cfs": 414.78,
    "flow_score": 11.1322,
    "flow_velocity_ms": 0.1232,
    "generation_score": 16.522,
    "impact_score": 23.5752,
    "impervious_pct": 1.78,
    "land_ownership": 1.0,
    "lat": 36.4377,
    "litter_complaint_density": 0.0,
    "lon": -79.3441,
    "navigable_dist_m": null,
    "npdes_points": 0,
    "pixel_col": 340.0,
    "pixel_row": 171.0,
    "population_density": 21.5,
    "position_along": 0.25,
    "protected_area_score": 2.8546,
    "rank": 18,
    "road_access_m": 627.8,
    "road_access_score": 0.6,
    "road_density_km_km2": 0.81,
    "robustness_pct": 0.0,
    "runoff_coeff_C": 0.066,
    "seasonal_cv": 0.4072,
    "segment_id": 2,
    "segment_length_m": 3995.7585,
    "stream_order": 1,
    "superfund_score": 0.0019,
    "tourism_amenity_density": 0.3183,
    "tri_facility_density": 0.0,
    "usgs_mean_q_cfs": 10.136,
    "velocity_feasibility": 0.7,
    "water_intake_score": 0.9611
   },
   "type": "Feature"
  },
  {
   "geometry": {
    "coordinates": [
     -79.369033,
     36.443726
    ],
    "type": "Point"
   },
   "properties": {
    "accumulation": 26223.0,
    "bank_slope_deg": 20.27,
    "bank_slope_score": 0.5,
    "bank_slope_source": "nc-dps-lidar-dem03-cross-section",
    "beach_dist_km": 286.72,
    "bridge_proximity_bonus": 0.0,
    "catchment_area_km2": 2.615,
    "channel_width_m": 4.65,
    "channel_width_score": 1.0,
    "composite_score": 23.3871,
    "cso_density": 0.0,
    "ej_index": 0.5682,
    "elevation_m": 140.65,
    "estuary_dist_km": 337.22,
    "feasibility_score": 57.398,
    "flood_q10_cfs": 392.26,
    "flow_score": 21.9361,
    "flow_velocity_ms": 0.0923,
    "generation_score": 17.3379,
    "impact_score": 13.6401,
    "impervious_pct": 1.25,
    "land_ownership": 0.5,
    "lat": 36.4437,
    "litter_complaint_density": 0.0,
    "lon": -79.369,
    "navigable_dist_m": null,
    "npdes_points": 0,
    "pixel_col": 111.0,
    "pixel_row": 106.0,
    "population_density": 11.6,
    "position_along": 0.5,
    "protected_area_score": 2.3386,
    "rank": 19,
    "road_access_m": 149.8,
    "road_access_score": 1.0,
    "road_density_km_km2": 1.391,
    "robustness_pct": 0.0,
    "runoff_coeff_C": 0.0612,
    "seasonal_cv": 0.3906,
    "segment_id": 0,
    "segment_length_m": 937.8115,
    "stream_order": 3,
    "superfund_score": 0.0021,
    "tourism_amenity_density": 0.0,
    "tri_facility_density": 0.0,
    "usgs_mean_q_cfs": 3.821,
    "velocity_feasibility": 0.7,
    "water_intake_score": 0.8928
   },
   "type": "Feature"
  },
  {
   "geometry": {
    "coordinates": [
     -79.376284,
     36.43611
    ],
    "type": "Point"
   },
   "properties": {
    "accumulation": 37813.0,
    "bank_slope_deg": 13.36,
    "bank_slope_score": 1.0,
    "bank_slope_source": "nc-dps-lidar-dem03-cross-section",
    "beach_dist_km": 286.32,
    "bridge_proximity_bonus": 0.0,
    "catchment_area_km2": 3.7708,
    "channel_width_m": 5.41,
    "channel_width_score": 1.0,
    "composite_score": 21.1693,
    "cso_density": 0.0,
    "ej_index": 0.6389,
    "elevation_m": 145.5359,
    "estuary_dist_km": 337.43,
    "feasibility_score": 45.9184,
    "flood_q10_cfs": 516.85,
    "flow_score": 24.6769,
    "flow_velocity_ms": 0.1074,
    "generation_score": 8.4837,
    "impact_score": 18.5572,
    "impervious_pct": 1.25,
    "land_ownership": 0.5,
    "lat": 36.4361,
    "litter_complaint_density": 0.0,
    "lon": -79.3763,
    "navigable_dist_m": null,
    "npdes_points": 0,
    "pixel_col": 50.0,
    "pixel_row": 192.0,
    "population_density": 8.6,
    "position_along": 0.5,
    "protected_area_score": 2.3284,
    "rank": 20,
    "road_access_m": 725.0,
    "road_access_score": 0.6,
    "road_density_km_km2": 0.405,
    "robustness_pct": 0.0,
    "runoff_coeff_C": 0.0612,
    "seasonal_cv": 0.3906,
    "segment_id": 3,
    "segment_length_m": 2913.2955,
    "stream_order": 3,
    "superfund_score": 0.0025,
    "tourism_amenity_density": 0.0,
    "tri_facility_density": 0.0,
    "usgs_mean_q_cfs": 3.821,
    "velocity_feasibility": 0.7,
    "water_intake_score": 0.9356
   },
   "type": "Feature"
  },
  {
   "geometry": {
    "coordinates": [
     -79.371024,
     36.449514
    ],
    "type": "Point"
   },
   "properties": {
    "accumulation": 82253.0,
    "bank_slope_deg": 21.24,
    "bank_slope_score": 0.5,
    "bank_slope_source": "nc-dps-lidar-dem03-cross-section",
    "beach_dist_km": 287.36,
    "bridge_proximity_bonus": 0.0,
    "catchment_area_km2": 8.2024,
    "channel_width_m": 7.47,
    "channel_width_score": 1.0,
    "composite_score": 21.0118,
    "cso_density": 0.0,
    "ej_index": 0.5273,
    "elevation_m": 136.6154,
    "estuary_dist_km": 337.66,
    "feasibility_score": 47.1939,
    "flood_q10_cfs": 932.12,
    "flow_score": 34.7341,
    "flow_velocity_ms": 0.1351,
    "generation_score": 9.7259,
    "impact_score": 7.7715,
    "impervious_pct": 1.22,
    "land_ownership": 0.5,
    "lat": 36.4495,
    "litter_complaint_density": 0.0,
    "lon": -79.371,
    "navigable_dist_m": null,
    "npdes_points": 0,
    "pixel_col": 96.0,
    "pixel_row": 42.0,
    "population_density": 13.3,
    "position_along": 0.5,
    "protected_area_score": 2.2894,
    "rank": 21,
    "road_access_m": 269.1,
    "road_access_score": 0.8,
    "road_density_km_km2": 0.455,
    "robustness_pct": 0.0,
    "runoff_coeff_C": 0.061,
    "seasonal_cv": 0.3985,
    "segment_id": 4,
    "segment_length_m": 748.3696,
    "stream_order": 3,
    "superfund_score": 0.0019,
    "tourism_amenity_density": 0.0,
    "tri_facility_density": 0.0,
    "usgs_mean_q_cfs": 6.903,
    "velocity_feasibility": 0.7,
    "water_intake_score": 0.849
   },
   "type": "Feature"
  }
 ],
 "note": "GRIME region 'Yanceyville, NC' \u2014 real-data pipeline (DEM\u2192streams\u2192candidates\u2192stream mask (sites confined to \u00b1150 m of mapped OSM/NHD waterways)\u2192region-appropriate real parameters\u2192shipped scoring, math unchanged). Width curve: Bieger et al. 2015 JAWRA Table 3, Appalachian Highlands. Flood: SIR 2014-5030 HR1. NC Piedmont (DEQ physiography polygon)",
 "provenance": {
  "candidates_pre_gate": 21,
  "constant": [
   "bridge_proximity_bonus",
   "channel_width_score",
   "cso_density",
   "litter_complaint_density",
   "tri_facility_density"
  ],
  "gated_navigable": 0,
  "hard_gate_removed": 0,
  "n_parameters": 27,
  "parameters": {
   "bank_slope_score": {
    "kind": "real",
    "n_3dep_10m_fallback": 0,
    "n_nc_lidar_3_125ft": 21,
    "n_real": 21,
    "n_sites": 21,
    "source": "NC OneMap / NC DPS DEM03 statewide lidar-derived 3.125-ft (0.953 m) elevations (perpendicular 50 m transect; robust 5 m bank-rise metric); unavailable profiles use the region 10 m 3DEP DEM-gradient fallback",
    "source_mosaics": [
     "Caswell_QL1_2024_03ft_CountywideRaster"
    ]
   },
   "beach_dist_km": {
    "kind": "real",
    "n_real": 21,
    "n_sites": 21,
    "source": "haversine to region ref: Wrightsville Beach (shipped NC reference)"
   },
   "bridge_proximity_bonus": {
    "kind": "real",
    "n_real": 21,
    "n_sites": 21,
    "source": "FHWA/BTS NBI (NTAD), 50 m proximity"
   },
   "catchment_area_km2": {
    "kind": "real",
    "n_real": 21,
    "n_sites": 21,
    "source": "DEM flow accumulation (pipeline)"
   },
   "channel_width_score": {
    "kind": "real",
    "n_real": 21,
    "n_sites": 21,
    "source": "Bieger 2015 AHI width curve on DEM drainage area \u2192 shipped width curve"
   },
   "cso_density": {
    "kind": "real",
    "n_real": 21,
    "n_sites": 21,
    "source": "EPA ECHO open CSO/TCS outfall PF coordinates states=NC, Cauchy proximity"
   },
   "ej_index": {
    "kind": "real",
    "n_real": 21,
    "n_sites": 21,
    "source": "Census ACS C17002+B03002 two-component demographic index, percentile-ranked within region"
   },
   "estuary_dist_km": {
    "kind": "real",
    "n_real": 21,
    "n_sites": 21,
    "source": "haversine to region ref: Pamlico Sound (shipped NC reference)"
   },
   "flood_q10_cfs": {
    "impervious_fallback_reason": "StreamCat imperviousness unavailable; the existing regression-input fallback of 0.0% impervious was used and is disclosed here",
    "kind": "real",
    "n_impervious_fallback": 7,
    "n_real": 21,
    "n_sites": 21,
    "source": "USGS SIR 2014-5030 Table 7 HR1 (NC Piedmont)"
   },
   "flow_velocity_ms": {
    "fallback_reason": "EROM/DEM continuity input unavailable; shipped 0.5 m/s default used",
    "kind": "real",
    "n_fallback": 7,
    "n_real": 14,
    "n_sites": 21,
    "source": "Manning (region DEM/D8) blended with EROM continuity (shipped M4 logic)"
   },
   "impervious_pct": {
    "fallback_reason": "NLDI/StreamCat did not return a snap-compatible catchment value; value remains null and is removed by constant-column handling",
    "kind": "real",
    "n_fallback": 7,
    "n_real": 14,
    "n_sites": 21,
    "source": "EPA StreamCat pctimp2019 (per NHDPlus watershed)"
   },
   "land_ownership": {
    "kind": "real",
    "n_fallback": 0,
    "n_real": 21,
    "n_sites": 21,
    "source": "NC OneMap statewide parcels (NC Parcels Transformer) ownname"
   },
   "litter_complaint_density": {
    "kind": "fallback",
    "n_real": 0,
    "n_sites": 21,
    "source": "no public machine-readable litter/illegal-dumping feed for this region"
   },
   "navigable_dist_m": {
    "kind": "real",
    "n_real": 21,
    "n_sites": 21,
    "source": "USACE/BTS NWN (NTAD): no navigable segment within this bbox (+2 km) \u2014 computed absence, gate passes all sites"
   },
   "npdes_points": {
    "kind": "real",
    "n_real": 21,
    "n_sites": 21,
    "source": "EPA ECHO active NPDES outfalls states=NC (types NPD/GPC/NGP; statuses ADC/EFF/EXP), per catchment"
   },
   "population_density": {
    "kind": "real",
    "n_real": 21,
    "n_sites": 21,
    "source": "Census ACS 2022 B01003 block groups (bbox, multi-county), area-weighted"
   },
   "protected_area_score": {
    "kind": "real",
    "n_real": 21,
    "n_sites": 21,
    "source": "USGS PAD-US 4.1 state GDB; states=NC; shipped designation-weighted proximity curve"
   },
   "road_access_score": {
    "kind": "real",
    "n_real": 21,
    "n_sites": 21,
    "source": "OSM drive network nearest-node distance"
   },
   "road_density_km_km2": {
    "kind": "real",
    "n_real": 21,
    "n_sites": 21,
    "source": "OSM drive network (osmnx, cached) clipped per catchment"
   },
   "runoff_coeff_C": {
    "fallback_reason": "source impervious_pct was unavailable; derived value remains null",
    "kind": "real",
    "n_fallback": 7,
    "n_real": 14,
    "n_sites": 21,
    "source": "derived from real impervious_pct (C=0.05+0.009*I)"
   },
   "seasonal_cv": {
    "fallback_reason": "NHDPlus monthly EROM was unavailable or failed the drainage-area snap guard; value remains null",
    "kind": "real",
    "n_fallback": 7,
    "n_real": 14,
    "n_sites": 21,
    "source": "CV of NHDPlus EROM monthly flows per COMID"
   },
   "stream_order": {
    "kind": "real",
    "n_real": 21,
    "n_sites": 21,
    "source": "DEM stream-network confluence heuristic (pipeline)"
   },
   "superfund_score": {
    "kind": "real",
    "n_real": 21,
    "n_sites": 21,
    "source": "EPA DataMap SEMS active sites states=NC (non-archived, georeferenced), shipped 500 m inverse-distance curve"
   },
   "tourism_amenity_density": {
    "kind": "real",
    "n_real": 21,
    "n_sites": 21,
    "source": "OSM leisure/tourism features per 2 km radius"
   },
   "tri_facility_density": {
    "kind": "real",
    "n_real": 21,
    "n_sites": 21,
    "source": "EPA DataMap TRI open facilities states=NC (preferred decimal or packed-DMS recovery), per catchment"
   },
   "usgs_mean_q_cfs": {
    "fallback_reason": "NHDPlus EROM was unavailable or failed the drainage-area snap guard; value remains null",
    "kind": "real",
    "n_fallback": 7,
    "n_real": 14,
    "n_sites": 21,
    "source": "NHDPlus EROM qe_ma per COMID (snap-guarded)"
   },
   "velocity_feasibility": {
    "fallback_reason": "derived from the shipped 0.5 m/s velocity fallback",
    "kind": "real",
    "n_fallback": 7,
    "n_real": 14,
    "n_sites": 21,
    "source": "shipped step curve on the computed velocity"
   },
   "velocity_transport_favorability": {
    "fallback_reason": "EROM/DEM continuity input unavailable; shipped 0.5 m/s default used",
    "kind": "derived",
    "n_fallback": 7,
    "n_real": 14,
    "n_sites": 21,
    "source": "scored form of flow_velocity_ms inside the Flow family \u2014 peaked Gaussian exp(-((v-0.9)/0.6)^2), model.json curves.velocity_transport_favorability; construct: transport/delivery favorability, deliberately distinct from velocity_feasibility (device operability)"
   },
   "water_intake_score": {
    "kind": "real",
    "n_real": 21,
    "n_sites": 21,
    "source": "NC OneMap / NC DEQ SWAP public water supply sources (source_typ='Surface Water'), shipped exp(-d/10km) curve"
   }
  },
  "stream_mask": {
   "buffer_m": 150.0,
   "pre_mask": 21,
   "removed": 0,
   "sources": [
    "osm-overpass (all waterway ways)",
    "usgs-nhdplus flowlines"
   ]
  },
  "varying": [
   "bank_slope_score",
   "beach_dist_km",
   "catchment_area_km2",
   "ej_index",
   "estuary_dist_km",
   "flood_q10_cfs",
   "flow_velocity_ms",
   "impervious_pct",
   "land_ownership",
   "npdes_points",
   "population_density",
   "protected_area_score",
   "road_access_score",
   "road_density_km_km2",
   "runoff_coeff_C",
   "seasonal_cv",
   "stream_order",
   "superfund_score",
   "tourism_amenity_density",
   "usgs_mean_q_cfs",
   "velocity_feasibility",
   "water_intake_score"
  ]
 },
 "region": {
  "bbox": [
   -79.3815,
   36.3682,
   -79.2772,
   36.4522
  ],
  "beach_ref": {
   "label": "Wrightsville Beach (shipped NC reference)",
   "lat": 34.21,
   "lon": -77.79
  },
  "center": [
   -79.329357,
   36.4102
  ],
  "estuary_ref": {
   "label": "Pamlico Sound (shipped NC reference)",
   "lat": 35.05,
   "lon": -76.05
  },
  "flood_method": "sir2014_hr1",
  "name": "Yanceyville, NC",
  "notes": "NC Piedmont (DEQ physiography polygon)",
  "slug": "yanceyville",
  "state": "NC",
  "utm_epsg": 32617,
  "width_curve": {
   "a": 3.12,
   "b": 0.415,
   "code": "AHI",
   "source": "Bieger et al. 2015 JAWRA Table 3, Appalachian Highlands"
  }
 },
 "type": "FeatureCollection"
}
